{"type":"FeatureCollection","features":[{"type":"Feature","properties":{"id":"AFG-BDS","nome":"Badakhshan","pais":"AFG","tipo":"Province","lat":36.78,"lng":70.8},"geometry":{"type":"Polygon","coordinates":[[[74.79,37.21],[74.72,37.3],[74.37,37.17],[74.55,37.02],[74.54,36.96],[74.39,36.99],[74.04,36.82],[73.77,36.89],[73.19,36.88],[72.63,36.83],[72.17,36.71],[72.17,36.65],[71.77,36.48],[71.78,36.4],[71.61,36.46],[71.56,36.33],[71.22,36.13],[70.97,35.78],[71.01,35.7],[70.88,35.63],[70.86,35.48],[70.69,35.54],[70.58,35.44],[70.48,35.67],[70.23,35.67],[70.27,35.85],[70.46,35.97],[70.43,36.04],[70.47,36.28],[70.22,36.33],[70.04,36.46],[70,36.62],[70.01,36.92],[70.12,37.04],[70.03,37.14],[70,37.53],[70.16,37.54],[70.28,37.7],[70.17,37.95],[70.26,37.94],[70.47,38.12],[70.66,38.41],[70.94,38.43],[70.95,38.47],[71.36,38.25],[71.26,37.93],[71.34,37.89],[71.54,37.94],[71.6,37.9],[71.53,37.76],[71.43,37.07],[71.55,36.77],[71.65,36.69],[71.84,36.7],[72.26,36.97],[72.66,37.03],[72.79,37.22],[73.07,37.32],[73.3,37.46],[73.75,37.43],[73.74,37.34],[73.6,37.26],[73.71,37.22],[74.19,37.34],[74.32,37.43],[74.66,37.39],[74.89,37.23],[74.79,37.21]]]}},{"type":"Feature","properties":{"id":"AFG-TAK","nome":"Takhar","pais":"AFG","tipo":"Province","lat":36.83,"lng":69.81},"geometry":{"type":"Polygon","coordinates":[[[69.9,37.62],[70,37.55],[70.03,37.14],[70.12,37.04],[70.01,36.92],[70.04,36.46],[70.24,36.32],[70.46,36.3],[70.48,36.18],[70.46,35.96],[70.27,35.85],[70.18,35.89],[70.14,35.83],[69.98,35.79],[69.68,36.35],[69.3,36.23],[69.15,36.48],[69.26,36.61],[69.21,36.72],[69.22,36.79],[69.3,36.85],[69.31,37.12],[69.44,37.22],[69.38,37.45],[69.53,37.59],[69.9,37.62]]]}},{"type":"Feature","properties":{"id":"AFG-KDZ","nome":"Kunduz","pais":"AFG","tipo":"Province","lat":36.9,"lng":68.68},"geometry":{"type":"Polygon","coordinates":[[[69.25,37.1],[69.34,37.08],[69.29,36.82],[69.22,36.79],[69.26,36.61],[69.15,36.49],[69.22,36.3],[68.99,36.42],[68.85,36.41],[68.72,36.53],[68.21,36.58],[68.04,36.82],[68.02,36.93],[68.19,37.02],[68.28,37.01],[68.29,37.1],[68.63,37.21],[68.67,37.28],[68.82,37.25],[68.84,37.33],[68.9,37.28],[68.89,37.34],[68.99,37.32],[69.25,37.1]]]}},{"type":"Feature","properties":{"id":"AFG-BAL","nome":"Balkh","pais":"AFG","tipo":"Province","lat":36.69,"lng":67.22},"geometry":{"type":"Polygon","coordinates":[[[67.78,37.19],[67.79,37.1],[68.02,36.93],[68.04,36.82],[68.19,36.59],[68.08,36.56],[67.69,36.65],[67.49,36.64],[67.37,36.56],[67.42,36.47],[67.33,36.21],[67.07,36.06],[67.12,35.93],[66.9,35.72],[66.51,35.67],[66.63,35.88],[66.6,36.16],[66.46,36.22],[66.68,36.55],[66.47,36.64],[66.42,36.75],[66.57,36.8],[66.46,36.99],[66.5,37.11],[66.4,37.26],[66.26,37.3],[66.25,37.36],[66.45,37.32],[66.54,37.37],[67.01,37.38],[67.26,37.19],[67.5,37.28],[67.56,37.22],[67.63,37.25],[67.78,37.19]]]}},{"type":"Feature","properties":{"id":"AFG-JOW","nome":"Jawzjan","pais":"AFG","tipo":"Province","lat":36.9,"lng":65.96},"geometry":{"type":"Polygon","coordinates":[[[65.76,37.58],[66.41,37.25],[66.5,37.11],[66.46,36.99],[66.57,36.8],[66.42,36.74],[66.53,36.59],[66.07,36.54],[65.71,36.36],[65.53,36.34],[65.49,36.1],[65.53,35.98],[65.67,35.97],[65.42,35.91],[65.14,35.94],[65.1,35.99],[65.18,36.05],[65.25,36.35],[65.48,36.39],[65.45,36.58],[65.39,36.62],[65.44,36.76],[65.34,36.91],[65.34,37],[65.49,37.24],[65.62,37.35],[65.66,37.51],[65.76,37.58]]]}},{"type":"Feature","properties":{"id":"AFG-FYB","nome":"Faryab","pais":"AFG","tipo":"Province","lat":35.8,"lng":64.77},"geometry":{"type":"Polygon","coordinates":[[[64.73,36.85],[64.81,37.14],[65.06,37.23],[65.49,37.24],[65.33,36.95],[65.44,36.76],[65.39,36.62],[65.45,36.58],[65.48,36.39],[65.25,36.35],[65.18,36.05],[65.1,35.97],[65.42,35.91],[65.53,35.96],[65.58,35.93],[65.73,36.02],[65.82,35.84],[65.68,35.79],[65.62,35.68],[65.48,35.65],[65.41,35.42],[65.45,35.25],[65.38,35.2],[65.27,35.19],[65.13,35.26],[64.63,35.2],[64.42,35.24],[64.42,35.41],[64.3,35.4],[64.25,35.47],[64.02,35.49],[63.99,35.65],[63.89,35.71],[63.95,35.94],[63.91,36.03],[64.05,36],[64.06,36.11],[64.27,36.15],[64.5,36.29],[64.61,36.46],[64.6,36.66],[64.73,36.85]]]}},{"type":"Feature","properties":{"id":"AFG-BDG","nome":"Badghis","pais":"AFG","tipo":"Province","lat":35.27,"lng":63.85},"geometry":{"type":"Polygon","coordinates":[[[63.34,35.86],[63.58,35.96],[63.94,36.02],[63.89,35.72],[63.99,35.65],[64,35.5],[64.25,35.47],[64.3,35.4],[64.42,35.42],[64.41,35.24],[64.73,35.21],[64.87,35.13],[65.04,34.95],[65.01,34.79],[64.71,34.69],[64.2,34.68],[64.01,34.56],[63.79,34.51],[63.36,34.63],[63.03,34.65],[62.99,34.73],[62.67,34.84],[62.67,35.04],[62.82,35.33],[63.08,35.44],[63.08,35.62],[63.21,35.69],[63.09,35.84],[63.34,35.86]]]}},{"type":"Feature","properties":{"id":"AFG-HER","nome":"Hirat","pais":"AFG","tipo":"Province","lat":34.16,"lng":62.48},"geometry":{"type":"Polygon","coordinates":[[[62.6,35.22],[62.82,35.33],[62.69,35.09],[62.66,34.87],[62.99,34.73],[63.03,34.65],[63.36,34.63],[63.79,34.51],[64.01,34.56],[64.2,34.68],[64.48,34.67],[64.48,34.49],[64.2,34.47],[64.21,34.29],[64.12,34.23],[63.49,34.27],[63.39,34.07],[63.58,33.8],[63.5,33.77],[63.48,33.66],[63.07,33.53],[63.14,33.32],[63.04,33.18],[62.51,33.06],[62.38,32.98],[62.35,32.84],[62.07,32.78],[62,32.9],[61.86,32.82],[61.67,32.91],[61.68,33.01],[61.84,33.16],[61.76,33.27],[61.85,33.48],[61.55,33.52],[61.45,33.46],[61.16,33.46],[60.66,33.56],[60.51,33.64],[60.49,34.14],[60.64,34.31],[60.89,34.32],[60.7,34.52],[60.95,34.64],[60.96,34.72],[61.07,34.81],[61.15,35.1],[61.1,35.26],[61.19,35.3],[61.29,35.55],[61.27,35.62],[61.35,35.63],[61.6,35.43],[62.01,35.44],[62.23,35.29],[62.29,35.14],[62.43,35.28],[62.6,35.22]]]}},{"type":"Feature","properties":{"id":"AFG-NIM","nome":"Nimroz","pais":"AFG","tipo":"Province","lat":30.75,"lng":62.21},"geometry":{"type":"Polygon","coordinates":[[[60.84,29.86],[61.8,30.85],[61.83,31.03],[61.75,31.3],[61.61,31.39],[61.61,31.52],[61.67,31.52],[61.67,31.6],[61.89,31.79],[61.98,32.02],[62.54,32.07],[62.74,31.93],[63.03,32.02],[63.16,32.25],[63.53,32.2],[63.57,32.08],[63.41,31.8],[63.32,31.32],[63.34,31.13],[63.14,30.94],[63.16,30.77],[63.06,30.68],[63.09,30.52],[62.77,30.2],[62.6,29.42],[62.37,29.42],[60.84,29.86]]]}},{"type":"Feature","properties":{"id":"AFG-FRA","nome":"Farah","pais":"AFG","tipo":"Province","lat":32.53,"lng":62.65},"geometry":{"type":"Polygon","coordinates":[[[61.61,31.39],[60.82,31.49],[60.77,32.03],[60.83,32.25],[60.56,33.14],[60.83,33.42],[60.83,33.48],[61.44,33.46],[61.55,33.52],[61.85,33.48],[61.76,33.27],[61.84,33.16],[61.68,33.01],[61.67,32.91],[61.86,32.82],[62,32.9],[62.06,32.78],[62.35,32.84],[62.38,32.98],[62.51,33.06],[63.01,33.15],[63.14,33.32],[63.55,33.34],[63.93,33.51],[64.01,33.49],[64.11,33.28],[64.23,33.16],[64.4,33.14],[64.38,33.18],[64.55,33.32],[64.74,33.21],[64.56,33.01],[64.57,32.91],[64.4,32.85],[64.27,32.72],[64.29,32.63],[64.01,32.57],[64.02,32.45],[63.83,32.32],[63.73,32.32],[63.53,32.2],[63.16,32.25],[63.03,32.02],[62.74,31.93],[62.54,32.07],[61.98,32.02],[61.89,31.79],[61.67,31.6],[61.67,31.52],[61.61,31.52],[61.61,31.39]]]}},{"type":"Feature","properties":{"id":"AFG-KNR","nome":"Kunar","pais":"AFG","tipo":"Province","lat":34.9,"lng":71.11},"geometry":{"type":"Polygon","coordinates":[[[71.45,34.94],[71.29,34.88],[71.08,34.67],[71.07,34.56],[70.74,34.53],[70.77,34.58],[70.65,34.63],[70.67,34.75],[70.57,34.99],[70.65,35.13],[70.85,35.07],[71.11,35.1],[71.21,35.3],[71.44,35.34],[71.59,35.46],[71.62,35.41],[71.53,35.3],[71.64,35.19],[71.45,34.94]]]}},{"type":"Feature","properties":{"id":"AFG-NUR","nome":"Nuristan","pais":"AFG","tipo":"Province","lat":35.29,"lng":70.76},"geometry":{"type":"Polygon","coordinates":[[[71.17,36.03],[71.43,35.84],[71.52,35.68],[71.48,35.63],[71.59,35.55],[71.58,35.45],[71.44,35.34],[71.21,35.3],[71.11,35.1],[70.85,35.07],[70.65,35.13],[70.56,34.97],[70.39,34.9],[70.26,34.94],[70.15,35.09],[70.03,35.11],[69.92,35.36],[70.16,35.5],[70.23,35.67],[70.48,35.67],[70.55,35.57],[70.54,35.45],[70.69,35.54],[70.86,35.48],[70.88,35.63],[71.01,35.7],[70.97,35.78],[71.17,36.03]]]}},{"type":"Feature","properties":{"id":"AFG-NAN","nome":"Nangarhar","pais":"AFG","tipo":"Province","lat":34.22,"lng":70.3},"geometry":{"type":"Polygon","coordinates":[[[70.98,34.56],[70.97,34.47],[71.12,34.36],[71.11,34.17],[71.06,34.05],[70.86,33.96],[70.49,33.94],[69.91,34.04],[69.73,34.25],[69.49,34.16],[69.66,34.39],[70.06,34.41],[70.35,34.49],[70.42,34.56],[70.41,34.65],[70.59,34.79],[70.66,34.77],[70.65,34.63],[70.77,34.58],[70.74,34.53],[70.98,34.56]]]}},{"type":"Feature","properties":{"id":"AFG-KHO","nome":"Khost","pais":"AFG","tipo":"Province","lat":33.36,"lng":69.82},"geometry":{"type":"Polygon","coordinates":[[[70,33.74],[70.12,33.72],[70.17,33.63],[70.15,33.51],[70.29,33.32],[69.88,33.09],[69.55,33.08],[69.48,33.01],[69.35,33.04],[69.41,33.27],[69.55,33.4],[69.58,33.55],[69.8,33.6],[70,33.74]]]}},{"type":"Feature","properties":{"id":"AFG-PKA","nome":"Paktya","pais":"AFG","tipo":"Province","lat":33.58,"lng":69.38},"geometry":{"type":"Polygon","coordinates":[[[69.91,34.04],[69.84,33.94],[69.99,33.71],[69.58,33.55],[69.55,33.4],[69.4,33.24],[69.21,33.28],[69,33.15],[68.95,33.4],[68.77,33.39],[68.77,33.61],[69.01,33.61],[69.52,34.04],[69.71,34.01],[69.82,34.08],[69.91,34.04]]]}},{"type":"Feature","properties":{"id":"AFG-PIA","nome":"Paktika","pais":"AFG","tipo":"Province","lat":32.51,"lng":68.65},"geometry":{"type":"Polygon","coordinates":[[[69.3,31.94],[69.04,31.67],[68.84,31.61],[68.78,31.62],[68.69,31.77],[68.53,31.82],[68.42,31.78],[68.55,31.75],[68.5,31.73],[68.16,31.83],[68.1,31.76],[68.01,31.87],[68.08,32],[68.08,32.45],[67.82,32.71],[67.91,32.82],[68.04,32.72],[68.23,32.77],[68.77,33.39],[68.95,33.4],[69,33.15],[69.21,33.28],[69.4,33.24],[69.35,33.04],[69.48,33.01],[69.49,32.89],[69.38,32.77],[69.43,32.66],[69.23,32.46],[69.3,31.94]]]}},{"type":"Feature","properties":{"id":"AFG-ZAB","nome":"Zabul","pais":"AFG","tipo":"Province","lat":32.4,"lng":67.14},"geometry":{"type":"Polygon","coordinates":[[[68.1,31.76],[67.75,31.54],[67.42,31.55],[67.4,31.63],[67.29,31.64],[67.19,31.76],[66.95,31.73],[66.69,31.88],[66.31,31.69],[66.18,31.84],[66.33,31.93],[66.33,32.2],[66.5,32.37],[66.54,32.51],[66.44,32.56],[66.36,32.48],[66.33,32.58],[66.56,32.76],[66.62,32.76],[66.62,32.67],[66.79,32.81],[66.99,32.83],[67.1,33],[67.08,33.06],[67.29,32.95],[67.43,33.01],[67.44,32.94],[67.38,32.9],[67.44,32.85],[67.41,32.8],[67.66,32.58],[67.59,32.51],[67.78,32.38],[67.63,32.26],[67.71,32.24],[67.72,32.16],[67.92,32.08],[68.05,32.1],[68.08,32],[68.01,31.86],[68.1,31.76]]]}},{"type":"Feature","properties":{"id":"AFG-KAN","nome":"Kandahar","pais":"AFG","tipo":"Province","lat":31.14,"lng":65.72},"geometry":{"type":"Polygon","coordinates":[[[67.75,31.54],[67.56,31.51],[67.61,31.41],[67.77,31.39],[67.76,31.33],[67.35,31.21],[67.04,31.24],[67.02,31.31],[66.91,31.31],[66.7,31.2],[66.55,30.98],[66.38,30.94],[66.27,30.6],[66.32,30.44],[66.31,30.24],[66.22,30.06],[66.34,29.96],[66.2,29.84],[65.04,29.54],[64.5,29.57],[64.66,30.42],[64.81,31.84],[64.95,32.04],[65.11,32.06],[65.24,32.32],[65.44,32.28],[65.46,32.43],[65.59,32.57],[65.72,32.57],[65.72,32.44],[65.81,32.49],[66.13,32.42],[66.19,32.47],[66.39,32.48],[66.44,32.56],[66.54,32.51],[66.5,32.37],[66.33,32.2],[66.33,31.93],[66.18,31.84],[66.31,31.69],[66.69,31.88],[66.95,31.73],[67.19,31.76],[67.29,31.64],[67.4,31.63],[67.42,31.55],[67.75,31.54]]]}},{"type":"Feature","properties":{"id":"AFG-HEL","nome":"Hilmand","pais":"AFG","tipo":"Province","lat":30.93,"lng":63.98},"geometry":{"type":"Polygon","coordinates":[[[64.5,29.57],[64.21,29.5],[64.09,29.39],[63.57,29.5],[62.6,29.42],[62.77,30.2],[63.09,30.52],[63.06,30.68],[63.16,30.77],[63.14,30.94],[63.34,31.13],[63.32,31.32],[63.41,31.8],[63.57,32.08],[63.53,32.2],[64.01,32.44],[64.01,32.57],[64.28,32.62],[64.27,32.72],[64.4,32.85],[64.58,32.91],[64.56,33.01],[64.72,33.13],[64.73,33.23],[64.82,33.2],[65.22,33.36],[65.36,33.22],[65.35,33.09],[65.18,32.9],[65.18,32.69],[65.27,32.65],[65.27,32.44],[65.11,32.06],[64.95,32.04],[64.81,31.84],[64.66,30.42],[64.5,29.57]]]}},{"type":"Feature","properties":{"id":"AFG-URU","nome":"Uruzgan","pais":"AFG","tipo":"Province","lat":32.81,"lng":66.09},"geometry":{"type":"Polygon","coordinates":[[[66.83,33.28],[67,33.23],[66.91,33.05],[66.93,32.95],[67.01,32.93],[66.99,32.83],[66.79,32.81],[66.62,32.67],[66.62,32.76],[66.56,32.76],[66.34,32.59],[66.33,32.49],[66.16,32.43],[65.81,32.49],[65.71,32.44],[65.72,32.57],[65.6,32.57],[65.46,32.43],[65.44,32.28],[65.24,32.32],[65.29,32.56],[65.27,32.65],[65.18,32.69],[65.18,32.9],[65.32,33.09],[65.49,33.08],[65.48,33.15],[65.66,33.11],[65.8,33.14],[66.05,33.06],[66.09,33.19],[66.31,33.31],[66.47,33.32],[66.56,33.24],[66.74,33.32],[66.83,33.28]]]}},{"type":"Feature","properties":{"id":"AFG-GHA","nome":"Ghazni","pais":"AFG","tipo":"Province","lat":33.41,"lng":67.8},"geometry":{"type":"Polygon","coordinates":[[[66.87,33.25],[66.83,33.28],[66.84,33.58],[67.18,33.68],[67.38,33.87],[67.33,33.95],[67.38,34.1],[67.58,34.2],[67.87,34.14],[68.05,34.2],[68.11,34.15],[68.15,33.96],[68.46,33.79],[68.46,33.69],[68.55,33.68],[68.71,33.79],[68.77,33.72],[68.77,33.39],[68.26,32.8],[68.05,32.72],[67.91,32.82],[67.82,32.71],[68.08,32.45],[68.08,32.18],[68.01,32.07],[67.74,32.14],[67.71,32.24],[67.63,32.25],[67.78,32.38],[67.59,32.51],[67.66,32.58],[67.41,32.8],[67.44,32.85],[67.38,32.9],[67.44,32.94],[67.43,33.01],[67.29,32.95],[67.1,33.06],[67.05,32.93],[66.94,32.95],[66.91,33.13],[67,33.23],[66.87,33.25]]]}},{"type":"Feature","properties":{"id":"AFG-PAR","nome":"Parwan","pais":"AFG","tipo":"Province","lat":35.34,"lng":69.76},"geometry":{"type":"Polygon","coordinates":[[[70.18,35.89],[70.27,35.85],[70.22,35.6],[70.15,35.49],[69.92,35.36],[69.97,35.29],[69.92,35.17],[69.8,35.08],[69.68,35.16],[69.25,35.16],[69.26,35.39],[69.75,35.54],[69.82,35.71],[69.96,35.81],[70.14,35.83],[70.18,35.89]]]}},{"type":"Feature","properties":{"id":"AFG-KAB","nome":"Kabul","pais":"AFG","tipo":"Province","lat":34.49,"lng":69.38},"geometry":{"type":"Polygon","coordinates":[[[69.9,34.85],[69.93,34.75],[69.85,34.68],[69.81,34.41],[69.66,34.39],[69.47,34.14],[69.28,34.36],[69.18,34.31],[68.97,34.35],[68.84,34.49],[68.87,34.7],[68.98,34.9],[69.3,34.83],[69.47,34.59],[69.56,34.66],[69.72,34.65],[69.78,34.78],[69.9,34.85]]]}},{"type":"Feature","properties":{"id":"AFG-LAG","nome":"Laghman","pais":"AFG","tipo":"Province","lat":34.73,"lng":70.21},"geometry":{"type":"Polygon","coordinates":[[[69.81,34.41],[69.85,34.68],[69.93,34.78],[69.8,35.08],[69.97,35.24],[70.03,35.11],[70.15,35.09],[70.27,34.94],[70.39,34.9],[70.59,34.98],[70.62,34.8],[70.41,34.65],[70.39,34.51],[70.06,34.41],[69.81,34.41]]]}},{"type":"Feature","properties":{"id":"AFG-LOG","nome":"Logar","pais":"AFG","tipo":"Province","lat":34.09,"lng":69.3},"geometry":{"type":"Polygon","coordinates":[[[69.28,34.36],[69.46,34.14],[69.74,34.25],[69.9,34.05],[69.82,34.08],[69.71,34.01],[69.54,34.05],[69.01,33.61],[68.77,33.61],[68.71,33.79],[68.76,33.93],[68.89,33.99],[68.81,34.09],[68.84,34.2],[68.97,34.35],[69.18,34.31],[69.28,34.36]]]}},{"type":"Feature","properties":{"id":"AFG-KAP","nome":"Kapisa","pais":"AFG","tipo":"Province","lat":34.97,"lng":69.66},"geometry":{"type":"Polygon","coordinates":[[[69.9,34.85],[69.78,34.78],[69.72,34.65],[69.6,34.65],[69.57,34.91],[69.3,35.01],[69.28,35.16],[69.73,35.15],[69.85,35.01],[69.9,34.85]]]}},{"type":"Feature","properties":{"id":"AFG-WAR","nome":"Wardak","pais":"AFG","tipo":"Province","lat":34.43,"lng":68.11},"geometry":{"type":"Polygon","coordinates":[[[68.86,34.62],[68.84,34.49],[68.97,34.35],[68.81,34.12],[68.89,33.99],[68.77,33.95],[68.75,33.82],[68.55,33.68],[68.45,33.7],[68.46,33.79],[68.15,33.96],[68.07,34.19],[67.87,34.14],[67.65,34.21],[67.43,34.14],[67.42,34.2],[67.55,34.28],[67.38,34.34],[67.41,34.41],[67.25,34.44],[67.35,34.53],[67.31,34.64],[67.51,34.68],[67.97,34.6],[68.04,34.69],[68.28,34.8],[68.37,34.63],[68.56,34.69],[68.86,34.62]]]}},{"type":"Feature","properties":{"id":"AFG-BAM","nome":"Bamyan","pais":"AFG","tipo":"Province","lat":34.97,"lng":67.24},"geometry":{"type":"Polygon","coordinates":[[[67.43,34.14],[67.31,34.01],[67.03,33.94],[66.78,34],[66.64,33.97],[66.53,34.05],[66.53,34.26],[66.58,34.31],[66.47,34.37],[66.74,34.49],[66.72,34.56],[66.77,34.62],[66.34,34.93],[66.36,35.17],[66.67,35.2],[66.81,35.37],[67.02,35.35],[67.57,35.47],[68.09,35.46],[68.1,35.31],[68.01,35.17],[68.02,35.06],[68.24,34.96],[68.28,34.8],[68.04,34.69],[67.97,34.6],[67.51,34.68],[67.3,34.63],[67.35,34.53],[67.25,34.43],[67.41,34.41],[67.38,34.34],[67.55,34.28],[67.42,34.2],[67.43,34.14]]]}},{"type":"Feature","properties":{"id":"AFG-PAR2","nome":"Parwan","pais":"AFG","tipo":"Province","lat":35,"lng":68.9},"geometry":{"type":"Polygon","coordinates":[[[69.06,34.88],[68.98,34.9],[68.94,34.84],[68.86,34.62],[68.56,34.69],[68.38,34.63],[68.18,35.01],[68.28,35.07],[68.58,35.06],[68.81,35.26],[68.91,35.25],[69.24,35.42],[69.28,35.03],[69.57,34.91],[69.6,34.65],[69.45,34.59],[69.3,34.83],[69.06,34.88]]]}},{"type":"Feature","properties":{"id":"AFG-SAR","nome":"Sari Pul","pais":"AFG","tipo":"Province","lat":35.71,"lng":66.22},"geometry":{"type":"Polygon","coordinates":[[[66.53,36.59],[66.68,36.54],[66.46,36.22],[66.6,36.16],[66.63,35.88],[66.5,35.68],[66.9,35.72],[67.02,35.67],[67.01,35.56],[66.98,35.46],[66.8,35.36],[66.67,35.2],[66.36,35.18],[66.36,34.91],[66.24,34.92],[66.1,34.78],[66.04,35.06],[65.8,35.11],[65.64,35.27],[65.47,35.24],[65.42,35.29],[65.41,35.45],[65.48,35.65],[65.62,35.68],[65.68,35.79],[65.82,35.84],[65.75,36.02],[65.53,35.98],[65.5,36.32],[65.71,36.36],[66.07,36.54],[66.53,36.59]]]}},{"type":"Feature","properties":{"id":"AFG-GHO","nome":"Ghor","pais":"AFG","tipo":"Province","lat":34,"lng":64.92},"geometry":{"type":"Polygon","coordinates":[[[66.36,34.91],[66.52,34.84],[66.64,34.69],[66.76,34.64],[66.74,34.49],[66.49,34.39],[66.21,34.41],[65.95,34.32],[65.52,34.34],[65.47,34.08],[65.52,33.97],[65.4,33.87],[65.58,33.6],[65.37,33.42],[64.82,33.2],[64.53,33.32],[64.33,33.12],[64.11,33.28],[64.07,33.41],[63.96,33.52],[63.55,33.34],[63.14,33.32],[63.07,33.53],[63.48,33.66],[63.5,33.77],[63.58,33.8],[63.39,34.07],[63.49,34.27],[64.12,34.23],[64.21,34.29],[64.2,34.47],[64.48,34.49],[64.5,34.7],[64.71,34.69],[65.01,34.79],[65.05,34.94],[65,35.03],[64.73,35.21],[65.13,35.26],[65.33,35.19],[65.64,35.27],[65.8,35.11],[66.04,35.06],[66.1,34.78],[66.24,34.92],[66.36,34.91]]]}},{"type":"Feature","properties":{"id":"AFG-BGL","nome":"Baghlan","pais":"AFG","tipo":"Province","lat":35.86,"lng":68.98},"geometry":{"type":"Polygon","coordinates":[[[69.96,35.81],[69.79,35.67],[69.75,35.54],[69.34,35.4],[69.19,35.42],[68.91,35.25],[68.81,35.26],[68.58,35.06],[68.28,35.07],[68.17,35.01],[68.02,35.06],[68.01,35.17],[68.1,35.31],[68.09,35.46],[68.19,35.58],[68.16,35.68],[68.31,35.85],[68.34,35.99],[68.53,36.15],[68.32,36.31],[68.17,36.52],[68.2,36.56],[68.72,36.53],[68.84,36.42],[69,36.42],[69.3,36.23],[69.68,36.35],[69.96,35.81]]]}},{"type":"Feature","properties":{"id":"AFG-SAM","nome":"Samangan","pais":"AFG","tipo":"Province","lat":36.05,"lng":67.68},"geometry":{"type":"Polygon","coordinates":[[[67.69,36.65],[67.83,36.59],[68.24,36.57],[68.17,36.52],[68.21,36.46],[68.53,36.16],[68.33,35.98],[68.31,35.85],[68.16,35.68],[68.19,35.61],[68.14,35.51],[68,35.45],[67.57,35.47],[67.02,35.35],[66.83,35.38],[66.99,35.49],[67.02,35.67],[66.9,35.73],[67.12,35.93],[67.07,36.06],[67.28,36.16],[67.37,36.29],[67.42,36.47],[67.37,36.56],[67.5,36.64],[67.69,36.65]]]}},{"type":"Feature","properties":{"id":"AFG-URU2","nome":"Uruzgan","pais":"AFG","tipo":"Province","lat":33.84,"lng":66.3},"geometry":{"type":"Polygon","coordinates":[[[67.35,34.04],[67.33,33.95],[67.38,33.86],[67.16,33.67],[66.84,33.58],[66.83,33.28],[66.74,33.32],[66.56,33.24],[66.47,33.32],[66.33,33.31],[66.09,33.19],[66.05,33.06],[65.81,33.14],[65.66,33.11],[65.48,33.15],[65.49,33.08],[65.42,33.07],[65.35,33.09],[65.36,33.22],[65.3,33.33],[65.22,33.36],[65.58,33.6],[65.4,33.87],[65.52,33.97],[65.47,34.08],[65.53,34.35],[65.95,34.32],[66.21,34.41],[66.46,34.4],[66.58,34.31],[66.53,34.26],[66.52,34.06],[66.64,33.97],[66.78,34],[67.03,33.94],[67.35,34.04]]]}}]}