{"type":"FeatureCollection","features":[{"type":"Feature","properties":{"id":"AGO-CAB","nome":"Cabinda","pais":"AGO","tipo":"Province","lat":-4.8,"lng":12.54},"geometry":{"type":"Polygon","coordinates":[[[12.78,-4.4],[12.87,-4.41],[13.07,-4.66],[12.8,-4.74],[12.68,-4.92],[12.44,-5.06],[12.53,-5.16],[12.51,-5.73],[12.21,-5.76],[12.15,-5.62],[12.23,-5.47],[12.02,-5.05],[12.1,-5.08],[12.14,-5.01],[12.1,-5.05],[12.01,-5.02],[12.13,-4.91],[12.19,-4.76],[12.24,-4.8],[12.32,-4.78],[12.39,-4.61],[12.62,-4.56],[12.78,-4.4]]]}},{"type":"Feature","properties":{"id":"AGO-CCU","nome":"Cuando Cubango","pais":"AGO","tipo":"Province","lat":-16.31,"lng":19.92},"geometry":{"type":"Polygon","coordinates":[[[21.98,-16.17],[22.06,-16.36],[22.11,-16.38],[22.08,-16.46],[22.15,-16.6],[22.33,-16.67],[22.77,-17.17],[23,-17.29],[23.19,-17.54],[23.32,-17.55],[23.38,-17.64],[21.39,-18.01],[21.16,-17.93],[20.81,-18.03],[20.57,-17.99],[20.34,-17.85],[19.77,-17.89],[19.67,-17.84],[18.89,-17.8],[18.64,-17.64],[18.45,-17.39],[17.28,-17.39],[17.23,-16.84],[17.42,-16.37],[17.38,-15.92],[17.17,-15.58],[16.91,-15.37],[16.7,-15.1],[16.6,-14.78],[16.63,-14.73],[16.5,-14.63],[16.47,-14.01],[16.95,-14],[17.04,-14.17],[17.3,-14.31],[17.35,-14.15],[17.47,-14.03],[17.78,-13.9],[17.8,-13.71],[17.93,-13.65],[17.95,-13.57],[18.53,-13.8],[18.73,-13.95],[18.9,-14.38],[19.16,-14.39],[19.22,-14.25],[19.53,-14.29],[19.69,-14.54],[20.17,-14.95],[20.93,-15],[21.39,-15.44],[21.6,-15.82],[21.71,-15.85],[21.84,-16.07],[21.98,-16.17]]]}},{"type":"Feature","properties":{"id":"AGO-MOX","nome":"Moxico","pais":"AGO","tipo":"Province","lat":-13.28,"lng":21},"geometry":{"type":"Polygon","coordinates":[[[21.98,-13.69],[21.98,-16.17],[21.84,-16.07],[21.71,-15.85],[21.6,-15.82],[21.39,-15.44],[20.93,-15],[20.17,-14.95],[19.69,-14.54],[19.53,-14.29],[19.22,-14.25],[19.16,-14.39],[18.9,-14.38],[18.71,-13.93],[18.55,-13.81],[17.95,-13.57],[17.95,-13.39],[18.07,-13.3],[18.04,-13.15],[18.17,-12.96],[18.16,-12.84],[18.3,-12.73],[18.43,-12.46],[18.73,-12.25],[18.73,-12.18],[18.86,-12.04],[18.85,-11.93],[18.97,-11.71],[19.06,-11.66],[19.17,-11.46],[19.4,-11.41],[19.57,-11.26],[19.73,-11.31],[19.84,-11.25],[19.92,-11.3],[19.97,-11.26],[20.09,-11.29],[20.18,-11.21],[20.75,-11.44],[21.04,-11.47],[21.03,-11.42],[21.22,-11.28],[21.7,-11.13],[21.65,-11],[21.78,-10.65],[22.09,-10.59],[22.31,-10.61],[22.32,-10.76],[22.17,-10.85],[22.24,-11.08],[22.24,-11.25],[22.44,-11.15],[22.5,-11.04],[23.01,-11.1],[23.46,-10.96],[23.83,-11.03],[23.97,-10.87],[24.06,-11.41],[23.95,-11.64],[23.99,-11.82],[23.95,-12.15],[24.03,-12.39],[23.87,-12.79],[24,-13],[21.98,-13],[21.98,-13.69]]]}},{"type":"Feature","properties":{"id":"AGO-NAM","nome":"Namibe","pais":"AGO","tipo":"Province","lat":-15.82,"lng":12.65},"geometry":{"type":"Polygon","coordinates":[[[13.18,-16.96],[12.89,-17.03],[12.57,-17.23],[12.24,-17.22],[12.09,-17.14],[11.82,-17.26],[11.75,-17.23],[11.82,-16.48],[11.81,-16.02],[11.74,-15.86],[12.01,-15.59],[12.06,-15.23],[12.15,-15.17],[12.12,-15.09],[12.27,-14.75],[12.34,-14.37],[12.33,-14.09],[12.42,-13.88],[12.5,-13.86],[12.51,-13.62],[12.59,-13.54],[12.89,-13.61],[13.1,-13.52],[13.29,-13.56],[13.29,-13.69],[13.38,-13.82],[13.56,-13.85],[13.62,-13.96],[13.58,-14.08],[13.68,-14.44],[13.57,-14.7],[13.28,-14.91],[13.24,-15.1],[13.28,-15.18],[13.22,-15.23],[13.33,-15.33],[13.42,-15.32],[13.44,-15.43],[13.55,-15.53],[13.59,-15.85],[13.49,-16.05],[13.51,-16.23],[13.2,-16.47],[13.24,-16.57],[13.14,-16.69],[13.35,-16.97],[13.18,-16.96]]]}},{"type":"Feature","properties":{"id":"AGO-CNN","nome":"Cunene","pais":"AGO","tipo":"Province","lat":-16.63,"lng":15.28},"geometry":{"type":"Polygon","coordinates":[[[13.98,-17.42],[13.52,-17.12],[13.49,-17.02],[13.35,-16.97],[13.15,-16.71],[13.25,-16.54],[13.23,-16.43],[13.48,-16.25],[13.62,-16.37],[13.7,-16.34],[13.89,-16.16],[14.03,-16.19],[14.36,-16.01],[14.53,-15.86],[14.85,-15.9],[15,-15.96],[15.04,-16.04],[15.15,-16.05],[15.54,-15.48],[15.74,-15.39],[16.21,-15.39],[16.38,-15.22],[16.55,-15.15],[16.78,-15.17],[16.85,-15.3],[17.17,-15.58],[17.38,-15.89],[17.42,-16.37],[17.23,-16.84],[17.28,-17.39],[13.98,-17.42]]]}},{"type":"Feature","properties":{"id":"AGO-ZAI","nome":"Zaire","pais":"AGO","tipo":"Province","lat":-6.78,"lng":13.61},"geometry":{"type":"Polygon","coordinates":[[[13.94,-5.84],[14.76,-5.88],[14.96,-6.29],[14.77,-6.55],[14.34,-6.68],[14.23,-6.81],[13.8,-6.98],[13.92,-7.2],[13.87,-7.35],[13.96,-7.5],[13.81,-7.63],[13.5,-7.73],[13.38,-7.69],[13.09,-7.79],[12.85,-7.27],[12.83,-6.91],[12.78,-6.91],[12.62,-6.73],[12.28,-6.11],[12.82,-6.03],[12.99,-5.9],[13.18,-5.86],[13.34,-5.89],[13.94,-5.84]]]}},{"type":"Feature","properties":{"id":"AGO-UIG","nome":"Uíge","pais":"AGO","tipo":"Province","lat":-6.96,"lng":15.45},"geometry":{"type":"Polygon","coordinates":[[[16.32,-5.85],[16.6,-5.92],[16.61,-6.09],[16.73,-6.19],[16.69,-6.4],[16.76,-6.69],[16.97,-7.01],[16.93,-7.06],[16.95,-7.2],[17.1,-7.37],[16.99,-7.44],[16.94,-7.58],[16.8,-7.57],[16.65,-7.35],[16.57,-7.33],[16.35,-7.43],[16.22,-7.57],[16.07,-7.61],[16.14,-7.95],[16.05,-8.16],[15.8,-8.21],[15.72,-8.01],[15.48,-8.06],[15.41,-7.93],[15.28,-7.94],[15.19,-7.97],[15.22,-8.11],[15.12,-8.3],[14.92,-8.28],[14.77,-8.41],[14.66,-8.4],[14.64,-8.31],[14.71,-8.09],[14.69,-7.89],[14.42,-7.89],[14.12,-7.64],[13.82,-7.62],[13.96,-7.5],[13.87,-7.35],[13.92,-7.2],[13.8,-6.98],[14.23,-6.81],[14.34,-6.68],[14.77,-6.55],[14.96,-6.29],[14.76,-5.88],[16.32,-5.85]]]}},{"type":"Feature","properties":{"id":"AGO-LNO","nome":"Lunda Norte","pais":"AGO","tipo":"Province","lat":-8.47,"lng":19.63},"geometry":{"type":"Polygon","coordinates":[[[20.61,-6.92],[20.52,-7.29],[21.8,-7.3],[21.85,-7.59],[21.75,-8],[21.92,-8.33],[21.55,-8.54],[20.98,-8.63],[20.79,-8.81],[20.69,-8.98],[20.43,-9.1],[20.35,-9.24],[20,-9.46],[19.95,-9.72],[19.86,-9.84],[19.47,-9.99],[19.12,-10.21],[18.89,-10.26],[18.71,-10.39],[18.37,-10.4],[18.18,-10.21],[18.25,-10.01],[17.65,-9.8],[17.43,-9.59],[17.34,-9.33],[17.54,-9.23],[17.59,-9.11],[17.54,-8.08],[17.87,-8.04],[18.1,-8.11],[18.12,-8.02],[18.51,-8],[18.52,-7.93],[18.74,-7.93],[18.77,-8],[19.36,-8],[19.36,-7.57],[19.44,-7.58],[19.51,-7.48],[19.48,-7.32],[19.52,-7],[20.29,-7],[20.32,-6.92],[20.61,-6.92]]]}},{"type":"Feature","properties":{"id":"AGO-MAL","nome":"Malanje","pais":"AGO","tipo":"Province","lat":-9.15,"lng":16.97},"geometry":{"type":"Polygon","coordinates":[[[17.1,-7.38],[17.18,-7.43],[17.15,-7.47],[17.29,-7.63],[17.32,-7.75],[17.54,-8.03],[17.59,-9.11],[17.54,-9.23],[17.34,-9.33],[17.41,-9.58],[17.65,-9.8],[18.25,-10.01],[18.18,-10.24],[18.67,-10.58],[18.61,-10.68],[18.75,-10.94],[18.78,-11.23],[18.83,-11.31],[18.83,-11.36],[18.59,-11.41],[18.41,-11.54],[17.92,-11.53],[17.83,-11.36],[17.83,-11.53],[17.59,-11.73],[17.5,-11.68],[17.52,-11.4],[17.39,-11.21],[17.45,-11.12],[17.37,-10.93],[17.15,-10.81],[16.79,-10.77],[16.67,-10.69],[16.61,-10.63],[16.64,-10.59],[16.34,-10.25],[16.38,-10.14],[16.34,-9.99],[16.2,-9.76],[15.82,-9.71],[15.76,-9.78],[15.3,-9.82],[15.11,-9.72],[15.16,-9.65],[15.12,-9.53],[15.17,-9.46],[15.12,-9.36],[15.23,-9.34],[15.29,-9.23],[15.64,-9.15],[15.72,-8.72],[15.62,-8.6],[15.68,-8.46],[15.82,-8.4],[15.8,-8.21],[15.92,-8.21],[16.09,-8.12],[16.14,-7.95],[16.07,-7.61],[16.59,-7.32],[16.8,-7.57],[16.89,-7.6],[17,-7.42],[17.1,-7.38]]]}},{"type":"Feature","properties":{"id":"AGO-LSU","nome":"Lunda Sul","pais":"AGO","tipo":"Province","lat":-10.23,"lng":20.38},"geometry":{"type":"Polygon","coordinates":[[[21.91,-8.33],[21.94,-8.58],[21.79,-9.41],[21.88,-9.66],[22.16,-9.93],[22.31,-10.37],[22.27,-10.48],[22.31,-10.61],[21.79,-10.63],[21.65,-11],[21.7,-11.13],[21.22,-11.28],[21.03,-11.42],[21.04,-11.47],[20.75,-11.44],[20.18,-11.21],[20.09,-11.29],[19.97,-11.26],[19.92,-11.3],[19.84,-11.25],[19.73,-11.31],[19.57,-11.26],[19.4,-11.41],[19.19,-11.46],[19.22,-11.25],[18.76,-10.96],[18.63,-10.78],[18.61,-10.68],[18.67,-10.58],[18.45,-10.39],[18.71,-10.39],[19.47,-9.99],[19.8,-9.88],[19.94,-9.75],[20,-9.46],[20.35,-9.24],[20.43,-9.1],[20.69,-8.98],[20.94,-8.66],[21.15,-8.58],[21.55,-8.54],[21.91,-8.33]]]}},{"type":"Feature","properties":{"id":"AGO-CUS","nome":"Cuanza Sul","pais":"AGO","tipo":"Province","lat":-10.92,"lng":15.05},"geometry":{"type":"Polygon","coordinates":[[[13.79,-11.75],[13.84,-10.95],[13.73,-10.76],[13.76,-10.66],[13.53,-10.41],[13.5,-10.22],[13.7,-10.36],[14.01,-10.41],[14.26,-10.28],[14.55,-10.44],[14.62,-10.32],[14.56,-10.21],[14.57,-9.77],[14.93,-9.72],[14.95,-9.67],[15.3,-9.82],[16.03,-9.72],[16.18,-9.75],[16.3,-9.89],[16.38,-10.14],[16.34,-10.25],[16.61,-10.57],[16.21,-10.99],[15.95,-10.95],[15.75,-11.44],[15.37,-11.59],[15.38,-11.97],[15.12,-12.05],[15.02,-12.21],[14.85,-12.09],[14.67,-12.08],[14.48,-11.84],[14.24,-12],[14.08,-11.79],[13.79,-11.75]]]}},{"type":"Feature","properties":{"id":"AGO-BGU","nome":"Benguela","pais":"AGO","tipo":"Province","lat":-12.8,"lng":13.81},"geometry":{"type":"Polygon","coordinates":[[[12.53,-13.57],[12.52,-13.41],[12.94,-12.98],[12.94,-12.82],[13.18,-12.6],[13.39,-12.57],[13.63,-12.26],[13.79,-11.75],[14.08,-11.79],[14.24,-12],[14.48,-11.84],[14.67,-12.08],[14.85,-12.09],[15.02,-12.21],[15.07,-12.52],[14.82,-12.66],[14.81,-12.76],[14.91,-13.01],[14.92,-13.21],[15.11,-13.4],[15.09,-13.48],[14.68,-13.66],[14.48,-13.61],[14.3,-13.87],[13.4,-13.83],[13.29,-13.69],[13.29,-13.56],[13.1,-13.52],[12.89,-13.61],[12.61,-13.53],[12.53,-13.57]]]}},{"type":"Feature","properties":{"id":"AGO-BGO","nome":"Bengo","pais":"AGO","tipo":"Province","lat":-9,"lng":13.91},"geometry":{"type":"Polygon","coordinates":[[[13.37,-8.58],[13.38,-8.35],[13.09,-7.79],[13.38,-7.69],[13.5,-7.73],[13.82,-7.62],[14.09,-7.63],[14.42,-7.89],[14.71,-7.9],[14.71,-8.09],[14.64,-8.23],[14.66,-8.4],[14.39,-8.39],[14.3,-8.43],[14.26,-8.51],[14.36,-8.76],[14.08,-8.94],[14.14,-9.01],[14.07,-9.11],[14.17,-9.16],[14.2,-9.27],[14.08,-9.53],[14.16,-9.63],[14.57,-9.77],[14.56,-10.21],[14.62,-10.32],[14.55,-10.44],[14.26,-10.28],[14.01,-10.41],[13.7,-10.36],[13.64,-10.28],[13.46,-10.2],[13.19,-9.69],[13.22,-9.61],[13.14,-9.33],[13.28,-9.17],[13.47,-9.17],[13.5,-8.97],[13.64,-8.84],[13.58,-8.65],[13.37,-8.58]]]}},{"type":"Feature","properties":{"id":"AGO-LUA","nome":"Luanda","pais":"AGO","tipo":"Province","lat":-8.96,"lng":13.32},"geometry":{"type":"Polygon","coordinates":[[[13.14,-9.33],[13,-9.09],[13.03,-8.96],[13.14,-8.87],[13.04,-8.96],[13.01,-9.08],[13.22,-8.77],[13.26,-8.75],[13.2,-8.82],[13.38,-8.76],[13.41,-8.65],[13.37,-8.58],[13.58,-8.65],[13.64,-8.84],[13.5,-8.97],[13.47,-9.17],[13.28,-9.17],[13.14,-9.33]]]}},{"type":"Feature","properties":{"id":"AGO-BIE","nome":"Bié","pais":"AGO","tipo":"Province","lat":-12.8,"lng":17.49},"geometry":{"type":"Polygon","coordinates":[[[16.61,-10.57],[16.61,-10.63],[16.77,-10.76],[17.15,-10.81],[17.37,-10.93],[17.45,-11.12],[17.39,-11.21],[17.52,-11.4],[17.5,-11.68],[17.59,-11.73],[17.83,-11.53],[17.83,-11.36],[17.91,-11.52],[18.04,-11.56],[18.41,-11.54],[18.59,-11.41],[18.83,-11.36],[18.76,-10.96],[19.23,-11.27],[19.19,-11.46],[19.1,-11.53],[19.06,-11.66],[18.97,-11.71],[18.85,-11.93],[18.86,-12.04],[18.73,-12.18],[18.73,-12.25],[18.43,-12.46],[18.3,-12.73],[18.16,-12.84],[18.17,-12.96],[18.04,-13.15],[18.07,-13.3],[17.95,-13.39],[17.94,-13.61],[17.8,-13.71],[17.8,-13.87],[17.65,-13.99],[17.47,-14.03],[17.35,-14.15],[17.32,-14.31],[17.09,-14.2],[16.95,-14],[16.47,-14.01],[16.53,-13.55],[16.51,-12.75],[16.39,-12.7],[16.3,-12.55],[16.38,-12.44],[16.34,-12.26],[16.48,-12.15],[16.58,-11.91],[16.32,-11.62],[16.28,-11.5],[15.75,-11.44],[15.95,-10.95],[16.21,-10.99],[16.61,-10.57]]]}},{"type":"Feature","properties":{"id":"AGO-CNO","nome":"Cuanza Norte","pais":"AGO","tipo":"Province","lat":-9.7,"lng":14.95},"geometry":{"type":"Polygon","coordinates":[[[15.41,-7.93],[15.44,-8.05],[15.72,-8.01],[15.8,-8.12],[15.82,-8.4],[15.68,-8.46],[15.62,-8.6],[15.72,-8.72],[15.64,-9.15],[15.29,-9.23],[15.23,-9.34],[15.12,-9.36],[15.17,-9.46],[15.12,-9.53],[15.16,-9.65],[15.11,-9.72],[14.95,-9.67],[14.93,-9.72],[14.54,-9.78],[14.41,-9.69],[14.16,-9.63],[14.08,-9.53],[14.2,-9.27],[14.17,-9.16],[14.07,-9.11],[14.14,-9.01],[14.08,-8.94],[14.36,-8.76],[14.26,-8.47],[14.39,-8.39],[14.79,-8.4],[14.92,-8.28],[15.11,-8.3],[15.22,-8.11],[15.19,-7.97],[15.41,-7.93]]]}},{"type":"Feature","properties":{"id":"AGO-HUI","nome":"Huíla","pais":"AGO","tipo":"Province","lat":-14.73,"lng":14.98},"geometry":{"type":"Polygon","coordinates":[[[16.53,-13.36],[16.46,-14.27],[16.5,-14.63],[16.63,-14.73],[16.65,-14.96],[16.75,-15.16],[16.43,-15.19],[16.21,-15.39],[15.82,-15.39],[15.61,-15.44],[15.46,-15.57],[15.15,-16.05],[15.04,-16.04],[15,-15.96],[14.85,-15.9],[14.53,-15.86],[14.36,-16.01],[14.03,-16.19],[13.89,-16.16],[13.7,-16.34],[13.62,-16.37],[13.48,-16.25],[13.53,-16.19],[13.5,-16.02],[13.59,-15.85],[13.55,-15.53],[13.44,-15.43],[13.42,-15.32],[13.33,-15.33],[13.22,-15.23],[13.28,-15.18],[13.24,-15.1],[13.28,-14.91],[13.57,-14.7],[13.68,-14.44],[13.58,-14.08],[13.62,-13.96],[13.56,-13.85],[13.67,-13.81],[14.3,-13.87],[14.48,-13.61],[14.68,-13.66],[15.09,-13.48],[15.11,-13.4],[15.29,-13.39],[15.34,-13.43],[15.39,-13.62],[15.49,-13.64],[15.53,-13.76],[15.96,-13.4],[16.1,-13.44],[16.24,-13.34],[16.53,-13.36]]]}},{"type":"Feature","properties":{"id":"AGO-HUA","nome":"Huambo","pais":"AGO","tipo":"Province","lat":-12.56,"lng":15.69},"geometry":{"type":"Polygon","coordinates":[[[15.75,-11.44],[16.28,-11.5],[16.32,-11.62],[16.58,-11.91],[16.48,-12.15],[16.34,-12.26],[16.38,-12.44],[16.3,-12.55],[16.39,-12.7],[16.51,-12.75],[16.54,-13.27],[16.53,-13.36],[16.24,-13.34],[16.1,-13.44],[15.96,-13.4],[15.53,-13.76],[15.49,-13.64],[15.39,-13.62],[15.31,-13.39],[15.11,-13.4],[14.96,-13.29],[14.81,-12.68],[15.07,-12.52],[15.02,-12.33],[15.07,-12.1],[15.38,-11.97],[15.37,-11.59],[15.75,-11.44]]]}}]}