{"type":"FeatureCollection","features":[{"type":"Feature","properties":{"id":"ALB-09","nome":"Dibër","pais":"ALB","tipo":"County","lat":41.61,"lng":20.18},"geometry":{"type":"Polygon","coordinates":[[[20.54,41.4],[20.48,41.32],[20.45,41.39],[20.24,41.34],[20.05,41.39],[19.84,41.57],[19.81,41.71],[19.95,41.68],[20.16,41.76],[20.11,41.83],[20.21,41.9],[20.32,41.9],[20.36,41.82],[20.54,41.84],[20.5,41.73],[20.53,41.59],[20.44,41.55],[20.54,41.4]]]}},{"type":"Feature","properties":{"id":"ALB-07","nome":"Kukës","pais":"ALB","tipo":"County","lat":42.09,"lng":20.19},"geometry":{"type":"Polygon","coordinates":[[[20.57,41.87],[20.36,41.82],[20.32,41.9],[20.22,41.87],[20.27,41.99],[20.14,42.05],[20.24,42.19],[20,42.26],[19.83,42.23],[19.79,42.42],[20.04,42.56],[20.14,42.51],[20.24,42.32],[20.5,42.21],[20.6,41.96],[20.57,41.87]]]}},{"type":"Feature","properties":{"id":"ALB-06","nome":"Korçë","pais":"ALB","tipo":"County","lat":40.61,"lng":20.66},"geometry":{"type":"Polygon","coordinates":[[[20.6,41.09],[20.65,41.08],[20.74,40.9],[20.96,40.89],[20.94,40.77],[21.04,40.64],[20.94,40.47],[20.77,40.42],[20.62,40.08],[20.5,40.23],[20.43,40.58],[20.29,40.73],[20.44,40.77],[20.38,40.92],[20.44,41],[20.6,41.02],[20.6,41.09]]]}},{"type":"Feature","properties":{"id":"ALB-03","nome":"Elbasan","pais":"ALB","tipo":"County","lat":41.03,"lng":20.14},"geometry":{"type":"Polygon","coordinates":[[[20.51,41.21],[20.6,41.03],[20.44,41],[20.38,40.92],[20.44,40.77],[20.25,40.72],[20.02,40.83],[20.01,40.88],[19.83,40.88],[19.81,41],[19.67,41.05],[20.3,41.37],[20.45,41.39],[20.51,41.21]]]}},{"type":"Feature","properties":{"id":"ALB-05","nome":"Gjirokastër","pais":"ALB","tipo":"County","lat":40.19,"lng":20.19},"geometry":{"type":"Polygon","coordinates":[[[20.62,40.08],[20.43,40.06],[20.3,39.99],[20.4,39.82],[20.3,39.81],[20.16,39.97],[19.94,40.07],[19.76,40.34],[19.78,40.42],[19.9,40.53],[20.09,40.5],[20.29,40.36],[20.46,40.44],[20.5,40.23],[20.62,40.08]]]}},{"type":"Feature","properties":{"id":"ALB-12","nome":"Vlorë","pais":"ALB","tipo":"County","lat":40.19,"lng":19.79},"geometry":{"type":"Polygon","coordinates":[[[20.3,39.81],[20.3,39.72],[20.2,39.64],[19.99,39.69],[20.01,39.87],[19.91,39.91],[19.94,39.94],[19.86,40.05],[19.48,40.21],[19.29,40.42],[19.35,40.43],[19.42,40.33],[19.47,40.35],[19.48,40.45],[19.39,40.54],[19.43,40.51],[19.45,40.55],[19.39,40.55],[19.3,40.65],[19.45,40.65],[19.71,40.53],[19.8,40.4],[19.76,40.34],[19.94,40.07],[20.16,39.97],[20.3,39.81]]]}},{"type":"Feature","properties":{"id":"ALB-10","nome":"Shkodër","pais":"ALB","tipo":"County","lat":42.21,"lng":19.76},"geometry":{"type":"Polygon","coordinates":[[[19.75,42.59],[19.75,42.49],[19.83,42.47],[19.79,42.42],[19.82,42.23],[20.02,42.26],[20.24,42.19],[20.14,42.05],[20.21,42.03],[20,41.88],[19.94,41.88],[19.9,41.97],[19.72,41.9],[19.59,41.94],[19.56,41.89],[19.47,41.91],[19.53,41.84],[19.37,41.85],[19.37,42.1],[19.27,42.19],[19.65,42.63],[19.72,42.65],[19.75,42.59]]]}},{"type":"Feature","properties":{"id":"ALB-04","nome":"Fier","pais":"ALB","tipo":"County","lat":40.81,"lng":19.6},"geometry":{"type":"Polygon","coordinates":[[[19.3,40.65],[19.41,40.82],[19.38,40.91],[19.44,40.95],[19.44,40.87],[19.52,40.92],[19.5,41],[19.45,40.93],[19.47,41.05],[19.67,41.07],[19.68,41.02],[19.81,41],[19.8,40.9],[19.87,40.86],[19.73,40.8],[19.9,40.53],[19.79,40.42],[19.74,40.43],[19.71,40.53],[19.45,40.65],[19.3,40.65]]]}},{"type":"Feature","properties":{"id":"ALB-11","nome":"Tiranë","pais":"ALB","tipo":"County","lat":41.13,"lng":19.84},"geometry":{"type":"Polygon","coordinates":[[[19.45,41.01],[19.44,41.14],[19.52,41.26],[19.59,41.24],[19.64,41.3],[19.62,41.45],[19.69,41.46],[19.74,41.41],[19.92,41.51],[20.05,41.39],[20.24,41.34],[19.69,41.05],[19.45,41.01]]]}},{"type":"Feature","properties":{"id":"ALB-02","nome":"Durrës","pais":"ALB","tipo":"County","lat":41.52,"lng":19.65},"geometry":{"type":"Polygon","coordinates":[[[19.52,41.26],[19.42,41.32],[19.39,41.41],[19.52,41.51],[19.44,41.59],[19.78,41.59],[19.91,41.51],[19.74,41.41],[19.69,41.46],[19.62,41.45],[19.64,41.3],[19.59,41.24],[19.52,41.26]]]}},{"type":"Feature","properties":{"id":"ALB-08","nome":"Lezhë","pais":"ALB","tipo":"County","lat":41.82,"lng":19.86},"geometry":{"type":"Polygon","coordinates":[[[19.56,41.58],[19.61,41.61],[19.56,41.66],[19.6,41.8],[19.47,41.91],[19.56,41.89],[19.59,41.94],[19.72,41.9],[19.9,41.97],[19.99,41.88],[20.1,41.97],[20.26,42.01],[20.26,41.95],[20.11,41.83],[20.16,41.76],[19.95,41.68],[19.81,41.71],[19.84,41.57],[19.56,41.58]]]}},{"type":"Feature","properties":{"id":"ALB-01","nome":"Berat","pais":"ALB","tipo":"County","lat":40.64,"lng":20.09},"geometry":{"type":"Polygon","coordinates":[[[20,40.88],[20.14,40.74],[20.31,40.71],[20.43,40.58],[20.44,40.44],[20.27,40.36],[20.15,40.47],[19.85,40.57],[19.73,40.81],[20,40.88]]]}}]}