{"type":"FeatureCollection","features":[{"type":"Feature","properties":{"id":"ALD-X11~","nome":"Lumparland","pais":"ALD","tipo":"Estado","lat":60.1,"lng":20.23},"geometry":{"type":"Polygon","coordinates":[[[20.28,60.14],[20.28,60.07],[20.2,60.09],[20.22,60.15],[20.26,60.11],[20.28,60.14]]]}},{"type":"Feature","properties":{"id":"ALD-X04~","nome":"Eckerö","pais":"ALD","tipo":"Estado","lat":60.22,"lng":19.59},"geometry":{"type":"Polygon","coordinates":[[[19.64,60.22],[19.67,60.16],[19.59,60.2],[19.58,60.14],[19.53,60.15],[19.57,60.26],[19.64,60.22]]]}},{"type":"Feature","properties":{"id":"ALD-X12~","nome":"Vårdö","pais":"ALD","tipo":"Estado","lat":60.25,"lng":20.41},"geometry":{"type":"Polygon","coordinates":[[[20.43,60.27],[20.39,60.2],[20.35,60.24],[20.43,60.27]]]}},{"type":"Feature","properties":{"id":"ALD-X02~","nome":"Jomala","pais":"ALD","tipo":"Estado","lat":60.14,"lng":19.9},"geometry":{"type":"Polygon","coordinates":[[[19.91,60.1],[19.75,60.1],[19.85,60.18],[20.04,60.18],[20.04,60.09],[19.91,60.1]]]}},{"type":"Feature","properties":{"id":"ALD-X09~","nome":"Mariehamn","pais":"ALD","tipo":"Estado","lat":60.09,"lng":19.94},"geometry":{"type":"Polygon","coordinates":[[[19.97,60.09],[19.95,60.05],[19.91,60.1],[19.97,60.09]]]}},{"type":"Feature","properties":{"id":"ALD-X10~","nome":"Lemland","pais":"ALD","tipo":"Estado","lat":60.04,"lng":20.15},"geometry":{"type":"Polygon","coordinates":[[[20.03,60.06],[20.16,60.09],[20.23,60.01],[20.18,59.97],[20.03,60.06]]]}}]}