{"type":"FeatureCollection","features":[{"type":"Feature","properties":{"id":"AND-05","nome":"Ordino","pais":"AND","tipo":"Estado","lat":42.6,"lng":1.52},"geometry":{"type":"Polygon","coordinates":[[[1.54,42.65],[1.6,42.62],[1.56,42.56],[1.45,42.6],[1.54,42.65]]]}},{"type":"Feature","properties":{"id":"AND-02","nome":"Canillo","pais":"AND","tipo":"Estado","lat":42.58,"lng":1.61},"geometry":{"type":"Polygon","coordinates":[[[1.6,42.62],[1.77,42.56],[1.56,42.56],[1.6,42.62]]]}},{"type":"Feature","properties":{"id":"AND-03","nome":"Encamp","pais":"AND","tipo":"Estado","lat":42.54,"lng":1.64},"geometry":{"type":"Polygon","coordinates":[[[1.72,42.54],[1.67,42.49],[1.56,42.56],[1.72,42.54]]]}},{"type":"Feature","properties":{"id":"AND-04","nome":"La Massana","pais":"AND","tipo":"Estado","lat":42.55,"lng":1.47},"geometry":{"type":"Polygon","coordinates":[[[1.43,42.6],[1.56,42.54],[1.45,42.5],[1.41,42.53],[1.43,42.6]]]}},{"type":"Feature","properties":{"id":"AND-06","nome":"Sant Julià de Lòria","pais":"AND","tipo":"Estado","lat":42.45,"lng":1.48},"geometry":{"type":"Polygon","coordinates":[[[1.51,42.43],[1.41,42.49],[1.57,42.48],[1.51,42.43]]]}},{"type":"Feature","properties":{"id":"AND-08","nome":"Escaldes-Engordany","pais":"AND","tipo":"Estado","lat":42.5,"lng":1.59},"geometry":{"type":"Polygon","coordinates":[[[1.66,42.5],[1.57,42.45],[1.5,42.49],[1.57,42.54],[1.66,42.5]]]}}]}