{"type":"FeatureCollection","features":[{"type":"Feature","properties":{"id":"ARE-FU","nome":"Fujayrah","pais":"ARE","tipo":"Emirate","lat":25.48,"lng":56.22},"geometry":{"type":"MultiPolygon","coordinates":[[[[56.24,25.21],[56.38,25.32],[56.36,25.07],[56.29,25.08],[56.27,24.94],[56.15,25.09],[56.16,25.22],[56.24,25.21]]],[[[56.26,25.33],[56.14,25.33],[56.18,25.3],[56.12,25.22],[55.99,25.23],[56,25.38],[56.14,25.37],[56.09,25.42],[56.12,25.48],[55.98,25.49],[55.97,25.59],[56.15,25.66],[56.34,25.6],[56.37,25.42],[56.26,25.33]]]]}},{"type":"Feature","properties":{"id":"ARE-SH","nome":"Sharjah","pais":"ARE","tipo":"Emirate","lat":25.17,"lng":55.78},"geometry":{"type":"Polygon","coordinates":[[[55.98,24.97],[55.8,24.89],[55.8,24.69],[55.67,24.71],[55.62,25.19],[55.45,25.31],[55.32,25.31],[55.42,25.39],[55.61,25.37],[55.63,25.42],[55.49,25.46],[55.52,25.51],[55.72,25.41],[55.82,25.28],[56,25.38],[55.95,25.19],[55.98,24.97]]]}},{"type":"Feature","properties":{"id":"ARE-RK","nome":"Ras Al Khaymah","pais":"ARE","tipo":"Emirate","lat":25.7,"lng":55.98},"geometry":{"type":"MultiPolygon","coordinates":[[[[56.23,25.31],[56.16,25.22],[56.15,25.04],[56.19,24.91],[56.27,24.87],[56.11,24.82],[55.98,24.97],[55.95,25.19],[56.13,25.22],[56.18,25.3],[56.15,25.33],[56.23,25.31]]],[[[56.15,26.07],[56.15,25.66],[55.97,25.58],[55.98,25.49],[56.11,25.5],[56.14,25.37],[56.09,25.34],[55.97,25.39],[55.94,25.33],[55.75,25.66],[55.96,25.82],[55.95,25.77],[56.08,26.06],[56.15,26.07]]]]}},{"type":"Feature","properties":{"id":"ARE-DU","nome":"Dubay","pais":"ARE","tipo":"Emirate","lat":24.95,"lng":55.34},"geometry":{"type":"Polygon","coordinates":[[[55.02,24.98],[55.28,25.26],[55.33,25.2],[55.32,25.31],[55.45,25.31],[55.63,25.16],[55.68,24.72],[55.44,24.61],[55.16,24.6],[55.02,24.98]]]}},{"type":"Feature","properties":{"id":"ARE-X02~","nome":"Neutral Zone","pais":"ARE","tipo":"Emirate","lat":24.82,"lng":56.03},"geometry":{"type":"Polygon","coordinates":[[[56.03,24.86],[56.11,24.82],[56.08,24.73],[55.96,24.87],[56.03,24.86]]]}},{"type":"Feature","properties":{"id":"ARE-AZ","nome":"Abu Dhabi","pais":"ARE","tipo":"Emirate","lat":23.52,"lng":54.08},"geometry":{"type":"Polygon","coordinates":[[[55.8,24.69],[55.76,24.56],[55.81,24.34],[55.76,24.23],[55.93,24.22],[56,24.08],[55.46,23.96],[55.54,23.77],[55.23,23.12],[55.19,22.7],[55.11,22.62],[52.56,22.94],[51.57,24.13],[51.59,24.38],[51.63,24.23],[51.67,24.28],[51.7,24.22],[51.78,24.26],[51.81,24],[51.93,23.96],[52.34,24.01],[52.6,24.21],[52.68,24.14],[53.01,24.17],[53.15,24.12],[53.17,24.17],[53.25,24.1],[53.45,24.12],[53.59,24.05],[53.88,24.06],[54.32,24.27],[54.38,24.25],[54.49,24.45],[54.57,24.45],[54.42,24.54],[54.49,24.57],[54.58,24.51],[54.67,24.67],[54.64,24.75],[55.01,24.97],[55.16,24.6],[55.41,24.6],[55.67,24.71],[55.8,24.69]]]}},{"type":"Feature","properties":{"id":"ARE-UQ","nome":"Umm Al Qaywayn","pais":"ARE","tipo":"Emirate","lat":25.52,"lng":55.72},"geometry":{"type":"Polygon","coordinates":[[[55.52,25.51],[55.57,25.58],[55.55,25.53],[55.63,25.54],[55.75,25.66],[55.8,25.63],[55.91,25.3],[55.81,25.28],[55.72,25.41],[55.52,25.51]]]}}]}