{"type":"FeatureCollection","features":[{"type":"Feature","properties":{"id":"ARM-TV","nome":"Tavush","pais":"ARM","tipo":"Province","lat":40.89,"lng":45.18},"geometry":{"type":"Polygon","coordinates":[[[44.92,41.26],[45,41.29],[45.03,41.2],[45.2,41.14],[45.07,41.11],[45.09,41.05],[45.42,41.02],[45.42,40.96],[45.6,40.86],[45.58,40.8],[45.37,40.65],[45.18,40.73],[45.04,40.64],[44.77,40.67],[44.75,40.78],[44.91,40.91],[44.77,41],[44.94,41.07],[44.88,41.14],[44.92,41.2],[44.8,41.26],[44.92,41.26]]]}},{"type":"Feature","properties":{"id":"ARM-LO","nome":"Lori","pais":"ARM","tipo":"Province","lat":40.93,"lng":44.45},"geometry":{"type":"Polygon","coordinates":[[[44.82,41.21],[44.92,41.2],[44.88,41.14],[44.94,41.07],[44.77,41],[44.91,40.91],[44.75,40.78],[44.77,40.67],[44.23,40.72],[44.02,40.82],[44.13,40.95],[43.97,41.08],[43.98,41.16],[44.18,41.23],[44.45,41.18],[44.82,41.21]]]}},{"type":"Feature","properties":{"id":"ARM-SH","nome":"Shirak","pais":"ARM","tipo":"Province","lat":40.82,"lng":43.82},"geometry":{"type":"Polygon","coordinates":[[[43.73,41.11],[43.98,41.16],[43.97,41.08],[44.13,40.95],[44.02,40.82],[44.17,40.74],[44.08,40.64],[44.19,40.58],[44.2,40.51],[44.05,40.45],[43.8,40.5],[43.64,40.41],[43.56,40.46],[43.71,40.61],[43.72,40.75],[43.64,40.93],[43.46,41.02],[43.44,41.11],[43.73,41.11]]]}},{"type":"Feature","properties":{"id":"ARM-GR","nome":"Gegharkunik","pais":"ARM","tipo":"Province","lat":40.28,"lng":45.38},"geometry":{"type":"Polygon","coordinates":[[[45.37,40.65],[45.59,40.4],[45.95,40.25],[45.96,40.14],[45.87,40.01],[45.64,40.03],[45.11,39.87],[44.91,40.43],[44.8,40.54],[44.8,40.65],[45.04,40.64],[45.18,40.73],[45.37,40.65]]]}},{"type":"Feature","properties":{"id":"ARM-VD","nome":"Vayots Dzor","pais":"ARM","tipo":"Province","lat":39.72,"lng":45.44},"geometry":{"type":"Polygon","coordinates":[[[45.58,39.98],[45.74,39.94],[45.81,39.85],[45.71,39.75],[45.71,39.57],[45.45,39.49],[45.26,39.6],[45.15,39.58],[45.15,39.67],[45.07,39.75],[45.11,39.87],[45.25,39.94],[45.58,39.98]]]}},{"type":"Feature","properties":{"id":"ARM-SU","nome":"Syunik","pais":"ARM","tipo":"Province","lat":39.25,"lng":46.15},"geometry":{"type":"Polygon","coordinates":[[[45.81,39.85],[46.18,39.59],[46.34,39.62],[46.52,39.55],[46.49,39.47],[46.36,39.41],[46.6,39.22],[46.4,39.2],[46.49,39.08],[46.51,38.88],[46.38,38.92],[46.14,38.86],[45.96,39.15],[45.99,39.25],[45.77,39.35],[45.8,39.54],[45.7,39.58],[45.71,39.73],[45.81,39.85]]]}},{"type":"Feature","properties":{"id":"ARM-AR","nome":"Ararat","pais":"ARM","tipo":"Province","lat":39.92,"lng":44.73},"geometry":{"type":"Polygon","coordinates":[[[45.07,39.75],[44.77,39.7],[44.38,40.01],[44.35,40.09],[44.45,40.16],[44.56,40.05],[44.65,40.12],[44.69,40.08],[45.03,40.16],[45.01,40.08],[45.11,39.87],[45.07,39.75]]]}},{"type":"Feature","properties":{"id":"ARM-AG","nome":"Aragatsotn","pais":"ARM","tipo":"Province","lat":40.32,"lng":44.07},"geometry":{"type":"Polygon","coordinates":[[[43.69,40.24],[43.59,40.35],[43.71,40.47],[44,40.49],[44.05,40.45],[44.2,40.51],[44.19,40.58],[44.08,40.64],[44.17,40.74],[44.37,40.72],[44.43,40.61],[44.55,40.56],[44.5,40.38],[44.41,40.3],[44.42,40.19],[44.17,40.24],[44.16,40.19],[44.02,40.19],[43.82,40.28],[43.69,40.24]]]}},{"type":"Feature","properties":{"id":"ARM-AV","nome":"Armavir","pais":"ARM","tipo":"Province","lat":40.1,"lng":44.05},"geometry":{"type":"Polygon","coordinates":[[[43.67,40.11],[43.72,40.17],[43.67,40.23],[43.81,40.28],[44.02,40.19],[44.27,40.24],[44.44,40.15],[44.35,40.09],[44.38,40.01],[43.91,40.02],[43.67,40.11]]]}},{"type":"Feature","properties":{"id":"ARM-KT","nome":"Kotayk","pais":"ARM","tipo":"Province","lat":40.37,"lng":44.72},"geometry":{"type":"Polygon","coordinates":[[[44.77,40.67],[44.8,40.54],[44.91,40.43],[44.94,40.25],[45.03,40.16],[44.69,40.08],[44.58,40.14],[44.59,40.22],[44.41,40.22],[44.55,40.56],[44.43,40.61],[44.42,40.68],[44.77,40.67]]]}},{"type":"Feature","properties":{"id":"ARM-ER","nome":"Erevan","pais":"ARM","tipo":"City","lat":40.15,"lng":44.53},"geometry":{"type":"Polygon","coordinates":[[[44.57,40.23],[44.62,40.2],[44.58,40.14],[44.65,40.12],[44.56,40.05],[44.42,40.19],[44.57,40.23]]]}}]}