{"type":"FeatureCollection","features":[{"type":"Feature","properties":{"id":"ATG-06","nome":"Saint Paul","pais":"ATG","tipo":"Parish","lat":17.04,"lng":-61.77},"geometry":{"type":"Polygon","coordinates":[[[-61.73,17.04],[-61.74,16.99],[-61.82,17.05],[-61.73,17.04]]]}},{"type":"Feature","properties":{"id":"ATG-08","nome":"Saint Philip","pais":"ATG","tipo":"Parish","lat":17.06,"lng":-61.7},"geometry":{"type":"Polygon","coordinates":[[[-61.71,17.09],[-61.67,17.09],[-61.69,17.03],[-61.71,17.09]]]}},{"type":"Feature","properties":{"id":"ATG-07","nome":"Saint Peter","pais":"ATG","tipo":"Parish","lat":17.09,"lng":-61.74},"geometry":{"type":"Polygon","coordinates":[[[-61.76,17.11],[-61.71,17.13],[-61.77,17.06],[-61.76,17.11]]]}},{"type":"Feature","properties":{"id":"ATG-04","nome":"Saint John","pais":"ATG","tipo":"Parish","lat":17.11,"lng":-61.82},"geometry":{"type":"Polygon","coordinates":[[[-61.87,17.09],[-61.79,17.16],[-61.77,17.06],[-61.87,17.09]]]}},{"type":"Feature","properties":{"id":"ATG-05","nome":"Saint Mary","pais":"ATG","tipo":"Parish","lat":17.04,"lng":-61.86},"geometry":{"type":"Polygon","coordinates":[[[-61.8,17.01],[-61.88,17.03],[-61.88,17.08],[-61.83,17.08],[-61.8,17.01]]]}},{"type":"Feature","properties":{"id":"ATG-10","nome":"Barbuda","pais":"ATG","tipo":"Dependency","lat":17.62,"lng":-61.79},"geometry":{"type":"Polygon","coordinates":[[[-61.84,17.59],[-61.87,17.69],[-61.83,17.61],[-61.84,17.73],[-61.73,17.59],[-61.77,17.55],[-61.84,17.59]]]}}]}