{"type":"FeatureCollection","features":[{"type":"Feature","properties":{"id":"AUS-WA","nome":"Western Australia","pais":"AUS","tipo":"State","lat":-25.85,"lng":121.65},"geometry":{"type":"MultiPolygon","coordinates":[[[[129,-31.69],[128.22,-32.02],[127.29,-32.27],[126.68,-32.32],[126.19,-32.23],[126.01,-32.27],[125.54,-32.55],[125,-32.74],[124.83,-32.87],[124.31,-32.97],[124.09,-33.16],[123.95,-33.57],[123.53,-33.94],[123.38,-33.89],[123.15,-34.01],[123.11,-33.9],[123.02,-33.86],[122.61,-33.89],[122.56,-33.96],[122.35,-33.92],[122.26,-34.02],[122.09,-34.02],[122.01,-33.82],[121.79,-33.9],[121.33,-33.82],[121.17,-33.87],[120.56,-33.89],[120.39,-33.97],[120,-33.93],[119.81,-33.98],[119.57,-34.14],[119.47,-34.31],[119.56,-34.38],[119.41,-34.37],[119.36,-34.5],[119.3,-34.45],[119.23,-34.53],[119.12,-34.47],[118.84,-34.45],[118.89,-34.5],[118.73,-34.56],[118.72,-34.64],[118.44,-34.74],[118.4,-34.9],[118.16,-34.95],[118.2,-35.02],[117.84,-35.03],[118,-35.09],[117.93,-35.12],[117.68,-35.05],[117.62,-35.14],[117.19,-35.01],[117.14,-35.06],[116.74,-35.01],[116.64,-35.05],[116.4,-34.95],[116.5,-34.94],[116.39,-34.86],[116.38,-34.92],[115.98,-34.84],[115.92,-34.7],[115.61,-34.45],[115.29,-34.3],[115.18,-34.3],[115.12,-34.36],[115.01,-34.25],[114.96,-33.86],[114.99,-33.52],[115.19,-33.64],[115.37,-33.63],[115.52,-33.51],[115.63,-33.31],[115.71,-33.27],[115.7,-33.19],[115.67,-33.29],[115.67,-33.02],[115.6,-32.66],[115.7,-32.51],[115.64,-32.66],[115.71,-32.78],[115.66,-32.63],[115.77,-32.6],[115.71,-32.54],[115.74,-32.33],[115.67,-32.27],[115.74,-32.26],[115.76,-32.19],[115.72,-31.77],[115.18,-30.83],[115.06,-30.52],[114.94,-30.03],[114.98,-29.48],[114.84,-29.11],[114.6,-28.84],[114.53,-28.52],[114.17,-28.11],[114.1,-27.86],[114.14,-27.69],[114.01,-27.32],[113.59,-26.68],[113.31,-26.42],[113.16,-26.15],[113.28,-26.23],[113.31,-26],[113.38,-26.38],[113.36,-26.01],[113.4,-26.18],[113.45,-26.16],[113.49,-26.48],[113.54,-26.29],[113.57,-26.57],[113.63,-26.44],[113.67,-26.65],[113.87,-26.52],[113.88,-26.34],[113.58,-26.09],[113.56,-25.94],[113.42,-25.73],[113.52,-25.51],[113.52,-25.6],[113.76,-25.89],[113.73,-26.2],[113.8,-26.21],[113.85,-26.12],[113.85,-25.94],[113.91,-25.98],[113.91,-26.12],[114.02,-26.39],[114.1,-26.45],[114.23,-26.32],[114.19,-25.98],[114.27,-25.99],[114.26,-25.84],[114.16,-25.79],[113.8,-25.17],[113.69,-25.11],[113.6,-24.73],[113.39,-24.41],[113.46,-23.91],[113.6,-23.62],[113.77,-23.46],[113.75,-23.16],[113.81,-22.93],[113.76,-22.79],[113.66,-22.73],[113.65,-22.58],[114.04,-21.84],[114.18,-21.82],[114.08,-22.18],[114.11,-22.33],[114.17,-22.32],[114.12,-22.5],[114.18,-22.52],[114.29,-22.44],[114.34,-22.49],[114.5,-22.16],[114.5,-22],[114.55,-22.04],[114.65,-21.84],[115.48,-21.5],[115.63,-21.32],[115.82,-21.23],[115.94,-21.06],[116.15,-20.97],[116.2,-20.85],[116.45,-20.81],[116.7,-20.66],[116.79,-20.53],[116.85,-20.54],[116.78,-20.66],[116.86,-20.71],[117.15,-20.6],[117.18,-20.67],[117.31,-20.72],[117.67,-20.67],[117.84,-20.62],[118.15,-20.36],[118.81,-20.28],[119.1,-19.97],[119.46,-20],[119.59,-20.07],[119.73,-19.96],[120.24,-19.91],[120.95,-19.63],[121.19,-19.47],[121.42,-19.22],[121.64,-18.81],[121.61,-18.71],[121.77,-18.66],[121.73,-18.58],[121.81,-18.46],[121.91,-18.46],[122.35,-18.12],[122.34,-17.98],[122.17,-17.98],[122.21,-17.91],[122.14,-17.56],[122.17,-17.26],[122.28,-17.09],[122.48,-16.97],[122.47,-16.92],[122.59,-16.97],[122.53,-16.86],[122.58,-16.78],[122.82,-16.78],[122.75,-16.7],[122.76,-16.6],[122.89,-16.51],[122.92,-16.42],[123.02,-16.38],[123.05,-16.47],[122.99,-16.47],[122.96,-16.58],[123.04,-16.69],[123.13,-16.69],[123.09,-16.77],[123.15,-16.81],[123.14,-16.91],[123.26,-17.01],[123.57,-17.6],[123.57,-17.36],[123.64,-17.18],[123.58,-17.09],[123.59,-16.99],[123.91,-17.22],[123.79,-17],[123.86,-17.03],[123.84,-16.95],[123.95,-16.83],[123.79,-16.89],[123.71,-16.74],[123.51,-16.65],[123.61,-16.55],[123.51,-16.57],[123.42,-16.49],[123.64,-16.53],[123.59,-16.51],[123.65,-16.48],[123.51,-16.41],[123.71,-16.43],[123.63,-16.36],[123.71,-16.38],[123.71,-16.33],[123.54,-16.27],[123.57,-16.18],[123.72,-16.14],[123.81,-16.19],[123.77,-16.2],[123.81,-16.25],[123.73,-16.26],[123.86,-16.33],[123.86,-16.43],[123.89,-16.34],[123.99,-16.38],[123.95,-16.29],[123.99,-16.28],[123.91,-16.22],[124.13,-16.27],[124.22,-16.4],[124.34,-16.41],[124.39,-16.35],[124.88,-16.42],[124.7,-16.34],[124.4,-16.33],[124.38,-16.21],[124.43,-16.06],[124.52,-16.18],[124.6,-16.12],[124.61,-15.9],[124.73,-15.81],[124.61,-15.81],[124.49,-16],[124.44,-15.83],[124.4,-15.87],[124.38,-15.68],[124.43,-15.62],[124.38,-15.53],[124.45,-15.53],[124.47,-15.47],[124.63,-15.5],[124.64,-15.42],[124.68,-15.47],[124.73,-15.36],[124.67,-15.35],[124.66,-15.25],[124.76,-15.29],[124.74,-15.33],[124.8,-15.29],[124.82,-15.35],[124.92,-15.36],[124.99,-15.42],[124.98,-15.48],[125.05,-15.5],[125.06,-15.45],[125.19,-15.52],[125.07,-15.42],[125.14,-15.31],[125.04,-15.28],[124.92,-15.34],[124.89,-15.3],[125.06,-15.16],[124.87,-15.25],[124.83,-15.16],[124.88,-15.1],[125.02,-15.1],[125,-14.97],[125.08,-14.98],[125.06,-15.03],[125.12,-15.04],[125.17,-15.16],[125.17,-15.01],[125.29,-15.14],[125.43,-15.14],[125.37,-15.05],[125.43,-15.01],[125.19,-14.95],[125.31,-14.89],[125.2,-14.84],[125.14,-14.74],[125.3,-14.63],[125.23,-14.61],[125.35,-14.5],[125.34,-14.61],[125.39,-14.54],[125.44,-14.64],[125.49,-14.49],[125.59,-14.55],[125.59,-14.25],[125.73,-14.27],[125.66,-14.33],[125.68,-14.51],[125.64,-14.63],[125.73,-14.4],[125.73,-14.47],[125.85,-14.46],[125.83,-14.58],[125.92,-14.64],[125.93,-14.52],[126.04,-14.51],[125.98,-14.38],[126.06,-14.35],[126.06,-14.24],[126.14,-14.2],[126.13,-14.09],[125.99,-14.07],[125.98,-13.99],[126.1,-14.03],[126.02,-13.92],[126.15,-13.92],[126.11,-14.02],[126.22,-13.96],[126.17,-14.09],[126.21,-14.08],[126.19,-14.16],[126.29,-14.23],[126.35,-14.18],[126.29,-14.14],[126.33,-14.06],[126.43,-13.97],[126.57,-13.94],[126.45,-14.08],[126.53,-14.07],[126.49,-14.11],[126.57,-14.14],[126.6,-14.23],[126.65,-14.07],[126.69,-14.12],[126.73,-14.07],[126.71,-13.98],[126.86,-13.95],[126.75,-13.79],[126.81,-13.77],[126.84,-13.82],[126.85,-13.75],[126.95,-13.72],[127.13,-13.97],[127.17,-13.88],[127.2,-13.95],[127.24,-13.89],[127.33,-13.96],[127.33,-13.9],[127.42,-13.94],[127.45,-14.06],[127.67,-14.18],[127.95,-14.57],[128.01,-14.56],[128.23,-14.71],[128.19,-14.83],[128.12,-14.85],[128.02,-15.5],[128.1,-15.42],[128.13,-15.18],[128.29,-15.4],[128.2,-15.06],[128.31,-14.9],[128.35,-15.04],[128.36,-14.98],[128.45,-15.04],[128.4,-14.8],[128.53,-14.75],[129,-14.87],[129,-31.69]]],[[[113.22,-26.07],[113.21,-26.14],[112.95,-25.77],[112.92,-25.52],[112.96,-25.48],[113.01,-25.5],[113.14,-25.89],[113.12,-25.96],[113.22,-26.07]]]]}},{"type":"Feature","properties":{"id":"AUS-NT","nome":"Northern Territory","pais":"AUS","tipo":"Territory","lat":-20.1,"lng":133.78},"geometry":{"type":"MultiPolygon","coordinates":[[[[129,-14.87],[129.18,-14.98],[129.15,-15.22],[129.22,-15.17],[129.21,-15.24],[129.26,-15.11],[129.23,-14.84],[129.26,-14.89],[129.32,-14.86],[129.48,-14.93],[129.57,-15.05],[129.59,-15.17],[129.66,-15.14],[129.68,-15.2],[129.73,-15.19],[129.61,-14.94],[129.65,-14.83],[129.79,-14.86],[129.98,-14.81],[129.98,-14.71],[129.8,-14.82],[129.76,-14.82],[129.8,-14.76],[129.67,-14.75],[129.59,-14.61],[129.79,-14.53],[129.67,-14.58],[129.54,-14.55],[129.36,-14.41],[129.37,-14.33],[129.49,-14.14],[129.48,-14.05],[129.59,-14.09],[129.61,-14],[129.63,-14.04],[129.74,-13.99],[129.72,-13.87],[129.82,-13.76],[129.79,-13.68],[129.89,-13.44],[129.97,-13.53],[130.13,-13.46],[130.25,-13.32],[130.33,-13.35],[130.12,-13.16],[130.13,-12.94],[130.32,-12.91],[130.35,-12.67],[130.52,-12.65],[130.51,-12.6],[130.59,-12.71],[130.69,-12.7],[130.56,-12.63],[130.62,-12.6],[130.58,-12.4],[130.78,-12.43],[130.79,-12.59],[130.81,-12.54],[130.9,-12.64],[130.91,-12.6],[130.97,-12.63],[130.87,-12.51],[130.97,-12.54],[130.82,-12.4],[130.91,-12.33],[131.05,-12.37],[131.03,-12.15],[131.26,-12.24],[131.3,-12.04],[131.35,-12.22],[131.45,-12.29],[131.78,-12.27],[131.9,-12.22],[132.06,-12.31],[132.25,-12.16],[132.28,-12.23],[132.38,-12.22],[132.42,-12.3],[132.39,-12.38],[132.45,-12.3],[132.44,-12.15],[132.56,-12.09],[132.76,-12.13],[132.63,-12.07],[132.65,-11.85],[132.59,-11.78],[132.7,-11.65],[132.58,-11.61],[132.5,-11.48],[132.37,-11.43],[132.11,-11.52],[132.04,-11.42],[131.95,-11.39],[131.98,-11.35],[131.77,-11.31],[131.88,-11.17],[131.94,-11.25],[131.98,-11.23],[131.98,-11.13],[132.11,-11.21],[132.11,-11.33],[132.14,-11.3],[132.17,-11.41],[132.24,-11.35],[132.16,-11.12],[132.29,-11.27],[132.28,-11.16],[132.34,-11.12],[132.38,-11.28],[132.47,-11.23],[132.67,-11.51],[132.74,-11.51],[132.83,-11.4],[132.89,-11.42],[132.87,-11.34],[132.91,-11.33],[133.08,-11.51],[133.17,-11.7],[133.35,-11.69],[133.32,-11.76],[133.41,-11.72],[133.48,-11.79],[133.53,-11.75],[133.53,-11.87],[133.8,-11.71],[133.92,-11.72],[133.94,-11.76],[133.84,-11.86],[133.94,-11.91],[134.06,-11.84],[134.09,-11.93],[134.14,-11.88],[134.2,-11.95],[134.19,-12.08],[134.29,-11.97],[134.43,-12.06],[134.59,-12.06],[134.77,-11.95],[134.86,-12.13],[135.22,-12.3],[135.17,-12.23],[135.35,-12.24],[135.22,-12.19],[135.32,-12.11],[135.54,-12.06],[135.59,-12.1],[135.71,-12.02],[135.57,-12.03],[135.6,-11.96],[135.74,-11.94],[135.88,-11.85],[135.88,-11.76],[135.94,-11.78],[135.9,-11.85],[135.72,-12],[135.92,-11.97],[135.65,-12.16],[135.73,-12.31],[135.88,-12.15],[135.91,-12.18],[136.05,-12.06],[135.94,-12.21],[135.97,-12.26],[136.06,-12.23],[135.99,-12.36],[136.02,-12.46],[136.25,-12.44],[136.37,-12.24],[136.18,-12.17],[136.56,-11.89],[136.47,-11.99],[136.53,-11.99],[136.66,-12.26],[136.75,-12.27],[136.68,-12.2],[136.76,-12.16],[136.88,-12.22],[136.93,-12.35],[136.98,-12.35],[136.77,-12.54],[136.81,-12.46],[136.74,-12.48],[136.76,-12.57],[136.69,-12.71],[136.61,-12.71],[136.61,-12.83],[136.56,-12.75],[136.53,-12.8],[136.47,-12.77],[136.49,-12.85],[136.66,-13],[136.5,-12.98],[136.57,-13.06],[136.47,-13.24],[136.44,-13.22],[136.32,-13.31],[136.39,-13.23],[136.33,-13.05],[136.31,-13.16],[136.25,-13.13],[136.16,-13.26],[136.15,-13.12],[136.05,-13.23],[136.05,-13.31],[136.01,-13.22],[135.91,-13.28],[135.88,-13.37],[135.97,-13.43],[135.85,-13.46],[135.84,-13.6],[135.92,-13.68],[135.89,-13.71],[135.97,-13.74],[136.08,-13.66],[135.92,-13.96],[135.91,-14.2],[135.76,-14.27],[135.52,-14.65],[135.37,-14.72],[135.47,-14.95],[136.22,-15.41],[136.27,-15.56],[136.53,-15.72],[136.59,-15.71],[136.72,-15.86],[136.72,-15.94],[136.79,-15.9],[136.93,-15.93],[136.99,-15.86],[137.36,-16.12],[137.75,-16.25],[138,-16.54],[138,-26],[129,-26],[129,-14.87]]],[[[136.95,-14.18],[136.95,-14.28],[136.9,-14.3],[136.64,-14.28],[136.43,-14.2],[136.32,-14.23],[136.44,-14.12],[136.41,-13.82],[136.59,-13.81],[136.63,-13.78],[136.57,-13.69],[136.62,-13.72],[136.72,-13.65],[136.68,-13.74],[136.73,-13.84],[136.81,-13.85],[136.84,-13.75],[136.9,-13.76],[136.86,-13.92],[136.77,-13.94],[136.81,-14.03],[136.7,-14.07],[136.7,-14.13],[136.74,-14.19],[136.79,-14.15],[136.88,-14.21],[136.98,-14.15],[136.95,-14.18]]],[[[130.54,-11.71],[130.63,-11.8],[130.5,-11.84],[130.32,-11.77],[130.08,-11.83],[130.02,-11.78],[130.07,-11.76],[130.07,-11.67],[130.19,-11.68],[130.2,-11.51],[130.15,-11.49],[130.34,-11.32],[130.39,-11.52],[130.46,-11.59],[130.45,-11.7],[130.54,-11.71]]],[[[131.54,-11.41],[131.47,-11.49],[131.47,-11.6],[131.39,-11.58],[131.29,-11.72],[130.96,-11.93],[130.5,-11.65],[130.37,-11.2],[130.4,-11.15],[130.52,-11.3],[130.59,-11.29],[130.57,-11.39],[130.66,-11.33],[130.7,-11.43],[130.92,-11.31],[131.02,-11.41],[131.05,-11.32],[131.15,-11.25],[131.22,-11.4],[131.21,-11.25],[131.27,-11.19],[131.3,-11.28],[131.43,-11.25],[131.47,-11.39],[131.54,-11.41]]],[[[136.76,-11.04],[136.72,-11.21],[136.54,-11.44],[136.48,-11.45],[136.76,-11.04]]],[[[132.49,-11.16],[132.47,-11.03],[132.55,-11.03],[132.6,-10.97],[132.6,-11.34],[132.49,-11.16]]]]}},{"type":"Feature","properties":{"id":"AUS-SA","nome":"South Australia","pais":"AUS","tipo":"State","lat":-29.65,"lng":135.78},"geometry":{"type":"MultiPolygon","coordinates":[[[[134.2,-32.5],[134.05,-32.46],[133.86,-32.55],[133.87,-32.43],[133.95,-32.39],[133.65,-32.1],[133.59,-32.1],[133.56,-32.17],[133.48,-32.11],[133.42,-32.13],[133.49,-32.2],[133.27,-32.22],[132.98,-32.11],[132.78,-31.95],[132.52,-31.94],[132.45,-31.98],[132.47,-32.03],[132.23,-32.03],[131.78,-31.73],[131.18,-31.48],[130.79,-31.61],[130.16,-31.57],[129,-31.69],[129,-26],[141,-26],[140.97,-38.06],[140.69,-38.07],[140.4,-37.92],[140.11,-37.52],[139.99,-37.49],[139.74,-37.18],[139.79,-37.13],[139.67,-36.95],[139.82,-36.88],[139.86,-36.77],[139.85,-36.62],[139.73,-36.37],[139.46,-35.96],[138.92,-35.58],[139,-35.59],[139.45,-35.93],[139.67,-36.23],[139.59,-36.02],[139.48,-35.9],[139.04,-35.6],[139.16,-35.5],[139.23,-35.55],[139.23,-35.69],[139.34,-35.69],[139.36,-35.59],[139.22,-35.51],[139.36,-35.49],[139.36,-35.38],[139.18,-35.32],[139.1,-35.39],[138.96,-35.41],[139.03,-35.52],[138.79,-35.48],[138.99,-35.55],[138.75,-35.54],[138.53,-35.65],[138.2,-35.67],[138.11,-35.62],[138.14,-35.54],[138.44,-35.34],[138.51,-35.04],[138.49,-34.79],[138.55,-34.78],[138.29,-34.5],[138.08,-34.13],[138.01,-34.24],[138.04,-34.31],[137.89,-34.53],[137.91,-34.62],[137.75,-35.13],[137.67,-35.18],[137.43,-35.12],[137.17,-35.24],[137.04,-35.23],[136.91,-35.3],[136.84,-35.26],[136.96,-35.1],[136.94,-35.03],[137.02,-34.9],[137.39,-34.95],[137.45,-34.92],[137.51,-34.62],[137.48,-34.47],[137.41,-34.47],[137.48,-34.36],[137.45,-34.16],[137.55,-34.09],[137.53,-34.02],[137.63,-33.92],[137.6,-33.88],[137.88,-33.6],[137.93,-33.62],[137.81,-33.26],[137.85,-33.19],[138.04,-33.14],[138.04,-33.08],[137.96,-33],[137.9,-32.79],[137.94,-32.75],[137.85,-32.7],[137.77,-32.52],[137.78,-32.98],[137.63,-32.96],[137.45,-33.14],[137.37,-33.41],[137.22,-33.65],[137.02,-33.73],[136.95,-33.68],[136.88,-33.75],[136.96,-33.75],[136.61,-33.9],[136.37,-34.07],[136.23,-34.31],[136.11,-34.38],[136.1,-34.53],[136.07,-34.48],[135.94,-34.53],[135.94,-34.64],[135.87,-34.67],[135.88,-34.77],[135.8,-34.81],[136.02,-34.74],[135.97,-34.88],[136.01,-34.98],[135.96,-35.01],[135.78,-34.86],[135.63,-34.95],[135.46,-34.73],[135.32,-34.69],[135.29,-34.59],[135.11,-34.6],[135.21,-34.43],[135.21,-34.49],[135.33,-34.53],[135.37,-34.63],[135.5,-34.61],[135.44,-34.6],[135.44,-34.55],[135.39,-34.57],[135.35,-34.28],[135.23,-34.14],[135.27,-34.02],[135.19,-33.89],[134.84,-33.63],[134.86,-33.48],[134.81,-33.35],[134.68,-33.23],[134.73,-33.23],[134.71,-33.17],[134.58,-33.15],[134.66,-33.23],[134.63,-33.25],[134.48,-33.16],[134.36,-33.15],[134.33,-33.21],[134.23,-33.05],[134.15,-33.03],[134.21,-33],[134.19,-32.95],[134.07,-32.93],[134.13,-32.84],[134.07,-32.71],[134.22,-32.73],[134.21,-32.81],[134.3,-32.68],[134.2,-32.5]]],[[[138.13,-35.82],[138.05,-35.92],[137.82,-35.86],[137.63,-35.91],[137.6,-36.03],[137.46,-36.08],[137.23,-35.98],[137.14,-36.04],[136.72,-36.06],[136.53,-35.91],[136.6,-35.76],[137.34,-35.58],[137.62,-35.58],[137.58,-35.65],[137.65,-35.66],[137.58,-35.73],[137.78,-35.74],[137.81,-35.81],[137.94,-35.73],[138.13,-35.82]]]]}},{"type":"Feature","properties":{"id":"AUS-QLD","nome":"Queensland","pais":"AUS","tipo":"State","lat":-23.14,"lng":144.78},"geometry":{"type":"MultiPolygon","coordinates":[[[[138,-16.54],[138.29,-16.75],[138.66,-16.78],[139.01,-16.9],[139.16,-17.03],[139.15,-17.17],[139.24,-17.32],[139.44,-17.38],[139.64,-17.53],[139.93,-17.62],[140,-17.71],[140.51,-17.64],[140.85,-17.44],[140.95,-17.02],[141.2,-16.7],[141.29,-16.5],[141.43,-16.06],[141.38,-15.93],[141.44,-15.65],[141.66,-15.09],[141.52,-14.48],[141.6,-14.11],[141.47,-13.87],[141.53,-13.57],[141.69,-13.25],[141.58,-12.99],[141.75,-12.82],[141.81,-12.67],[141.88,-12.72],[141.94,-12.91],[141.91,-12.76],[142.01,-12.71],[141.82,-12.65],[141.97,-12.59],[141.8,-12.58],[141.69,-12.5],[141.74,-12.45],[141.66,-12.45],[141.7,-12.54],[141.59,-12.54],[141.72,-12.23],[141.81,-12.24],[141.75,-12.21],[141.83,-12.01],[141.91,-11.95],[141.92,-12.11],[141.96,-12.04],[142.03,-12.04],[141.95,-11.98],[141.95,-11.9],[142.13,-11.34],[142.15,-10.95],[142.32,-10.9],[142.45,-10.71],[142.55,-10.69],[142.62,-10.75],[142.52,-10.85],[142.5,-10.95],[142.59,-10.86],[142.67,-11],[142.74,-10.98],[142.8,-11.28],[142.87,-11.38],[142.82,-11.48],[142.86,-11.84],[142.99,-11.93],[143.1,-11.9],[143.25,-11.97],[143.09,-12.15],[143.08,-12.33],[143.25,-12.39],[143.29,-12.53],[143.43,-12.61],[143.36,-12.88],[143.54,-12.83],[143.5,-13.08],[143.6,-13.52],[143.53,-13.75],[143.69,-14.01],[143.78,-14.4],[143.94,-14.51],[144.16,-14.37],[144.2,-14.25],[144.3,-14.31],[144.44,-14.25],[144.49,-14.16],[144.58,-14.26],[144.58,-14.36],[144.63,-14.34],[144.62,-14.47],[144.68,-14.56],[144.9,-14.61],[145.03,-14.81],[145.22,-14.83],[145.28,-14.95],[145.35,-14.94],[145.24,-15.17],[145.27,-15.25],[145.35,-15.25],[145.24,-15.43],[145.37,-15.75],[145.36,-15.9],[145.46,-16.06],[145.47,-16.26],[145.4,-16.44],[145.72,-16.8],[145.77,-16.99],[145.84,-16.88],[145.96,-16.87],[145.88,-17.06],[146.15,-17.63],[146.01,-18.24],[146.18,-18.38],[146.21,-18.51],[146.34,-18.53],[146.28,-18.87],[146.46,-19.07],[146.65,-19.18],[146.75,-19.17],[146.91,-19.3],[147.01,-19.25],[147.02,-19.18],[147.13,-19.41],[147.42,-19.41],[147.42,-19.31],[147.56,-19.54],[147.57,-19.71],[147.68,-19.83],[147.79,-19.84],[147.75,-19.69],[147.82,-19.71],[147.93,-19.9],[148.07,-19.88],[148.28,-19.97],[148.31,-20.03],[148.26,-20.08],[148.4,-20.2],[148.46,-20.19],[148.42,-20.16],[148.48,-20.13],[148.44,-20.06],[148.56,-20.05],[148.61,-20.21],[148.65,-20.16],[148.68,-20.27],[148.78,-20.24],[148.94,-20.53],[148.87,-20.53],[148.81,-20.43],[148.76,-20.47],[148.7,-20.44],[148.72,-20.5],[148.66,-20.57],[148.74,-20.72],[148.84,-20.78],[148.83,-20.89],[148.88,-20.84],[149.06,-20.9],[149.03,-20.98],[149.15,-21],[149.23,-21.09],[149.2,-21.22],[149.29,-21.28],[149.29,-21.4],[149.34,-21.42],[149.29,-21.51],[149.4,-21.5],[149.43,-21.58],[149.49,-21.54],[149.44,-21.79],[149.59,-22.28],[149.7,-22.34],[149.66,-22.49],[149.81,-22.38],[150.05,-22.65],[149.92,-22.3],[149.98,-22.17],[150.05,-22.14],[150.19,-22.38],[150.61,-22.61],[150.53,-22.43],[150.57,-22.32],[150.66,-22.42],[150.68,-22.36],[150.76,-22.46],[150.67,-22.52],[150.73,-22.63],[150.77,-22.53],[150.83,-22.7],[150.79,-22.93],[150.74,-22.93],[150.76,-23.16],[150.84,-23.25],[150.79,-23.31],[150.88,-23.49],[150.81,-23.51],[150.89,-23.57],[151.01,-23.57],[151.19,-23.8],[151.28,-23.82],[151.44,-24.01],[151.54,-24.02],[151.55,-24.09],[151.58,-24.04],[151.69,-24.1],[151.64,-23.98],[151.73,-24.02],[151.72,-24.06],[151.78,-24.02],[151.81,-24.14],[151.9,-24.15],[152.12,-24.59],[152.47,-24.81],[152.51,-25],[152.64,-25.16],[152.57,-25.18],[152.91,-25.29],[152.93,-25.42],[152.87,-25.48],[152.96,-25.44],[152.97,-25.5],[152.88,-25.67],[153.02,-25.83],[153.02,-25.97],[153.06,-25.82],[153.12,-25.93],[153.21,-25.93],[153.07,-26.32],[153.14,-26.39],[153.11,-26.65],[153.21,-27.08],[153.08,-27.11],[153.04,-27.19],[153.12,-27.2],[153.06,-27.31],[153.17,-27.36],[153.4,-27.81],[153.45,-27.79],[153.4,-27.95],[153.44,-27.95],[153.51,-28.15],[153.35,-28.25],[153.19,-28.26],[153.11,-28.35],[152.75,-28.36],[152.62,-28.29],[152.56,-28.33],[152.49,-28.26],[152.39,-28.37],[151.96,-28.54],[152.07,-28.7],[152.01,-28.9],[151.86,-28.92],[151.82,-28.97],[151.73,-28.89],[151.56,-28.95],[151.52,-29.06],[151.38,-29.17],[151.29,-28.92],[151.06,-28.83],[151.05,-28.73],[150.79,-28.64],[150.45,-28.65],[150.3,-28.53],[149.7,-28.63],[149.6,-28.57],[149.48,-28.58],[149.42,-28.68],[149.09,-28.85],[148.97,-29],[141,-29],[141,-26],[138,-26],[138,-16.54]]],[[[153.49,-27.42],[153.55,-27.42],[153.46,-27.72],[153.4,-27.73],[153.4,-27.49],[153.43,-27.39],[153.49,-27.42]]],[[[153.37,-24.99],[153.06,-25.8],[152.95,-25.58],[153.07,-25.33],[153.01,-25.21],[153.23,-25.03],[153.24,-24.91],[153.14,-24.82],[153.28,-24.69],[153.28,-24.88],[153.37,-24.99]]],[[[151.27,-23.67],[151.3,-23.75],[151.21,-23.78],[150.98,-23.49],[151.07,-23.45],[151.2,-23.53],[151.24,-23.49],[151.27,-23.67]]],[[[146.32,-18.38],[146.35,-18.42],[146.31,-18.48],[146.22,-18.47],[146.1,-18.25],[146.22,-18.28],[146.23,-18.2],[146.3,-18.24],[146.32,-18.38]]],[[[139.73,-16.44],[139.71,-16.53],[139.61,-16.55],[139.55,-16.48],[139.49,-16.52],[139.52,-16.56],[139.47,-16.56],[139.44,-16.66],[139.4,-16.64],[139.3,-16.72],[139.18,-16.66],[139.14,-16.76],[139.16,-16.62],[139.29,-16.47],[139.58,-16.4],[139.73,-16.44]]]]}},{"type":"Feature","properties":{"id":"AUS-NSW","nome":"New South Wales","pais":"AUS","tipo":"State","lat":-32.48,"lng":146.78},"geometry":{"type":"Polygon","coordinates":[[[153.51,-28.15],[153.59,-28.27],[153.61,-28.87],[153.48,-29],[153.35,-29.28],[153.29,-29.83],[152.99,-30.73],[153.09,-30.93],[152.96,-31.24],[152.93,-31.48],[152.85,-31.57],[152.75,-31.84],[152.55,-32.04],[152.54,-32.44],[152.29,-32.56],[152.19,-32.65],[152.22,-32.7],[152.06,-32.7],[152.19,-32.73],[152.19,-32.77],[151.8,-32.89],[151.57,-33.29],[151.52,-33.33],[151.52,-33.26],[151.45,-33.3],[151.45,-33.36],[151.5,-33.36],[151.42,-33.53],[151.23,-33.53],[151.23,-33.61],[151.3,-33.57],[151.3,-33.65],[151.34,-33.62],[151.3,-33.83],[151.25,-33.86],[151.29,-33.87],[151.28,-33.95],[151.25,-34],[151.2,-33.96],[151.1,-34.01],[151.23,-34.04],[150.97,-34.26],[150.92,-34.49],[150.8,-34.55],[150.92,-34.6],[150.73,-34.87],[150.78,-34.9],[150.78,-34.99],[150.85,-35.01],[150.84,-35.08],[150.81,-35.11],[150.79,-35.01],[150.7,-35.03],[150.7,-35.12],[150.5,-35.29],[150.29,-35.72],[150.19,-35.73],[150.24,-35.83],[150.15,-35.9],[150.15,-36.06],[150.08,-36.08],[150.14,-36.11],[150.14,-36.32],[149.91,-36.91],[149.94,-37.06],[149.88,-37.1],[150,-37.15],[150.05,-37.27],[149.95,-37.28],[149.97,-37.51],[148.12,-36.79],[148.21,-36.62],[148.07,-36.41],[148,-36.06],[147.91,-36.01],[147.71,-35.94],[147.56,-36],[147.48,-35.95],[147.38,-35.98],[147.34,-36.08],[147.13,-36.04],[147.09,-36.17],[147.2,-36.22],[147.11,-36.24],[147.01,-36.09],[146.85,-36.1],[146.5,-35.97],[146.37,-36.05],[146.22,-36.06],[145.94,-35.97],[145.79,-35.98],[145.49,-35.83],[145.01,-35.87],[144.93,-36.01],[144.98,-36.1],[144.74,-36.14],[144.45,-35.95],[144.35,-35.78],[144.1,-35.59],[143.59,-35.35],[143.58,-35.25],[143.42,-35.19],[143.36,-35.11],[143.33,-34.78],[143.14,-34.7],[142.88,-34.68],[142.79,-34.58],[142.73,-34.6],[142.64,-34.79],[142.55,-34.77],[142.39,-34.53],[142.4,-34.34],[142.31,-34.32],[142.24,-34.19],[142.05,-34.12],[141.71,-34.11],[141.55,-34.22],[141,-34.02],[141,-29],[148.97,-29],[149.09,-28.85],[149.42,-28.68],[149.48,-28.58],[149.6,-28.57],[149.7,-28.63],[150.3,-28.53],[150.45,-28.65],[150.79,-28.64],[151.05,-28.73],[151.06,-28.83],[151.29,-28.92],[151.38,-29.17],[151.52,-29.06],[151.56,-28.95],[151.73,-28.89],[151.82,-28.97],[151.86,-28.92],[152.01,-28.9],[152.07,-28.7],[151.96,-28.54],[152.39,-28.37],[152.49,-28.26],[152.56,-28.33],[152.62,-28.29],[152.75,-28.36],[153.11,-28.35],[153.19,-28.26],[153.35,-28.25],[153.51,-28.15]],[[149.35,-35.36],[149.4,-35.32],[149.25,-35.26],[149.13,-35.14],[148.81,-35.33],[148.77,-35.65],[148.83,-35.74],[148.89,-35.73],[148.93,-35.88],[149.04,-35.92],[149.1,-35.86],[149.09,-35.61],[149.14,-35.43],[149.2,-35.37],[149.35,-35.36]]]}},{"type":"Feature","properties":{"id":"AUS-X02~","nome":"Jervis Bay Territory","pais":"AUS","tipo":"Territory","lat":-35.15,"lng":150.69},"geometry":{"type":"Polygon","coordinates":[[[150.7,-35.12],[150.77,-35.12],[150.76,-35.18],[150.61,-35.19],[150.7,-35.12]]]}},{"type":"Feature","properties":{"id":"AUS-VIC","nome":"Victoria","pais":"AUS","tipo":"State","lat":-37.01,"lng":144.75},"geometry":{"type":"Polygon","coordinates":[[[149.97,-37.51],[149.78,-37.56],[149.79,-37.51],[149.72,-37.52],[149.77,-37.58],[149.68,-37.69],[149.49,-37.78],[148.31,-37.82],[147.76,-37.99],[146.85,-38.68],[146.22,-38.71],[146.18,-38.76],[146.29,-38.91],[146.48,-38.81],[146.44,-39.02],[146.48,-39.06],[146.39,-39.14],[146.18,-38.87],[146.09,-38.82],[145.92,-38.91],[145.76,-38.66],[145.85,-38.7],[145.81,-38.65],[145.6,-38.68],[145.51,-38.58],[145.37,-38.54],[145.43,-38.5],[145.42,-38.43],[145.56,-38.39],[145.46,-38.23],[145.26,-38.24],[145.2,-38.32],[145.23,-38.41],[145.11,-38.41],[144.94,-38.51],[144.68,-38.33],[144.8,-38.38],[144.98,-38.34],[145.12,-38.16],[145.11,-38.05],[144.93,-37.87],[144.52,-38.11],[144.37,-38.12],[144.52,-38.18],[144.7,-38.15],[144.65,-38.29],[144.4,-38.3],[143.54,-38.86],[143.36,-38.76],[143.22,-38.76],[143.06,-38.64],[142.81,-38.58],[142.5,-38.37],[142.18,-38.4],[141.95,-38.28],[141.76,-38.26],[141.63,-38.31],[141.65,-38.4],[141.56,-38.44],[141.48,-38.38],[141.39,-38.4],[141.37,-38.29],[140.97,-38.06],[140.97,-33.99],[141.05,-34.06],[141.24,-34.08],[141.55,-34.22],[141.75,-34.1],[142.05,-34.12],[142.24,-34.19],[142.31,-34.32],[142.4,-34.34],[142.39,-34.53],[142.56,-34.77],[142.64,-34.79],[142.73,-34.6],[142.79,-34.58],[142.88,-34.68],[143.14,-34.7],[143.33,-34.78],[143.36,-35.11],[143.42,-35.19],[143.58,-35.25],[143.59,-35.35],[144.1,-35.59],[144.35,-35.78],[144.45,-35.95],[144.74,-36.14],[144.98,-36.1],[144.93,-36.01],[145.01,-35.87],[145.49,-35.83],[145.79,-35.98],[145.94,-35.97],[146.22,-36.06],[146.37,-36.05],[146.5,-35.97],[146.85,-36.1],[147.01,-36.09],[147.11,-36.24],[147.2,-36.22],[147.09,-36.17],[147.13,-36.04],[147.34,-36.08],[147.38,-35.98],[147.48,-35.95],[147.56,-36],[147.71,-35.94],[147.91,-36.01],[148,-36.06],[148.07,-36.41],[148.21,-36.62],[148.12,-36.79],[149.97,-37.51]]]}},{"type":"Feature","properties":{"id":"AUS-TAS","nome":"Tasmania","pais":"AUS","tipo":"State","lat":-42.14,"lng":146.6},"geometry":{"type":"MultiPolygon","coordinates":[[[[148,-43.23],[147.88,-43.13],[147.79,-43.24],[147.7,-43.16],[147.75,-43.11],[147.63,-43.04],[147.69,-42.94],[147.76,-43.04],[147.89,-43.03],[147.84,-42.9],[147.53,-42.84],[147.5,-42.88],[147.56,-42.98],[147.44,-43.05],[147.4,-43],[147.47,-43.01],[147.48,-42.91],[147.42,-42.93],[147.28,-42.78],[147.36,-42.93],[147.33,-43.04],[147.25,-43.03],[147.3,-43.08],[147.25,-43.13],[147.26,-43.25],[147.16,-43.27],[147.09,-43.23],[147.11,-43.15],[147.06,-43.2],[147.02,-43.11],[146.97,-43.13],[146.97,-43.2],[147.1,-43.3],[146.96,-43.34],[147.06,-43.36],[146.92,-43.43],[147.02,-43.48],[146.9,-43.53],[146.93,-43.61],[146.71,-43.63],[146.55,-43.47],[146.51,-43.53],[146.29,-43.53],[146.24,-43.48],[146.19,-43.54],[146.15,-43.51],[146.02,-43.55],[146.02,-43.45],[145.94,-43.36],[146.09,-43.35],[146.16,-43.42],[146.18,-43.36],[146.23,-43.4],[146.23,-43.32],[146.17,-43.28],[146.11,-43.34],[146.07,-43.28],[146.03,-43.32],[145.92,-43.2],[145.87,-43.27],[145.93,-43.29],[145.83,-43.29],[145.73,-43.1],[145.67,-43.1],[145.69,-43.05],[145.6,-42.97],[145.51,-42.96],[145.37,-42.76],[145.35,-42.65],[145.27,-42.6],[145.3,-42.56],[145.19,-42.2],[145.43,-42.38],[145.47,-42.51],[145.56,-42.34],[145.46,-42.33],[145.35,-42.15],[145.27,-42.22],[145.23,-42.2],[145.27,-42.12],[145.21,-41.97],[144.92,-41.7],[144.75,-41.41],[144.78,-41.37],[144.61,-41],[144.7,-40.87],[144.7,-40.66],[144.77,-40.73],[144.98,-40.74],[145.12,-40.82],[145.25,-40.79],[145.27,-40.72],[145.31,-40.76],[145.27,-40.8],[145.33,-40.84],[145.52,-40.85],[145.81,-41.03],[146.21,-41.16],[146.55,-41.13],[146.59,-41.18],[146.74,-41.07],[146.81,-41.16],[146.95,-41.16],[146.82,-41.08],[147.02,-40.98],[147.17,-41.01],[147.34,-40.94],[147.44,-41.01],[147.65,-40.83],[147.85,-40.89],[147.98,-40.74],[148.21,-40.84],[148.33,-41],[148.27,-41.05],[148.32,-41.27],[148.26,-41.35],[148.35,-41.29],[148.28,-41.45],[148.31,-41.61],[148.26,-41.8],[148.33,-41.92],[148.3,-42.05],[148.36,-42.11],[148.32,-42.17],[148.36,-42.2],[148.32,-42.28],[148.26,-42.24],[148.32,-42.12],[148.16,-42.06],[148.24,-42.01],[148.18,-41.95],[148.13,-42.06],[148.22,-42.09],[148.09,-42.1],[147.96,-42.34],[148.03,-42.33],[148.01,-42.51],[147.89,-42.55],[147.95,-42.72],[147.84,-42.87],[147.92,-42.89],[147.88,-42.87],[147.92,-42.84],[148,-42.91],[147.95,-43.07],[148,-43.23]]],[[[147.34,-43.34],[147.36,-43.4],[147.3,-43.51],[147.22,-43.42],[147.17,-43.5],[147.09,-43.43],[147.18,-43.45],[147.17,-43.37],[147.23,-43.39],[147.3,-43.26],[147.34,-43.34]]],[[[148.43,-40.37],[148.48,-40.43],[148.34,-40.5],[148.33,-40.44],[148,-40.42],[148.07,-40.35],[148.19,-40.37],[148.32,-40.3],[148.43,-40.37]]],[[[148.01,-40.15],[147.89,-40.03],[147.88,-39.89],[147.76,-39.88],[147.95,-39.71],[148.17,-39.94],[148.3,-39.96],[148.28,-40.08],[148.22,-40.13],[148.3,-40.1],[148.33,-40.22],[148.21,-40.2],[148.12,-40.27],[148.01,-40.15]]],[[[144.11,-39.89],[144.14,-39.93],[144.11,-40.03],[143.9,-40.13],[143.84,-39.92],[143.86,-39.7],[143.95,-39.65],[143.94,-39.58],[144.11,-39.67],[144.11,-39.89]]]]}},{"type":"Feature","properties":{"id":"AUS-X03~","nome":"Macquarie Island","pais":"AUS","tipo":"Estado","lat":-54.59,"lng":158.9},"geometry":{"type":"Polygon","coordinates":[[[158.89,-54.51],[158.96,-54.47],[158.88,-54.75],[158.84,-54.75],[158.89,-54.51]]]}},{"type":"Feature","properties":{"id":"AUS-ACT","nome":"Australian Capital Territory","pais":"AUS","tipo":"Territory","lat":-35.46,"lng":148.98},"geometry":{"type":"Polygon","coordinates":[[[149.13,-35.14],[149.4,-35.33],[149.2,-35.37],[149.14,-35.43],[149.09,-35.61],[149.1,-35.84],[149.04,-35.92],[148.92,-35.87],[148.88,-35.73],[148.8,-35.71],[148.77,-35.49],[148.82,-35.32],[149.13,-35.14]]]}}]}