{"type":"FeatureCollection","features":[{"type":"Feature","properties":{"id":"AZE-QAZ","nome":"Qazax","pais":"AZE","tipo":"District","lat":41.08,"lng":45.2},"geometry":{"type":"Polygon","coordinates":[[[45.17,41.11],[45.2,41.14],[45.03,41.2],[45,41.29],[45.1,41.35],[45.39,41.25],[45.38,41.01],[45.06,41.08],[45.17,41.11]]]}},{"type":"Feature","properties":{"id":"AZE-AGA","nome":"Ağstafa","pais":"AZE","tipo":"District","lat":41.19,"lng":45.43},"geometry":{"type":"Polygon","coordinates":[[[45.44,40.95],[45.38,41.02],[45.39,41.25],[45.1,41.34],[45.25,41.44],[45.74,41.34],[45.69,41.3],[45.77,41.23],[45.57,41.15],[45.58,41.05],[45.44,40.95]]]}},{"type":"Feature","properties":{"id":"AZE-TOV","nome":"Tovuz","pais":"AZE","tipo":"District","lat":41.07,"lng":45.82},"geometry":{"type":"Polygon","coordinates":[[[45.48,40.75],[45.6,40.84],[45.44,40.95],[45.58,41.05],[45.6,41.16],[45.77,41.23],[46.2,41.14],[46.09,41.01],[45.9,41.01],[45.74,40.88],[45.68,40.59],[45.48,40.75]]]}},{"type":"Feature","properties":{"id":"AZE-GAD","nome":"Gədəbəy","pais":"AZE","tipo":"District","lat":40.49,"lng":45.64},"geometry":{"type":"Polygon","coordinates":[[[45.37,40.65],[45.48,40.75],[45.68,40.59],[45.72,40.82],[45.91,40.63],[45.91,40.56],[45.84,40.52],[45.82,40.3],[45.53,40.44],[45.37,40.65]]]}},{"type":"Feature","properties":{"id":"AZE-DAS","nome":"Daşkəsən","pais":"AZE","tipo":"District","lat":40.48,"lng":46.02},"geometry":{"type":"Polygon","coordinates":[[[45.88,40.26],[45.82,40.3],[45.84,40.52],[46.03,40.67],[46.2,40.58],[46.13,40.5],[46.23,40.43],[46.16,40.31],[45.95,40.32],[45.88,40.26]]]}},{"type":"Feature","properties":{"id":"AZE-KAL","nome":"Kəlbəcər","pais":"AZE","tipo":"District","lat":40.1,"lng":46.17},"geometry":{"type":"Polygon","coordinates":[[[45.8,40],[45.89,40.02],[45.96,40.14],[45.98,40.22],[45.89,40.26],[45.95,40.32],[46.43,40.26],[46.53,40.31],[46.53,40.13],[46.64,40.15],[46.76,40.03],[46.21,39.89],[46.02,39.91],[45.88,39.8],[45.74,39.94],[45.58,39.99],[45.8,40]]]}},{"type":"Feature","properties":{"id":"AZE-LAN","nome":"Lankaran","pais":"AZE","tipo":"District","lat":39.77,"lng":46.31},"geometry":{"type":"Polygon","coordinates":[[[46.21,39.59],[45.88,39.8],[46.02,39.91],[46.1,39.88],[46.45,39.96],[46.55,39.73],[46.53,39.62],[46.72,39.64],[46.74,39.59],[46.56,39.44],[46.48,39.46],[46.53,39.54],[46.5,39.58],[46.31,39.62],[46.21,39.59]]]}},{"type":"Feature","properties":{"id":"AZE-QBI","nome":"Qubadli","pais":"AZE","tipo":"District","lat":39.34,"lng":46.59},"geometry":{"type":"Polygon","coordinates":[[[46.6,39.22],[46.37,39.38],[46.37,39.44],[46.75,39.48],[46.7,39.37],[46.82,39.23],[46.68,39.13],[46.6,39.22]]]}},{"type":"Feature","properties":{"id":"AZE-ZAN","nome":"Zəngilan","pais":"AZE","tipo":"District","lat":39.09,"lng":46.63},"geometry":{"type":"Polygon","coordinates":[[[46.51,39.18],[46.63,39.22],[46.68,39.13],[46.82,39.23],[46.87,39.17],[46.51,38.88],[46.49,39.08],[46.4,39.2],[46.51,39.18]]]}},{"type":"Feature","properties":{"id":"AZE-SAR","nome":"Şərur","pais":"AZE","tipo":"District","lat":39.59,"lng":45.02},"geometry":{"type":"Polygon","coordinates":[[[45.03,39.77],[45.14,39.68],[45.17,39.57],[45.05,39.39],[44.96,39.43],[44.89,39.61],[44.82,39.63],[45.03,39.77]]]}},{"type":"Feature","properties":{"id":"AZE-SAD","nome":"Sədərək","pais":"AZE","tipo":"District","lat":39.7,"lng":44.86},"geometry":{"type":"Polygon","coordinates":[[[44.89,39.72],[44.95,39.74],[44.82,39.63],[44.77,39.7],[44.89,39.72]]]}},{"type":"Feature","properties":{"id":"AZE-KAN","nome":"Kangarli","pais":"AZE","tipo":"District","lat":39.4,"lng":45.14},"geometry":{"type":"Polygon","coordinates":[[[45.26,39.6],[45.21,39.47],[45.23,39.32],[45.11,39.31],[45.05,39.39],[45.17,39.57],[45.26,39.6]]]}},{"type":"Feature","properties":{"id":"AZE-BAB","nome":"Babək","pais":"AZE","tipo":"District","lat":39.19,"lng":45.34},"geometry":{"type":"Polygon","coordinates":[[[45.27,39.59],[45.42,39.49],[45.36,39.43],[45.55,39.29],[45.53,39.25],[45.31,39.22],[45.53,39.16],[45.54,38.97],[45.43,39.01],[45.31,39.2],[45.15,39.21],[45.11,39.31],[45.23,39.32],[45.21,39.47],[45.27,39.59]]]}},{"type":"Feature","properties":{"id":"AZE-SAH","nome":"Şahbuz","pais":"AZE","tipo":"District","lat":39.42,"lng":45.58},"geometry":{"type":"Polygon","coordinates":[[[45.42,39.49],[45.74,39.57],[45.8,39.54],[45.8,39.45],[45.71,39.31],[45.53,39.29],[45.36,39.43],[45.42,39.49]]]}},{"type":"Feature","properties":{"id":"AZE-CUL","nome":"Culfa","pais":"AZE","tipo":"District","lat":39.14,"lng":45.68},"geometry":{"type":"Polygon","coordinates":[[[45.76,39.36],[45.9,39.29],[45.73,39.06],[45.72,39.01],[45.79,38.96],[45.54,38.97],[45.53,39.16],[45.47,39.19],[45.55,39.29],[45.76,39.36]]]}},{"type":"Feature","properties":{"id":"AZE-ORD","nome":"Ordubad","pais":"AZE","tipo":"District","lat":39.1,"lng":45.93},"geometry":{"type":"Polygon","coordinates":[[[45.9,39.29],[45.99,39.25],[45.96,39.15],[46.14,38.86],[45.77,38.94],[45.72,39.01],[45.9,39.29]]]}},{"type":"Feature","properties":{"id":"AZE-BAL","nome":"Balakən","pais":"AZE","tipo":"District","lat":41.74,"lng":46.45},"geometry":{"type":"Polygon","coordinates":[[[46.43,41.89],[46.54,41.87],[46.57,41.79],[46.72,41.81],[46.49,41.6],[46.33,41.55],[46.19,41.61],[46.19,41.74],[46.31,41.76],[46.43,41.89]]]}},{"type":"Feature","properties":{"id":"AZE-ZAQ","nome":"Zaqatala","pais":"AZE","tipo":"District","lat":41.57,"lng":46.65},"geometry":{"type":"Polygon","coordinates":[[[46.73,41.85],[47,41.61],[46.99,41.52],[46.75,41.51],[46.61,41.35],[46.3,41.51],[46.28,41.57],[46.52,41.62],[46.73,41.85]]]}},{"type":"Feature","properties":{"id":"AZE-XAC","nome":"Xaçmaz","pais":"AZE","tipo":"District","lat":41.52,"lng":48.77},"geometry":{"type":"Polygon","coordinates":[[[48.46,41.72],[48.58,41.85],[48.62,41.82],[49.08,41.36],[48.68,41.35],[48.56,41.59],[48.51,41.6],[48.51,41.7],[48.46,41.72]]]}},{"type":"Feature","properties":{"id":"AZE-QUS","nome":"Qusar","pais":"AZE","tipo":"District","lat":41.4,"lng":48.19},"geometry":{"type":"Polygon","coordinates":[[[47.98,41.35],[48.05,41.46],[48.23,41.51],[48.39,41.6],[48.46,41.72],[48.51,41.7],[48.49,41.65],[48.56,41.59],[48.58,41.48],[47.93,41.16],[47.82,41.18],[47.98,41.35]]]}},{"type":"Feature","properties":{"id":"AZE-OGU","nome":"Oğuz","pais":"AZE","tipo":"District","lat":41.04,"lng":47.49},"geometry":{"type":"Polygon","coordinates":[[[47.37,41.26],[47.69,41.21],[47.57,40.8],[47.38,40.89],[47.27,41.02],[47.37,41.26]]]}},{"type":"Feature","properties":{"id":"AZE-SA","nome":"Şəki","pais":"AZE","tipo":"District","lat":41.05,"lng":47.16},"geometry":{"type":"Polygon","coordinates":[[[47.18,41.49],[47.25,41.32],[47.37,41.26],[47.27,41.02],[47.56,40.77],[47.26,40.79],[46.93,40.91],[46.93,41.02],[46.81,41.13],[46.87,41.3],[47.14,41.42],[47.18,41.49]]]}},{"type":"Feature","properties":{"id":"AZE-QAX","nome":"Qax","pais":"AZE","tipo":"District","lat":41.38,"lng":46.8},"geometry":{"type":"Polygon","coordinates":[[[47.11,41.57],[47.18,41.49],[47.14,41.42],[46.89,41.31],[46.81,41.21],[46.81,41.13],[46.93,41.02],[46.93,40.91],[46.76,40.97],[46.73,41.07],[46.62,41.11],[46.69,41.27],[46.64,41.37],[46.75,41.51],[47.11,41.57]]]}},{"type":"Feature","properties":{"id":"AZE-QAB","nome":"Qəbələ","pais":"AZE","tipo":"District","lat":40.96,"lng":47.78},"geometry":{"type":"Polygon","coordinates":[[[47.74,41.19],[47.93,41.16],[48.03,41.06],[47.95,40.99],[47.98,40.88],[47.92,40.81],[47.73,40.67],[47.59,40.64],[47.53,40.76],[47.69,41.21],[47.74,41.19]]]}},{"type":"Feature","properties":{"id":"AZE-SMX","nome":"Samux","pais":"AZE","tipo":"District","lat":40.88,"lng":46.42},"geometry":{"type":"Polygon","coordinates":[[[46.58,41.09],[46.73,41.07],[46.76,40.97],[46.47,40.68],[46.41,40.69],[46.26,40.87],[46.31,41.02],[46.09,41.18],[46.23,41.2],[46.47,41.04],[46.58,41.09]]]}},{"type":"Feature","properties":{"id":"AZE-IMI","nome":"İmişli","pais":"AZE","tipo":"District","lat":39.91,"lng":48.06},"geometry":{"type":"Polygon","coordinates":[[[47.96,39.71],[47.79,39.66],[47.89,39.77],[47.75,39.85],[47.74,39.94],[47.82,40.03],[47.75,40.08],[47.96,40.08],[47.97,40.12],[48.07,40.14],[48.16,40.05],[48.31,40.05],[48.23,39.95],[48.21,39.83],[48.35,39.74],[48.38,39.62],[48.27,39.57],[47.96,39.71]]]}},{"type":"Feature","properties":{"id":"AZE-BIL","nome":"Biləsuvar","pais":"AZE","tipo":"District","lat":39.46,"lng":48.37},"geometry":{"type":"Polygon","coordinates":[[[48.33,39.38],[47.96,39.72],[48.27,39.57],[48.43,39.66],[48.77,39.61],[48.76,39.41],[48.68,39.42],[48.61,39.3],[48.51,39.38],[48.38,39.3],[48.33,39.38]]]}},{"type":"Feature","properties":{"id":"AZE-CAL","nome":"Cəlilabad","pais":"AZE","tipo":"District","lat":39.18,"lng":48.43},"geometry":{"type":"Polygon","coordinates":[[[48.3,39.02],[48.27,39.11],[48.12,39.21],[48.12,39.3],[48.33,39.38],[48.38,39.3],[48.51,39.38],[48.61,39.3],[48.68,39.42],[48.76,39.41],[48.71,39.32],[48.74,39.15],[48.65,39.13],[48.67,39.09],[48.53,39],[48.3,39.02]]]}},{"type":"Feature","properties":{"id":"AZE-YAR","nome":"Yardımlı","pais":"AZE","tipo":"District","lat":38.87,"lng":48.27},"geometry":{"type":"Polygon","coordinates":[[[48.23,38.71],[48.01,38.82],[47.99,38.89],[48.42,39.03],[48.55,38.94],[48.23,38.71]]]}},{"type":"Feature","properties":{"id":"AZE-LER","nome":"Lerik","pais":"AZE","tipo":"District","lat":38.71,"lng":48.48},"geometry":{"type":"Polygon","coordinates":[[[48.34,38.6],[48.23,38.71],[48.55,38.94],[48.58,38.78],[48.67,38.74],[48.72,38.61],[48.59,38.55],[48.54,38.47],[48.42,38.62],[48.34,38.6]]]}},{"type":"Feature","properties":{"id":"AZE-CAB","nome":"Cəbrayıl","pais":"AZE","tipo":"District","lat":39.28,"lng":46.98},"geometry":{"type":"Polygon","coordinates":[[[47.01,39.19],[46.87,39.17],[46.76,39.26],[46.71,39.4],[46.81,39.4],[46.83,39.48],[46.99,39.38],[47.05,39.47],[47.26,39.37],[47.1,39.31],[47.01,39.19]]]}},{"type":"Feature","properties":{"id":"AZE-FUZ","nome":"Füzuli","pais":"AZE","tipo":"District","lat":39.56,"lng":47.32},"geometry":{"type":"Polygon","coordinates":[[[47.62,39.57],[47.26,39.37],[47.05,39.47],[47.11,39.56],[47.02,39.57],[47.1,39.62],[47.05,39.64],[47.47,39.74],[47.62,39.57]]]}},{"type":"Feature","properties":{"id":"AZE-BEY","nome":"Beyləqan","pais":"AZE","tipo":"District","lat":39.76,"lng":47.66},"geometry":{"type":"Polygon","coordinates":[[[47.79,39.66],[47.62,39.57],[47.43,39.78],[47.46,39.85],[47.65,39.92],[47.76,40.16],[47.79,40.11],[47.75,40.08],[47.82,40.03],[47.74,39.94],[47.75,39.85],[47.89,39.77],[47.79,39.66]]]}},{"type":"Feature","properties":{"id":"AZE-AST","nome":"Astara","pais":"AZE","tipo":"District","lat":38.49,"lng":48.7},"geometry":{"type":"Polygon","coordinates":[[[48.61,38.4],[48.54,38.47],[48.57,38.54],[48.87,38.6],[48.87,38.43],[48.61,38.4]]]}},{"type":"Feature","properties":{"id":"AZE-SBN","nome":"Dəvəçi","pais":"AZE","tipo":"District","lat":41.2,"lng":48.91},"geometry":{"type":"Polygon","coordinates":[[[49.08,41.36],[49.17,41.14],[48.95,41.17],[48.92,41.05],[48.82,40.98],[48.84,40.89],[48.78,40.86],[48.68,40.9],[48.66,41],[48.72,41.06],[48.64,41.13],[48.75,41.24],[48.74,41.35],[49.08,41.36]]]}},{"type":"Feature","properties":{"id":"AZE-SIY","nome":"Siyəzən","pais":"AZE","tipo":"District","lat":41.04,"lng":49.1},"geometry":{"type":"Polygon","coordinates":[[[49.17,41.14],[49.37,40.88],[49.19,40.87],[49.03,40.98],[48.84,40.89],[48.82,40.98],[48.92,41.05],[48.95,41.17],[49.17,41.14]]]}},{"type":"Feature","properties":{"id":"AZE-XIZ","nome":"Xizı","pais":"AZE","tipo":"District","lat":40.72,"lng":49.15},"geometry":{"type":"Polygon","coordinates":[[[49.37,40.88],[49.54,40.79],[49.53,40.66],[49.34,40.51],[49.2,40.53],[48.77,40.8],[48.81,40.88],[49.03,40.98],[49.19,40.87],[49.37,40.88]]]}},{"type":"Feature","properties":{"id":"AZE-SM","nome":"Sumqayıt","pais":"AZE","tipo":"Municipality","lat":40.58,"lng":49.6},"geometry":{"type":"Polygon","coordinates":[[[49.53,40.66],[49.71,40.58],[49.59,40.54],[49.48,40.64],[49.53,40.66]]]}},{"type":"Feature","properties":{"id":"AZE-BA","nome":"Bakı","pais":"AZE","tipo":"Municipality","lat":40.44,"lng":50.04},"geometry":{"type":"Polygon","coordinates":[[[49.71,40.59],[50.05,40.58],[50.24,40.5],[50.35,40.39],[50.39,40.22],[50.25,40.34],[49.98,40.32],[49.89,40.37],[49.82,40.29],[49.58,40.22],[49.43,40.06],[49.48,39.99],[49.42,39.94],[49.42,39.71],[49.36,39.67],[49.35,39.86],[49.29,39.95],[49.43,40.24],[49.42,40.4],[49.54,40.47],[49.89,40.51],[49.71,40.54],[49.71,40.59]]]}},{"type":"Feature","properties":{"id":"AZE-SAL","nome":"Salyan","pais":"AZE","tipo":"District","lat":39.72,"lng":49.05},"geometry":{"type":"Polygon","coordinates":[[[49.36,39.67],[49.29,39.51],[49.14,39.48],[49.05,39.55],[48.95,39.37],[48.85,39.35],[48.76,39.41],[48.77,39.61],[48.88,39.59],[48.99,39.72],[48.91,39.91],[49.26,39.88],[49.36,39.81],[49.36,39.67]]]}},{"type":"Feature","properties":{"id":"AZE-NEF","nome":"Neftçala","pais":"AZE","tipo":"District","lat":39.39,"lng":49.06},"geometry":{"type":"Polygon","coordinates":[[[49.29,39.51],[49.41,39.39],[49.41,39.32],[49.37,39.35],[49.41,39.29],[49.27,39.34],[49.23,39.16],[49.02,39.27],[48.85,39.13],[48.74,39.15],[48.71,39.32],[48.76,39.41],[48.85,39.35],[48.95,39.37],[49.05,39.55],[49.14,39.48],[49.29,39.51]]]}},{"type":"Feature","properties":{"id":"AZE-LA","nome":"Lankaran","pais":"AZE","tipo":"District","lat":38.72,"lng":48.73},"geometry":{"type":"MultiPolygon","coordinates":[[[[49.23,39.16],[49.19,39.02],[49.08,38.96],[49.06,39.01],[49.15,39.08],[49.04,39.18],[48.97,39.18],[48.93,39.12],[48.92,38.93],[48.85,39.07],[48.85,39.13],[49.02,39.27],[49.23,39.16]]],[[[48.9,38.89],[48.83,38.87],[48.87,38.6],[48.7,38.58],[48.73,38.63],[48.57,38.82],[48.59,38.87],[48.66,38.83],[48.9,38.89]]]]}},{"type":"Feature","properties":{"id":"AZE-MAS","nome":"Masallı","pais":"AZE","tipo":"District","lat":38.99,"lng":48.7},"geometry":{"type":"Polygon","coordinates":[[[48.92,38.93],[48.66,38.83],[48.48,38.99],[48.72,39.15],[48.85,39.13],[48.92,38.93]]]}},{"type":"Feature","properties":{"id":"AZE-NX","nome":"Naxçıvan","pais":"AZE","tipo":"Municipality","lat":39.21,"lng":45.42},"geometry":{"type":"Polygon","coordinates":[[[45.53,39.25],[45.47,39.19],[45.31,39.22],[45.53,39.25]]]}},{"type":"Feature","properties":{"id":"AZE-SUS","nome":"Şuşa","pais":"AZE","tipo":"District","lat":39.7,"lng":46.66},"geometry":{"type":"Polygon","coordinates":[[[46.67,39.78],[46.78,39.76],[46.79,39.66],[46.74,39.59],[46.72,39.64],[46.53,39.62],[46.54,39.76],[46.67,39.78]]]}},{"type":"Feature","properties":{"id":"AZE-XCI","nome":"Xocalı","pais":"AZE","tipo":"District","lat":39.89,"lng":46.68},"geometry":{"type":"Polygon","coordinates":[[[46.74,39.77],[46.54,39.76],[46.45,39.96],[46.7,40.02],[46.82,39.99],[46.92,39.9],[46.83,39.77],[46.91,39.67],[46.81,39.64],[46.74,39.77]]]}},{"type":"Feature","properties":{"id":"AZE-AGM","nome":"Ağdam","pais":"AZE","tipo":"District","lat":40.05,"lng":46.99},"geometry":{"type":"Polygon","coordinates":[[[46.73,40],[46.7,40.02],[46.76,40.03],[46.81,40.15],[47,40.21],[47.06,40.16],[47.23,40.17],[47.07,39.97],[47.09,39.93],[47.29,39.9],[47.16,39.83],[46.96,39.88],[46.85,39.8],[46.92,39.9],[46.73,40]]]}},{"type":"Feature","properties":{"id":"AZE-TAR","nome":"Tərtər","pais":"AZE","tipo":"District","lat":40.25,"lng":46.79},"geometry":{"type":"Polygon","coordinates":[[[47.09,40.17],[46.93,40.22],[46.81,40.15],[46.76,40.03],[46.64,40.15],[46.53,40.13],[46.5,40.27],[46.57,40.35],[46.92,40.48],[47.08,40.3],[47.09,40.17]]]}},{"type":"Feature","properties":{"id":"AZE-GOR","nome":"Goranboy","pais":"AZE","tipo":"District","lat":40.55,"lng":46.65},"geometry":{"type":"Polygon","coordinates":[[[46.76,40.4],[46.43,40.26],[46.32,40.28],[46.35,40.4],[46.5,40.54],[46.49,40.73],[46.76,40.97],[46.73,40.77],[46.83,40.71],[46.77,40.65],[46.86,40.65],[46.89,40.54],[46.96,40.52],[46.76,40.4]]]}},{"type":"Feature","properties":{"id":"AZE-XVD","nome":"Xocavənd","pais":"AZE","tipo":"District","lat":39.63,"lng":46.99},"geometry":{"type":"Polygon","coordinates":[[[46.84,39.63],[46.91,39.67],[46.83,39.77],[46.96,39.88],[47.25,39.86],[47.34,39.75],[47.05,39.64],[47.1,39.62],[47.02,39.57],[47.1,39.58],[47.1,39.5],[46.99,39.38],[46.83,39.48],[46.81,39.4],[46.73,39.42],[46.73,39.49],[46.64,39.48],[46.79,39.66],[46.84,39.63]]]}},{"type":"Feature","properties":{"id":"AZE-HAC","nome":"Hajigabul","pais":"AZE","tipo":"District","lat":40.11,"lng":48.9},"geometry":{"type":"Polygon","coordinates":[[[48.85,40.33],[49,40.16],[49.17,40.14],[49.36,39.81],[49.26,39.88],[48.93,39.91],[48.95,39.98],[48.67,40.05],[48.64,40.12],[48.46,40.14],[48.47,40.33],[48.67,40.27],[48.75,40.34],[48.85,40.33]]]}},{"type":"Feature","properties":{"id":"AZE-ABS","nome":"Abşeron","pais":"AZE","tipo":"District","lat":40.33,"lng":49.37},"geometry":{"type":"Polygon","coordinates":[[[49.08,40.15],[49,40.16],[48.85,40.33],[48.94,40.29],[49.26,40.51],[49.4,40.53],[49.48,40.64],[49.59,40.54],[49.89,40.51],[49.54,40.47],[49.42,40.4],[49.43,40.24],[49.29,39.95],[49.17,40.14],[49.08,40.15]]]}},{"type":"Feature","properties":{"id":"AZE-GYG","nome":"Xanlar","pais":"AZE","tipo":"District","lat":40.46,"lng":46.3},"geometry":{"type":"Polygon","coordinates":[[[46.47,40.68],[46.5,40.54],[46.35,40.4],[46.32,40.28],[46.16,40.31],[46.23,40.43],[46.13,40.5],[46.2,40.58],[46.08,40.65],[46.22,40.69],[46.28,40.83],[46.34,40.72],[46.31,40.63],[46.47,40.68]]]}},{"type":"Feature","properties":{"id":"AZE-KUR","nome":"Kürdəmir","pais":"AZE","tipo":"District","lat":40.24,"lng":48.16},"geometry":{"type":"Polygon","coordinates":[[[48.44,40.28],[48.46,40.14],[48.32,40.04],[48.16,40.05],[48.07,40.14],[47.97,40.12],[47.96,40.08],[47.85,40.1],[47.94,40.17],[47.93,40.31],[48.03,40.51],[48.11,40.53],[48.08,40.45],[48.18,40.41],[48.32,40.43],[48.33,40.35],[48.44,40.28]]]}},{"type":"Feature","properties":{"id":"AZE-ZAR","nome":"Zərdab","pais":"AZE","tipo":"District","lat":40.24,"lng":47.69},"geometry":{"type":"Polygon","coordinates":[[[47.93,40.31],[47.94,40.17],[47.8,40.1],[47.72,40.2],[47.54,40.17],[47.48,40.25],[47.52,40.28],[47.44,40.3],[47.52,40.39],[47.67,40.29],[47.93,40.31]]]}},{"type":"Feature","properties":{"id":"AZE-SAB","nome":"Sabirabad","pais":"AZE","tipo":"District","lat":39.82,"lng":48.81},"geometry":{"type":"Polygon","coordinates":[[[48.46,40.14],[48.64,40.12],[48.67,40.05],[48.87,39.98],[48.99,39.72],[48.88,39.59],[48.56,39.66],[48.7,39.73],[48.66,39.89],[48.47,39.92],[48.41,40],[48.25,39.98],[48.46,40.14]]]}},{"type":"Feature","properties":{"id":"AZE-SR","nome":"Shirvan","pais":"AZE","tipo":"Municipality","lat":39.95,"lng":48.93},"geometry":{"type":"Polygon","coordinates":[[[48.91,39.91],[48.87,39.98],[48.96,39.98],[48.91,39.91]]]}},{"type":"Feature","properties":{"id":"AZE-SAT","nome":"Saatlı","pais":"AZE","tipo":"District","lat":39.79,"lng":48.46},"geometry":{"type":"Polygon","coordinates":[[[48.41,40],[48.47,39.92],[48.53,39.94],[48.69,39.85],[48.7,39.73],[48.54,39.61],[48.43,39.66],[48.38,39.62],[48.35,39.74],[48.21,39.83],[48.25,39.98],[48.41,40]]]}},{"type":"Feature","properties":{"id":"AZE-BAR","nome":"Bərdə","pais":"AZE","tipo":"District","lat":40.35,"lng":47.25},"geometry":{"type":"Polygon","coordinates":[[[47.23,40.17],[47.09,40.17],[47.08,40.3],[46.97,40.42],[47.21,40.56],[47.36,40.46],[47.32,40.41],[47.42,40.36],[47.44,40.29],[47.52,40.28],[47.32,40.16],[47.23,40.17]]]}},{"type":"Feature","properties":{"id":"AZE-SKR","nome":"Şəmkir","pais":"AZE","tipo":"District","lat":40.83,"lng":46.02},"geometry":{"type":"Polygon","coordinates":[[[46.28,40.83],[46.22,40.69],[46.03,40.67],[45.91,40.56],[45.91,40.63],[45.72,40.85],[45.9,41.01],[46.09,41.01],[46.2,41.14],[46.31,41.02],[46.28,40.83]]]}},{"type":"Feature","properties":{"id":"AZE-AGU","nome":"Ağsu","pais":"AZE","tipo":"District","lat":40.51,"lng":48.37},"geometry":{"type":"Polygon","coordinates":[[[48.47,40.33],[48.44,40.28],[48.33,40.35],[48.32,40.43],[48.08,40.45],[48.11,40.53],[48.41,40.7],[48.46,40.79],[48.53,40.71],[48.44,40.57],[48.65,40.49],[48.52,40.42],[48.47,40.33]]]}},{"type":"Feature","properties":{"id":"AZE-SMI","nome":"Şamaxı","pais":"AZE","tipo":"District","lat":40.38,"lng":48.6},"geometry":{"type":"Polygon","coordinates":[[[48.75,40.34],[48.67,40.27],[48.47,40.33],[48.52,40.42],[48.65,40.49],[48.44,40.57],[48.53,40.71],[48.46,40.79],[48.49,40.88],[48.39,40.95],[48.78,40.86],[48.81,40.76],[48.73,40.72],[48.69,40.6],[48.74,40.45],[48.66,40.36],[48.75,40.34]]]}},{"type":"Feature","properties":{"id":"AZE-QBA","nome":"Quba","pais":"AZE","tipo":"District","lat":41.18,"lng":48.34},"geometry":{"type":"Polygon","coordinates":[[[48.68,40.9],[48.03,41.06],[47.93,41.16],[48.58,41.48],[48.68,41.35],[48.74,41.35],[48.75,41.24],[48.64,41.13],[48.72,41.06],[48.66,41],[48.68,40.9]]]}},{"type":"Feature","properties":{"id":"AZE-UCA","nome":"Ucar","pais":"AZE","tipo":"District","lat":40.39,"lng":47.73},"geometry":{"type":"Polygon","coordinates":[[[47.99,40.44],[47.93,40.31],[47.67,40.29],[47.47,40.45],[47.48,40.52],[47.55,40.53],[47.99,40.44]]]}},{"type":"Feature","properties":{"id":"AZE-QOB","nome":"Qobustan","pais":"AZE","tipo":"District","lat":40.5,"lng":48.96},"geometry":{"type":"Polygon","coordinates":[[[48.8,40.32],[48.66,40.36],[48.74,40.45],[48.69,40.6],[48.73,40.72],[48.81,40.76],[49.26,40.51],[48.94,40.29],[48.8,40.32]]]}},{"type":"Feature","properties":{"id":"AZE-ISM","nome":"İsmayıllı","pais":"AZE","tipo":"District","lat":40.79,"lng":48.11},"geometry":{"type":"Polygon","coordinates":[[[48.11,40.53],[48.03,40.51],[48.05,40.6],[48.01,40.63],[47.73,40.67],[47.98,40.88],[47.95,40.98],[48.03,41.06],[48.33,40.99],[48.49,40.84],[48.41,40.7],[48.11,40.53]]]}},{"type":"Feature","properties":{"id":"AZE-YEV","nome":"Yevlakh Rayon","pais":"AZE","tipo":"District","lat":40.7,"lng":46.91},"geometry":{"type":"Polygon","coordinates":[[[46.97,40.42],[46.89,40.62],[46.77,40.65],[46.83,40.71],[46.73,40.77],[46.76,40.97],[47.26,40.79],[47.22,40.58],[46.97,40.42]]]}},{"type":"Feature","properties":{"id":"AZE-GA","nome":"Gəncə","pais":"AZE","tipo":"Municipality","lat":40.69,"lng":46.32},"geometry":{"type":"Polygon","coordinates":[[[46.35,40.62],[46.3,40.66],[46.39,40.72],[46.35,40.62]]]}},{"type":"Feature","properties":{"id":"AZE-MI","nome":"Mingəçevir","pais":"AZE","tipo":"Municipality","lat":40.75,"lng":46.98},"geometry":{"type":"Polygon","coordinates":[[[46.95,40.78],[47.05,40.75],[46.97,40.73],[46.95,40.78]]]}},{"type":"Feature","properties":{"id":"AZE-GOY","nome":"Göyçay","pais":"AZE","tipo":"District","lat":40.57,"lng":47.82},"geometry":{"type":"Polygon","coordinates":[[[48.03,40.51],[47.99,40.44],[47.62,40.5],[47.59,40.64],[47.73,40.67],[48.01,40.63],[48.05,40.6],[48.03,40.51]]]}},{"type":"Feature","properties":{"id":"AZE-AGS","nome":"Ağdaş","pais":"AZE","tipo":"District","lat":40.57,"lng":47.41},"geometry":{"type":"Polygon","coordinates":[[[47.52,40.39],[47.44,40.3],[47.32,40.41],[47.36,40.46],[47.26,40.54],[47.22,40.51],[47.26,40.79],[47.53,40.76],[47.53,40.67],[47.62,40.61],[47.59,40.53],[47.48,40.52],[47.47,40.45],[47.52,40.39]]]}},{"type":"Feature","properties":{"id":"AZE-AGC","nome":"Ağcabədi","pais":"AZE","tipo":"District","lat":39.97,"lng":47.41},"geometry":{"type":"Polygon","coordinates":[[[47.13,40.05],[47.23,40.19],[47.32,40.16],[47.48,40.25],[47.54,40.17],[47.72,40.2],[47.76,40.16],[47.65,39.92],[47.46,39.85],[47.47,39.74],[47.31,39.71],[47.34,39.75],[47.25,39.86],[47.26,39.93],[47.09,39.93],[47.13,40.05]]]}},{"type":"Feature","properties":{"id":"AZE-YEV2","nome":"Yevlakh","pais":"AZE","tipo":"Municipality","lat":40.6,"lng":47.15},"geometry":{"type":"Polygon","coordinates":[[[47.18,40.64],[47.17,40.57],[47.11,40.59],[47.11,40.64],[47.18,40.64]]]}},{"type":"Feature","properties":{"id":"AZE-SA2","nome":"Şəki","pais":"AZE","tipo":"Municipality","lat":41.19,"lng":47.19},"geometry":{"type":"Polygon","coordinates":[[[47.18,41.24],[47.19,41.16],[47.15,41.16],[47.18,41.24]]]}}]}