{"type":"FeatureCollection","features":[{"type":"Feature","properties":{"id":"BDI-MY","nome":"Muyinga","pais":"BDI","tipo":"Province","lat":-2.89,"lng":30.32},"geometry":{"type":"Polygon","coordinates":[[[30.38,-2.3],[30.55,-2.4],[30.41,-2.67],[30.52,-2.65],[30.41,-2.83],[30.49,-2.94],[30.34,-3.15],[30.24,-3.11],[30.27,-2.92],[30.16,-2.86],[30.08,-2.88],[30.12,-2.82],[30.08,-2.78],[30.42,-2.58],[30.38,-2.3]]]}},{"type":"Feature","properties":{"id":"BDI-KI","nome":"Kirundo","pais":"BDI","tipo":"Province","lat":-2.56,"lng":30.16},"geometry":{"type":"Polygon","coordinates":[[[30.26,-2.36],[30.37,-2.34],[30.42,-2.58],[30.08,-2.78],[29.9,-2.64],[29.93,-2.32],[30.12,-2.43],[30.21,-2.34],[30.26,-2.36]]]}},{"type":"Feature","properties":{"id":"BDI-NG","nome":"Ngozi","pais":"BDI","tipo":"Province","lat":-2.87,"lng":29.9},"geometry":{"type":"Polygon","coordinates":[[[29.8,-2.77],[29.9,-2.64],[29.98,-2.65],[30.12,-2.82],[30.08,-2.88],[30.19,-2.9],[29.91,-3.09],[29.78,-2.91],[29.61,-2.87],[29.64,-2.79],[29.8,-2.77]]]}},{"type":"Feature","properties":{"id":"BDI-CI","nome":"Cibitoke","pais":"BDI","tipo":"Province","lat":-2.87,"lng":29.24},"geometry":{"type":"Polygon","coordinates":[[[29.11,-2.59],[29.31,-2.66],[29.34,-2.83],[29.44,-2.81],[29.49,-2.91],[29.29,-3.01],[29.29,-3.1],[28.99,-2.8],[29.03,-2.62],[29.11,-2.59]]]}},{"type":"Feature","properties":{"id":"BDI-KY","nome":"Kayanza","pais":"BDI","tipo":"Province","lat":-3.02,"lng":29.66},"geometry":{"type":"Polygon","coordinates":[[[29.62,-2.79],[29.61,-2.87],[29.78,-2.91],[29.8,-2.98],[29.88,-3.01],[29.83,-3.17],[29.74,-3.2],[29.56,-3.09],[29.44,-2.81],[29.62,-2.79]]]}},{"type":"Feature","properties":{"id":"BDI-CA","nome":"Cankuzo","pais":"BDI","tipo":"Province","lat":-3.11,"lng":30.56},"geometry":{"type":"Polygon","coordinates":[[[30.49,-2.94],[30.54,-2.9],[30.64,-2.97],[30.83,-2.98],[30.78,-3.05],[30.83,-3.15],[30.8,-3.27],[30.59,-3.38],[30.44,-3.23],[30.29,-3.19],[30.49,-2.94]]]}},{"type":"Feature","properties":{"id":"BDI-RY","nome":"Ruyigi","pais":"BDI","tipo":"Province","lat":-3.44,"lng":30.34},"geometry":{"type":"Polygon","coordinates":[[[30.61,-3.38],[30.64,-3.42],[30.47,-3.51],[30.36,-3.7],[30.1,-3.64],[30.04,-3.35],[30.16,-3.32],[30.29,-3.19],[30.44,-3.23],[30.61,-3.38]]]}},{"type":"Feature","properties":{"id":"BDI-RT","nome":"Rutana","pais":"BDI","tipo":"Province","lat":-3.85,"lng":30.13},"geometry":{"type":"Polygon","coordinates":[[[30.37,-3.7],[30.38,-3.79],[30.31,-3.79],[30.18,-4.04],[29.95,-4.14],[29.89,-4.08],[29.91,-3.84],[30.1,-3.64],[30.37,-3.7]]]}},{"type":"Feature","properties":{"id":"BDI-MA","nome":"Makamba","pais":"BDI","tipo":"Province","lat":-4.22,"lng":29.77},"geometry":{"type":"Polygon","coordinates":[[[30.18,-4.04],[30,-4.27],[29.78,-4.37],[29.73,-4.46],[29.4,-4.45],[29.37,-4.19],[29.64,-4.12],[29.82,-3.94],[29.84,-4.07],[29.95,-4.14],[30.18,-4.04]]]}},{"type":"Feature","properties":{"id":"BDI-BB","nome":"Bubanza","pais":"BDI","tipo":"Province","lat":-3.1,"lng":29.39},"geometry":{"type":"Polygon","coordinates":[[[29.24,-3.27],[29.22,-3.15],[29.32,-3.07],[29.29,-3.01],[29.49,-2.91],[29.56,-3.06],[29.54,-3.27],[29.38,-3.26],[29.29,-3.31],[29.24,-3.27]]]}},{"type":"Feature","properties":{"id":"BDI-BL","nome":"Bujumbura Rural","pais":"BDI","tipo":"Province","lat":-3.62,"lng":29.42},"geometry":{"type":"Polygon","coordinates":[[[29.21,-3.41],[29.24,-3.27],[29.29,-3.31],[29.38,-3.26],[29.52,-3.28],[29.6,-3.46],[29.49,-3.72],[29.22,-3.71],[29.22,-3.57],[29.38,-3.53],[29.41,-3.32],[29.21,-3.41]]]}},{"type":"Feature","properties":{"id":"BDI-BM","nome":"Bujumbura Mairie","pais":"BDI","tipo":"Province","lat":-3.4,"lng":29.37},"geometry":{"type":"Polygon","coordinates":[[[29.22,-3.57],[29.21,-3.41],[29.39,-3.31],[29.38,-3.53],[29.22,-3.57]]]}},{"type":"Feature","properties":{"id":"BDI-BR","nome":"Bururi","pais":"BDI","tipo":"Province","lat":-3.85,"lng":29.57},"geometry":{"type":"Polygon","coordinates":[[[29.37,-4.19],[29.22,-3.9],[29.22,-3.71],[29.49,-3.72],[29.58,-3.55],[29.68,-3.72],[29.73,-3.64],[29.78,-3.65],[29.76,-3.8],[29.84,-3.73],[29.93,-3.82],[29.88,-4.06],[29.84,-4.07],[29.82,-3.94],[29.64,-4.12],[29.37,-4.19]]]}},{"type":"Feature","properties":{"id":"BDI-GI","nome":"Gitega","pais":"BDI","tipo":"Province","lat":-3.49,"lng":29.92},"geometry":{"type":"Polygon","coordinates":[[[29.88,-3.06],[29.9,-3.17],[29.96,-3.16],[30.02,-3.23],[29.98,-3.33],[30.08,-3.42],[30.1,-3.58],[30.1,-3.66],[29.95,-3.83],[29.85,-3.79],[29.84,-3.73],[29.77,-3.82],[29.78,-3.65],[29.73,-3.64],[29.81,-3.62],[29.77,-3.54],[29.87,-3.48],[29.89,-3.4],[29.8,-3.29],[29.87,-3.23],[29.81,-3.18],[29.88,-3.06]]]}},{"type":"Feature","properties":{"id":"BDI-MU","nome":"Muramvya","pais":"BDI","tipo":"Province","lat":-3.25,"lng":29.67},"geometry":{"type":"Polygon","coordinates":[[[29.56,-3.09],[29.74,-3.2],[29.81,-3.18],[29.87,-3.23],[29.8,-3.29],[29.84,-3.36],[29.57,-3.4],[29.52,-3.28],[29.56,-3.09]]]}},{"type":"Feature","properties":{"id":"BDI-MW","nome":"Mwaro","pais":"BDI","tipo":"Province","lat":-3.52,"lng":29.69},"geometry":{"type":"Polygon","coordinates":[[[29.84,-3.36],[29.89,-3.4],[29.77,-3.54],[29.81,-3.62],[29.68,-3.72],[29.58,-3.55],[29.59,-3.4],[29.84,-3.36]]]}},{"type":"Feature","properties":{"id":"BDI-KR","nome":"Karuzi","pais":"BDI","tipo":"Province","lat":-3.14,"lng":30.11},"geometry":{"type":"Polygon","coordinates":[[[29.91,-3.09],[30.19,-2.9],[30.29,-2.96],[30.24,-3.11],[30.34,-3.15],[30.02,-3.38],[29.98,-3.33],[30.02,-3.23],[29.96,-3.16],[29.9,-3.17],[29.91,-3.09]]]}}]}