{"type":"FeatureCollection","features":[{"type":"Feature","properties":{"id":"BEN-AL","nome":"Alibori","pais":"BEN","tipo":"Department","lat":11.43,"lng":2.93},"geometry":{"type":"Polygon","coordinates":[[[3.6,11.7],[3.47,11.42],[3.72,11.11],[3.73,10.81],[3.84,10.63],[2.98,10.52],[2.25,10.52],[2.26,10.86],[2.36,10.96],[2.26,11.01],[2.02,11.43],[2.29,11.67],[2.38,11.95],[2.46,11.98],[2.37,12.24],[2.66,12.29],[2.84,12.4],[3.25,12.02],[3.31,11.9],[3.5,11.84],[3.6,11.7]]]}},{"type":"Feature","properties":{"id":"BEN-BO","nome":"Borgou","pais":"BEN","tipo":"Department","lat":9.81,"lng":2.9},"geometry":{"type":"Polygon","coordinates":[[[3.84,10.63],[3.79,10.43],[3.65,10.44],[3.57,10.29],[3.67,10.15],[3.59,9.95],[3.51,9.85],[3.33,9.8],[3.33,9.65],[3.25,9.63],[3.13,9.46],[3.15,9.29],[3.08,9.1],[2.77,9.06],[2.72,8.77],[2.19,8.78],[2.2,8.82],[2.05,8.87],[2.05,9.1],[1.98,9.16],[1.97,9.27],[1.99,9.35],[2.12,9.4],[2.16,9.67],[2.08,9.81],[2.09,10.05],[2.27,10.13],[2.18,10.4],[2.23,10.5],[2.78,10.55],[2.98,10.52],[3.84,10.63]]]}},{"type":"Feature","properties":{"id":"BEN-PL","nome":"Plateau","pais":"BEN","tipo":"Department","lat":7.15,"lng":2.6},"geometry":{"type":"Polygon","coordinates":[[[2.72,7.66],[2.79,7.48],[2.74,7.41],[2.74,7.1],[2.78,7.04],[2.72,6.98],[2.72,6.8],[2.78,6.7],[2.72,6.5],[2.6,6.66],[2.52,6.94],[2.56,7],[2.53,7.18],[2.47,7.25],[2.42,7.47],[2.5,7.66],[2.72,7.66]]]}},{"type":"Feature","properties":{"id":"BEN-CO","nome":"Collines","pais":"BEN","tipo":"Department","lat":8.01,"lng":2.17},"geometry":{"type":"Polygon","coordinates":[[[2.67,7.89],[2.72,7.81],[2.72,7.66],[2.5,7.66],[2.43,7.43],[1.89,7.62],[1.62,7.62],[1.6,8.37],[1.64,8.49],[1.61,8.59],[1.83,8.61],[2.16,8.48],[2.22,8.52],[2.19,8.78],[2.72,8.77],[2.73,8.19],[2.67,7.89]]]}},{"type":"Feature","properties":{"id":"BEN-OU","nome":"Ouémé","pais":"BEN","tipo":"Department","lat":6.59,"lng":2.55},"geometry":{"type":"Polygon","coordinates":[[[2.71,6.47],[2.7,6.37],[2.46,6.38],[2.41,6.98],[2.52,6.99],[2.6,6.66],[2.71,6.47]]]}},{"type":"Feature","properties":{"id":"BEN-AK","nome":"Atakora","pais":"BEN","tipo":"Department","lat":10.7,"lng":1.56},"geometry":{"type":"Polygon","coordinates":[[[1.98,11.41],[2.02,11.43],[2.26,11.01],[2.36,10.96],[2.27,10.87],[2.27,10.52],[2.18,10.42],[2.26,10.12],[2.11,10.09],[2.09,10.03],[1.81,10.04],[1.61,9.95],[1.34,9.95],[0.77,10.37],[0.78,10.69],[0.86,10.8],[0.9,10.99],[0.96,10.97],[0.98,11.08],[1.11,11.03],[1.06,11.14],[1.16,11.17],[1.16,11.29],[1.27,11.25],[1.27,11.32],[1.33,11.29],[1.44,11.47],[1.57,11.45],[1.6,11.39],[1.84,11.45],[1.98,11.41]]]}},{"type":"Feature","properties":{"id":"BEN-DO","nome":"Donga","pais":"BEN","tipo":"Department","lat":9.32,"lng":1.77},"geometry":{"type":"Polygon","coordinates":[[[1.35,9.48],[1.34,9.95],[1.61,9.95],[1.81,10.04],[2.09,10.03],[2.08,9.81],[2.16,9.66],[2.12,9.39],[1.99,9.35],[1.97,9.22],[2.05,9.1],[2.04,8.89],[2.2,8.81],[2.21,8.5],[2.05,8.49],[1.83,8.61],[1.61,8.59],[1.6,9.08],[1.4,9.32],[1.35,9.48]]]}},{"type":"Feature","properties":{"id":"BEN-ZO","nome":"Zou","pais":"BEN","tipo":"Department","lat":7.23,"lng":2.09},"geometry":{"type":"Polygon","coordinates":[[[1.62,7.54],[1.62,7.62],[1.84,7.63],[2.43,7.43],[2.56,7],[2.43,6.99],[2.38,6.92],[2.03,6.92],[1.62,7.54]]]}},{"type":"Feature","properties":{"id":"BEN-KO","nome":"Kouffo","pais":"BEN","tipo":"Department","lat":6.98,"lng":1.81},"geometry":{"type":"Polygon","coordinates":[[[1.61,6.99],[1.62,7.54],[1.89,7.07],[2.08,6.92],[2.02,6.71],[1.9,6.75],[1.69,6.69],[1.59,6.72],[1.53,6.99],[1.61,6.99]]]}},{"type":"Feature","properties":{"id":"BEN-MO","nome":"Mono","pais":"BEN","tipo":"Department","lat":6.49,"lng":1.79},"geometry":{"type":"Polygon","coordinates":[[[1.64,6.57],[1.59,6.72],[1.69,6.69],[1.9,6.75],[2.02,6.71],[1.96,6.39],[1.99,6.29],[1.62,6.21],[1.78,6.28],[1.64,6.57]]]}},{"type":"Feature","properties":{"id":"BEN-AQ","nome":"Atlantique","pais":"BEN","tipo":"Department","lat":6.62,"lng":2.22},"geometry":{"type":"Polygon","coordinates":[[[2.36,6.34],[1.99,6.29],[1.96,6.39],[2.08,6.92],[2.38,6.92],[2.42,6.87],[2.49,6.46],[2.36,6.34]]]}},{"type":"Feature","properties":{"id":"BEN-LI","nome":"Littoral","pais":"BEN","tipo":"Department","lat":6.37,"lng":2.42},"geometry":{"type":"Polygon","coordinates":[[[2.48,6.35],[2.36,6.34],[2.47,6.4],[2.48,6.35]]]}}]}