{"type":"FeatureCollection","features":[{"type":"Feature","properties":{"id":"BGD-B","nome":"Chittagong","pais":"BGD","tipo":"Division","lat":22.42,"lng":92.13},"geometry":{"type":"MultiPolygon","coordinates":[[[[92.64,21.31],[92.57,21.25],[92.52,21.36],[92.4,21.37],[92.32,21.46],[92.23,21.4],[92.17,21.18],[92.27,21.06],[92.32,20.74],[92.05,21.15],[92.05,21.3],[91.95,21.44],[92.02,21.49],[92.03,21.7],[91.98,21.65],[91.95,21.72],[91.99,21.79],[91.9,21.79],[91.95,21.88],[91.92,21.86],[91.87,22.14],[91.81,22.18],[91.81,22.31],[91.91,22.42],[91.79,22.24],[91.68,22.53],[91.46,22.76],[91.49,22.9],[91.41,22.75],[91.29,22.74],[91.32,22.7],[91.18,22.73],[91.17,22.68],[91.26,22.63],[91.13,22.53],[91.02,22.68],[91.04,22.59],[90.95,22.58],[90.77,22.78],[90.63,23.06],[90.67,23.27],[90.6,23.45],[90.72,23.5],[90.77,23.62],[90.72,23.72],[90.76,23.85],[90.91,23.87],[91.04,24.09],[91,24.17],[91.09,24.24],[91.33,24.24],[91.27,24.15],[91.31,23.99],[91.22,23.91],[91.14,23.63],[91.29,23.36],[91.31,23.1],[91.37,23.06],[91.39,23.26],[91.59,22.94],[91.8,23.09],[91.74,23.27],[91.94,23.5],[91.92,23.72],[92.02,23.64],[92.15,23.73],[92.19,23.65],[92.26,23.71],[92.35,23.35],[92.36,22.93],[92.5,22.7],[92.64,21.31]]],[[[91.94,21.76],[91.97,21.52],[91.88,21.48],[91.85,21.73],[91.9,21.74],[91.89,21.68],[91.9,21.77],[91.94,21.76]]],[[[91.15,22.36],[91.19,22.23],[91.02,22.09],[91.07,22.39],[91.15,22.36]]]]}},{"type":"Feature","properties":{"id":"BGD-G","nome":"Sylhet","pais":"BGD","tipo":"Division","lat":24.65,"lng":91.7},"geometry":{"type":"Polygon","coordinates":[[[92.15,24.54],[92.09,24.38],[91.95,24.38],[91.97,24.32],[91.9,24.34],[91.88,24.16],[91.73,24.23],[91.68,24.15],[91.63,24.22],[91.6,24.1],[91.36,24.1],[91.31,23.99],[91.27,24.15],[91.33,24.24],[91.15,24.26],[91.25,24.38],[91.19,24.48],[91.22,24.67],[91.15,24.7],[91.13,24.88],[90.98,24.88],[90.91,24.98],[90.93,25.16],[91.24,25.2],[91.64,25.12],[92.03,25.18],[92.3,25.07],[92.49,24.88],[92.38,24.84],[92.22,24.89],[92.15,24.54]]]}},{"type":"Feature","properties":{"id":"BGD-C","nome":"Dhaka","pais":"BGD","tipo":"Division","lat":24.17,"lng":90.41},"geometry":{"type":"Polygon","coordinates":[[[89.8,25.4],[89.82,25.28],[90.36,25.15],[90.93,25.16],[90.91,24.98],[90.98,24.88],[91.13,24.88],[91.15,24.7],[91.22,24.67],[91.19,24.48],[91.25,24.38],[91,24.17],[91.04,24.09],[90.91,23.87],[90.76,23.85],[90.72,23.72],[90.77,23.62],[90.68,23.55],[90.7,23.51],[90.6,23.49],[90.63,23.6],[90.48,23.58],[90.58,23.54],[90.55,23.38],[90.25,23.47],[90.43,23.33],[90.58,23.29],[90.61,23.2],[90.57,23.08],[90.42,23.02],[90.33,23.07],[90.27,22.97],[90.21,23.07],[90.14,23.06],[89.93,22.87],[89.69,23.11],[89.76,23.17],[89.63,23.24],[89.67,23.29],[89.6,23.35],[89.6,23.47],[89.5,23.49],[89.53,23.54],[89.42,23.67],[89.31,23.73],[89.34,23.92],[89.53,23.82],[89.7,23.85],[89.7,23.98],[89.82,24.08],[89.83,24.19],[89.75,24.36],[89.8,24.72],[89.7,24.81],[89.65,24.97],[89.74,25.33],[89.8,25.4]]]}},{"type":"Feature","properties":{"id":"BGD-F","nome":"Rangpur","pais":"BGD","tipo":"Division","lat":25.76,"lng":89.11},"geometry":{"type":"Polygon","coordinates":[[[89.81,25.44],[89.68,25.16],[89.35,25.21],[89.28,25.17],[89.22,25.29],[88.85,25.33],[88.77,25.5],[88.67,25.46],[88.53,25.5],[88.26,25.79],[88.13,25.77],[88.07,25.91],[88.16,26.13],[88.33,26.22],[88.43,26.36],[88.5,26.35],[88.46,26.45],[88.32,26.47],[88.37,26.61],[88.66,26.42],[88.71,26.33],[88.66,26.26],[88.75,26.29],[88.82,26.23],[88.88,26.28],[89.02,26.23],[88.89,26.39],[88.94,26.44],[89.04,26.38],[89.1,26.33],[89.07,26.29],[89.12,26.15],[89.34,26],[89.54,25.96],[89.61,26.07],[89.56,26.14],[89.65,26.22],[89.83,25.98],[89.78,25.81],[89.83,25.63],[89.81,25.44]]]}},{"type":"Feature","properties":{"id":"BGD-E","nome":"Rajshahi","pais":"BGD","tipo":"Division","lat":24.67,"lng":89.04},"geometry":{"type":"Polygon","coordinates":[[[88.73,24.19],[88.74,24.29],[88.68,24.33],[88.63,24.29],[88.48,24.32],[88.11,24.5],[88.02,24.65],[88.14,24.84],[88.11,24.92],[88.2,24.95],[88.31,24.87],[88.41,25.02],[88.44,25.19],[88.92,25.17],[88.98,25.3],[89.22,25.29],[89.28,25.17],[89.35,25.21],[89.68,25.16],[89.68,24.85],[89.8,24.72],[89.76,24.27],[89.83,24.17],[89.8,24.06],[89.7,23.98],[89.7,23.85],[89.56,23.81],[89.32,23.93],[89.16,23.93],[88.97,24.16],[88.82,24.12],[88.73,24.19]]]}},{"type":"Feature","properties":{"id":"BGD-D","nome":"Khulna","pais":"BGD","tipo":"Division","lat":22.92,"lng":89.37},"geometry":{"type":"Polygon","coordinates":[[[89.06,22.13],[89,22.45],[88.93,22.55],[88.94,22.85],[88.84,22.98],[88.85,23.08],[88.96,23.2],[88.7,23.25],[88.77,23.49],[88.72,23.47],[88.54,23.64],[88.58,23.86],[88.71,23.93],[88.68,24.15],[88.73,24.19],[88.82,24.12],[88.96,24.17],[89.12,23.96],[89.34,23.92],[89.31,23.72],[89.42,23.67],[89.53,23.54],[89.5,23.49],[89.6,23.47],[89.6,23.35],[89.67,23.29],[89.63,23.24],[89.76,23.17],[89.69,23.11],[89.96,22.83],[89.88,22.71],[89.98,22.47],[89.92,22.39],[89.87,22.42],[89.87,22.09],[89.8,22.08],[89.88,21.88],[89.71,21.83],[89.65,21.93],[89.62,21.87],[89.7,21.78],[89.57,21.71],[89.53,21.81],[89.63,22.34],[89.55,22.21],[89.58,22.11],[89.53,21.98],[89.48,22.3],[89.52,21.96],[89.47,21.78],[89.41,21.72],[89.37,21.74],[89.35,21.97],[89.36,21.89],[89.28,21.82],[89.3,21.68],[89.23,21.64],[89.19,21.81],[89.1,21.82],[89.06,22.13]]]}},{"type":"Feature","properties":{"id":"BGD-A","nome":"Barisal","pais":"BGD","tipo":"Division","lat":22.44,"lng":90.24},"geometry":{"type":"MultiPolygon","coordinates":[[[[90.45,23.05],[90.54,22.9],[90.37,22.76],[90.49,22.72],[90.51,22.61],[90.44,22.49],[90.47,22.58],[90.56,22.56],[90.61,22.31],[90.44,22.08],[90.39,22.1],[90.39,22.29],[90.41,22.18],[90.28,21.87],[90.16,21.8],[90.09,21.83],[90.13,21.93],[90.02,21.86],[90.03,21.94],[90.24,22.2],[90.05,21.99],[90,22],[90.08,22.16],[89.98,21.99],[89.93,22],[89.88,22.27],[90.01,22.49],[89.95,22.51],[89.93,22.69],[89.88,22.71],[89.96,22.83],[89.93,22.87],[90.14,23.06],[90.21,23.07],[90.27,22.97],[90.31,23.07],[90.45,23.05]]],[[[90.79,22.5],[90.86,22.43],[90.84,22.18],[90.65,21.99],[90.68,22.1],[90.6,22.04],[90.69,22.38],[90.65,22.55],[90.56,22.6],[90.59,22.77],[90.65,22.79],[90.79,22.5]]]]}}]}