{"type":"FeatureCollection","features":[{"type":"Feature","properties":{"id":"BGR-02","nome":"Burgas","pais":"BGR","tipo":"Province","lat":42.54,"lng":27.26},"geometry":{"type":"Polygon","coordinates":[[[27.55,41.9],[27.27,42.09],[27.05,42.08],[27.02,42.18],[27.09,42.34],[26.87,42.47],[26.72,42.69],[26.51,42.7],[26.58,42.77],[26.57,42.92],[26.69,42.89],[26.8,42.95],[27.02,42.93],[27.24,42.99],[27.45,42.88],[27.62,42.91],[27.8,42.82],[27.88,42.85],[27.89,42.71],[27.73,42.71],[27.74,42.66],[27.63,42.63],[27.65,42.56],[27.51,42.55],[27.45,42.47],[27.72,42.41],[27.71,42.35],[27.79,42.31],[27.76,42.26],[27.99,42.07],[28.02,41.97],[27.81,41.99],[27.82,41.95],[27.69,41.97],[27.55,41.9]]]}},{"type":"Feature","properties":{"id":"BGR-28","nome":"Yambol","pais":"BGR","tipo":"Province","lat":42.29,"lng":26.61},"geometry":{"type":"Polygon","coordinates":[[[27.05,42.08],[26.94,42],[26.61,41.97],[26.53,41.87],[26.44,41.97],[26.37,41.94],[26.32,42],[26.14,42.05],[26.13,42.16],[26.22,42.36],[26.17,42.41],[26.72,42.69],[26.87,42.47],[27.09,42.34],[27.02,42.18],[27.05,42.08]]]}},{"type":"Feature","properties":{"id":"BGR-26","nome":"Haskovo","pais":"BGR","tipo":"Province","lat":41.85,"lng":25.88},"geometry":{"type":"Polygon","coordinates":[[[26.55,41.88],[26.53,41.82],[26.33,41.79],[26.33,41.71],[26.21,41.75],[26.06,41.71],[26.06,41.64],[25.92,41.56],[25.78,41.66],[25.61,41.63],[25.63,41.7],[25.59,41.76],[25.47,41.77],[25.39,41.85],[25.25,41.82],[25.21,41.88],[25.31,41.97],[25.28,42.13],[25.45,42.1],[25.47,42.17],[25.59,42.19],[25.61,42.13],[25.76,42.06],[25.87,42.13],[26.06,42.02],[26.32,42],[26.37,41.94],[26.44,41.97],[26.48,41.89],[26.55,41.88]]]}},{"type":"Feature","properties":{"id":"BGR-05","nome":"Vidin","pais":"BGR","tipo":"Province","lat":43.81,"lng":22.7},"geometry":{"type":"Polygon","coordinates":[[[22.58,44.06],[22.61,44.17],[22.69,44.23],[23.04,44.06],[22.89,43.99],[22.85,43.9],[22.89,43.84],[23.05,43.84],[22.98,43.77],[23.05,43.7],[22.95,43.63],[22.98,43.54],[22.8,43.49],[22.72,43.39],[22.52,43.47],[22.35,43.81],[22.4,43.99],[22.58,44.06]]]}},{"type":"Feature","properties":{"id":"BGR-14","nome":"Pernik","pais":"BGR","tipo":"Province","lat":42.61,"lng":22.85},"geometry":{"type":"Polygon","coordinates":[[[22.67,42.87],[22.74,42.9],[22.86,42.85],[23.15,42.66],[23.28,42.53],[23.22,42.37],[22.85,42.36],[22.6,42.62],[22.44,42.63],[22.48,42.73],[22.44,42.82],[22.67,42.87]]]}},{"type":"Feature","properties":{"id":"BGR-23","nome":"Sofia","pais":"BGR","tipo":"Province","lat":42.29,"lng":23.61},"geometry":{"type":"Polygon","coordinates":[[[22.74,42.9],[22.98,43.19],[23.22,43.11],[23.43,43.16],[23.55,43.01],[24.01,43.06],[24.15,42.91],[24.16,42.78],[24.4,42.75],[24.37,42.66],[24.47,42.6],[24.35,42.57],[24.23,42.63],[24.03,42.55],[23.9,42.57],[23.92,42.51],[24.05,42.45],[23.96,42.39],[23.97,42.28],[23.89,42.29],[23.8,42.19],[23.6,42.15],[23.55,42.08],[23.43,42.19],[23.34,42.17],[23.4,42.26],[23.29,42.37],[23.22,42.37],[23.28,42.53],[23.43,42.47],[23.52,42.52],[23.53,42.43],[23.65,42.44],[23.5,42.66],[23.61,42.86],[23.4,42.85],[23.27,42.9],[23.19,42.74],[23.06,42.71],[22.74,42.9]]]}},{"type":"Feature","properties":{"id":"BGR-12","nome":"Montana","pais":"BGR","tipo":"Province","lat":43.49,"lng":23.18},"geometry":{"type":"Polygon","coordinates":[[[22.98,43.19],[22.72,43.39],[22.8,43.49],[22.97,43.53],[22.95,43.63],[23.05,43.7],[22.98,43.77],[23.05,43.84],[23.23,43.88],[23.62,43.83],[23.55,43.58],[23.62,43.53],[23.44,43.49],[23.33,43.28],[23.45,43.21],[23.22,43.11],[22.98,43.19]]]}},{"type":"Feature","properties":{"id":"BGR-10","nome":"Kyustendil","pais":"BGR","tipo":"Province","lat":42.24,"lng":22.94},"geometry":{"type":"Polygon","coordinates":[[[22.35,42.31],[22.42,42.33],[22.53,42.46],[22.43,42.57],[22.44,42.63],[22.57,42.63],[22.83,42.37],[23.29,42.37],[23.4,42.26],[23.34,42.17],[23.53,42.14],[23.39,42.06],[22.93,42.09],[22.85,42.01],[22.53,42.13],[22.35,42.31]]]}},{"type":"Feature","properties":{"id":"BGR-01","nome":"Blagoevgrad","pais":"BGR","tipo":"Province","lat":41.74,"lng":23.52},"geometry":{"type":"Polygon","coordinates":[[[22.92,41.34],[22.94,41.63],[23.01,41.74],[22.88,41.87],[22.85,42.01],[22.93,42.09],[23.39,42.06],[23.76,42.18],[23.82,42.11],[23.76,41.94],[23.8,41.86],[24.12,41.65],[24.08,41.62],[24.2,41.55],[24.05,41.53],[24.03,41.45],[23.89,41.46],[23.61,41.37],[23.29,41.4],[23.16,41.32],[22.92,41.34]]]}},{"type":"Feature","properties":{"id":"BGR-19","nome":"Silistra","pais":"BGR","tipo":"Province","lat":43.94,"lng":27.01},"geometry":{"type":"Polygon","coordinates":[[[27.03,44.18],[27.25,44.12],[27.38,44.02],[27.63,44.03],[27.68,43.99],[27.48,43.83],[27.37,43.83],[27.39,43.78],[27.28,43.79],[27.22,43.67],[27,43.7],[26.84,43.84],[26.77,43.81],[26.55,43.94],[26.4,43.95],[26.33,44.05],[27.03,44.18]]]}},{"type":"Feature","properties":{"id":"BGR-18","nome":"Ruse","pais":"BGR","tipo":"Province","lat":43.62,"lng":25.93},"geometry":{"type":"Polygon","coordinates":[[[25.53,43.67],[25.78,43.73],[26.12,44],[26.33,44.05],[26.38,44.02],[26.4,43.95],[26.25,43.83],[26.36,43.76],[26.34,43.7],[26.18,43.66],[26.18,43.54],[26.04,43.51],[25.95,43.42],[26.02,43.32],[25.94,43.38],[25.61,43.41],[25.55,43.45],[25.57,43.51],[25.47,43.55],[25.48,43.67],[25.53,43.67]]]}},{"type":"Feature","properties":{"id":"BGR-08","nome":"Dobrich","pais":"BGR","tipo":"Province","lat":43.69,"lng":27.9},"geometry":{"type":"Polygon","coordinates":[[[27.68,43.99],[27.72,43.95],[27.91,43.99],[27.98,43.85],[28.22,43.76],[28.58,43.74],[28.58,43.48],[28.47,43.37],[28.32,43.43],[28.09,43.36],[27.87,43.37],[27.6,43.54],[27.52,43.5],[27.41,43.6],[27.31,43.59],[27.2,43.67],[27.28,43.79],[27.39,43.78],[27.37,43.83],[27.48,43.83],[27.68,43.99]]]}},{"type":"Feature","properties":{"id":"BGR-06","nome":"Vratsa","pais":"BGR","tipo":"Province","lat":43.43,"lng":23.83},"geometry":{"type":"Polygon","coordinates":[[[23.62,43.83],[24.34,43.76],[24.29,43.67],[24.12,43.59],[24.22,43.48],[24.23,43.34],[23.98,43.29],[23.95,43.25],[24.03,43.17],[23.94,43.03],[23.77,43.07],[23.55,43.01],[23.44,43.11],[23.46,43.15],[23.4,43.16],[23.46,43.23],[23.33,43.28],[23.44,43.49],[23.62,43.53],[23.55,43.58],[23.62,43.83]]]}},{"type":"Feature","properties":{"id":"BGR-15","nome":"Pleven","pais":"BGR","tipo":"Province","lat":43.5,"lng":24.62},"geometry":{"type":"Polygon","coordinates":[[[24.47,43.8],[25.29,43.69],[25.14,43.46],[25.23,43.34],[25.11,43.28],[25.03,43.36],[24.92,43.3],[24.75,43.31],[24.57,43.2],[24.39,43.28],[23.96,43.23],[23.98,43.29],[24.23,43.34],[24.22,43.48],[24.12,43.59],[24.47,43.8]]]}},{"type":"Feature","properties":{"id":"BGR-04","nome":"Veliko Tarnovo","pais":"BGR","tipo":"Province","lat":42.81,"lng":25.62},"geometry":{"type":"Polygon","coordinates":[[[25.29,43.69],[25.48,43.67],[25.47,43.55],[25.57,43.51],[25.55,43.45],[25.61,43.41],[25.94,43.38],[26.09,43.29],[26.11,43.18],[26.06,43.1],[26.09,42.98],[26.17,42.95],[26.06,42.82],[25.62,42.77],[25.56,43.03],[25.33,43.05],[25.08,43.16],[25.11,43.28],[25.23,43.34],[25.14,43.46],[25.29,43.69]]]}},{"type":"Feature","properties":{"id":"BGR-09","nome":"Kardzhali","pais":"BGR","tipo":"Province","lat":41.54,"lng":25.59},"geometry":{"type":"Polygon","coordinates":[[[26.06,41.64],[26.16,41.53],[26.18,41.43],[26.12,41.36],[25.88,41.3],[25.55,41.32],[25.29,41.24],[25.15,41.31],[25.14,41.52],[25.07,41.49],[24.99,41.58],[25.09,41.62],[25.04,41.76],[25.2,41.91],[25.25,41.82],[25.39,41.85],[25.47,41.77],[25.59,41.76],[25.64,41.62],[25.78,41.66],[25.92,41.56],[26.06,41.64]]]}},{"type":"Feature","properties":{"id":"BGR-21","nome":"Smolyan","pais":"BGR","tipo":"Province","lat":41.66,"lng":24.61},"geometry":{"type":"Polygon","coordinates":[[[24.3,41.52],[24.08,41.62],[24.12,41.65],[24.06,41.79],[24.15,41.79],[24.2,41.73],[24.31,41.77],[24.45,41.95],[24.56,41.89],[24.81,41.93],[25.07,41.79],[25.09,41.63],[24.99,41.58],[25.07,41.49],[25.14,41.52],[25.15,41.31],[24.89,41.4],[24.77,41.35],[24.58,41.44],[24.51,41.56],[24.3,41.52]]]}},{"type":"Feature","properties":{"id":"BGR-03","nome":"Varna","pais":"BGR","tipo":"Province","lat":43.21,"lng":27.58},"geometry":{"type":"Polygon","coordinates":[[[28.09,43.36],[28.02,43.23],[27.9,43.2],[27.95,43.17],[27.88,43.03],[27.9,42.86],[27.83,42.83],[27.62,42.91],[27.45,42.88],[27.24,42.99],[27.12,42.95],[27.08,43],[27.21,43.05],[27.16,43.08],[27.21,43.18],[27.16,43.23],[27.3,43.32],[27.27,43.38],[27.33,43.51],[27.29,43.52],[27.34,43.55],[27.46,43.56],[27.52,43.5],[27.6,43.54],[27.81,43.39],[28.09,43.36]]]}},{"type":"Feature","properties":{"id":"BGR-16","nome":"Plovdiv","pais":"BGR","tipo":"Province","lat":42.31,"lng":24.84},"geometry":{"type":"Polygon","coordinates":[[[25.01,42.75],[25.03,42.54],[25.16,42.51],[25.2,42.42],[25.11,42.4],[25.15,42.29],[25.09,42.26],[25.09,42.19],[25.3,42.15],[25.31,41.97],[25.09,41.79],[24.81,41.93],[24.56,41.89],[24.45,41.95],[24.45,42.13],[24.52,42.17],[24.39,42.46],[24.41,42.56],[24.47,42.6],[24.36,42.71],[24.5,42.79],[24.75,42.71],[25.01,42.75]]]}},{"type":"Feature","properties":{"id":"BGR-24","nome":"Stara Zagora","pais":"BGR","tipo":"Province","lat":42.48,"lng":25.57},"geometry":{"type":"Polygon","coordinates":[[[25.13,42.5],[25.03,42.54],[25.01,42.75],[25.61,42.74],[25.81,42.78],[25.88,42.57],[25.83,42.54],[25.97,42.2],[26.13,42.16],[26.14,42.05],[26.06,42.02],[25.87,42.13],[25.76,42.06],[25.61,42.13],[25.59,42.19],[25.47,42.17],[25.45,42.1],[25.24,42.18],[25.15,42.15],[25.07,42.23],[25.15,42.29],[25.11,42.4],[25.2,42.42],[25.13,42.5]]]}},{"type":"Feature","properties":{"id":"BGR-20","nome":"Sliven","pais":"BGR","tipo":"Province","lat":42.72,"lng":26.24},"geometry":{"type":"Polygon","coordinates":[[[26.02,42.15],[25.83,42.54],[25.88,42.57],[25.81,42.78],[26.06,42.82],[26.27,43.03],[26.57,42.99],[26.58,42.77],[26.5,42.73],[26.66,42.7],[26.65,42.63],[26.38,42.55],[26.34,42.46],[26.22,42.45],[26.17,42.41],[26.22,42.36],[26.17,42.18],[26.02,42.15]]]}},{"type":"Feature","properties":{"id":"BGR-27","nome":"Shumen","pais":"BGR","tipo":"Province","lat":43.29,"lng":26.99},"geometry":{"type":"Polygon","coordinates":[[[26.57,42.92],[26.55,42.96],[26.69,43.1],[26.66,43.12],[26.76,43.21],[26.73,43.3],[26.78,43.37],[26.72,43.46],[26.79,43.55],[26.92,43.59],[27.05,43.72],[27.31,43.59],[27.41,43.6],[27.29,43.52],[27.33,43.51],[27.27,43.38],[27.3,43.32],[27.16,43.23],[27.21,43.18],[27.16,43.08],[27.21,43.05],[27.08,43],[27.12,42.95],[26.8,42.95],[26.69,42.89],[26.57,42.92]]]}},{"type":"Feature","properties":{"id":"BGR-17","nome":"Razgrad","pais":"BGR","tipo":"Province","lat":43.63,"lng":26.59},"geometry":{"type":"Polygon","coordinates":[[[27,43.7],[26.6,43.34],[26.49,43.35],[26.49,43.42],[26.16,43.56],[26.18,43.66],[26.34,43.7],[26.36,43.76],[26.25,43.83],[26.4,43.95],[26.57,43.94],[26.77,43.81],[26.84,43.84],[27,43.7]]]}},{"type":"Feature","properties":{"id":"BGR-25","nome":"Targovishte","pais":"BGR","tipo":"Province","lat":43.23,"lng":26.36},"geometry":{"type":"Polygon","coordinates":[[[26.36,43.01],[26.27,43.03],[26.2,42.95],[26.09,42.98],[26.09,43.29],[25.95,43.42],[26.04,43.51],[26.27,43.54],[26.36,43.44],[26.49,43.42],[26.49,43.35],[26.77,43.4],[26.76,43.21],[26.66,43.12],[26.63,43.01],[26.36,43.01]]]}},{"type":"Feature","properties":{"id":"BGR-07","nome":"Gabrovo","pais":"BGR","tipo":"Province","lat":42.93,"lng":25.25},"geometry":{"type":"Polygon","coordinates":[[[25.01,42.75],[24.87,42.99],[24.99,43.2],[25.33,43.05],[25.56,43.03],[25.55,42.94],[25.63,42.89],[25.61,42.74],[25.01,42.75]]]}},{"type":"Feature","properties":{"id":"BGR-13","nome":"Pazardzhik","pais":"BGR","tipo":"Province","lat":42.19,"lng":24.14},"geometry":{"type":"Polygon","coordinates":[[[24.41,42.56],[24.39,42.46],[24.52,42.17],[24.45,42.13],[24.42,41.89],[24.27,41.74],[24.18,41.73],[24.15,41.79],[24.06,41.79],[24.07,41.69],[23.82,41.82],[23.76,41.94],[23.82,42.11],[23.76,42.18],[23.89,42.29],[23.96,42.27],[23.96,42.39],[24.05,42.45],[23.92,42.51],[23.9,42.57],[24.03,42.55],[24.23,42.63],[24.41,42.56]]]}},{"type":"Feature","properties":{"id":"BGR-11","nome":"Lovech","pais":"BGR","tipo":"Province","lat":43,"lng":24.54},"geometry":{"type":"Polygon","coordinates":[[[24.75,42.71],[24.59,42.79],[24.16,42.78],[24.15,42.91],[23.96,43.11],[24.02,43.11],[24.03,43.21],[24.13,43.25],[24.24,43.23],[24.39,43.28],[24.57,43.2],[24.75,43.31],[24.92,43.3],[25.03,43.36],[25.12,43.22],[24.99,43.2],[24.87,42.99],[25.01,42.76],[24.75,42.71]]]}},{"type":"Feature","properties":{"id":"BGR-22","nome":"Grad Sofiya","pais":"BGR","tipo":"Province","lat":42.68,"lng":23.36},"geometry":{"type":"Polygon","coordinates":[[[23.27,42.9],[23.4,42.85],[23.61,42.86],[23.5,42.66],[23.65,42.44],[23.53,42.43],[23.52,42.52],[23.43,42.47],[23.28,42.53],[23.06,42.71],[23.19,42.74],[23.27,42.9]]]}}]}