{"type":"FeatureCollection","features":[{"type":"Feature","properties":{"id":"BHR-14","nome":"Al Janūbīyah","pais":"BHR","tipo":"Governorate","lat":25.97,"lng":50.56},"geometry":{"type":"Polygon","coordinates":[[[50.62,26.1],[50.57,25.79],[50.46,25.99],[50.54,26.06],[50.52,26.13],[50.62,26.1]]]}},{"type":"Feature","properties":{"id":"BHR-16","nome":"Al Wusţá","pais":"BHR","tipo":"Governorate","lat":26.14,"lng":50.57},"geometry":{"type":"Polygon","coordinates":[[[50.55,26.19],[50.62,26.19],[50.62,26.1],[50.52,26.13],[50.55,26.19]]]}}]}