{"type":"FeatureCollection","features":[{"type":"Feature","properties":{"id":"BHS-IN","nome":"Inagua","pais":"BHS","tipo":"District","lat":21.06,"lng":-73.36},"geometry":{"type":"Polygon","coordinates":[[[-73.65,21.06],[-73.67,21.12],[-73.39,21.23],[-73.26,21.14],[-73.16,21.17],[-73.05,21.33],[-73,21.31],[-73.13,20.99],[-73.23,20.95],[-73.65,20.91],[-73.7,21.02],[-73.65,21.06]]]}},{"type":"Feature","properties":{"id":"BHS-MG","nome":"Mayaguana","pais":"BHS","tipo":"District","lat":22.38,"lng":-73.03},"geometry":{"type":"Polygon","coordinates":[[[-73.14,22.36],[-73.13,22.46],[-72.75,22.33],[-72.78,22.29],[-72.9,22.36],[-73.14,22.36]]]}},{"type":"Feature","properties":{"id":"BHS-AK","nome":"Acklins","pais":"BHS","tipo":"District","lat":22.37,"lng":-74},"geometry":{"type":"Polygon","coordinates":[[[-74,22.66],[-73.95,22.72],[-73.85,22.73],[-73.9,22.7],[-73.83,22.54],[-73.87,22.48],[-74.28,22.17],[-74.08,22.39],[-73.88,22.5],[-73.89,22.58],[-74.03,22.62],[-74,22.66]]]}},{"type":"Feature","properties":{"id":"BHS-CK","nome":"Crooked Island and Long Cay","pais":"BHS","tipo":"District","lat":22.75,"lng":-74.24},"geometry":{"type":"Polygon","coordinates":[[[-74.29,22.73],[-74.34,22.84],[-74.02,22.72],[-74.09,22.66],[-74.29,22.73]]]}},{"type":"Feature","properties":{"id":"BHS-EX","nome":"Exuma","pais":"BHS","tipo":"District","lat":23.59,"lng":-75.91},"geometry":{"type":"Polygon","coordinates":[[[-75.8,23.54],[-75.66,23.45],[-76.04,23.6],[-76.03,23.67],[-75.91,23.65],[-75.8,23.54]]]}},{"type":"Feature","properties":{"id":"BHS-LI","nome":"Long Island","pais":"BHS","tipo":"District","lat":23.04,"lng":-74.91},"geometry":{"type":"Polygon","coordinates":[[[-74.86,22.98],[-74.84,22.86],[-74.98,23.07],[-75.23,23.17],[-75.2,23.21],[-75.07,23.12],[-75.14,23.2],[-75.13,23.36],[-75.31,23.58],[-75.31,23.65],[-75.35,23.62],[-75.33,23.69],[-75.19,23.51],[-75.06,23.14],[-74.91,23.07],[-74.86,22.98]]]}},{"type":"Feature","properties":{"id":"BHS-SS","nome":"San Salvador","pais":"BHS","tipo":"District","lat":24.05,"lng":-74.48},"geometry":{"type":"Polygon","coordinates":[[[-74.47,24.02],[-74.56,23.95],[-74.53,24.1],[-74.46,24.14],[-74.43,24.08],[-74.48,23.98],[-74.47,24.02]]]}},{"type":"Feature","properties":{"id":"BHS-CS","nome":"Central Andros","pais":"BHS","tipo":"District","lat":24.48,"lng":-77.94},"geometry":{"type":"Polygon","coordinates":[[[-77.74,24.63],[-77.73,24.47],[-78.05,24.28],[-78.14,24.43],[-78.07,24.6],[-77.74,24.63]]]}},{"type":"Feature","properties":{"id":"BHS-MC","nome":"Mangrove Cay","pais":"BHS","tipo":"District","lat":24.08,"lng":-77.8},"geometry":{"type":"Polygon","coordinates":[[[-77.82,23.98],[-77.94,24.1],[-77.68,24.3],[-77.63,24.25],[-77.76,24.17],[-77.7,24.09],[-77.82,23.98]]]}},{"type":"Feature","properties":{"id":"BHS-SA","nome":"South Andros","pais":"BHS","tipo":"District","lat":23.78,"lng":-77.6},"geometry":{"type":"Polygon","coordinates":[[[-77.74,24.04],[-77.61,24.22],[-77.52,23.97],[-77.6,23.91],[-77.52,23.92],[-77.57,23.74],[-77.78,23.75],[-77.58,23.84],[-77.72,23.78],[-77.76,23.82],[-77.66,23.88],[-77.81,23.86],[-77.83,23.97],[-77.74,24.04]]]}},{"type":"Feature","properties":{"id":"BHS-CI","nome":"Cat Island","pais":"BHS","tipo":"District","lat":24.26,"lng":-75.39},"geometry":{"type":"Polygon","coordinates":[[[-75.31,24.22],[-75.29,24.14],[-75.51,24.14],[-75.41,24.27],[-75.76,24.66],[-75.73,24.7],[-75.63,24.65],[-75.53,24.44],[-75.31,24.22]]]}},{"type":"Feature","properties":{"id":"BHS-X01~","nome":"New Providence","pais":"BHS","tipo":"Capital","lat":25.01,"lng":-77.44},"geometry":{"type":"Polygon","coordinates":[[[-77.48,24.99],[-77.56,25.02],[-77.46,25.08],[-77.26,25.06],[-77.48,24.99]]]}},{"type":"Feature","properties":{"id":"BHS-NS","nome":"North Andros","pais":"BHS","tipo":"District","lat":24.83,"lng":-78},"geometry":{"type":"Polygon","coordinates":[[[-78.13,24.5],[-78.23,24.47],[-78.44,24.62],[-78.31,24.71],[-78.33,24.59],[-78.27,24.63],[-78.24,24.56],[-78.2,24.6],[-78.26,24.74],[-78.26,24.67],[-78.3,24.73],[-78.17,24.92],[-78.2,25.21],[-77.99,25.15],[-77.98,25],[-77.74,24.7],[-77.74,24.63],[-78.03,24.62],[-78.13,24.5]]]}},{"type":"Feature","properties":{"id":"BHS-CE","nome":"Central Eleuthera","pais":"BHS","tipo":"District","lat":25.16,"lng":-76.18},"geometry":{"type":"Polygon","coordinates":[[[-76.31,25.3],[-76.12,25.13],[-76.14,24.99],[-76.16,25.13],[-76.31,25.3]]]}},{"type":"Feature","properties":{"id":"BHS-NE","nome":"North Eleuthera","pais":"BHS","tipo":"District","lat":25.44,"lng":-76.59},"geometry":{"type":"Polygon","coordinates":[[[-76.33,25.29],[-76.59,25.42],[-76.78,25.43],[-76.74,25.56],[-76.68,25.56],[-76.69,25.49],[-76.35,25.34],[-76.33,25.29]]]}},{"type":"Feature","properties":{"id":"BHS-SE","nome":"South Eleuthera","pais":"BHS","tipo":"District","lat":24.73,"lng":-76.2},"geometry":{"type":"Polygon","coordinates":[[[-76.15,24.98],[-76.16,24.65],[-76.34,24.81],[-76.21,24.81],[-76.15,24.98]]]}},{"type":"Feature","properties":{"id":"BHS-MI","nome":"Moore's Island","pais":"BHS","tipo":"District","lat":26.3,"lng":-77.55},"geometry":{"type":"Polygon","coordinates":[[[-77.54,26.31],[-77.57,26.27],[-77.58,26.34],[-77.54,26.31]]]}},{"type":"Feature","properties":{"id":"BHS-WG","nome":"West Grand Bahama","pais":"BHS","tipo":"District","lat":26.64,"lng":-78.91},"geometry":{"type":"Polygon","coordinates":[[[-78.41,26.59],[-78.73,26.5],[-79,26.7],[-78.71,26.57],[-78.57,26.68],[-78.64,26.71],[-78.59,26.81],[-78.41,26.59]]]}},{"type":"Feature","properties":{"id":"BHS-EG","nome":"East Grand Bahama","pais":"BHS","tipo":"District","lat":26.66,"lng":-78.21},"geometry":{"type":"Polygon","coordinates":[[[-78.47,26.71],[-78.12,26.7],[-77.92,26.78],[-77.9,26.66],[-78.41,26.59],[-78.47,26.71]]]}},{"type":"Feature","properties":{"id":"BHS-CO","nome":"Central Abaco","pais":"BHS","tipo":"District","lat":26.42,"lng":-77.12},"geometry":{"type":"Polygon","coordinates":[[[-77.23,26.29],[-77.23,26.45],[-77.15,26.55],[-77.33,26.6],[-77.38,26.7],[-77.25,26.69],[-77.31,26.67],[-77.27,26.63],[-77.04,26.5],[-77.03,26.36],[-77.23,26.29]]]}},{"type":"Feature","properties":{"id":"BHS-SO","nome":"South Abaco","pais":"BHS","tipo":"District","lat":26.02,"lng":-77.24},"geometry":{"type":"Polygon","coordinates":[[[-77.03,26.36],[-77.02,26.3],[-77.16,26.25],[-77.23,25.89],[-77.41,26.03],[-77.22,26.15],[-77.23,26.29],[-77.03,26.36]]]}},{"type":"Feature","properties":{"id":"BHS-NO","nome":"North Abaco","pais":"BHS","tipo":"District","lat":26.89,"lng":-77.64},"geometry":{"type":"Polygon","coordinates":[[[-77.38,26.7],[-77.43,26.7],[-77.56,26.87],[-77.96,26.89],[-77.61,26.92],[-77.33,26.71],[-77.38,26.7]]]}}]}