{"type":"FeatureCollection","features":[{"type":"Feature","properties":{"id":"BIH-BIH","nome":"Herzegovina-Neretva","pais":"BIH","tipo":"Canton","lat":43.32,"lng":17.89},"geometry":{"type":"Polygon","coordinates":[[[17.79,42.9],[17.56,42.93],[17.66,42.97],[17.6,43.07],[17.66,43.19],[17.58,43.29],[17.75,43.3],[17.71,43.43],[17.54,43.53],[17.6,43.55],[17.59,43.63],[17.39,43.74],[17.39,43.86],[17.89,43.84],[18.21,43.6],[18.38,43.59],[18.39,43.44],[18.03,43.45],[18.06,43.21],[17.99,43.14],[18.06,43.11],[18.04,42.89],[18.37,42.64],[18.37,42.57],[17.86,42.82],[17.79,42.9]]]}},{"type":"Feature","properties":{"id":"BIH-X07~","nome":"Trebinje","pais":"BIH","tipo":"Estado","lat":43.1,"lng":18.34},"geometry":{"type":"Polygon","coordinates":[[[18.44,42.56],[18.04,42.89],[18.06,43.11],[17.99,43.14],[18.06,43.21],[18.03,43.45],[18.36,43.44],[18.38,43.32],[18.51,43.32],[18.69,43.22],[18.62,43.12],[18.64,43.02],[18.48,43.01],[18.43,42.95],[18.45,42.79],[18.55,42.67],[18.44,42.56]]]}},{"type":"Feature","properties":{"id":"BIH-X06~","nome":"Foča","pais":"BIH","tipo":"Estado","lat":43.44,"lng":18.74},"geometry":{"type":"Polygon","coordinates":[[[19.05,43.51],[19,43.55],[18.91,43.5],[19.07,43.31],[18.99,43.27],[18.95,43.33],[18.84,43.35],[18.66,43.23],[18.35,43.35],[18.39,43.59],[18.96,43.62],[19.06,43.67],[18.95,43.74],[19.24,43.78],[19.24,43.95],[19.46,43.76],[19.49,43.57],[19.41,43.54],[19.35,43.61],[19.05,43.51]]]}},{"type":"Feature","properties":{"id":"BIH-X02~","nome":"Banja Luka","pais":"BIH","tipo":"Estado","lat":44.81,"lng":17.26},"geometry":{"type":"Polygon","coordinates":[[[16.92,45.28],[17.19,45.15],[17.27,45.19],[17.48,45.11],[17.65,45.17],[17.74,45.13],[17.72,44.82],[17.78,44.72],[17.89,44.72],[17.84,44.62],[17.92,44.55],[17.92,44.47],[17.6,44.36],[17.5,44.37],[17.41,44.44],[17.15,44.46],[17.15,44.32],[17.27,44.14],[17.25,44.07],[17.13,44.08],[17.11,44.15],[16.51,44.46],[16.57,44.5],[16.85,44.46],[16.88,44.62],[16.83,44.77],[16.7,44.86],[16.33,44.89],[16.26,44.95],[16.35,44.99],[16.48,45.2],[16.81,45.18],[16.92,45.28]]]}},{"type":"Feature","properties":{"id":"BIH-BIH2","nome":"Una-Sana","pais":"BIH","tipo":"Canton","lat":44.64,"lng":16.3},"geometry":{"type":"Polygon","coordinates":[[[16.32,45],[16.36,45.01],[16.26,44.95],[16.3,44.9],[16.7,44.86],[16.83,44.77],[16.88,44.62],[16.85,44.46],[16.51,44.5],[16.48,44.41],[16.21,44.35],[16.14,44.38],[16.12,44.52],[16.01,44.54],[16.03,44.62],[15.89,44.72],[15.81,44.7],[15.72,44.79],[15.77,44.85],[15.73,44.93],[15.82,45.21],[16.02,45.21],[16.12,45.1],[16.32,45]]]}},{"type":"Feature","properties":{"id":"BIH-X01~","nome":"Doboj","pais":"BIH","tipo":"Estado","lat":44.93,"lng":18.07},"geometry":{"type":"Polygon","coordinates":[[[17.77,45.11],[17.85,45.07],[18.02,45.15],[18.28,44.99],[18.45,45.08],[18.53,44.99],[18.77,44.89],[18.75,44.84],[18.4,44.92],[18.29,44.8],[18.09,44.79],[18.09,44.73],[18.39,44.61],[18.14,44.58],[18.02,44.72],[17.82,44.71],[17.76,44.75],[17.72,44.88],[17.77,45.11]]]}},{"type":"Feature","properties":{"id":"BIH-SRP","nome":"Posavina","pais":"BIH","tipo":"Canton","lat":45.06,"lng":18.3},"geometry":{"type":"MultiPolygon","coordinates":[[[[18.48,45.07],[18.68,45.08],[18.79,45.01],[18.84,44.86],[18.78,44.84],[18.69,44.94],[18.53,44.99],[18.48,45.07]]],[[[18.24,45.16],[18.41,45.11],[18.44,45.05],[18.26,44.99],[18.14,45.1],[18.24,45.16]]]]}},{"type":"Feature","properties":{"id":"BIH-BRC","nome":"Brčko Distrikt","pais":"BIH","tipo":"Estado","lat":44.83,"lng":18.85},"geometry":{"type":"Polygon","coordinates":[[[18.84,44.88],[18.98,44.84],[18.78,44.75],[18.77,44.89],[18.78,44.84],[18.84,44.88]]]}},{"type":"Feature","properties":{"id":"BIH-X03~","nome":"Bijeljina","pais":"BIH","tipo":"Estado","lat":44.75,"lng":19.15},"geometry":{"type":"Polygon","coordinates":[[[18.97,44.86],[19.19,44.93],[19.38,44.86],[19.18,44.54],[19.1,44.59],[19.03,44.57],[18.99,44.64],[18.85,44.54],[18.73,44.67],[18.97,44.86]]]}},{"type":"Feature","properties":{"id":"BIH-BIH3","nome":"West Bosnia","pais":"BIH","tipo":"Canton","lat":43.98,"lng":16.86},"geometry":{"type":"Polygon","coordinates":[[[16.38,44.06],[16.22,44.21],[16.19,44.31],[16.53,44.46],[17.11,44.15],[17.13,44.08],[17.25,44.07],[17.33,43.94],[17.45,43.88],[17.47,43.84],[17.39,43.86],[17.38,43.78],[17.53,43.62],[17.3,43.54],[17.06,43.53],[16.38,44.06]]]}},{"type":"Feature","properties":{"id":"BIH-BIH4","nome":"West Herzegovina","pais":"BIH","tipo":"Canton","lat":43.39,"lng":17.41},"geometry":{"type":"Polygon","coordinates":[[[17.45,43.15],[17.29,43.3],[17.27,43.46],[17.06,43.53],[17.3,43.54],[17.57,43.65],[17.6,43.55],[17.54,43.53],[17.71,43.43],[17.75,43.28],[17.58,43.29],[17.66,43.19],[17.6,43.07],[17.45,43.15]]]}},{"type":"Feature","properties":{"id":"BIH-X04~","nome":"Vlasenica","pais":"BIH","tipo":"Estado","lat":44.2,"lng":19.08},"geometry":{"type":"Polygon","coordinates":[[[19.18,44.54],[19.13,44.52],[19.14,44.31],[19.32,44.26],[19.38,44.18],[19.61,44.05],[19.59,44.01],[19.36,43.97],[19.27,44.01],[19.22,43.92],[18.91,44.09],[18.74,44.12],[18.79,44.21],[18.75,44.36],[19.02,44.48],[19.07,44.59],[19.18,44.54]]]}},{"type":"Feature","properties":{"id":"BIH-BIH5","nome":"Central Bosnia","pais":"BIH","tipo":"Canton","lat":44.1,"lng":17.65},"geometry":{"type":"Polygon","coordinates":[[[17.25,44.07],[17.27,44.14],[17.15,44.32],[17.15,44.46],[17.41,44.44],[17.5,44.37],[17.73,44.38],[17.81,44.17],[17.91,44.13],[18.17,43.85],[17.98,43.77],[17.89,43.84],[17.53,43.84],[17.33,43.94],[17.25,44.07]]]}},{"type":"Feature","properties":{"id":"BIH-BIH6","nome":"Zenica-Doboj","pais":"BIH","tipo":"Canton","lat":44.28,"lng":18.25},"geometry":{"type":"Polygon","coordinates":[[[17.73,44.38],[17.92,44.47],[17.92,44.55],[17.84,44.62],[17.89,44.72],[18.02,44.72],[18.14,44.58],[18.29,44.58],[18.31,44.43],[18.51,44.3],[18.54,44.2],[18.76,44.15],[18.62,44.05],[18.44,44.11],[18.12,43.9],[17.91,44.13],[17.81,44.17],[17.73,44.38]]]}},{"type":"Feature","properties":{"id":"BIH-BIH7","nome":"Tuzla","pais":"BIH","tipo":"Canton","lat":44.53,"lng":18.55},"geometry":{"type":"Polygon","coordinates":[[[18.29,44.58],[18.38,44.58],[18.38,44.63],[18.09,44.73],[18.09,44.79],[18.29,44.8],[18.35,44.9],[18.46,44.92],[18.51,44.86],[18.75,44.84],[18.81,44.73],[18.74,44.62],[18.87,44.54],[18.95,44.63],[19.02,44.63],[19.03,44.49],[18.75,44.36],[18.76,44.15],[18.54,44.2],[18.51,44.3],[18.31,44.43],[18.29,44.58]]]}},{"type":"Feature","properties":{"id":"BIH-X05~","nome":"Sarajevo-romanija","pais":"BIH","tipo":"Estado","lat":43.93,"lng":18.75},"geometry":{"type":"Polygon","coordinates":[[[18.59,44.05],[18.74,44.12],[18.91,44.09],[19.22,43.92],[19.24,43.78],[18.74,43.77],[18.67,43.68],[18.42,43.74],[18.37,43.83],[18.5,43.84],[18.5,43.98],[18.59,44.05]]]}},{"type":"Feature","properties":{"id":"BIH-BIH8","nome":"Sarajevo","pais":"BIH","tipo":"Canton","lat":43.8,"lng":18.31},"geometry":{"type":"Polygon","coordinates":[[[18.59,44.05],[18.5,43.98],[18.5,43.84],[18.37,43.83],[18.42,43.74],[18.61,43.68],[18.58,43.64],[18.41,43.69],[18.39,43.59],[18.28,43.58],[18.04,43.69],[18.01,43.79],[18.16,43.84],[18.14,43.92],[18.2,43.99],[18.33,44],[18.44,44.11],[18.59,44.05]]]}},{"type":"Feature","properties":{"id":"BIH-BIH9","nome":"Bosnian Podrinje","pais":"BIH","tipo":"Canton","lat":43.68,"lng":18.82},"geometry":{"type":"Polygon","coordinates":[[[18.61,43.68],[18.67,43.68],[18.74,43.77],[18.88,43.77],[19.06,43.67],[18.76,43.58],[18.58,43.64],[18.61,43.68]]]}}]}