{"type":"FeatureCollection","features":[{"type":"Feature","properties":{"id":"BLR-HO","nome":"Gomel","pais":"BLR","tipo":"Region","lat":52.2,"lng":29.52},"geometry":{"type":"Polygon","coordinates":[[[31.65,52.1],[31.38,52.12],[31.23,52.04],[30.92,52.06],[30.94,51.99],[30.74,51.9],[30.52,51.6],[30.65,51.37],[30.54,51.24],[30.36,51.31],[30.32,51.4],[30.15,51.48],[29.83,51.43],[29.64,51.49],[29.47,51.39],[29.32,51.37],[29.16,51.6],[29.08,51.63],[28.8,51.53],[28.73,51.4],[28.64,51.45],[28.6,51.55],[28.33,51.53],[28.23,51.65],[28.07,51.56],[27.83,51.61],[27.79,51.51],[27.7,51.47],[27.69,51.59],[27.51,51.62],[27.56,51.79],[27.5,51.85],[27.6,52.01],[27.53,52.07],[27.54,52.22],[27.27,52.36],[27.34,52.48],[27.53,52.54],[27.71,52.44],[27.94,52.44],[27.99,52.52],[28.12,52.47],[28.34,52.48],[28.41,52.52],[28.41,52.63],[28.47,52.68],[28.82,52.72],[28.8,52.76],[28.96,52.8],[28.97,52.87],[29.09,52.88],[29.18,52.95],[29.35,52.91],[29.72,52.95],[29.63,53.1],[29.76,53.13],[29.74,53.21],[29.79,53.21],[29.75,53.32],[29.8,53.35],[30,53.34],[30.19,53.23],[30.38,53.26],[30.41,53.31],[30.91,53.31],[31,53.3],[31.11,53.2],[31.09,53.13],[31.36,53.12],[31.25,53.01],[31.57,52.77],[31.48,52.68],[31.63,52.55],[31.55,52.51],[31.61,52.37],[31.57,52.31],[31.7,52.25],[31.68,52.2],[31.77,52.13],[31.65,52.1]]]}},{"type":"Feature","properties":{"id":"BLR-BR","nome":"Brest","pais":"BLR","tipo":"Region","lat":52.43,"lng":25.38},"geometry":{"type":"Polygon","coordinates":[[[25.55,51.92],[25.14,51.95],[24.39,51.88],[24.24,51.72],[23.98,51.59],[23.62,51.62],[23.62,51.51],[23.53,51.66],[23.68,51.99],[23.64,52.08],[23.49,52.18],[23.19,52.24],[23.17,52.29],[23.39,52.51],[23.87,52.67],[23.92,52.77],[24.15,52.8],[24.54,52.74],[24.57,52.86],[24.65,52.91],[24.61,52.93],[24.69,52.96],[24.93,52.96],[24.96,52.9],[25.06,52.91],[25.06,52.84],[25.32,52.84],[25.3,52.93],[25.53,53.03],[25.6,53.13],[25.54,53.17],[25.6,53.21],[25.57,53.26],[25.71,53.39],[26.38,53.36],[26.4,53.26],[26.27,53.19],[26.52,53.06],[26.37,52.99],[26.44,52.89],[26.41,52.85],[26.59,52.88],[27.17,52.67],[27.19,52.61],[27.05,52.6],[27.04,52.54],[27.15,52.47],[27.13,52.42],[27.54,52.23],[27.53,52.07],[27.6,52.01],[27.5,51.85],[27.56,51.79],[27.51,51.62],[27.39,51.59],[27.25,51.6],[27.28,51.65],[27.19,51.66],[27.15,51.76],[26.92,51.74],[26.05,51.9],[25.55,51.92]]]}},{"type":"Feature","properties":{"id":"BLR-VI","nome":"Vitebsk","pais":"BLR","tipo":"Region","lat":55.31,"lng":28.67},"geometry":{"type":"Polygon","coordinates":[[[26.54,55.31],[26.45,55.34],[26.62,55.69],[26.82,55.71],[26.98,55.83],[27.59,55.79],[27.65,55.92],[27.93,56.11],[28.11,56.16],[28.31,56.04],[28.61,56.09],[28.73,55.95],[29.03,56.02],[29.4,55.95],[29.44,55.91],[29.34,55.79],[29.48,55.68],[29.91,55.84],[30.22,55.86],[30.47,55.79],[30.74,55.59],[30.91,55.57],[30.88,55.45],[30.92,55.39],[30.79,55.29],[30.96,55.16],[31.01,55.02],[30.91,55.02],[30.94,54.97],[30.81,54.93],[30.76,54.8],[31.17,54.62],[31.06,54.49],[31.18,54.45],[31.05,54.4],[30.69,54.42],[30.52,54.29],[30.41,54.35],[30.26,54.31],[30.31,54.38],[30.16,54.34],[30.1,54.38],[30.02,54.27],[29.83,54.34],[29.57,54.32],[29.38,54.23],[29.41,54.31],[29.37,54.35],[29.47,54.62],[29.3,54.57],[29.14,54.65],[28.88,54.62],[28.84,54.56],[28.66,54.58],[28.65,54.65],[28.57,54.66],[28.39,54.55],[28.23,54.65],[27.76,54.64],[27.68,54.75],[27.32,54.87],[27.25,55],[26.73,54.94],[26.38,54.98],[26.28,54.93],[26.17,54.99],[26.26,55.14],[26.6,55.12],[26.66,55.22],[26.8,55.27],[26.54,55.31]]]}},{"type":"Feature","properties":{"id":"BLR-HR","nome":"Grodno","pais":"BLR","tipo":"Region","lat":53.49,"lng":25.08},"geometry":{"type":"Polygon","coordinates":[[[25.98,54.94],[26.17,54.99],[26.35,54.94],[26.34,54.86],[26.54,54.75],[26.59,54.64],[26.68,54.63],[26.64,54.53],[26.58,54.54],[26.61,54.46],[26.47,54.28],[26.11,54.2],[26.08,54.14],[26.18,54.13],[26.2,54.04],[26.33,54.06],[26.43,54],[26.21,53.84],[26.31,53.8],[26.26,53.73],[26.47,53.62],[26.57,53.4],[26.27,53.35],[25.7,53.39],[25.57,53.26],[25.6,53.21],[25.54,53.17],[25.59,53.11],[25.41,52.94],[25.3,52.93],[25.32,52.84],[25.06,52.84],[25.06,52.91],[24.96,52.9],[24.93,52.96],[24.69,52.96],[24.61,52.93],[24.65,52.91],[24.57,52.86],[24.54,52.74],[24.15,52.8],[23.92,52.77],[23.91,53.01],[23.86,53.07],[23.89,53.15],[23.59,53.61],[23.49,53.94],[23.63,53.9],[24.17,53.96],[24.38,53.89],[24.67,53.99],[24.81,53.98],[24.82,54.13],[25.07,54.13],[25.21,54.26],[25.37,54.25],[25.46,54.3],[25.55,54.23],[25.5,54.22],[25.52,54.14],[25.74,54.15],[25.79,54.24],[25.7,54.32],[25.56,54.3],[25.53,54.35],[25.63,54.51],[25.74,54.57],[25.72,54.77],[25.78,54.87],[25.98,54.94]]]}},{"type":"Feature","properties":{"id":"BLR-MA","nome":"Mogilev","pais":"BLR","tipo":"Region","lat":53.82,"lng":30.4},"geometry":{"type":"Polygon","coordinates":[[[31.18,54.45],[31.32,54.23],[31.82,54.05],[31.84,53.96],[31.74,53.79],[32.11,53.81],[32.46,53.71],[32.49,53.67],[32.4,53.64],[32.41,53.58],[32.7,53.46],[32.72,53.33],[32.45,53.3],[32.42,53.2],[32.12,53.08],[31.8,53.11],[31.76,53.19],[31.59,53.21],[31.42,53.2],[31.36,53.12],[31.21,53.11],[31.09,53.13],[31.11,53.2],[30.99,53.3],[30.67,53.28],[30.48,53.32],[30.19,53.23],[30,53.34],[29.8,53.35],[29.75,53.32],[29.79,53.21],[29.74,53.21],[29.76,53.13],[29.63,53.1],[29.72,52.95],[29.35,52.91],[29.18,52.95],[29.09,52.88],[28.97,52.87],[28.96,52.8],[28.8,52.76],[28.82,52.72],[28.67,52.69],[28.47,52.68],[28.29,52.77],[28.49,52.93],[28.45,52.96],[28.54,53.02],[28.52,53.15],[28.23,53.19],[28.09,53.29],[28.45,53.29],[28.36,53.36],[28.4,53.47],[28.58,53.53],[28.62,53.61],[28.87,53.59],[28.95,53.52],[28.95,53.58],[29.06,53.59],[29.1,53.67],[29.43,53.73],[29.4,53.75],[29.48,53.8],[29.36,53.82],[29.4,53.84],[29.36,53.85],[29.34,54],[29.42,54.06],[29.46,54.19],[29.41,54.23],[29.48,54.28],[29.83,54.34],[30.02,54.27],[30.09,54.37],[30.16,54.34],[30.31,54.38],[30.26,54.31],[30.41,54.35],[30.52,54.29],[30.69,54.42],[31.05,54.4],[31.18,54.45]]]}},{"type":"Feature","properties":{"id":"BLR-MI","nome":"Minsk","pais":"BLR","tipo":"Municipality","lat":53.19,"lng":27.47},"geometry":{"type":"Polygon","coordinates":[[[27.11,55],[27.26,54.99],[27.32,54.87],[27.68,54.75],[27.71,54.67],[27.81,54.63],[28.23,54.65],[28.41,54.55],[28.48,54.64],[28.57,54.66],[28.65,54.65],[28.66,54.58],[28.84,54.56],[28.88,54.62],[29.14,54.65],[29.23,54.58],[29.49,54.61],[29.36,54.24],[29.46,54.19],[29.34,53.99],[29.36,53.85],[29.4,53.85],[29.36,53.82],[29.48,53.8],[29.4,53.75],[29.43,53.73],[29.1,53.67],[29.06,53.59],[28.95,53.58],[28.95,53.52],[28.87,53.59],[28.62,53.61],[28.58,53.53],[28.4,53.47],[28.36,53.36],[28.45,53.29],[28.09,53.29],[28.23,53.19],[28.52,53.15],[28.54,53.02],[28.45,52.96],[28.49,52.93],[28.29,52.77],[28.47,52.68],[28.41,52.63],[28.41,52.52],[28.34,52.48],[28.12,52.47],[27.99,52.52],[27.94,52.44],[27.71,52.44],[27.53,52.54],[27.34,52.48],[27.27,52.36],[27.13,52.42],[27.15,52.47],[27.04,52.54],[27.05,52.6],[27.19,52.61],[27.17,52.67],[26.59,52.88],[26.45,52.83],[26.41,52.86],[26.44,52.89],[26.37,52.99],[26.52,53.06],[26.27,53.19],[26.4,53.26],[26.38,53.36],[26.57,53.4],[26.47,53.62],[26.26,53.73],[26.31,53.8],[26.21,53.84],[26.43,54],[26.33,54.06],[26.2,54.04],[26.18,54.13],[26.08,54.14],[26.11,54.2],[26.47,54.28],[26.61,54.46],[26.58,54.54],[26.68,54.58],[26.32,54.93],[26.38,54.98],[26.98,54.95],[27.11,55]],[[27.76,53.8],[27.83,53.83],[27.78,53.91],[27.84,54.02],[27.5,54.02],[27.39,53.96],[27.38,53.84],[27.56,53.78],[27.76,53.8]]]}},{"type":"Feature","properties":{"id":"BLR-HM","nome":"City of Minsk","pais":"BLR","tipo":"Region","lat":53.9,"lng":27.64},"geometry":{"type":"Polygon","coordinates":[[[27.81,54.02],[27.8,53.81],[27.56,53.78],[27.37,53.86],[27.44,54.01],[27.81,54.02]]]}}]}