{"type":"FeatureCollection","features":[{"type":"Feature","properties":{"id":"BLZ-CY","nome":"Cayo","pais":"BLZ","tipo":"District","lat":16.99,"lng":-88.88},"geometry":{"type":"Polygon","coordinates":[[[-89.19,16.39],[-89.15,17.32],[-88.58,17.49],[-88.55,17.17],[-88.67,16.81],[-88.84,16.59],[-89.19,16.39]]]}},{"type":"Feature","properties":{"id":"BLZ-OW","nome":"Orange Walk","pais":"BLZ","tipo":"District","lat":17.71,"lng":-88.86},"geometry":{"type":"Polygon","coordinates":[[[-89.15,17.32],[-89.13,17.97],[-89.05,18],[-88.87,17.89],[-88.61,18.25],[-88.49,18.19],[-88.28,17.97],[-88.56,17.89],[-88.56,17.69],[-88.64,17.62],[-88.63,17.45],[-89.15,17.32]]]}},{"type":"Feature","properties":{"id":"BLZ-CZL","nome":"Corozal","pais":"BLZ","tipo":"District","lat":18.17,"lng":-88.35},"geometry":{"type":"Polygon","coordinates":[[[-88.41,18.49],[-88.29,18.46],[-88.39,18.37],[-88.32,18.37],[-88.36,18.3],[-88.09,18.37],[-88.15,18.31],[-88.09,18.33],[-88.09,18.12],[-88.17,17.96],[-88.28,17.97],[-88.61,18.25],[-88.53,18.45],[-88.41,18.49]]]}},{"type":"Feature","properties":{"id":"BLZ-TOL","nome":"Toledo","pais":"BLZ","tipo":"District","lat":16.38,"lng":-88.81},"geometry":{"type":"Polygon","coordinates":[[[-89.23,15.88],[-89.15,16.45],[-88.96,16.51],[-88.75,16.69],[-88.59,16.66],[-88.56,16.52],[-88.39,16.5],[-88.54,16.27],[-88.65,16.29],[-88.74,16.23],[-88.76,16.14],[-88.93,15.98],[-88.91,15.89],[-89.23,15.88]]]}},{"type":"Feature","properties":{"id":"BLZ-SC","nome":"Stann Creek","pais":"BLZ","tipo":"District","lat":16.81,"lng":-88.5},"geometry":{"type":"Polygon","coordinates":[[[-88.29,17.14],[-88.22,16.97],[-88.28,16.89],[-88.25,16.81],[-88.3,16.77],[-88.34,16.52],[-88.31,16.66],[-88.39,16.5],[-88.56,16.52],[-88.59,16.66],[-88.77,16.68],[-88.77,16.72],[-88.57,17.04],[-88.6,17.1],[-88.29,17.14]]]}},{"type":"Feature","properties":{"id":"BLZ-BZ","nome":"Belize","pais":"BLZ","tipo":"District","lat":17.54,"lng":-88.42},"geometry":{"type":"Polygon","coordinates":[[[-88.17,17.96],[-88.29,17.6],[-88.17,17.51],[-88.24,17.49],[-88.29,17.14],[-88.6,17.1],[-88.55,17.18],[-88.64,17.62],[-88.56,17.69],[-88.56,17.89],[-88.17,17.96]]]}}]}