{"type":"FeatureCollection","features":[{"type":"Feature","properties":{"id":"BOL-L","nome":"La Paz","pais":"BOL","tipo":"Department","lat":-14.83,"lng":-68.21},"geometry":{"type":"Polygon","coordinates":[[[-69.29,-17.98],[-69.36,-17.76],[-69.5,-17.62],[-69.52,-17.37],[-69.67,-17.29],[-69.62,-17.19],[-69.41,-17.06],[-69.18,-16.73],[-69.04,-16.67],[-69.03,-16.45],[-68.83,-16.33],[-68.98,-16.21],[-69.18,-16.2],[-69.43,-15.63],[-69.29,-15.35],[-69.15,-15.23],[-69.38,-14.98],[-69.37,-14.8],[-69.27,-14.75],[-69.23,-14.57],[-69.17,-14.58],[-69.16,-14.5],[-68.99,-14.38],[-69.01,-14.25],[-68.86,-14.19],[-68.91,-14.04],[-68.98,-13.97],[-69.02,-13.75],[-69.1,-13.67],[-69.02,-13.63],[-68.97,-13.5],[-68.99,-12.89],[-68.88,-12.75],[-68.77,-12.71],[-68.74,-12.67],[-68.79,-12.62],[-68.69,-12.49],[-68.63,-12.49],[-68.58,-12.41],[-68.48,-12.42],[-68.39,-12.24],[-68.25,-12.15],[-68.22,-12.02],[-68.01,-11.97],[-67.97,-11.9],[-66.93,-12.38],[-66.95,-12.67],[-67.05,-13.02],[-67.12,-13.04],[-67.4,-13.4],[-67.36,-13.57],[-67.49,-13.77],[-67.54,-14],[-67.5,-14.26],[-67.57,-14.33],[-67.49,-14.51],[-67.54,-14.6],[-67.43,-14.75],[-67.42,-14.97],[-67.28,-15.02],[-67.12,-15.29],[-67.11,-15.4],[-66.78,-15.7],[-66.93,-15.84],[-66.95,-16.06],[-66.8,-16.28],[-66.76,-16.74],[-66.93,-16.84],[-67.02,-17.05],[-66.9,-17.16],[-66.84,-17.47],[-66.99,-17.55],[-67.12,-17.4],[-67.3,-17.45],[-67.75,-17.73],[-67.77,-17.86],[-68.14,-17.66],[-68.45,-17.65],[-68.87,-17.97],[-69.08,-18.04],[-69.29,-17.98]]]}},{"type":"Feature","properties":{"id":"BOL-O","nome":"Oruro","pais":"BOL","tipo":"Department","lat":-18.72,"lng":-67.6},"geometry":{"type":"Polygon","coordinates":[[[-68.99,-18.95],[-68.95,-18.87],[-69.16,-18.14],[-69.08,-18.04],[-68.82,-17.94],[-68.45,-17.65],[-68.14,-17.66],[-67.77,-17.86],[-67.73,-17.71],[-67.3,-17.45],[-67.13,-17.4],[-66.81,-17.69],[-66.62,-17.99],[-66.73,-18.05],[-66.75,-18.16],[-66.68,-18.24],[-66.52,-18.25],[-66.68,-18.36],[-66.64,-18.59],[-66.5,-18.7],[-66.28,-18.77],[-66.04,-19.17],[-66.45,-19.24],[-66.73,-19.44],[-67.74,-19.82],[-68.58,-19.56],[-68.46,-19.42],[-68.91,-19.07],[-68.99,-18.95]]]}},{"type":"Feature","properties":{"id":"BOL-P","nome":"Potosí","pais":"BOL","tipo":"Department","lat":-20.9,"lng":-66.77},"geometry":{"type":"Polygon","coordinates":[[[-68.6,-20.06],[-68.55,-19.86],[-68.71,-19.73],[-68.58,-19.56],[-67.69,-19.83],[-66.73,-19.44],[-66.45,-19.24],[-66.05,-19.19],[-66.27,-18.78],[-66.63,-18.6],[-66.69,-18.49],[-66.68,-18.36],[-66.52,-18.25],[-66.68,-18.24],[-66.75,-18.16],[-66.73,-18.05],[-66.62,-17.99],[-66.35,-17.99],[-66.18,-17.87],[-66.02,-17.86],[-65.94,-17.98],[-65.84,-17.97],[-65.35,-18.41],[-65.69,-18.35],[-65.62,-18.48],[-65.61,-18.67],[-65.65,-18.75],[-65.42,-18.7],[-65.51,-18.81],[-65.47,-18.9],[-65.54,-19.01],[-65.51,-19.09],[-65.29,-19.31],[-65.13,-19.38],[-64.92,-19.37],[-64.75,-19.73],[-64.87,-19.87],[-65.31,-20.04],[-65.37,-20.2],[-65.3,-20.53],[-65.42,-20.84],[-65.48,-21.29],[-65.23,-21.54],[-65.33,-21.8],[-65.21,-21.95],[-65.17,-22.1],[-65.78,-22.11],[-65.93,-21.94],[-66.22,-21.79],[-66.31,-22.08],[-66.74,-22.23],[-66.79,-22.43],[-67.03,-22.52],[-67.03,-22.64],[-67.19,-22.82],[-67.55,-22.89],[-67.8,-22.88],[-67.89,-22.82],[-67.86,-22.55],[-67.95,-22.33],[-67.96,-22.1],[-68.1,-21.95],[-68.2,-21.57],[-68.21,-21.28],[-68.42,-20.96],[-68.56,-20.91],[-68.57,-20.74],[-68.48,-20.62],[-68.77,-20.42],[-68.68,-20.33],[-68.73,-20.15],[-68.79,-20.11],[-68.6,-20.06]]]}},{"type":"Feature","properties":{"id":"BOL-T","nome":"Tarija","pais":"BOL","tipo":"Department","lat":-21.5,"lng":-63.8},"geometry":{"type":"Polygon","coordinates":[[[-62.65,-22.23],[-62.78,-22.13],[-62.82,-22],[-63.64,-22],[-63.74,-22.05],[-63.93,-22],[-64.25,-22.54],[-64.34,-22.86],[-64.59,-22.21],[-65.19,-22.1],[-65.21,-21.95],[-65.33,-21.8],[-65.24,-21.58],[-65.17,-20.96],[-65.08,-20.96],[-64.83,-21.1],[-64.7,-20.93],[-64.53,-21.09],[-64.23,-21.14],[-64.18,-20.89],[-64,-20.94],[-63.98,-21],[-62.27,-21],[-62.65,-22.23]]]}},{"type":"Feature","properties":{"id":"BOL-S","nome":"Santa Cruz","pais":"BOL","tipo":"Department","lat":-16.52,"lng":-61.14},"geometry":{"type":"Polygon","coordinates":[[[-57.86,-19.98],[-58.16,-20.17],[-58.18,-19.82],[-59.07,-19.29],[-60.01,-19.3],[-61.75,-19.65],[-61.94,-20.1],[-62.21,-20.47],[-63.29,-20.48],[-63.37,-20.36],[-63.5,-20.46],[-63.65,-20.45],[-63.73,-19.96],[-63.74,-19.04],[-63.87,-19.03],[-63.93,-19.16],[-64.02,-19.16],[-64.06,-19],[-64.29,-18.81],[-64.34,-18.66],[-64.3,-18.5],[-64.42,-18.42],[-64.71,-17.91],[-64.4,-17.46],[-64.22,-17.42],[-64.22,-17.36],[-64.74,-16.9],[-64.81,-16.73],[-64.68,-16.37],[-64.7,-15.87],[-63.32,-15.91],[-63.42,-15.86],[-63.5,-15.69],[-63.67,-15.58],[-63.86,-15.3],[-63.95,-15.09],[-63.96,-14.74],[-63.57,-14.62],[-61.59,-13.51],[-61.5,-13.55],[-61.35,-13.49],[-61.15,-13.52],[-61.05,-13.46],[-61.02,-13.54],[-60.9,-13.55],[-60.47,-13.8],[-60.39,-13.98],[-60.47,-14.12],[-60.46,-14.28],[-60.29,-14.63],[-60.27,-15.08],[-60.58,-15.1],[-60.25,-15.48],[-60.16,-16.26],[-58.46,-16.33],[-58.35,-16.28],[-58.34,-16.47],[-58.48,-16.68],[-58.4,-17.24],[-58.01,-17.5],[-57.8,-17.53],[-57.7,-17.83],[-57.73,-17.85],[-57.55,-18.18],[-57.47,-18.22],[-57.57,-18.26],[-57.78,-18.91],[-57.73,-18.92],[-57.72,-19.04],[-57.79,-19.06],[-58.12,-19.73],[-57.86,-19.98]]]}},{"type":"Feature","properties":{"id":"BOL-H","nome":"Chuquisaca","pais":"BOL","tipo":"Department","lat":-20.08,"lng":-63.95},"geometry":{"type":"Polygon","coordinates":[[[-62.21,-20.47],[-62.28,-20.58],[-62.27,-21],[-63.98,-21],[-64,-20.94],[-64.18,-20.89],[-64.23,-21.14],[-64.53,-21.09],[-64.7,-20.93],[-64.83,-21.1],[-65.16,-20.95],[-65.23,-21.54],[-65.48,-21.29],[-65.42,-20.84],[-65.3,-20.53],[-65.37,-20.2],[-65.31,-20.04],[-64.87,-19.87],[-64.75,-19.73],[-64.92,-19.37],[-65.13,-19.38],[-65.29,-19.31],[-65.51,-19.09],[-65.54,-19.01],[-65.47,-18.9],[-65.51,-18.81],[-65.42,-18.7],[-65.65,-18.75],[-65.61,-18.67],[-65.62,-18.48],[-65.69,-18.35],[-65.34,-18.42],[-65.23,-18.62],[-65.08,-18.66],[-64.96,-18.53],[-64.82,-18.48],[-64.57,-18.67],[-64.37,-18.61],[-64.28,-18.83],[-64.06,-19],[-64.01,-19.17],[-63.92,-19.15],[-63.87,-19.03],[-63.75,-19.03],[-63.73,-19.96],[-63.65,-20.45],[-63.5,-20.46],[-63.37,-20.36],[-63.29,-20.48],[-62.21,-20.47]]]}},{"type":"Feature","properties":{"id":"BOL-N","nome":"Pando","pais":"BOL","tipo":"Department","lat":-11.27,"lng":-67.43},"geometry":{"type":"Polygon","coordinates":[[[-65.44,-9.68],[-65.3,-9.84],[-65.34,-9.97],[-65.28,-10.21],[-65.33,-10.31],[-65.65,-10.56],[-65.76,-10.56],[-65.79,-10.7],[-65.92,-10.68],[-65.9,-10.81],[-66.01,-10.79],[-66.11,-10.84],[-66.05,-10.87],[-66.15,-11.08],[-66.22,-11.1],[-66.25,-11.33],[-66.5,-11.44],[-66.68,-11.45],[-66.73,-11.67],[-66.91,-11.74],[-66.89,-11.82],[-66.97,-11.87],[-66.88,-12.06],[-66.93,-12.38],[-67.97,-11.9],[-68.01,-11.97],[-68.22,-12.02],[-68.25,-12.15],[-68.39,-12.24],[-68.48,-12.42],[-68.58,-12.41],[-68.63,-12.49],[-68.69,-12.49],[-69.58,-10.95],[-68.8,-10.99],[-68.76,-11.01],[-68.78,-11.14],[-68.62,-11.11],[-68.29,-10.98],[-68.04,-10.67],[-67.72,-10.71],[-67.58,-10.5],[-67.32,-10.32],[-67.18,-10.33],[-67.06,-10.26],[-66.64,-9.91],[-66.09,-9.78],[-65.81,-9.78],[-65.79,-9.73],[-65.58,-9.84],[-65.44,-9.68]]]}},{"type":"Feature","properties":{"id":"BOL-B","nome":"El Beni","pais":"BOL","tipo":"Department","lat":-14.04,"lng":-64.58},"geometry":{"type":"Polygon","coordinates":[[[-65.39,-10.39],[-65.45,-10.47],[-65.44,-10.63],[-65.3,-10.98],[-65.39,-11.15],[-65.39,-11.28],[-65.33,-11.33],[-65.32,-11.48],[-65.22,-11.52],[-65.17,-11.62],[-65.2,-11.74],[-65.15,-11.77],[-65.11,-11.69],[-65.07,-11.75],[-65,-12],[-64.79,-12.03],[-64.74,-12.14],[-64.69,-12.1],[-64.66,-12.18],[-64.49,-12.24],[-64.49,-12.37],[-64.29,-12.5],[-63.92,-12.54],[-63.8,-12.45],[-63.49,-12.56],[-63.32,-12.7],[-63.08,-12.65],[-62.99,-12.84],[-62.79,-13],[-62.69,-12.96],[-62.38,-13.14],[-62.16,-13.12],[-62.1,-13.26],[-61.84,-13.54],[-61.59,-13.51],[-63.57,-14.62],[-63.96,-14.74],[-63.95,-15.09],[-63.86,-15.3],[-63.67,-15.58],[-63.5,-15.69],[-63.42,-15.86],[-63.32,-15.92],[-64.68,-15.84],[-65.16,-15.91],[-65.36,-16.32],[-65.89,-16.47],[-66.24,-16.32],[-66.5,-15.97],[-67.11,-15.4],[-67.12,-15.29],[-67.27,-15.04],[-67.42,-14.97],[-67.43,-14.75],[-67.54,-14.6],[-67.49,-14.51],[-67.57,-14.33],[-67.5,-14.26],[-67.54,-14],[-67.49,-13.77],[-67.36,-13.57],[-67.4,-13.4],[-67.12,-13.04],[-67.05,-13.02],[-66.95,-12.67],[-66.88,-12.06],[-66.97,-11.85],[-66.89,-11.82],[-66.91,-11.74],[-66.73,-11.67],[-66.68,-11.45],[-66.5,-11.44],[-66.25,-11.33],[-66.22,-11.1],[-66.15,-11.08],[-66.05,-10.87],[-66.11,-10.84],[-66.01,-10.79],[-65.9,-10.81],[-65.92,-10.68],[-65.79,-10.7],[-65.76,-10.56],[-65.67,-10.57],[-65.39,-10.39]]]}},{"type":"Feature","properties":{"id":"BOL-C","nome":"Cochabamba","pais":"BOL","tipo":"Department","lat":-17.29,"lng":-65.61},"geometry":{"type":"Polygon","coordinates":[[[-66.99,-17.55],[-66.84,-17.47],[-66.9,-17.17],[-67.01,-17.03],[-66.93,-16.84],[-66.76,-16.74],[-66.8,-16.28],[-66.95,-16.06],[-66.93,-15.84],[-66.78,-15.7],[-66.24,-16.32],[-65.89,-16.47],[-65.36,-16.32],[-65.16,-15.91],[-64.66,-15.85],[-64.7,-15.87],[-64.68,-15.92],[-64.73,-15.92],[-64.66,-16.12],[-64.68,-16.39],[-64.81,-16.73],[-64.74,-16.9],[-64.38,-17.17],[-64.21,-17.38],[-64.4,-17.46],[-64.71,-17.91],[-64.42,-18.42],[-64.3,-18.5],[-64.29,-18.59],[-64.34,-18.66],[-64.39,-18.6],[-64.57,-18.67],[-64.82,-18.48],[-65,-18.56],[-65.07,-18.65],[-65.23,-18.62],[-65.31,-18.45],[-65.64,-18.13],[-65.84,-17.97],[-65.94,-17.98],[-66.02,-17.86],[-66.18,-17.87],[-66.35,-17.99],[-66.62,-17.99],[-66.81,-17.69],[-66.99,-17.55]]]}}]}