{"type":"FeatureCollection","features":[{"type":"Feature","properties":{"id":"BRB-04","nome":"Saint James","pais":"BRB","tipo":"Parish","lat":13.19,"lng":-59.63},"geometry":{"type":"Polygon","coordinates":[[[-59.64,13.14],[-59.65,13.24],[-59.61,13.24],[-59.64,13.14]]]}},{"type":"Feature","properties":{"id":"BRB-08","nome":"Saint Michael","pais":"BRB","tipo":"Parish","lat":13.12,"lng":-59.6},"geometry":{"type":"Polygon","coordinates":[[[-59.6,13.08],[-59.64,13.14],[-59.59,13.16],[-59.6,13.08]]]}},{"type":"Feature","properties":{"id":"BRB-01","nome":"Christ Church","pais":"BRB","tipo":"Parish","lat":13.09,"lng":-59.54},"geometry":{"type":"Polygon","coordinates":[[[-59.48,13.09],[-59.6,13.08],[-59.51,13.13],[-59.48,13.09]]]}},{"type":"Feature","properties":{"id":"BRB-10","nome":"Saint Philip","pais":"BRB","tipo":"Parish","lat":13.14,"lng":-59.47},"geometry":{"type":"Polygon","coordinates":[[[-59.47,13.19],[-59.43,13.16],[-59.48,13.09],[-59.51,13.13],[-59.47,13.19]]]}},{"type":"Feature","properties":{"id":"BRB-05","nome":"Saint John","pais":"BRB","tipo":"Parish","lat":13.18,"lng":-59.5},"geometry":{"type":"Polygon","coordinates":[[[-59.52,13.22],[-59.47,13.19],[-59.51,13.15],[-59.52,13.22]]]}},{"type":"Feature","properties":{"id":"BRB-03","nome":"Saint George","pais":"BRB","tipo":"Parish","lat":13.15,"lng":-59.55},"geometry":{"type":"Polygon","coordinates":[[[-59.54,13.18],[-59.51,13.13],[-59.57,13.11],[-59.59,13.16],[-59.54,13.18]]]}},{"type":"Feature","properties":{"id":"BRB-11","nome":"Saint Thomas","pais":"BRB","tipo":"Parish","lat":13.19,"lng":-59.59},"geometry":{"type":"Polygon","coordinates":[[[-59.59,13.22],[-59.55,13.18],[-59.61,13.15],[-59.59,13.22]]]}}]}