{"type":"FeatureCollection","features":[{"type":"Feature","properties":{"id":"BRN-TE","nome":"Temburong","pais":"BRN","tipo":"District","lat":4.6,"lng":115.19},"geometry":{"type":"Polygon","coordinates":[[[115.15,4.91],[115.35,4.31],[115.09,4.41],[115.03,4.82],[115.13,4.85],[115.15,4.91]]]}},{"type":"Feature","properties":{"id":"BRN-BM","nome":"Brunei and Muara","pais":"BRN","tipo":"District","lat":4.9,"lng":114.92},"geometry":{"type":"Polygon","coordinates":[[[114.98,4.89],[114.95,4.82],[114.74,4.73],[114.76,4.9],[115.1,5.05],[114.98,4.89]]]}},{"type":"Feature","properties":{"id":"BRN-TU","nome":"Tutong","pais":"BRN","tipo":"District","lat":4.64,"lng":114.67},"geometry":{"type":"Polygon","coordinates":[[[114.74,4.73],[114.79,4.46],[114.85,4.42],[114.79,4.3],[114.49,4.68],[114.76,4.9],[114.74,4.73]]]}},{"type":"Feature","properties":{"id":"BRN-BE","nome":"Belait","pais":"BRN","tipo":"District","lat":4.46,"lng":114.41},"geometry":{"type":"Polygon","coordinates":[[[114.36,4.25],[114.28,4.27],[114.25,4.48],[114,4.6],[114.25,4.59],[114.49,4.68],[114.82,4.26],[114.77,4.13],[114.63,4.02],[114.42,4.26],[114.36,4.25]]]}}]}