{"type":"FeatureCollection","features":[{"type":"Feature","properties":{"id":"BWA-NW","nome":"North-West","pais":"BWA","tipo":"District","lat":-19.61,"lng":23.47},"geometry":{"type":"Polygon","coordinates":[[[25.26,-17.79],[25.22,-17.88],[25.26,-18],[25.39,-18.14],[25.51,-18.4],[25.76,-18.63],[25.82,-18.81],[25.97,-19],[24.99,-19],[24.99,-20],[25.17,-20.07],[25.16,-20.34],[24.4,-20.4],[24.16,-20.2],[24,-20.3],[23.88,-20.3],[23.88,-21],[20.98,-21],[20.98,-18.32],[21.48,-18.3],[23.29,-18],[23.4,-18.19],[23.5,-18.24],[23.61,-18.48],[23.92,-18.2],[24.35,-17.96],[24.56,-18.05],[24.73,-17.89],[24.95,-17.79],[25.06,-17.83],[25.26,-17.79]]]}},{"type":"Feature","properties":{"id":"BWA-CE","nome":"Central","pais":"BWA","tipo":"District","lat":-21.88,"lng":26.61},"geometry":{"type":"Polygon","coordinates":[[[25.97,-19],[25.95,-19.1],[26.16,-19.54],[26.3,-19.58],[26.31,-19.65],[26.71,-19.93],[27.21,-20.11],[27.28,-20.35],[27.23,-20.94],[27.49,-21.47],[28.46,-21.66],[28.62,-21.65],[28.98,-21.77],[29.06,-21.81],[29.04,-22.02],[29.24,-22.07],[29.35,-22.19],[29.04,-22.22],[28.91,-22.45],[28.62,-22.56],[28.34,-22.58],[28.2,-22.67],[28.04,-22.91],[27.94,-22.96],[27.93,-23.06],[27.77,-23.13],[27.75,-23.22],[27.61,-23.22],[27.55,-23.36],[27.35,-23.39],[27.21,-23.52],[27.13,-23.53],[27.07,-23.66],[27,-23.65],[26.96,-23.75],[26.72,-23.95],[26.02,-23.57],[25.84,-23.35],[25.73,-23.31],[23.88,-21],[23.88,-20.3],[24,-20.3],[24.16,-20.2],[24.4,-20.4],[25.16,-20.34],[25.17,-20.07],[24.99,-20],[24.99,-19],[25.97,-19]]]}},{"type":"Feature","properties":{"id":"BWA-NE","nome":"North-East","pais":"BWA","tipo":"District","lat":-20.94,"lng":27.45},"geometry":{"type":"Polygon","coordinates":[[[27.34,-20.47],[27.7,-20.51],[27.67,-21.07],[27.88,-21.31],[27.99,-21.55],[27.57,-21.5],[27.44,-21.41],[27.22,-20.85],[27.27,-20.5],[27.34,-20.47]],[[27.54,-21.22],[27.54,-21.11],[27.44,-21.2],[27.54,-21.22]]]}},{"type":"Feature","properties":{"id":"BWA-KL","nome":"Kgatleng","pais":"BWA","tipo":"District","lat":-24.2,"lng":26.43},"geometry":{"type":"Polygon","coordinates":[[[26.96,-23.75],[26.84,-24.27],[26.53,-24.46],[26.4,-24.63],[26.17,-24.66],[25.89,-24.48],[26.02,-23.57],[26.72,-23.95],[26.96,-23.75]]]}},{"type":"Feature","properties":{"id":"BWA-SE","nome":"South-East","pais":"BWA","tipo":"District","lat":-24.99,"lng":25.74},"geometry":{"type":"Polygon","coordinates":[[[26.17,-24.66],[25.87,-24.75],[25.88,-24.89],[25.65,-25.46],[25.55,-25.42],[25.66,-25.02],[25.6,-25],[25.69,-24.77],[25.83,-24.62],[25.86,-24.71],[25.96,-24.71],[26.03,-24.56],[26.17,-24.66]]]}},{"type":"Feature","properties":{"id":"BWA-SO","nome":"Southern","pais":"BWA","tipo":"District","lat":-25,"lng":24.37},"geometry":{"type":"Polygon","coordinates":[[[25.65,-25.46],[25.59,-25.62],[25.39,-25.74],[25.01,-25.74],[24.8,-25.83],[24.5,-25.76],[24.49,-25.67],[24.25,-25.5],[24.23,-25],[24.07,-24.85],[23.06,-24.85],[23.05,-24],[24.64,-24.46],[24.64,-24.66],[24.82,-24.65],[24.81,-24.51],[25.69,-24.77],[25.54,-25.4],[25.65,-25.46]]]}},{"type":"Feature","properties":{"id":"BWA-KG","nome":"Kgalagadi","pais":"BWA","tipo":"District","lat":-24.84,"lng":22.24},"geometry":{"type":"Polygon","coordinates":[[[20.6,-25.43],[20.36,-25.03],[19.98,-24.75],[19.98,-23.31],[23.06,-23.31],[23.04,-23.4],[22.96,-23.46],[22.96,-23.57],[23.03,-23.57],[23.05,-23.64],[23.06,-24.85],[24.07,-24.85],[24.23,-25],[24.25,-25.5],[24.49,-25.67],[24.5,-25.76],[24.34,-25.75],[24.18,-25.63],[23.92,-25.63],[23.46,-25.28],[23.03,-25.3],[22.84,-25.48],[22.71,-26],[22.55,-26.21],[22.45,-26.21],[22.25,-26.35],[22.06,-26.62],[21.78,-26.68],[21.76,-26.8],[21.66,-26.86],[21.43,-26.82],[21.12,-26.87],[20.91,-26.8],[20.69,-26.89],[20.61,-26.75],[20.61,-26.49],[20.84,-26.13],[20.79,-25.89],[20.64,-25.62],[20.66,-25.47],[20.6,-25.43]]]}},{"type":"Feature","properties":{"id":"BWA-GH","nome":"Ghanzi","pais":"BWA","tipo":"District","lat":-22.16,"lng":22.71},"geometry":{"type":"Polygon","coordinates":[[[19.98,-23.31],[19.98,-22],[20.97,-22],[20.98,-21],[23.88,-21],[25.44,-22.95],[25.24,-23.32],[19.98,-23.31]]]}},{"type":"Feature","properties":{"id":"BWA-KW","nome":"Kweneng","pais":"BWA","tipo":"District","lat":-23.87,"lng":24.49},"geometry":{"type":"Polygon","coordinates":[[[25.24,-23.32],[25.44,-22.95],[26.02,-23.57],[25.89,-24.43],[25.95,-24.51],[25.69,-24.77],[23.05,-24],[23.05,-23.64],[23.03,-23.57],[22.96,-23.56],[22.96,-23.42],[23.04,-23.4],[23.06,-23.31],[25.24,-23.32]]]}},{"type":"Feature","properties":{"id":"BWA-GA","nome":"Gaborone","pais":"BWA","tipo":"City","lat":-24.62,"lng":25.92},"geometry":{"type":"Polygon","coordinates":[[[25.83,-24.62],[25.95,-24.51],[26.03,-24.56],[25.96,-24.71],[25.86,-24.71],[25.83,-24.62]]]}},{"type":"Feature","properties":{"id":"BWA-JW","nome":"Jwaneng","pais":"BWA","tipo":"Town","lat":-24.58,"lng":24.73},"geometry":{"type":"Polygon","coordinates":[[[24.64,-24.46],[24.81,-24.51],[24.82,-24.65],[24.64,-24.66],[24.64,-24.46]]]}},{"type":"Feature","properties":{"id":"BWA-FR","nome":"Francistown","pais":"BWA","tipo":"City","lat":-21.17,"lng":27.5},"geometry":{"type":"Polygon","coordinates":[[[27.54,-21.11],[27.56,-21.21],[27.45,-21.21],[27.54,-21.11]]]}},{"type":"Feature","properties":{"id":"BWA-LO","nome":"Lobatse","pais":"BWA","tipo":"Town","lat":-25.21,"lng":25.68},"geometry":{"type":"Polygon","coordinates":[[[25.68,-25.17],[25.71,-25.22],[25.66,-25.24],[25.68,-25.17]]]}},{"type":"Feature","properties":{"id":"BWA-SP","nome":"Selebi-Phikwe","pais":"BWA","tipo":"Town","lat":-21.97,"lng":27.86},"geometry":{"type":"Polygon","coordinates":[[[27.87,-21.92],[27.87,-21.98],[27.81,-22],[27.87,-21.92]]]}},{"type":"Feature","properties":{"id":"BWA-ST","nome":"Sowa","pais":"BWA","tipo":"Township","lat":-20.58,"lng":26.19},"geometry":{"type":"Polygon","coordinates":[[[26.13,-20.54],[26.26,-20.56],[26.25,-20.6],[26.13,-20.54]]]}}]}