{"type":"FeatureCollection","features":[{"type":"Feature","properties":{"id":"CAF-VK","nome":"Vakaga","pais":"CAF","tipo":"Prefecture","lat":9.8,"lng":22.24},"geometry":{"type":"Polygon","coordinates":[[[22.86,10.92],[23.01,10.69],[23.29,10.44],[23.62,9.91],[23.67,9.69],[23.61,9.54],[23.63,9.28],[23.46,9.15],[23.46,9.24],[23.37,9.21],[23.31,9.03],[23.11,8.92],[23.05,8.76],[22.65,8.69],[22.5,8.58],[22.21,8.71],[22.12,8.78],[22.09,8.97],[21.85,9.19],[21.7,9.5],[21.52,9.6],[21.49,9.77],[20.9,9.38],[20.81,9.42],[20.98,9.6],[21.02,9.75],[21.11,9.77],[21.27,9.99],[21.37,9.97],[21.51,10.2],[21.72,10.3],[21.72,10.64],[22,10.74],[22.05,10.84],[22.18,10.82],[22.25,10.92],[22.45,11],[22.86,10.92]]]}},{"type":"Feature","properties":{"id":"CAF-HK","nome":"Haute-Kotto","pais":"CAF","tipo":"Prefecture","lat":7.48,"lng":22.85},"geometry":{"type":"Polygon","coordinates":[[[23.46,9.15],[23.44,8.99],[23.57,8.97],[23.48,8.78],[23.51,8.71],[24.24,8.68],[24.25,8.58],[24.12,8.37],[24.47,8.07],[24.5,7.63],[24.59,7.48],[24.51,7.31],[24.56,7.21],[24.54,7.01],[24.35,6.96],[24.3,6.78],[23.45,6.3],[23.4,6.22],[23.32,6.21],[23.29,6.1],[22.91,6.19],[22.82,6.27],[22.56,6.24],[22.46,6.08],[22.25,6.06],[22.11,5.98],[22.05,5.71],[22.09,5.64],[21.9,5.47],[21.66,5.55],[21.75,5.67],[21.85,5.62],[21.9,5.67],[21.94,5.91],[21.74,6.21],[21.81,6.34],[21.79,6.55],[21.7,6.59],[21.61,6.77],[21.65,6.88],[21.58,7.29],[21.42,7.32],[21.4,7.53],[21.13,7.7],[21.13,7.96],[21.42,8.02],[21.39,8.16],[21.74,8.33],[21.86,8.2],[21.98,8.22],[21.96,8.52],[22,8.6],[22.51,8.58],[22.65,8.69],[23.05,8.76],[23.11,8.92],[23.31,9.03],[23.37,9.21],[23.46,9.24],[23.46,9.15]]]}},{"type":"Feature","properties":{"id":"CAF-HM","nome":"Haut-Mbomou","pais":"CAF","tipo":"Prefecture","lat":6.16,"lng":25.85},"geometry":{"type":"Polygon","coordinates":[[[24.26,8.27],[24.8,8.18],[25.03,7.92],[25.23,7.85],[25.28,7.66],[25.17,7.58],[25.19,7.5],[25.36,7.34],[26.03,7],[26.09,6.83],[26.38,6.65],[26.27,6.47],[26.29,6.39],[26.51,6.21],[26.42,6.07],[26.48,6.1],[26.54,6.03],[26.78,5.98],[26.82,5.89],[27.12,5.77],[27.26,5.58],[27.22,5.43],[27.26,5.26],[27.44,5.07],[27.07,5.2],[26.87,5.04],[26.74,5.09],[26.5,5.05],[26.13,5.26],[26.03,5.19],[25.97,5.23],[25.91,5.17],[25.83,5.19],[25.58,5.37],[25.37,5.32],[25.31,5.19],[25.35,5.14],[25.32,5.04],[25.13,5.02],[25.08,4.95],[24.96,4.99],[24.66,4.92],[24.48,5.1],[24.56,5.12],[24.54,5.18],[24.61,5.27],[24.78,5.29],[24.97,5.45],[25.05,5.56],[25.04,5.76],[25.12,5.81],[25.14,5.77],[25.18,5.91],[24.85,6.22],[25,6.24],[25.07,6.3],[25.05,6.38],[24.87,6.49],[24.61,6.39],[24.26,6.75],[24.35,6.96],[24.54,7.01],[24.56,7.21],[24.51,7.31],[24.59,7.48],[24.5,7.63],[24.47,8.07],[24.26,8.27]]]}},{"type":"Feature","properties":{"id":"CAF-KG","nome":"Kémo","pais":"CAF","tipo":"Prefecture","lat":5.76,"lng":19.31},"geometry":{"type":"Polygon","coordinates":[[[19.86,5.06],[19.72,5.14],[19.43,5.14],[19.11,4.93],[18.99,5.19],[18.99,5.41],[18.9,5.49],[18.86,5.63],[18.69,5.67],[18.63,5.73],[18.63,6],[18.91,6.2],[18.75,6.51],[19.01,6.54],[19.18,6.44],[19.47,6.5],[19.74,6.48],[19.85,6.36],[19.84,6.12],[19.6,5.92],[19.66,5.68],[19.47,5.54],[19.52,5.49],[20.02,5.47],[19.93,5.13],[19.86,5.06]]]}},{"type":"Feature","properties":{"id":"CAF-UK","nome":"Ouaka","pais":"CAF","tipo":"Prefecture","lat":5.99,"lng":20.71},"geometry":{"type":"Polygon","coordinates":[[[20.46,4.52],[20.46,4.62],[20.34,4.77],[19.86,5.06],[19.93,5.13],[20.02,5.47],[19.52,5.49],[19.47,5.55],[19.66,5.68],[19.6,5.92],[19.84,6.12],[19.87,6.34],[19.74,6.48],[19.88,6.45],[19.87,6.63],[20.1,6.88],[20.16,7.1],[20.35,7.02],[20.57,7.07],[20.69,7.24],[20.89,7.29],[21.08,7.51],[21.06,7.58],[21.13,7.7],[21.4,7.53],[21.42,7.32],[21.58,7.29],[21.65,6.88],[21.61,6.77],[21.7,6.59],[21.79,6.55],[21.81,6.34],[21.74,6.21],[21.89,6.02],[21.94,5.81],[21.86,5.62],[21.75,5.67],[21.59,5.47],[21.4,5.73],[21.23,5.65],[21.04,5.72],[21.03,5.55],[20.94,5.52],[20.99,5.42],[20.9,5.12],[20.94,5.02],[20.9,4.81],[20.71,4.75],[20.46,4.52]]]}},{"type":"Feature","properties":{"id":"CAF-BK","nome":"Basse-Kotto","pais":"CAF","tipo":"Prefecture","lat":5,"lng":21.3},"geometry":{"type":"Polygon","coordinates":[[[20.6,4.41],[20.46,4.52],[20.71,4.75],[20.9,4.81],[20.94,5.02],[20.9,5.12],[20.99,5.42],[20.94,5.52],[21.03,5.55],[21.04,5.72],[21.23,5.65],[21.4,5.73],[21.57,5.47],[21.66,5.55],[21.9,5.47],[21.88,5.17],[21.79,5.09],[21.83,5.01],[21.74,4.71],[21.92,4.64],[21.94,4.53],[22.15,4.51],[22.04,4.23],[21.72,4.3],[21.54,4.24],[21.29,4.33],[21.21,4.29],[21.08,4.4],[20.87,4.45],[20.6,4.41]]]}},{"type":"Feature","properties":{"id":"CAF-MB","nome":"Mbomou","pais":"CAF","tipo":"Prefecture","lat":5.49,"lng":23.46},"geometry":{"type":"Polygon","coordinates":[[[24.43,5.07],[24.4,5.12],[24.36,5.06],[24.4,5.04],[24.3,5],[24.26,4.93],[24.21,4.96],[23.95,4.87],[23.95,4.82],[23.59,4.73],[23.41,4.59],[23.26,4.64],[23.17,4.74],[23.02,4.75],[22.98,4.83],[22.9,4.82],[22.85,4.71],[22.79,4.72],[22.72,4.63],[22.69,4.49],[22.59,4.47],[22.61,4.37],[22.55,4.24],[22.42,4.13],[22.21,4.15],[22.04,4.23],[22.15,4.51],[21.94,4.53],[21.92,4.64],[21.74,4.71],[21.83,5.01],[21.79,5.09],[21.88,5.17],[21.9,5.49],[22.09,5.64],[22.05,5.71],[22.11,5.99],[22.25,6.06],[22.4,6.05],[22.54,6.23],[22.69,6.27],[22.82,6.27],[22.91,6.19],[23.29,6.1],[23.32,6.21],[23.4,6.22],[23.45,6.3],[24.26,6.75],[24.61,6.39],[24.87,6.49],[25.05,6.38],[25.07,6.3],[25,6.24],[24.85,6.22],[25.18,5.91],[25.14,5.77],[25.12,5.81],[25.04,5.76],[25.04,5.56],[24.87,5.33],[24.61,5.27],[24.54,5.18],[24.56,5.12],[24.43,5.07]]]}},{"type":"Feature","properties":{"id":"CAF-MP","nome":"Ombella-M'Poko","pais":"CAF","tipo":"Prefecture","lat":5.18,"lng":17.8},"geometry":{"type":"Polygon","coordinates":[[[19.11,4.93],[18.75,4.4],[18.63,4.36],[18.56,4.44],[18.5,4.4],[18.63,4.13],[18.61,3.87],[18.41,3.99],[18.3,4.3],[18.13,4.45],[17.59,4.53],[17.46,4.79],[17.14,5.03],[17.04,5.02],[17,5.09],[17.12,5.17],[16.93,5.36],[16.71,5.38],[16.53,5.27],[16.52,5.57],[16.75,5.78],[16.98,5.86],[17.04,5.72],[17.58,5.72],[17.91,5.9],[18.03,5.8],[18.24,5.8],[18.27,5.75],[18.4,5.74],[18.41,5.56],[18.6,5.65],[18.62,5.74],[18.86,5.63],[18.9,5.49],[19.02,5.35],[18.99,5.19],[19.11,4.93]]]}},{"type":"Feature","properties":{"id":"CAF-BGF","nome":"Bangui","pais":"CAF","tipo":"Autonomous Commune","lat":4.38,"lng":18.55},"geometry":{"type":"Polygon","coordinates":[[[18.6,4.37],[18.54,4.31],[18.49,4.39],[18.56,4.44],[18.6,4.37]]]}},{"type":"Feature","properties":{"id":"CAF-LB","nome":"Lobaye","pais":"CAF","tipo":"Prefecture","lat":4.08,"lng":17.68},"geometry":{"type":"Polygon","coordinates":[[[18.61,3.87],[18.63,3.48],[18.47,3.63],[18.25,3.57],[18.18,3.48],[18.08,3.56],[17.86,3.54],[17.79,3.62],[17.41,3.68],[17.32,3.81],[16.93,3.98],[16.74,4.24],[16.87,4.43],[17.07,4.35],[16.85,4.68],[16.83,4.87],[17.03,4.97],[17.04,5.02],[17.14,5.03],[17.46,4.79],[17.59,4.53],[18.15,4.44],[18.3,4.3],[18.41,3.99],[18.61,3.87]]]}},{"type":"Feature","properties":{"id":"CAF-BB","nome":"Bamingui-Bangoran","pais":"CAF","tipo":"Prefecture","lat":8.21,"lng":20.63},"geometry":{"type":"Polygon","coordinates":[[[20.8,9.43],[20.9,9.38],[21.49,9.76],[21.52,9.6],[21.7,9.5],[21.85,9.19],[22.09,8.97],[22.14,8.76],[22.38,8.67],[22.39,8.59],[22,8.6],[21.96,8.21],[21.86,8.2],[21.76,8.33],[21.6,8.24],[21.49,8.25],[21.38,8.15],[21.42,8.02],[21.13,7.96],[21.08,7.51],[20.88,7.27],[20.69,7.24],[20.63,7.12],[20.46,7.03],[20.24,7.03],[19.92,7.25],[19.73,7.55],[19.59,7.57],[19.59,7.7],[19.36,7.76],[19.32,7.88],[19.36,8.13],[19.06,8.58],[19.12,8.68],[18.87,8.86],[19.1,9.02],[19.7,9.02],[20.11,9.15],[20.38,9.12],[20.51,9.21],[20.54,9.32],[20.67,9.3],[20.65,9.34],[20.8,9.43]]]}},{"type":"Feature","properties":{"id":"CAF-AC","nome":"Ouham","pais":"CAF","tipo":"Prefecture","lat":6.93,"lng":17.88},"geometry":{"type":"Polygon","coordinates":[[[18.18,8.02],[18.59,8.05],[18.64,8.18],[18.81,8.28],[19.07,8.63],[19.02,8.27],[19.06,8.07],[18.98,7.86],[19.01,7.76],[18.74,7.6],[18.84,7.24],[18.71,7.12],[18.74,7.08],[18.66,6.95],[18.75,6.75],[18.87,6.68],[18.74,6.49],[18.86,6.36],[18.91,6.19],[18.63,6],[18.61,5.66],[18.42,5.57],[18.39,5.74],[18.03,5.8],[17.9,5.9],[17.58,5.72],[17.02,5.73],[16.91,6.1],[16.95,6.14],[16.96,6.3],[17.01,6.31],[17.1,6.45],[17.04,6.49],[16.91,6.46],[16.79,6.56],[16.68,6.99],[16.77,7.11],[16.82,7.55],[16.88,7.63],[17.1,7.68],[17.25,7.82],[17.62,7.98],[17.86,7.96],[18.18,8.02]]]}},{"type":"Feature","properties":{"id":"CAF-OP","nome":"Ouham-Pendé","pais":"CAF","tipo":"Prefecture","lat":6.68,"lng":16.01},"geometry":{"type":"Polygon","coordinates":[[[16.55,7.87],[16.61,7.68],[16.82,7.52],[16.77,7.11],[16.68,6.99],[16.76,6.61],[16.9,6.46],[17.04,6.49],[17.1,6.44],[16.96,6.3],[16.95,6.14],[16.91,6.11],[16.98,5.86],[16.75,5.78],[16.52,5.57],[16.24,5.91],[16.06,5.79],[15.82,5.92],[15.79,6.15],[15.71,6.28],[15.78,6.37],[15.76,6.42],[15.42,6.3],[15.18,6.75],[14.92,6.69],[15.04,6.79],[15.22,7.25],[15.43,7.39],[15.48,7.52],[15.67,7.52],[15.76,7.46],[15.93,7.49],[16.04,7.58],[16.37,7.67],[16.39,7.78],[16.55,7.87]]]}},{"type":"Feature","properties":{"id":"CAF-SE","nome":"Sangha-Mbaéré","pais":"CAF","tipo":"Economic Prefecture","lat":3.21,"lng":16.34},"geometry":{"type":"Polygon","coordinates":[[[17.41,3.68],[17.01,3.54],[16.87,3.56],[16.6,3.5],[16.47,3.16],[16.48,2.84],[16.2,2.24],[16.09,2.51],[16.11,2.7],[16.06,2.71],[16.1,2.84],[16.06,2.94],[15.91,3.1],[15.79,3.11],[15.26,3.66],[15.46,3.78],[15.56,3.75],[15.62,3.84],[15.89,3.97],[16.09,3.99],[16.45,3.83],[16.59,4],[16.68,4.26],[16.76,4.23],[16.97,3.95],[17.32,3.81],[17.41,3.68]]]}},{"type":"Feature","properties":{"id":"CAF-NM","nome":"Nana-Mambéré","pais":"CAF","tipo":"Prefecture","lat":5.67,"lng":15.46},"geometry":{"type":"Polygon","coordinates":[[[14.58,6.19],[14.77,6.32],[14.92,6.69],[15.18,6.75],[15.42,6.3],[15.77,6.4],[15.71,6.28],[15.87,5.89],[16.08,5.79],[16.24,5.91],[16.44,5.69],[16.52,5.57],[16.53,5.27],[16,5.07],[15.93,5.11],[15.81,5.08],[15.77,5.23],[15.71,5.23],[15.67,5.16],[15.69,5.02],[15.5,5.05],[15.02,4.94],[14.94,5.01],[14.66,5.01],[14.65,5.19],[14.52,5.29],[14.62,5.5],[14.62,5.86],[14.58,5.92],[14.47,5.92],[14.39,6.04],[14.58,6.19]]]}},{"type":"Feature","properties":{"id":"CAF-HS","nome":"Mambéré-Kadéï","pais":"CAF","tipo":"Prefecture","lat":4.53,"lng":15.89},"geometry":{"type":"Polygon","coordinates":[[[15.1,4.11],[14.99,4.41],[14.72,4.62],[14.66,5.01],[14.94,5.01],[15.02,4.94],[15.5,5.05],[15.69,5.02],[15.67,5.16],[15.72,5.24],[15.77,5.23],[15.81,5.08],[15.93,5.11],[16.03,5.07],[16.73,5.38],[16.93,5.36],[17.12,5.17],[16.99,5.09],[17.03,4.97],[16.83,4.87],[16.85,4.68],[17.07,4.35],[16.86,4.42],[16.74,4.24],[16.66,4.24],[16.59,4],[16.45,3.83],[16.09,3.99],[15.89,3.97],[15.62,3.84],[15.56,3.75],[15.46,3.78],[15.26,3.66],[15.03,4.03],[15.19,4.05],[15.1,4.11]]]}},{"type":"Feature","properties":{"id":"CAF-KB","nome":"Nana-Grébizi","pais":"CAF","tipo":"Economic Prefecture","lat":7.12,"lng":19.41},"geometry":{"type":"Polygon","coordinates":[[[19.06,8.58],[19.36,8.13],[19.32,7.8],[19.37,7.75],[19.59,7.7],[19.59,7.57],[19.73,7.55],[19.92,7.25],[20.16,7.1],[20.1,6.88],[19.87,6.63],[19.87,6.45],[19.53,6.5],[19.18,6.44],[19.01,6.54],[18.75,6.51],[18.87,6.66],[18.75,6.75],[18.65,6.94],[18.74,7.08],[18.71,7.12],[18.84,7.24],[18.73,7.57],[19.01,7.76],[18.98,7.86],[19.06,8.07],[19.02,8.26],[19.06,8.58]]]}}]}