{"type":"FeatureCollection","features":[{"type":"Feature","properties":{"id":"CHE-VS","nome":"Valais","pais":"CHE","tipo":"Canton","lat":46.2,"lng":7.61},"geometry":{"type":"Polygon","coordinates":[[[7.85,45.94],[7.54,45.98],[7.09,45.88],[6.92,46.05],[6.85,46.05],[6.87,46.11],[6.77,46.13],[6.83,46.27],[6.75,46.35],[6.79,46.41],[6.87,46.4],[7.04,46.19],[7.28,46.36],[7.51,46.38],[7.62,46.44],[7.72,46.42],[8,46.56],[8.27,46.54],[8.42,46.65],[8.41,46.58],[8.48,46.53],[8.09,46.27],[8.11,46.13],[7.85,45.94]]]}},{"type":"Feature","properties":{"id":"CHE-TI","nome":"Ticino","pais":"CHE","tipo":"Canton","lat":46.36,"lng":8.79},"geometry":{"type":"Polygon","coordinates":[[[8.73,46.11],[8.6,46.12],[8.44,46.24],[8.45,46.41],[8.4,46.49],[8.54,46.58],[9.02,46.6],[9.1,46.42],[9.06,46.29],[9.16,46.17],[9,46.04],[8.98,45.96],[9.06,45.9],[9.03,45.85],[8.9,45.83],[8.87,45.95],[8.77,45.98],[8.83,46.07],[8.73,46.11]]]}},{"type":"Feature","properties":{"id":"CHE-GR","nome":"Graubünden","pais":"CHE","tipo":"Canton","lat":46.67,"lng":9.56},"geometry":{"type":"Polygon","coordinates":[[[9.22,46.23],[9.16,46.17],[9.08,46.23],[9.1,46.42],[9.02,46.51],[9.04,46.6],[8.95,46.63],[8.71,46.57],[8.67,46.69],[9.05,46.87],[9.24,46.92],[9.45,46.88],[9.53,46.98],[9.48,47.06],[9.86,47.02],[9.88,46.93],[10.11,46.85],[10.37,47],[10.46,46.94],[10.37,46.67],[10.46,46.62],[10.44,46.54],[10.3,46.55],[10.19,46.63],[10.03,46.53],[10.03,46.45],[10.14,46.4],[10.09,46.33],[10.15,46.24],[10.04,46.22],[9.92,46.37],[9.54,46.3],[9.44,46.38],[9.43,46.5],[9.33,46.5],[9.25,46.46],[9.28,46.33],[9.22,46.23]]]}},{"type":"Feature","properties":{"id":"CHE-SH","nome":"Schaffhausen","pais":"CHE","tipo":"Canton","lat":47.72,"lng":8.62},"geometry":{"type":"Polygon","coordinates":[[[8.56,47.8],[8.85,47.67],[8.39,47.67],[8.56,47.8]]]}},{"type":"Feature","properties":{"id":"CHE-TG","nome":"Thurgau","pais":"CHE","tipo":"Canton","lat":47.59,"lng":9.15},"geometry":{"type":"Polygon","coordinates":[[[8.85,47.67],[9.18,47.67],[9.55,47.52],[9.03,47.5],[9.03,47.44],[8.93,47.38],[8.89,47.53],[8.74,47.61],[8.85,47.67]]]}},{"type":"Feature","properties":{"id":"CHE-ZH","nome":"Zürich","pais":"CHE","tipo":"Canton","lat":47.43,"lng":8.66},"geometry":{"type":"Polygon","coordinates":[[[8.6,47.63],[8.64,47.7],[8.71,47.65],[8.8,47.67],[8.79,47.61],[8.74,47.61],[8.89,47.52],[8.89,47.41],[8.97,47.32],[8.93,47.27],[8.68,47.17],[8.42,47.23],[8.38,47.29],[8.45,47.33],[8.37,47.38],[8.4,47.41],[8.36,47.52],[8.49,47.62],[8.56,47.56],[8.6,47.63]]]}},{"type":"Feature","properties":{"id":"CHE-AG","nome":"Aargau","pais":"CHE","tipo":"Canton","lat":47.42,"lng":8.2},"geometry":{"type":"Polygon","coordinates":[[[8.25,47.62],[8.42,47.58],[8.35,47.49],[8.4,47.41],[8.37,47.38],[8.45,47.33],[8.38,47.29],[8.41,47.14],[8.26,47.28],[8.18,47.22],[7.98,47.28],[7.84,47.23],[7.86,47.31],[8,47.33],[8.03,47.4],[7.85,47.55],[7.78,47.51],[7.73,47.55],[8.25,47.62]]]}},{"type":"Feature","properties":{"id":"CHE-BS","nome":"Basel-Stadt","pais":"CHE","tipo":"Canton","lat":47.56,"lng":7.59},"geometry":{"type":"Polygon","coordinates":[[[7.66,47.6],[7.61,47.56],[7.64,47.53],[7.52,47.56],[7.66,47.6]]]}},{"type":"Feature","properties":{"id":"CHE-BL","nome":"Basel-Landschaft","pais":"CHE","tipo":"Canton","lat":47.51,"lng":7.73},"geometry":{"type":"Polygon","coordinates":[[[7.68,47.54],[7.85,47.55],[7.95,47.42],[7.79,47.34],[7.65,47.37],[7.71,47.47],[7.66,47.49],[7.52,47.39],[7.38,47.41],[7.46,47.42],[7.41,47.49],[7.53,47.46],[7.48,47.51],[7.52,47.56],[7.68,47.54]]]}},{"type":"Feature","properties":{"id":"CHE-SG","nome":"Sankt Gallen","pais":"CHE","tipo":"Canton","lat":47.15,"lng":9.21},"geometry":{"type":"Polygon","coordinates":[[[9.55,47.52],[9.65,47.41],[9.49,47.21],[9.48,47.06],[9.53,46.98],[9.45,46.88],[9.24,46.92],[9.22,47.03],[9.13,47.04],[9.18,47.12],[8.96,47.21],[8.78,47.22],[8.97,47.31],[8.93,47.38],[9.03,47.44],[9.03,47.5],[9.55,47.52]],[[9.49,47.35],[9.61,47.45],[9.52,47.47],[9.19,47.36],[9.2,47.28],[9.38,47.24],[9.49,47.35]]]}},{"type":"Feature","properties":{"id":"CHE-SO","nome":"Solothurn","pais":"CHE","tipo":"Canton","lat":47.43,"lng":7.42},"geometry":{"type":"Polygon","coordinates":[[[7.56,47.32],[7.44,47.38],[7.66,47.49],[7.71,47.47],[7.65,47.37],[7.79,47.34],[7.95,47.46],[8.03,47.4],[8,47.33],[7.9,47.34],[7.82,47.27],[7.58,47.28],[7.67,47.17],[7.55,47.16],[7.46,47.08],[7.39,47.1],[7.49,47.16],[7.39,47.16],[7.35,47.22],[7.56,47.32]]]}},{"type":"Feature","properties":{"id":"CHE-JU","nome":"Jura","pais":"CHE","tipo":"Canton","lat":47.36,"lng":7.2},"geometry":{"type":"Polygon","coordinates":[[[7.01,47.5],[7.18,47.49],[7.17,47.44],[7.34,47.43],[7.56,47.32],[7.17,47.3],[6.99,47.18],[6.84,47.17],[7.04,47.34],[6.87,47.35],[7.01,47.5]]]}},{"type":"Feature","properties":{"id":"CHE-GE","nome":"Genève","pais":"CHE","tipo":"Canton","lat":46.24,"lng":6.12},"geometry":{"type":"Polygon","coordinates":[[[6.06,46.24],[6.12,46.33],[6.28,46.24],[6.11,46.14],[5.96,46.13],[5.96,46.21],[6.06,46.24]]]}},{"type":"Feature","properties":{"id":"CHE-VD","nome":"Vaud","pais":"CHE","tipo":"Canton","lat":46.62,"lng":6.51},"geometry":{"type":"Polygon","coordinates":[[[6.12,46.33],[6.14,46.37],[6.05,46.42],[6.15,46.55],[6.12,46.58],[6.42,46.75],[6.44,46.85],[6.73,46.94],[6.79,46.79],[6.92,46.79],[6.91,46.93],[7,46.84],[6.87,46.66],[6.81,46.65],[6.81,46.58],[6.9,46.57],[6.84,46.51],[6.92,46.52],[7,46.44],[7.25,46.54],[7.2,46.44],[7.23,46.33],[7.04,46.19],[6.87,46.4],[6.61,46.46],[6.3,46.39],[6.22,46.31],[6.12,46.33]]]}},{"type":"Feature","properties":{"id":"CHE-NE","nome":"Neuchâtel","pais":"CHE","tipo":"Canton","lat":46.99,"lng":6.76},"geometry":{"type":"Polygon","coordinates":[[[6.44,46.85],[6.44,46.94],[6.67,47.02],[6.84,47.17],[6.88,47.09],[7.04,47.12],[7.09,47.09],[7.02,46.99],[6.77,46.85],[6.73,46.94],[6.44,46.85]]]}},{"type":"Feature","properties":{"id":"CHE-BE","nome":"Bern","pais":"CHE","tipo":"Canton","lat":46.8,"lng":7.65},"geometry":{"type":"Polygon","coordinates":[[[8.45,46.77],[8.45,46.69],[8.27,46.54],[8,46.56],[7.72,46.42],[7.62,46.44],[7.23,46.33],[7.24,46.56],[7.38,46.66],[7.3,46.75],[7.36,46.89],[7.21,46.91],[7.23,47],[7.02,46.99],[7.09,47.09],[6.88,47.09],[6.85,47.17],[7.15,47.25],[7.17,47.3],[7.56,47.32],[7.35,47.21],[7.4,47.16],[7.48,47.19],[7.37,47.12],[7.45,47.08],[7.55,47.16],[7.68,47.18],[7.58,47.28],[7.82,47.27],[7.87,47.05],[7.95,47],[7.87,46.85],[7.98,46.78],[8.45,46.77]]]}},{"type":"Feature","properties":{"id":"CHE-LU","nome":"Lucerne","pais":"CHE","tipo":"Canton","lat":47.1,"lng":8.17},"geometry":{"type":"Polygon","coordinates":[[[8.41,47.14],[8.44,47.11],[8.39,47.06],[8.5,47.01],[8.15,46.96],[8.04,46.79],[7.87,46.85],[7.95,47],[7.87,47.05],[7.84,47.23],[7.98,47.28],[8.18,47.22],[8.26,47.28],[8.41,47.14]]]}},{"type":"Feature","properties":{"id":"CHE-ZG","nome":"Zug","pais":"CHE","tipo":"Canton","lat":47.16,"lng":8.55},"geometry":{"type":"Polygon","coordinates":[[[8.44,47.11],[8.41,47.25],[8.7,47.16],[8.59,47.09],[8.44,47.11]]]}},{"type":"Feature","properties":{"id":"CHE-UR","nome":"Uri","pais":"CHE","tipo":"Canton","lat":46.81,"lng":8.63},"geometry":{"type":"Polygon","coordinates":[[[8.59,46.99],[8.95,46.88],[8.8,46.74],[8.67,46.69],[8.68,46.58],[8.53,46.58],[8.48,46.53],[8.41,46.58],[8.4,46.69],[8.45,46.69],[8.5,46.85],[8.46,46.9],[8.59,46.99]]]}},{"type":"Feature","properties":{"id":"CHE-SZ","nome":"Schwyz","pais":"CHE","tipo":"Canton","lat":47.05,"lng":8.69},"geometry":{"type":"Polygon","coordinates":[[[8.66,46.95],[8.49,46.98],[8.5,47.03],[8.39,47.07],[8.46,47.12],[8.64,47.1],[8.73,47.21],[8.96,47.21],[8.96,47.08],[8.89,47.03],[8.95,46.93],[8.84,46.89],[8.66,46.95]]]}},{"type":"Feature","properties":{"id":"CHE-GL","nome":"Glarus","pais":"CHE","tipo":"Canton","lat":47.01,"lng":9.06},"geometry":{"type":"Polygon","coordinates":[[[8.93,46.92],[8.96,46.96],[8.89,47.03],[8.99,47.17],[9.18,47.12],[9.13,47.04],[9.22,47.03],[9.24,46.92],[8.92,46.8],[8.87,46.84],[8.95,46.88],[8.93,46.92]]]}},{"type":"Feature","properties":{"id":"CHE-NW","nome":"Nidwalden","pais":"CHE","tipo":"Canton","lat":46.93,"lng":8.4},"geometry":{"type":"Polygon","coordinates":[[[8.47,46.99],[8.56,46.98],[8.46,46.9],[8.47,46.86],[8.36,46.87],[8.39,46.78],[8.33,46.82],[8.31,46.97],[8.22,46.98],[8.47,46.99]]]}},{"type":"Feature","properties":{"id":"CHE-FR","nome":"Fribourg","pais":"CHE","tipo":"Canton","lat":46.84,"lng":6.85},"geometry":{"type":"Polygon","coordinates":[[[7.22,47],[7.21,46.91],[7.36,46.89],[7.3,46.75],[7.38,46.66],[7,46.44],[6.92,46.52],[6.84,46.51],[6.9,46.57],[6.81,46.58],[6.81,46.65],[6.87,46.66],[7,46.84],[6.91,46.93],[6.95,46.95],[7.04,46.85],[7.11,46.9],[7.06,46.98],[7.22,47]]]}},{"type":"Feature","properties":{"id":"CHE-OW","nome":"Obwalden","pais":"CHE","tipo":"Canton","lat":46.87,"lng":8.21},"geometry":{"type":"Polygon","coordinates":[[[8.37,46.79],[8.16,46.76],[8.04,46.79],[8.05,46.84],[8.15,46.96],[8.26,46.98],[8.37,46.79]]]}},{"type":"Feature","properties":{"id":"CHE-AR","nome":"Appenzell Ausserrhoden","pais":"CHE","tipo":"Canton","lat":47.39,"lng":9.4},"geometry":{"type":"Polygon","coordinates":[[[9.49,47.39],[9.49,47.35],[9.34,47.38],[9.33,47.25],[9.2,47.28],[9.23,47.4],[9.61,47.45],[9.49,47.39]]]}}]}