{"type":"FeatureCollection","features":[{"type":"Feature","properties":{"id":"CIV-10","nome":"Denguélé","pais":"CIV","tipo":"Region","lat":9.53,"lng":-7.38},"geometry":{"type":"Polygon","coordinates":[[[-8.15,9.86],[-8.17,9.94],[-8.13,10.04],[-7.99,10.16],[-7.83,10.21],[-7.66,10.44],[-7.49,10.46],[-7.44,10.33],[-7.37,10.34],[-7.36,10.25],[-7.11,10.21],[-7.04,10.14],[-6.96,10.19],[-7,10.25],[-6.96,10.34],[-6.66,10.35],[-6.58,10.17],[-6.72,10.1],[-6.87,10.12],[-6.95,9.96],[-6.79,9.95],[-6.73,9.86],[-6.8,9.57],[-6.74,9.51],[-6.78,9.39],[-6.74,9.15],[-6.9,9.05],[-6.91,8.94],[-7.12,9.01],[-7.23,8.94],[-7.19,8.52],[-7.66,8.95],[-7.74,9.07],[-7.93,9.18],[-7.87,9.41],[-8.05,9.39],[-8.15,9.5],[-8.15,9.86]]]}},{"type":"Feature","properties":{"id":"CIV-17","nome":"Bafing","pais":"CIV","tipo":"Region","lat":8.11,"lng":-7.68},"geometry":{"type":"Polygon","coordinates":[[[-7.83,8.75],[-7.96,8.78],[-7.94,8.97],[-7.74,9.07],[-7.66,8.95],[-7.19,8.52],[-7.08,7.99],[-7.24,7.99],[-7.45,8.17],[-7.51,8.08],[-7.51,7.9],[-7.69,7.85],[-7.87,8.01],[-7.97,8.03],[-8.02,8.1],[-8,8.18],[-8.09,8.16],[-8.27,8.25],[-8.25,8.45],[-8.2,8.49],[-7.96,8.49],[-7.88,8.42],[-7.82,8.48],[-7.77,8.39],[-7.66,8.37],[-7.7,8.62],[-7.83,8.75]]]}},{"type":"Feature","properties":{"id":"CIV-06","nome":"Dix-Huit Montagnes","pais":"CIV","tipo":"Department","lat":7.36,"lng":-7.73},"geometry":{"type":"Polygon","coordinates":[[[-7.96,8.02],[-7.87,8.01],[-7.69,7.85],[-7.56,7.87],[-7.5,7.94],[-7.5,8.11],[-7.44,8.17],[-7.24,7.99],[-7.08,7.99],[-7.08,7.68],[-6.98,7.59],[-7.01,7.45],[-7.09,7.37],[-7.06,6.93],[-7.54,6.94],[-7.6,6.93],[-7.62,6.85],[-7.8,6.84],[-7.99,6.97],[-8.1,6.9],[-8.09,6.8],[-8.16,6.72],[-8.33,6.59],[-8.44,6.66],[-8.32,6.81],[-8.3,7.14],[-8.49,7.56],[-8.41,7.61],[-8.23,7.54],[-8.1,7.79],[-8.13,7.88],[-8.07,8.03],[-7.96,8.02]]]}},{"type":"Feature","properties":{"id":"CIV-08","nome":"Zanzan","pais":"CIV","tipo":"Region","lat":8.61,"lng":-3.41},"geometry":{"type":"Polygon","coordinates":[[[-2.69,9.49],[-2.71,9.31],[-2.66,9.25],[-2.77,9.05],[-2.66,9.01],[-2.62,8.92],[-2.51,8.21],[-2.61,8.16],[-2.61,8.04],[-2.79,7.94],[-2.94,7.58],[-2.97,7.21],[-3.1,7.05],[-3.22,7.22],[-3.36,7.22],[-3.43,7.33],[-3.54,7.34],[-3.51,7.45],[-3.59,7.52],[-3.58,7.59],[-3.64,7.58],[-3.74,7.73],[-3.87,7.77],[-3.88,7.89],[-3.98,7.91],[-3.93,7.98],[-4.01,7.97],[-3.99,8.09],[-3.94,8.12],[-4.02,8.18],[-4.04,8.3],[-3.96,8.32],[-3.99,8.42],[-3.93,8.47],[-3.98,8.53],[-3.92,8.57],[-3.94,8.67],[-3.79,8.78],[-3.9,8.95],[-3.8,9.01],[-3.88,9.04],[-3.84,9.1],[-3.9,9.11],[-3.89,9.17],[-4.09,9.27],[-4.18,9.24],[-4.2,9.44],[-4.32,9.61],[-4.28,9.73],[-4.15,9.82],[-4.05,9.8],[-3.66,9.95],[-3.32,9.9],[-3.3,9.84],[-3.21,9.92],[-3.09,9.73],[-2.99,9.71],[-2.81,9.41],[-2.76,9.39],[-2.69,9.49]]]}},{"type":"Feature","properties":{"id":"CIV-05","nome":"Comoe","pais":"CIV","tipo":"Department","lat":6.76,"lng":-3.48},"geometry":{"type":"Polygon","coordinates":[[[-3.1,7.05],[-3.24,6.81],[-3.21,6.72],[-3.26,6.63],[-3.17,6.25],[-3.31,5.92],[-3.43,5.78],[-3.47,5.86],[-3.38,6],[-3.43,6.06],[-3.4,6.16],[-3.46,6.19],[-3.54,6.38],[-3.61,6.36],[-3.68,6.64],[-3.77,6.62],[-3.8,6.67],[-3.73,6.91],[-3.78,6.98],[-3.57,7.07],[-3.65,7.18],[-3.5,7.35],[-3.37,7.23],[-3.17,7.18],[-3.1,7.05]]]}},{"type":"Feature","properties":{"id":"CIV-13","nome":"Sud-Comoé","pais":"CIV","tipo":"Region","lat":5.52,"lng":-3.13},"geometry":{"type":"Polygon","coordinates":[[[-3.17,6.25],[-3.02,5.85],[-3.03,5.7],[-2.96,5.71],[-2.95,5.61],[-2.79,5.6],[-2.73,5.37],[-2.79,5.35],[-2.78,5.15],[-3.14,5.14],[-3.21,5.22],[-3.15,5.37],[-3.26,5.34],[-3.29,5.25],[-3.24,5.23],[-3.32,5.19],[-3.28,5.15],[-3.31,5.12],[-3.54,5.16],[-3.4,5.24],[-3.43,5.78],[-3.31,5.92],[-3.17,6.25]]]}},{"type":"Feature","properties":{"id":"CIV-03","nome":"Savanes","pais":"CIV","tipo":"Department","lat":9.82,"lng":-5.37},"geometry":{"type":"Polygon","coordinates":[[[-5.52,10.43],[-5.4,10.3],[-5.12,10.29],[-5.12,10.21],[-5.08,10.23],[-5.04,10.13],[-5.07,10.11],[-4.96,10.04],[-4.97,9.9],[-4.8,9.84],[-4.8,9.75],[-4.68,9.68],[-4.5,9.74],[-4.5,9.66],[-4.41,9.65],[-4.37,9.58],[-4.37,9.62],[-4.31,9.6],[-4.24,9.53],[-4.17,9.23],[-4.09,9.27],[-3.85,9.12],[-3.89,9.06],[-3.81,8.99],[-3.9,8.95],[-3.79,8.78],[-3.93,8.69],[-3.93,8.61],[-4.22,8.64],[-4.34,8.71],[-4.4,8.85],[-4.53,8.91],[-4.94,8.91],[-4.89,9.12],[-4.97,9.16],[-5.02,9.29],[-5.2,9.3],[-5.26,9.39],[-5.34,9.38],[-5.45,9.21],[-5.5,9.06],[-5.42,8.99],[-5.46,9],[-5.47,8.87],[-5.7,8.83],[-5.7,8.63],[-5.64,8.61],[-5.61,8.53],[-5.96,8.64],[-6.14,8.95],[-6.23,9],[-6.22,9.15],[-6.26,9.2],[-6.34,9.21],[-6.46,9.08],[-6.53,9.16],[-6.61,9.07],[-6.75,9.12],[-6.78,9.39],[-6.74,9.51],[-6.8,9.57],[-6.73,9.85],[-6.79,9.95],[-6.95,9.96],[-6.87,10.12],[-6.72,10.1],[-6.58,10.17],[-6.7,10.47],[-6.67,10.65],[-6.45,10.55],[-6.4,10.59],[-6.43,10.69],[-6.25,10.72],[-6.2,10.63],[-6.26,10.51],[-6.19,10.49],[-6.18,10.42],[-6.24,10.25],[-6.11,10.19],[-6.02,10.19],[-5.81,10.41],[-5.52,10.43]]]}},{"type":"Feature","properties":{"id":"CIV-19","nome":"Cavally","pais":"CIV","tipo":"Department","lat":5.99,"lng":-7.79},"geometry":{"type":"Polygon","coordinates":[[[-8.55,6.56],[-8.44,6.66],[-8.33,6.59],[-8.25,6.63],[-8.09,6.8],[-8.1,6.9],[-7.99,6.97],[-7.8,6.84],[-7.62,6.85],[-7.6,6.93],[-7.54,6.94],[-7.06,6.93],[-6.97,6.7],[-7,6.56],[-7.12,6.46],[-7.09,5.69],[-7.42,5.63],[-7.45,5.85],[-7.49,5.81],[-7.79,5.96],[-7.91,6.27],[-8.41,6.34],[-8.42,6.45],[-8.47,6.49],[-8.5,6.43],[-8.62,6.49],[-8.55,6.56]]]}},{"type":"Feature","properties":{"id":"CIV-09","nome":"Bas-Sassandra","pais":"CIV","tipo":"Department","lat":5.48,"lng":-6.68},"geometry":{"type":"Polygon","coordinates":[[[-7.38,5.57],[-7.42,5.63],[-7.09,5.69],[-7.12,6.46],[-7,6.56],[-6.97,6.4],[-6.84,6.25],[-6.4,6.3],[-6.37,6.1],[-6.22,5.78],[-6.11,5.78],[-5.97,5.51],[-5.83,5.56],[-5.75,5.21],[-5.86,5.17],[-5.86,5.03],[-6.9,4.66],[-7.44,4.35],[-7.54,4.35],[-7.61,4.9],[-7.55,4.91],[-7.58,5.07],[-7.49,5.14],[-7.48,5.26],[-7.39,5.32],[-7.45,5.44],[-7.38,5.57]]]}},{"type":"Feature","properties":{"id":"CIV-15","nome":"Sud-Bandama","pais":"CIV","tipo":"Department","lat":5.63,"lng":-5.49},"geometry":{"type":"Polygon","coordinates":[[[-5.43,5.1],[-5.55,5.11],[-5.86,5.03],[-5.86,5.17],[-5.75,5.21],[-5.74,5.28],[-5.83,5.56],[-5.97,5.51],[-6.05,5.68],[-5.78,5.96],[-5.73,6.2],[-5.51,6.17],[-5.31,6.23],[-5.01,6.11],[-4.94,5.8],[-5.09,5.23],[-5.32,5.23],[-5.32,5.19],[-5.44,5.26],[-5.43,5.1]]]}},{"type":"Feature","properties":{"id":"CIV-01","nome":"Lagunes","pais":"CIV","tipo":"Department","lat":5.46,"lng":-4.43},"geometry":{"type":"MultiPolygon","coordinates":[[[[-5.32,5.19],[-5.36,5.13],[-5.41,5.17],[-5.31,5.12],[-5.27,5.13],[-5.34,5.15],[-5.18,5.2],[-5.03,5.18],[-5,5.13],[-5.43,5.1],[-5.44,5.26],[-5.32,5.19]]],[[[-3.54,5.16],[-3.72,5.19],[-3.72,5.24],[-3.76,5.19],[-4,5.27],[-3.73,5.27],[-3.8,5.38],[-3.74,5.27],[-3.91,5.35],[-4.01,5.31],[-3.94,5.29],[-3.99,5.27],[-4.27,5.31],[-4.46,5.3],[-4.45,5.26],[-4.56,5.3],[-4.69,5.23],[-4.67,5.31],[-4.81,5.19],[-4.18,5.28],[-4,5.23],[-4.89,5.13],[-4.98,5.14],[-5.01,5.22],[-5.22,5.21],[-5.09,5.23],[-4.94,5.8],[-5.01,6.11],[-5.24,6.22],[-5.22,6.37],[-5.01,6.24],[-4.7,6.28],[-4.46,6.22],[-4.66,5.86],[-4.34,5.6],[-3.93,5.62],[-3.9,5.79],[-3.73,5.91],[-3.47,5.84],[-3.41,5.75],[-3.44,5.3],[-3.4,5.24],[-3.54,5.16]]]]}},{"type":"Feature","properties":{"id":"CIV-02","nome":"Haut-Sassandra","pais":"CIV","tipo":"Department","lat":7.01,"lng":-6.51},"geometry":{"type":"Polygon","coordinates":[[[-7.05,7.61],[-7.07,7.72],[-7.03,7.76],[-6.63,7.79],[-6.46,7.74],[-6.25,7.78],[-6.21,7.68],[-6.12,7.64],[-6.31,7.5],[-6.45,7.25],[-6.25,7.21],[-6.17,7.29],[-5.93,7.17],[-6.22,6.98],[-6.17,6.73],[-6.04,6.52],[-6.09,6.38],[-6.83,6.25],[-6.97,6.4],[-6.96,6.51],[-7.01,6.57],[-6.97,6.7],[-7.06,6.87],[-7.09,7.37],[-7.01,7.45],[-6.98,7.59],[-7.05,7.61]]]}},{"type":"Feature","properties":{"id":"CIV-16","nome":"Agnéby","pais":"CIV","tipo":"Department","lat":6.06,"lng":-4.02},"geometry":{"type":"Polygon","coordinates":[[[-4.15,6.23],[-4.16,6.37],[-4.1,6.48],[-3.69,6.64],[-3.61,6.36],[-3.54,6.38],[-3.46,6.19],[-3.4,6.16],[-3.43,6.06],[-3.38,6],[-3.47,5.84],[-3.72,5.91],[-3.82,5.86],[-3.92,5.76],[-3.93,5.62],[-4.34,5.6],[-4.66,5.86],[-4.43,6.28],[-4.25,6.19],[-4.15,6.23]]]}},{"type":"Feature","properties":{"id":"CIV-11","nome":"N'zi-Comoé","pais":"CIV","tipo":"Department","lat":7.06,"lng":-4.24},"geometry":{"type":"Polygon","coordinates":[[[-3.77,6.63],[-4.1,6.48],[-4.16,6.37],[-4.15,6.23],[-4.25,6.19],[-4.42,6.28],[-4.46,6.22],[-4.7,6.28],[-4.7,6.4],[-4.79,6.49],[-4.74,6.6],[-4.91,6.59],[-4.95,6.67],[-4.95,6.82],[-4.8,6.89],[-4.82,7.01],[-4.71,7.27],[-4.73,7.43],[-4.63,7.45],[-4.66,7.52],[-4.52,7.6],[-4.53,7.8],[-4.39,7.81],[-4.16,8],[-4.01,8.03],[-4.01,7.97],[-3.93,7.98],[-3.98,7.91],[-3.88,7.89],[-3.87,7.77],[-3.73,7.72],[-3.51,7.45],[-3.53,7.29],[-3.65,7.18],[-3.57,7.07],[-3.78,6.98],[-3.73,6.91],[-3.8,6.76],[-3.77,6.63]]]}},{"type":"Feature","properties":{"id":"CIV-12","nome":"Marahoué","pais":"CIV","tipo":"Department","lat":6.95,"lng":-5.83},"geometry":{"type":"Polygon","coordinates":[[[-5.41,6.64],[-5.74,6.49],[-6.04,6.52],[-6.09,6.57],[-6.22,6.98],[-5.93,7.17],[-6.17,7.29],[-6.25,7.21],[-6.45,7.25],[-6.31,7.5],[-6.08,7.64],[-6.01,7.74],[-5.8,7.74],[-5.67,7.22],[-5.49,7.14],[-5.46,7.03],[-5.54,6.9],[-5.41,6.64]]]}},{"type":"Feature","properties":{"id":"CIV-18","nome":"Fromager","pais":"CIV","tipo":"Region","lat":6.22,"lng":-5.81},"geometry":{"type":"Polygon","coordinates":[[[-5.48,6.64],[-5.31,6.59],[-5.31,6.4],[-5.22,6.37],[-5.24,6.22],[-5.51,6.17],[-5.73,6.2],[-5.78,5.96],[-6.05,5.68],[-6.13,5.79],[-6.22,5.78],[-6.37,6.1],[-6.4,6.3],[-6.1,6.37],[-6.04,6.52],[-5.71,6.5],[-5.48,6.64]]]}},{"type":"Feature","properties":{"id":"CIV-04","nome":"Vallée du Bandama","pais":"CIV","tipo":"Region","lat":8.23,"lng":-4.86},"geometry":{"type":"Polygon","coordinates":[[[-4.01,8.03],[-4.18,7.99],[-4.41,7.8],[-4.53,7.8],[-4.52,7.6],[-4.66,7.52],[-4.89,7.54],[-5.29,7.24],[-5.38,7.23],[-5.45,7.3],[-5.66,7.26],[-5.79,7.62],[-5.74,8],[-5.4,8.11],[-5.35,8.26],[-5.62,8.45],[-5.52,8.47],[-5.7,8.63],[-5.67,8.73],[-5.72,8.76],[-5.69,8.84],[-5.46,8.88],[-5.49,8.91],[-5.42,8.99],[-5.5,9.09],[-5.34,9.38],[-5.25,9.39],[-5.19,9.3],[-5.02,9.29],[-4.97,9.16],[-4.88,9.11],[-4.94,8.91],[-4.53,8.91],[-4.4,8.85],[-4.34,8.71],[-4.22,8.64],[-3.93,8.61],[-3.98,8.53],[-3.93,8.47],[-3.99,8.42],[-3.96,8.32],[-4.04,8.3],[-4.02,8.18],[-3.94,8.12],[-4.01,8.03]]]}},{"type":"Feature","properties":{"id":"CIV-07","nome":"Lacs","pais":"CIV","tipo":"Department","lat":6.85,"lng":-5.15},"geometry":{"type":"Polygon","coordinates":[[[-4.74,6.6],[-4.79,6.49],[-4.73,6.47],[-4.69,6.29],[-4.75,6.24],[-5.01,6.24],[-5.18,6.38],[-5.29,6.37],[-5.34,6.52],[-5.31,6.59],[-5.41,6.61],[-5.44,6.77],[-5.54,6.9],[-5.46,7.03],[-5.49,7.14],[-5.6,7.15],[-5.66,7.26],[-5.45,7.3],[-5.38,7.23],[-5.29,7.24],[-4.89,7.54],[-4.66,7.52],[-4.63,7.45],[-4.73,7.42],[-4.71,7.27],[-4.82,7.01],[-4.8,6.88],[-4.95,6.82],[-4.97,6.75],[-4.92,6.6],[-4.74,6.6]]]}},{"type":"Feature","properties":{"id":"CIV-14","nome":"Worodougou","pais":"CIV","tipo":"Region","lat":8.49,"lng":-6.29},"geometry":{"type":"Polygon","coordinates":[[[-6.11,7.62],[-6.21,7.68],[-6.25,7.78],[-7,7.76],[-7.07,7.72],[-7.11,8.32],[-7.23,8.62],[-7.19,8.79],[-7.23,8.94],[-7.12,9.01],[-6.91,8.94],[-6.9,9.05],[-6.75,9.12],[-6.61,9.07],[-6.53,9.16],[-6.46,9.08],[-6.34,9.21],[-6.26,9.2],[-6.22,9.15],[-6.23,9],[-6.14,8.95],[-5.96,8.64],[-5.61,8.53],[-5.52,8.47],[-5.62,8.45],[-5.58,8.4],[-5.35,8.28],[-5.4,8.11],[-5.74,8],[-5.78,7.75],[-5.91,7.71],[-6.01,7.74],[-6.11,7.62]]]}}]}