{"type":"FeatureCollection","features":[{"type":"Feature","properties":{"id":"CMR-SU","nome":"Sud","pais":"CMR","tipo":"Province","lat":2.79,"lng":11.73},"geometry":{"type":"Polygon","coordinates":[[[11.77,2.28],[11.66,2.32],[11.35,2.3],[11.32,2.17],[9.99,2.17],[9.87,2.21],[9.8,2.34],[9.88,2.88],[9.96,3.05],[9.9,3.26],[10.02,3.34],[10.07,3.51],[10.19,3.6],[10.3,3.35],[10.82,3.48],[10.85,3.42],[11.05,3.41],[11.22,3.13],[11.56,3.15],[11.69,3.21],[11.9,3.46],[12.13,3.35],[12.13,3.3],[12.2,3.32],[12.27,3.48],[12.49,3.67],[12.57,3.56],[12.56,3.41],[12.74,3.19],[12.8,2.93],[13.43,2.79],[13.5,2.79],[13.5,2.84],[13.62,2.91],[13.66,2.16],[13.29,2.16],[13.28,2.24],[13.16,2.28],[12.75,2.24],[12.32,2.31],[11.77,2.28]]]}},{"type":"Feature","properties":{"id":"CMR-EN","nome":"Extrême-Nord","pais":"CMR","tipo":"Province","lat":10.72,"lng":14.54},"geometry":{"type":"Polygon","coordinates":[[[14.48,13],[14.49,12.87],[14.58,12.74],[14.82,12.64],[14.91,12.33],[14.9,12.15],[15.05,12.08],[15.08,11.97],[15.04,11.88],[15.11,11.78],[15.07,11.68],[15.14,11.53],[15.06,11.42],[15.02,11.18],[15.14,10.52],[15.22,10.49],[15.3,10.31],[15.48,10.13],[15.68,9.99],[15.44,9.93],[15.16,9.99],[14.77,9.92],[14.44,10],[14.2,9.98],[14.19,10.06],[14.06,10.09],[13.96,10.19],[13.71,10.23],[13.65,10.18],[13.67,10.12],[13.57,10.08],[13.44,10.06],[13.39,10.12],[13.45,10.19],[13.54,10.62],[13.91,11.21],[13.98,11.28],[14.17,11.24],[14.62,11.54],[14.62,11.63],[14.54,11.71],[14.67,12.18],[14.49,12.34],[14.19,12.37],[14.06,13.08],[14.42,13.08],[14.48,13]]]}},{"type":"Feature","properties":{"id":"CMR-NO","nome":"Nord","pais":"CMR","tipo":"Province","lat":8.91,"lng":13.89},"geometry":{"type":"Polygon","coordinates":[[[14.2,9.98],[13.95,9.64],[14.35,9.17],[15.05,8.64],[15.18,8.48],[15.44,7.84],[15.56,7.79],[15.55,7.63],[15.43,7.39],[14.69,7.03],[14.49,7.16],[14.35,7.17],[14.32,7.31],[14.1,7.57],[13.9,7.6],[13.86,7.67],[13.52,7.59],[13.29,7.71],[13.25,7.61],[13.13,7.6],[12.75,7.7],[12.64,7.75],[12.62,7.92],[12.48,7.95],[12.23,8.19],[12.23,8.39],[12.4,8.5],[12.37,8.61],[12.56,8.61],[12.79,8.79],[12.82,9.1],[12.9,9.26],[12.85,9.36],[12.98,9.47],[13.2,9.54],[13.26,9.8],[13.21,9.89],[13.25,10.08],[13.39,10.12],[13.44,10.06],[13.55,10.07],[13.67,10.12],[13.68,10.22],[13.87,10.21],[14.19,10.06],[14.2,9.98]]]}},{"type":"Feature","properties":{"id":"CMR-AD","nome":"Adamaoua","pais":"CMR","tipo":"Province","lat":6.8,"lng":13.22},"geometry":{"type":"Polygon","coordinates":[[[11.9,7.45],[12.02,7.58],[12.02,7.72],[12.19,7.96],[12.23,8.19],[12.48,7.95],[12.62,7.92],[12.64,7.75],[12.75,7.7],[13.13,7.6],[13.25,7.61],[13.29,7.71],[13.52,7.59],[13.86,7.67],[13.9,7.6],[14.1,7.57],[14.32,7.31],[14.35,7.17],[14.49,7.16],[14.66,7.03],[15.25,7.27],[14.77,6.32],[14.43,6.08],[14.38,6.12],[13.76,6],[12.52,6],[12.31,6.2],[12.1,6.17],[11.97,6.26],[11.62,6.07],[11.29,5.99],[11.3,6.24],[11.19,6.29],[11.2,6.44],[11.39,6.47],[11.42,6.57],[11.51,6.61],[11.56,6.71],[11.56,6.88],[11.87,7.08],[11.74,7.26],[11.9,7.45]]]}},{"type":"Feature","properties":{"id":"CMR-NW","nome":"Nord-Ouest","pais":"CMR","tipo":"Province","lat":6.35,"lng":10.4},"geometry":{"type":"Polygon","coordinates":[[[9.69,6.53],[9.79,6.79],[9.87,6.79],[10.14,7.01],[10.21,6.88],[10.5,6.87],[10.58,7.13],[10.62,7.04],[10.83,6.95],[10.91,6.78],[11.04,6.74],[11.1,6.45],[11.2,6.44],[11.21,6.36],[11.14,6.25],[11.01,6.24],[10.97,6.07],[10.84,6.01],[10.69,6.02],[10.59,5.84],[10.32,5.8],[10.29,5.72],[10.18,5.78],[10.1,5.73],[9.92,5.73],[9.61,5.91],[9.6,6.02],[9.8,6.16],[9.81,6.27],[9.69,6.53]]]}},{"type":"Feature","properties":{"id":"CMR-SW","nome":"Sud-Ouest","pais":"CMR","tipo":"Province","lat":5.13,"lng":9.24},"geometry":{"type":"Polygon","coordinates":[[[9.64,6.52],[9.73,6.48],[9.81,6.27],[9.78,6.13],[9.6,6.02],[9.61,5.91],[9.8,5.78],[10.11,5.69],[9.97,5.57],[9.91,5.39],[9.75,5.29],[9.85,5.07],[9.79,5.03],[9.79,4.91],[9.64,4.65],[9.52,4.56],[9.44,4.24],[9.56,4.17],[9.33,3.92],[9.33,4.03],[9.21,3.96],[9.2,4.02],[8.97,4.1],[8.99,4.22],[8.89,4.46],[8.94,4.55],[8.9,4.52],[8.85,4.64],[8.87,4.54],[8.8,4.6],[8.79,4.54],[8.66,4.74],[8.72,4.51],[8.58,4.49],[8.59,4.53],[8.51,4.53],[8.55,4.61],[8.51,4.63],[8.6,4.88],[8.8,5.16],[8.9,5.6],[8.82,5.7],[8.85,5.83],[8.98,5.9],[9.34,6.31],[9.64,6.52]]]}},{"type":"Feature","properties":{"id":"CMR-ES","nome":"Est","pais":"CMR","tipo":"Province","lat":3.78,"lng":14.17},"geometry":{"type":"Polygon","coordinates":[[[16.2,2.24],[16.09,2.15],[16.06,1.98],[16.16,1.73],[16.07,1.65],[16.01,1.77],[15.89,1.79],[15.71,1.93],[15.48,1.98],[15.34,1.92],[15.21,2.04],[15.07,1.98],[14.98,2.03],[14.89,2.01],[14.86,2.12],[14.76,2.07],[14.56,2.21],[14.43,2.13],[13.66,2.16],[13.62,2.91],[13.5,2.84],[13.5,2.79],[13.43,2.79],[12.8,2.93],[12.74,3.19],[12.55,3.42],[12.61,3.75],[12.5,3.87],[12.79,4.06],[12.8,4.35],[12.9,4.54],[13.2,4.57],[13.24,4.81],[13.17,4.94],[13.05,4.98],[13.02,5.11],[12.82,5.3],[12.97,5.32],[13.07,5.54],[12.88,5.89],[12.88,6],[13.76,6],[14.38,6.12],[14.47,5.92],[14.58,5.92],[14.62,5.5],[14.52,5.29],[14.66,5.16],[14.72,4.62],[14.99,4.41],[15.09,4.12],[15.19,4.06],[15.03,4.03],[15.17,3.76],[15.79,3.11],[15.91,3.1],[16.06,2.94],[16.1,2.84],[16.06,2.71],[16.11,2.7],[16.09,2.51],[16.2,2.24]]]}},{"type":"Feature","properties":{"id":"CMR-LT","nome":"Littoral","pais":"CMR","tipo":"Province","lat":4.19,"lng":10.09},"geometry":{"type":"Polygon","coordinates":[[[9.93,3.27],[9.64,3.54],[9.82,3.63],[9.63,3.6],[9.55,3.82],[9.62,3.75],[9.66,3.75],[9.59,3.81],[9.62,3.87],[9.74,3.82],[9.68,3.91],[9.76,3.96],[9.62,3.96],[9.75,4.14],[9.56,4.02],[9.5,4.08],[9.55,4.2],[9.44,4.24],[9.52,4.56],[9.79,4.91],[9.78,5],[9.85,5.07],[9.75,5.29],[9.87,5.36],[9.86,5.28],[9.98,5.24],[10,5.12],[10.12,4.93],[10.26,5.08],[10.37,5.09],[10.5,4.91],[10.37,4.76],[10.37,4.7],[10.49,4.75],[10.5,4.71],[10.4,4.49],[10.59,4.43],[10.71,4.52],[10.74,4.48],[10.81,4.62],[10.92,4.63],[10.95,4.41],[11.12,4.22],[10.72,4.06],[10.62,3.74],[10.46,3.84],[10.41,3.81],[10.33,3.58],[10.27,3.54],[10.19,3.6],[10.13,3.58],[10.02,3.34],[9.93,3.27]]]}},{"type":"Feature","properties":{"id":"CMR-OU","nome":"Ouest","pais":"CMR","tipo":"Province","lat":5.37,"lng":10.59},"geometry":{"type":"Polygon","coordinates":[[[11.09,6.24],[11.19,6.29],[11.3,6.25],[11.31,6.05],[11.26,5.92],[11.31,5.79],[11.21,5.68],[11.19,5.42],[11.08,5.31],[11.08,5.19],[11,5.14],[10.95,4.97],[10.8,5.02],[10.61,4.9],[10.5,4.91],[10.37,5.09],[10.26,5.08],[10.12,4.93],[10,5.12],[9.98,5.24],[9.86,5.28],[9.97,5.57],[10.17,5.78],[10.29,5.72],[10.32,5.8],[10.59,5.84],[10.69,6.02],[10.92,6.05],[11,6.11],[11.01,6.24],[11.09,6.24]]]}},{"type":"Feature","properties":{"id":"CMR-CE","nome":"Centre","pais":"CMR","tipo":"Province","lat":4.73,"lng":11.74},"geometry":{"type":"Polygon","coordinates":[[[11.97,6.26],[12.1,6.17],[12.31,6.2],[12.52,6],[12.88,6],[12.88,5.89],[13.07,5.54],[12.97,5.32],[12.82,5.3],[13.02,5.11],[13.05,4.98],[13.19,4.92],[13.24,4.81],[13.21,4.59],[12.89,4.53],[12.8,4.35],[12.79,4.06],[12.5,3.87],[12.61,3.75],[12.57,3.56],[12.47,3.66],[12.27,3.48],[12.2,3.32],[12.13,3.3],[12.13,3.35],[11.9,3.46],[11.68,3.2],[11.22,3.13],[11.05,3.41],[10.85,3.42],[10.82,3.48],[10.29,3.36],[10.24,3.52],[10.33,3.59],[10.39,3.79],[10.46,3.84],[10.62,3.74],[10.72,4.06],[11.12,4.22],[10.95,4.41],[10.92,4.63],[10.81,4.62],[10.74,4.48],[10.71,4.52],[10.59,4.43],[10.4,4.49],[10.5,4.71],[10.49,4.75],[10.37,4.7],[10.38,4.78],[10.5,4.91],[10.61,4.9],[10.79,5.01],[10.95,4.97],[11,5.14],[11.08,5.19],[11.08,5.31],[11.19,5.42],[11.21,5.68],[11.31,5.79],[11.28,5.98],[11.62,6.07],[11.97,6.26]]]}}]}