{"type":"FeatureCollection","features":[{"type":"Feature","properties":{"id":"COD-EQ","nome":"Équateur","pais":"COD","tipo":"Province","lat":1.22,"lng":20.47},"geometry":{"type":"Polygon","coordinates":[[[17.55,-0.76],[17.75,-0.52],[17.72,-0.2],[17.95,0.38],[17.87,1.02],[18.07,1.55],[18.07,2.16],[18.39,2.71],[18.53,3.06],[18.63,3.18],[18.59,3.71],[18.65,4.05],[18.54,4.33],[18.75,4.4],[19.12,4.94],[19.41,5.13],[19.73,5.13],[20.34,4.77],[20.46,4.62],[20.45,4.53],[20.58,4.42],[20.87,4.45],[21.08,4.4],[21.21,4.29],[21.29,4.33],[21.54,4.24],[21.65,4.3],[22,4.24],[22.21,4.15],[22.55,4.11],[22.75,3.98],[22.84,3.87],[23.15,3.9],[23.35,3.81],[23.51,3.82],[23.37,3.62],[23.17,3.67],[23.04,3.55],[22.68,3.45],[22.63,3.37],[22.79,3.27],[22.81,3],[23,3.16],[23.07,3.15],[22.96,2.67],[23.04,2.56],[23.13,2.5],[23.36,2.52],[23.63,2.33],[23.65,2.19],[23.34,2.25],[23.09,2.1],[22.98,2.18],[22.76,2.01],[22.58,2.12],[22.47,1.69],[22.29,1.51],[22.49,1.46],[22.63,1.35],[22.81,1],[22.85,0.7],[22.97,0.41],[23.41,-0.21],[23.29,-0.31],[23.13,-0.28],[22.98,-0.4],[23.19,-0.42],[23.27,-0.49],[23.48,-0.46],[23.62,-0.65],[23.37,-0.79],[23.38,-0.84],[23.98,-1.33],[24.29,-1.39],[24.42,-1.79],[23.83,-1.77],[23.69,-2.02],[23.22,-2.08],[23.1,-1.94],[22.94,-1.96],[22.82,-1.86],[22.62,-1.81],[22.51,-1.96],[22.17,-1.92],[22.29,-2.4],[22.25,-2.47],[22.19,-2.44],[22.14,-2.28],[21.83,-2.52],[21.48,-2.34],[21.42,-2.48],[21.01,-2.49],[20.99,-2.37],[20.69,-2.02],[20.43,-2.08],[20.19,-1.95],[19.92,-1.93],[19.82,-1.72],[19.73,-1.67],[19.6,-1.79],[19.52,-1.78],[19.47,-1.6],[19.09,-1],[18.99,-0.74],[18.8,-0.93],[18.88,-1.13],[18.81,-1.23],[18.52,-1.27],[18.35,-1.16],[18.15,-1.13],[17.93,-1.37],[17.52,-1.53],[17.08,-1.81],[16.82,-1.79],[16.9,-2],[16.63,-2],[16.52,-1.86],[16.83,-1.27],[17.02,-1.1],[17.31,-1.01],[17.55,-0.76]]]}},{"type":"Feature","properties":{"id":"COD-BN","nome":"Bandundu","pais":"COD","tipo":"Province","lat":-4.62,"lng":18.45},"geometry":{"type":"Polygon","coordinates":[[[16.18,-2.94],[16.23,-2.64],[16.19,-2.2],[16.52,-1.86],[16.63,-2],[16.9,-2],[16.82,-1.79],[17.08,-1.81],[17.52,-1.53],[17.93,-1.37],[18.15,-1.13],[18.35,-1.16],[18.52,-1.27],[18.81,-1.23],[18.88,-1.13],[18.8,-0.93],[18.99,-0.74],[19.09,-1],[19.47,-1.6],[19.52,-1.78],[19.6,-1.79],[19.73,-1.67],[19.82,-1.72],[19.92,-1.93],[20.19,-1.95],[20.43,-2.08],[20.67,-2.02],[20.99,-2.37],[20.95,-2.69],[20.84,-2.83],[20.66,-3.33],[20.67,-4.13],[20.39,-4.28],[20.34,-4.39],[20.27,-4.39],[20.13,-4.28],[20.04,-4.29],[20.12,-4.5],[20.06,-4.77],[20.19,-5.15],[20.15,-5.36],[20.18,-5.68],[20,-5.96],[19.84,-6.03],[19.69,-6.19],[19.73,-6.55],[19.93,-6.85],[19.96,-7],[19.52,-7],[19.48,-7.32],[19.51,-7.48],[19.44,-7.58],[19.36,-7.57],[19.36,-8],[18.77,-8],[18.74,-7.93],[18.52,-7.93],[18.51,-8],[18.12,-8.02],[18.1,-8.11],[17.87,-8.04],[17.54,-8.08],[17.15,-7.47],[17.18,-7.43],[17,-7.3],[16.93,-6.89],[16.76,-6.69],[16.69,-6.4],[16.73,-6.19],[16.61,-6.09],[16.6,-5.92],[16.1,-5.86],[16.23,-5.68],[16.26,-4.79],[16.43,-4.52],[16.49,-4.51],[16.55,-4.35],[16.39,-4.1],[16.2,-3.99],[15.89,-3.94],[16.22,-3.33],[16.18,-2.94]]]}},{"type":"Feature","properties":{"id":"COD-KN","nome":"Kinshasa City","pais":"COD","tipo":"Neutral City","lat":-4.5,"lng":15.85},"geometry":{"type":"Polygon","coordinates":[[[15.15,-4.43],[15.2,-4.34],[15.46,-4.21],[15.55,-4.05],[15.89,-3.94],[16.2,-3.99],[16.39,-4.1],[16.55,-4.35],[16.49,-4.51],[16.43,-4.52],[16.27,-4.78],[16.28,-5],[16.03,-4.99],[15.9,-4.92],[15.83,-5.03],[15.62,-4.92],[15.72,-4.85],[15.75,-4.71],[15.67,-4.62],[15.68,-4.56],[15.44,-4.53],[15.35,-4.66],[15.15,-4.43]]]}},{"type":"Feature","properties":{"id":"COD-BC","nome":"Bas-Congo","pais":"COD","tipo":"Province","lat":-5.32,"lng":14.21},"geometry":{"type":"Polygon","coordinates":[[[15.08,-4.52],[15.15,-4.43],[15.36,-4.66],[15.44,-4.53],[15.68,-4.56],[15.67,-4.62],[15.75,-4.71],[15.72,-4.85],[15.62,-4.92],[15.73,-5.01],[15.86,-5.02],[15.9,-4.92],[16.03,-4.99],[16.28,-5],[16.22,-5.7],[16.1,-5.86],[14.58,-5.9],[13.94,-5.84],[13.34,-5.89],[12.9,-5.81],[12.77,-5.87],[12.72,-5.98],[12.45,-6.05],[12.46,-5.98],[12.4,-6.01],[12.21,-5.76],[12.51,-5.73],[12.53,-5.16],[12.44,-5.06],[12.68,-4.92],[12.8,-4.74],[13.07,-4.66],[13.09,-4.58],[13.36,-4.79],[13.39,-4.89],[13.48,-4.77],[13.59,-4.78],[13.71,-4.69],[13.71,-4.45],[13.81,-4.43],[13.94,-4.5],[14.02,-4.42],[14.39,-4.28],[14.47,-4.43],[14.35,-4.56],[14.41,-4.7],[14.4,-4.89],[14.52,-4.84],[14.63,-4.9],[14.83,-4.82],[15.08,-4.52]]]}},{"type":"Feature","properties":{"id":"COD-OR","nome":"Orientale","pais":"COD","tipo":"Province","lat":2.4,"lng":26.79},"geometry":{"type":"Polygon","coordinates":[[[27.44,5.07],[27.51,4.92],[27.64,4.89],[27.75,4.78],[27.77,4.6],[28.01,4.55],[28.05,4.42],[28.1,4.44],[28.18,4.35],[28.3,4.35],[28.38,4.28],[28.76,4.55],[28.82,4.48],[28.99,4.5],[29.2,4.34],[29.39,4.49],[29.46,4.67],[29.8,4.56],[29.79,4.37],[29.93,4.31],[29.92,4.25],[30.12,4.1],[30.19,3.96],[30.53,3.87],[30.54,3.61],[30.75,3.67],[30.84,3.49],[30.9,3.52],[30.91,3.39],[30.74,3.06],[30.85,2.85],[30.71,2.45],[30.8,2.43],[30.87,2.33],[30.97,2.41],[31.06,2.29],[31.18,2.3],[31.27,2.1],[31.03,1.78],[30.68,1.5],[30.48,1.24],[30.24,1.14],[30.15,0.9],[29.98,0.85],[29.85,0.96],[29.72,0.88],[29.6,0.88],[29.55,0.82],[29.42,0.86],[29.36,0.76],[29.48,0.67],[29.4,0.62],[29.17,0.69],[29.01,0.61],[28.56,0.59],[28.34,0.74],[28.06,0.7],[27.75,0.58],[27.84,0.49],[28.02,0.46],[28.14,0.15],[28.09,0.02],[28.11,-0.23],[27.73,-0.57],[27.17,-0.43],[27,-0.26],[26.85,-0.2],[26.83,-0.26],[26.47,-0.37],[26.16,-0.09],[26.12,-0.19],[26.4,-0.46],[26.27,-0.61],[26.29,-0.88],[26.16,-0.97],[26.14,-1.22],[26.02,-1.48],[25.94,-1.48],[25.86,-1.39],[25.81,-1.86],[25.54,-1.86],[25.32,-2.08],[25.23,-2.11],[25.06,-2.08],[25.07,-1.99],[25,-1.94],[24.45,-1.94],[24.31,-1.4],[23.98,-1.33],[23.37,-0.81],[23.62,-0.65],[23.48,-0.46],[23.27,-0.49],[23.19,-0.42],[22.98,-0.4],[23.13,-0.28],[23.29,-0.31],[23.41,-0.21],[22.97,0.41],[22.85,0.7],[22.81,1],[22.63,1.35],[22.49,1.46],[22.29,1.51],[22.47,1.69],[22.58,2.12],[22.76,2.01],[22.98,2.18],[23.09,2.1],[23.34,2.25],[23.65,2.19],[23.63,2.33],[23.36,2.52],[23.13,2.5],[23.04,2.56],[22.96,2.67],[23.07,3.15],[23,3.16],[22.81,3],[22.79,3.27],[22.63,3.37],[22.68,3.45],[23.04,3.55],[23.17,3.67],[23.37,3.62],[23.51,3.82],[23.35,3.81],[23.15,3.9],[22.84,3.87],[22.75,3.98],[22.45,4.15],[22.61,4.36],[22.59,4.47],[22.69,4.49],[22.72,4.63],[22.79,4.72],[22.85,4.71],[22.9,4.82],[22.98,4.83],[23.02,4.75],[23.17,4.74],[23.26,4.64],[23.41,4.59],[23.59,4.73],[23.95,4.82],[23.95,4.87],[24.21,4.96],[24.26,4.93],[24.3,5],[24.4,5.04],[24.36,5.06],[24.4,5.12],[24.73,4.92],[25.31,5.03],[25.36,5.31],[25.54,5.38],[25.91,5.17],[25.97,5.23],[26.03,5.19],[26.13,5.26],[26.2,5.24],[26.5,5.05],[26.74,5.09],[26.87,5.04],[27.07,5.2],[27.44,5.07]]]}},{"type":"Feature","properties":{"id":"COD-SK","nome":"Sud-Kivu","pais":"COD","tipo":"Province","lat":-3.1,"lng":28.12},"geometry":{"type":"Polygon","coordinates":[[[29.4,-4.45],[29.32,-4.84],[29.34,-5],[28.82,-5],[28.49,-4.38],[28.29,-4.21],[28.18,-4.14],[28.1,-4.2],[27.74,-3.99],[27.49,-3.97],[27.16,-3.85],[27.09,-3.73],[27.11,-3.11],[27.05,-2.94],[26.93,-2.82],[26.82,-2.46],[26.86,-2.13],[27.18,-2.24],[27.35,-2.16],[27.43,-2.02],[27.86,-1.96],[28.06,-2.06],[28.32,-1.98],[28.37,-1.81],[28.46,-1.91],[28.58,-1.92],[28.65,-1.79],[28.77,-1.78],[28.87,-1.67],[28.94,-1.73],[29.19,-1.74],[29.13,-1.88],[29.13,-2.2],[28.87,-2.39],[28.86,-2.52],[28.89,-2.65],[29.03,-2.74],[28.99,-2.81],[29.23,-3.05],[29.22,-3.9],[29.34,-4.09],[29.4,-4.45]]]}},{"type":"Feature","properties":{"id":"COD-KA","nome":"Katanga","pais":"COD","tipo":"Province","lat":-8.48,"lng":26.25},"geometry":{"type":"Polygon","coordinates":[[[29.34,-5],[29.61,-5.7],[29.48,-6],[29.54,-6.31],[29.71,-6.62],[30.09,-6.89],[30.29,-7.15],[30.44,-7.6],[30.65,-7.93],[30.75,-8.19],[28.89,-8.48],[28.94,-8.59],[28.89,-8.77],[28.6,-9.1],[28.35,-9.27],[28.52,-9.38],[28.7,-9.79],[28.57,-10.22],[28.7,-10.64],[28.55,-10.83],[28.36,-11.52],[28.51,-11.87],[28.75,-11.99],[29.04,-12.38],[29.25,-12.37],[29.5,-12.45],[29.52,-12.39],[29.45,-12.34],[29.47,-12.24],[29.8,-12.15],[29.78,-13.46],[29.62,-13.42],[29.67,-13.28],[29.57,-13.23],[29.18,-13.44],[29.12,-13.38],[28.99,-13.4],[28.9,-13.16],[28.71,-12.89],[28.62,-12.84],[28.54,-12.89],[28.47,-12.74],[28.51,-12.67],[28.42,-12.52],[28.32,-12.44],[27.96,-12.37],[27.86,-12.26],[27.64,-12.29],[27.52,-12.18],[27.42,-11.92],[27.23,-11.81],[27.18,-11.57],[27.02,-11.6],[26.95,-11.91],[26.72,-12.01],[26.41,-11.91],[25.98,-11.9],[25.85,-11.79],[25.73,-11.8],[25.62,-11.73],[25.5,-11.78],[25.48,-11.72],[25.34,-11.64],[25.28,-11.4],[25.31,-11.19],[24.71,-11.33],[24.49,-11.46],[24.29,-11.4],[24.39,-11.28],[24.37,-11.1],[24.12,-11.04],[24.11,-10.92],[24,-10.87],[23.83,-11.03],[23.46,-10.96],[23.01,-11.1],[22.5,-11.04],[22.44,-11.15],[22.24,-11.25],[22.24,-11.08],[22.17,-10.85],[22.32,-10.76],[22.27,-10.48],[22.31,-10.37],[22.16,-9.93],[21.88,-9.66],[21.79,-9.41],[21.94,-8.46],[21.75,-8],[21.83,-7.65],[22.18,-7.8],[22.49,-7.79],[22.62,-7.72],[22.7,-7.87],[22.88,-7.9],[23.16,-7.8],[23.23,-7.94],[23.3,-7.9],[23.77,-7.9],[23.95,-7.83],[23.93,-7.53],[24,-7.36],[23.97,-7.21],[24.14,-7.04],[24.14,-6.88],[24.21,-6.89],[24.24,-6.99],[24.45,-7.07],[24.9,-6.79],[24.96,-6.67],[25.14,-6.67],[25.3,-6.76],[25.43,-6.71],[25.52,-6.55],[25.4,-6.55],[25.29,-6.45],[25.26,-6.4],[25.32,-6.33],[25.52,-6.35],[25.79,-6.19],[25.92,-6.23],[25.97,-6.31],[26.16,-6.25],[26.17,-5.8],[26.07,-5.64],[26.14,-5.5],[26.09,-5.38],[26.27,-5],[29.34,-5]]]}},{"type":"Feature","properties":{"id":"COD-NK","nome":"Nord-Kivu","pais":"COD","tipo":"Province","lat":-0.66,"lng":28.59},"geometry":{"type":"Polygon","coordinates":[[[29.58,-1.39],[29.44,-1.51],[29.34,-1.52],[29.19,-1.74],[28.94,-1.73],[28.88,-1.67],[28.77,-1.78],[28.65,-1.79],[28.56,-1.93],[28.45,-1.91],[28.38,-1.81],[28.3,-1.99],[28.06,-2.06],[27.86,-1.96],[27.76,-2],[27.71,-1.81],[27.21,-1.21],[27.33,-1.19],[27.26,-1.07],[27.28,-0.98],[27.76,-0.87],[27.82,-0.68],[27.73,-0.57],[28.11,-0.21],[28.09,0.02],[28.14,0.16],[28.04,0.43],[27.74,0.57],[28.06,0.7],[28.34,0.74],[28.56,0.59],[29.01,0.61],[29.17,0.69],[29.4,0.62],[29.48,0.67],[29.36,0.76],[29.42,0.86],[29.55,0.82],[29.6,0.88],[29.72,0.88],[29.85,0.96],[29.98,0.85],[29.93,0.77],[29.94,0.5],[29.84,0.36],[29.8,0.16],[29.7,0.07],[29.61,-0.86],[29.55,-0.93],[29.58,-1.39]]]}},{"type":"Feature","properties":{"id":"COD-KW","nome":"Kasaï-Occidental","pais":"COD","tipo":"Province","lat":-4.88,"lng":21.71},"geometry":{"type":"Polygon","coordinates":[[[20.52,-7.29],[20.61,-6.92],[20.32,-6.92],[20.29,-7],[19.96,-7],[19.93,-6.85],[19.73,-6.55],[19.7,-6.15],[20,-5.96],[20.18,-5.67],[20.15,-5.36],[20.19,-5.15],[20.06,-4.77],[20.12,-4.5],[20.04,-4.29],[20.13,-4.28],[20.27,-4.39],[20.34,-4.39],[20.39,-4.28],[20.66,-4.15],[20.66,-3.33],[20.84,-2.83],[20.95,-2.69],[21.01,-2.49],[21.42,-2.48],[21.48,-2.34],[21.82,-2.52],[21.9,-2.49],[21.95,-2.54],[22.18,-2.95],[21.98,-3.58],[22.01,-3.65],[22.13,-3.7],[22.2,-3.89],[22.02,-3.97],[22.15,-4.03],[22.29,-3.99],[22.85,-4.49],[23.12,-4.53],[23.18,-4.74],[22.98,-4.83],[22.97,-4.99],[23.24,-5.25],[23.42,-5.22],[23.7,-5.38],[23.74,-5.6],[23.42,-5.76],[23.38,-5.7],[23.02,-5.77],[22.96,-5.85],[22.98,-6.06],[23.09,-6.2],[22.93,-6.65],[23.24,-6.96],[23.16,-7.8],[23.09,-7.84],[22.9,-7.9],[22.72,-7.88],[22.6,-7.72],[22.49,-7.79],[22.08,-7.78],[21.83,-7.65],[21.86,-7.47],[21.78,-7.28],[20.52,-7.29]]]}},{"type":"Feature","properties":{"id":"COD-KE","nome":"Kasaï-Oriental","pais":"COD","tipo":"Province","lat":-4.41,"lng":24.08},"geometry":{"type":"Polygon","coordinates":[[[24.08,-1.75],[24.42,-1.79],[24.49,-2.11],[24.72,-2.46],[25.1,-2.45],[25.11,-2.77],[25.03,-3.07],[24.96,-3.26],[24.9,-3.27],[24.91,-3.35],[24.78,-3.46],[24.8,-3.69],[24.73,-3.77],[24.96,-4.03],[25.01,-4.18],[24.97,-4.39],[25.01,-4.44],[24.88,-4.59],[24.86,-4.68],[25.08,-4.99],[26.27,-5],[26.09,-5.38],[26.14,-5.5],[26.07,-5.64],[26.16,-5.76],[26.14,-6.1],[26.18,-6.21],[25.98,-6.31],[25.92,-6.23],[25.79,-6.19],[25.52,-6.35],[25.32,-6.33],[25.26,-6.4],[25.29,-6.45],[25.4,-6.55],[25.52,-6.55],[25.43,-6.71],[25.3,-6.76],[25.14,-6.67],[24.96,-6.67],[24.9,-6.79],[24.45,-7.07],[24.24,-6.99],[24.21,-6.89],[24.14,-6.88],[24.14,-7.04],[23.97,-7.21],[24,-7.36],[23.93,-7.53],[23.95,-7.83],[23.77,-7.9],[23.3,-7.9],[23.23,-7.94],[23.16,-7.8],[23.24,-6.96],[22.93,-6.65],[23.09,-6.2],[22.98,-6.06],[22.96,-5.85],[23.02,-5.77],[23.38,-5.7],[23.42,-5.76],[23.73,-5.62],[23.74,-5.43],[23.42,-5.22],[23.24,-5.25],[22.97,-5],[22.98,-4.83],[23.18,-4.74],[23.12,-4.53],[22.85,-4.49],[22.29,-3.99],[22.15,-4.03],[22.02,-3.97],[22.2,-3.89],[22.13,-3.7],[22.01,-3.65],[21.98,-3.58],[22.19,-3],[21.9,-2.49],[22.14,-2.28],[22.2,-2.45],[22.29,-2.44],[22.18,-1.91],[22.5,-1.96],[22.62,-1.81],[22.68,-1.81],[22.94,-1.96],[23.1,-1.94],[23.22,-2.08],[23.69,-2.02],[23.81,-1.78],[24.08,-1.75]]]}},{"type":"Feature","properties":{"id":"COD-MA","nome":"Maniema","pais":"COD","tipo":"Province","lat":-3.26,"lng":26.03},"geometry":{"type":"Polygon","coordinates":[[[24.74,-2.47],[24.49,-2.11],[24.45,-1.94],[25,-1.94],[25.07,-1.99],[25.06,-2.08],[25.23,-2.11],[25.32,-2.08],[25.54,-1.86],[25.71,-1.87],[25.83,-1.82],[25.86,-1.39],[25.94,-1.48],[26.02,-1.48],[26.14,-1.22],[26.16,-0.97],[26.29,-0.88],[26.27,-0.61],[26.4,-0.46],[26.12,-0.19],[26.16,-0.09],[26.47,-0.37],[26.83,-0.26],[26.85,-0.2],[27,-0.26],[27.17,-0.43],[27.73,-0.57],[27.82,-0.68],[27.76,-0.87],[27.28,-0.98],[27.26,-1.07],[27.33,-1.19],[27.21,-1.21],[27.71,-1.81],[27.76,-2],[27.43,-2.02],[27.35,-2.16],[27.18,-2.24],[26.89,-2.13],[26.85,-2.17],[26.83,-2.52],[26.93,-2.82],[27.05,-2.94],[27.12,-3.17],[27.09,-3.75],[27.2,-3.88],[27.74,-3.99],[28.1,-4.2],[28.18,-4.14],[28.29,-4.21],[28.49,-4.38],[28.82,-5],[25.06,-4.99],[24.85,-4.65],[25.01,-4.44],[25,-4.1],[24.73,-3.77],[24.8,-3.69],[24.78,-3.46],[24.91,-3.35],[24.9,-3.27],[24.96,-3.26],[25.03,-3.07],[25.11,-2.77],[25.1,-2.45],[24.74,-2.47]]]}}]}