{"type":"FeatureCollection","features":[{"type":"Feature","properties":{"id":"COG-7","nome":"Likouala","pais":"COG","tipo":"Region","lat":1.45,"lng":17.53},"geometry":{"type":"Polygon","coordinates":[[[18.63,3.48],[18.61,3.13],[18.53,3.06],[18.39,2.71],[18.07,2.16],[18.07,1.55],[17.87,1.02],[17.95,0.38],[17.72,-0.2],[17.75,-0.52],[17.55,-0.76],[17.26,-0.74],[17.21,-0.69],[17.22,-0.47],[17.14,-0.44],[17.19,-0.17],[17.15,0.06],[17.2,0.21],[16.7,0.86],[16.7,1],[16.78,1.07],[16.8,1.18],[16.7,1.47],[16.76,1.81],[16.74,2.36],[16.67,2.49],[16.56,2.5],[16.43,2.73],[16.48,2.86],[16.47,3.16],[16.57,3.46],[16.64,3.53],[17.01,3.54],[17.33,3.62],[17.46,3.71],[17.59,3.63],[17.79,3.62],[17.84,3.54],[18.08,3.56],[18.18,3.48],[18.25,3.57],[18.47,3.63],[18.63,3.48]]]}},{"type":"Feature","properties":{"id":"COG-8","nome":"Cuvette","pais":"COG","tipo":"Region","lat":-0.39,"lng":15.95},"geometry":{"type":"Polygon","coordinates":[[[17.55,-0.76],[17.31,-1.01],[17.01,-1.11],[16.83,-1.27],[16.66,-1.59],[16.37,-1.5],[16.26,-1.31],[15.75,-1.06],[15.71,-0.96],[15.44,-0.98],[15.16,-1.24],[15.02,-1.53],[14.76,-1.66],[14.49,-2.01],[14.38,-2],[14.45,-1.69],[14.36,-1.61],[14.46,-1.55],[14.49,-1.41],[14.43,-1.33],[14.44,-1.19],[14.99,-1.09],[15.19,-0.86],[15.01,-0.69],[15.15,-0.47],[15.09,-0.26],[14.95,-0.23],[14.89,0],[15.19,0.08],[15.23,0.2],[15.13,0.3],[15.29,0.41],[15.53,0.35],[15.66,0.46],[15.88,0.44],[16.08,0.3],[16.13,0.12],[16.34,0.04],[17.09,0.37],[17.2,0.21],[17.15,0.06],[17.19,-0.17],[17.13,-0.34],[17.18,-0.37],[17.15,-0.46],[17.22,-0.49],[17.21,-0.69],[17.26,-0.74],[17.55,-0.76]]]}},{"type":"Feature","properties":{"id":"COG-14","nome":"Plateaux","pais":"COG","tipo":"Region","lat":-2.04,"lng":15.38},"geometry":{"type":"Polygon","coordinates":[[[16.66,-1.59],[16.51,-1.89],[16.19,-2.18],[16.23,-2.64],[16.18,-2.94],[16,-2.94],[15.82,-2.82],[15.47,-3.01],[15.24,-3.02],[15.11,-2.89],[14.94,-2.89],[14.89,-2.72],[14.52,-3.08],[14.26,-2.98],[14.34,-2.88],[14.3,-2.7],[14.14,-2.68],[14.19,-2.61],[14.13,-2.58],[14.1,-2.48],[14.14,-2.39],[14.23,-2.35],[14.15,-2.22],[14.23,-2.13],[14.24,-1.98],[14.37,-1.92],[14.44,-2.03],[14.57,-1.95],[14.76,-1.66],[15.02,-1.53],[15.16,-1.24],[15.44,-0.98],[15.71,-0.96],[15.75,-1.06],[16.26,-1.31],[16.37,-1.5],[16.66,-1.59]]]}},{"type":"Feature","properties":{"id":"COG-12","nome":"Pool","pais":"COG","tipo":"Region","lat":-3.71,"lng":15.04},"geometry":{"type":"Polygon","coordinates":[[[16.18,-2.94],[16.23,-3.31],[15.96,-3.82],[15.8,-3.53],[15.68,-3.51],[15.58,-3.65],[15.43,-3.51],[15.27,-3.45],[15.22,-3.74],[15.09,-3.86],[15.1,-4.11],[14.96,-4.36],[15.08,-4.52],[14.82,-4.83],[14.67,-4.9],[14.52,-4.84],[14.4,-4.89],[14.41,-4.7],[14.35,-4.56],[14.47,-4.43],[14.39,-4.28],[13.91,-4.49],[13.97,-4.27],[14.15,-4.17],[14.14,-4.09],[14.24,-3.99],[14.32,-4.01],[14.38,-3.95],[14.21,-3.69],[14.31,-3.63],[14.24,-3.5],[14.14,-3.46],[14.03,-3.57],[13.86,-3.54],[14.19,-3.02],[14.26,-2.98],[14.52,-3.08],[14.89,-2.72],[14.94,-2.89],[15.11,-2.89],[15.24,-3.02],[15.47,-3.01],[15.82,-2.82],[16,-2.94],[16.18,-2.94]]]}},{"type":"Feature","properties":{"id":"COG-BZV","nome":"Brazzaville","pais":"COG","tipo":"Region","lat":-4.07,"lng":15.33},"geometry":{"type":"Polygon","coordinates":[[[15.96,-3.82],[15.88,-3.95],[15.53,-4.06],[15.46,-4.21],[15.2,-4.34],[15.08,-4.52],[14.96,-4.36],[15.1,-4.11],[15.09,-3.86],[15.22,-3.74],[15.27,-3.45],[15.43,-3.51],[15.58,-3.65],[15.68,-3.51],[15.8,-3.53],[15.96,-3.82]]]}},{"type":"Feature","properties":{"id":"COG-11","nome":"Bouenza","pais":"COG","tipo":"Region","lat":-4.36,"lng":13.49},"geometry":{"type":"Polygon","coordinates":[[[13.88,-4.49],[13.81,-4.43],[13.71,-4.45],[13.71,-4.69],[13.58,-4.78],[13.39,-4.63],[13.25,-4.41],[13,-4.33],[12.85,-4.08],[12.61,-3.82],[12.63,-3.55],[12.7,-3.52],[12.8,-3.56],[12.9,-3.83],[13.02,-3.92],[13.35,-3.93],[13.37,-4.03],[13.44,-4.05],[13.51,-4.03],[13.6,-3.83],[13.57,-3.77],[13.72,-3.73],[13.86,-3.54],[14.03,-3.57],[14.14,-3.46],[14.24,-3.5],[14.31,-3.63],[14.21,-3.69],[14.38,-3.95],[14.32,-4.01],[14.24,-3.99],[14.14,-4.09],[14.15,-4.17],[13.97,-4.27],[13.88,-4.49]]]}},{"type":"Feature","properties":{"id":"COG-9","nome":"Niari","pais":"COG","tipo":"Region","lat":-2.98,"lng":12.36},"geometry":{"type":"Polygon","coordinates":[[[13.39,-4.89],[13.36,-4.79],[13.18,-4.69],[13.11,-4.58],[13.07,-4.64],[12.87,-4.41],[12.59,-4.32],[12.55,-4.17],[12.38,-3.99],[11.86,-3.74],[11.91,-3.64],[11.83,-3.55],[11.94,-3.3],[11.69,-3.17],[11.71,-3.05],[11.78,-3.01],[11.64,-2.83],[11.53,-2.87],[11.62,-2.63],[11.57,-2.33],[11.76,-2.42],[11.94,-2.33],[12.06,-2.41],[12.46,-2.33],[12.5,-2.1],[12.44,-2.05],[12.42,-1.9],[12.49,-1.92],[12.58,-1.83],[12.8,-1.92],[12.91,-2.2],[13.01,-2.28],[12.97,-2.37],[13.05,-2.38],[13.08,-2.82],[13,-2.87],[13.13,-2.99],[13.06,-3.2],[12.92,-3.29],[12.72,-3.3],[12.6,-3.42],[12.66,-3.53],[12.6,-3.81],[12.85,-4.08],[13,-4.33],[13.25,-4.41],[13.39,-4.63],[13.57,-4.73],[13.58,-4.78],[13.51,-4.76],[13.39,-4.89]]]}},{"type":"Feature","properties":{"id":"COG-5","nome":"Kouilou","pais":"COG","tipo":"Region","lat":-4.37,"lng":11.95},"geometry":{"type":"Polygon","coordinates":[[[12.78,-4.4],[12.62,-4.56],[12.39,-4.61],[12.32,-4.78],[12.24,-4.8],[12.19,-4.76],[12.13,-4.91],[12.01,-5.02],[11.9,-4.88],[11.9,-4.74],[11.78,-4.68],[11.81,-4.58],[11.4,-4.22],[11.36,-4.11],[11.11,-3.94],[11.21,-3.7],[11.53,-3.52],[11.67,-3.69],[11.84,-3.71],[12.21,-3.95],[12.38,-3.99],[12.55,-4.17],[12.59,-4.32],[12.78,-4.4]]]}},{"type":"Feature","properties":{"id":"COG-13","nome":"Sangha","pais":"COG","tipo":"Region","lat":1.13,"lng":15.75},"geometry":{"type":"Polygon","coordinates":[[[13.16,1.54],[13.16,1.9],[13.28,2.04],[13.29,2.16],[14.32,2.17],[14.43,2.13],[14.56,2.21],[14.76,2.07],[14.86,2.12],[14.89,2.01],[14.98,2.03],[15.07,1.98],[15.21,2.04],[15.34,1.92],[15.48,1.98],[15.71,1.93],[15.89,1.79],[16.01,1.77],[16.07,1.65],[16.16,1.73],[16.06,1.98],[16.09,2.15],[16.21,2.22],[16.43,2.73],[16.56,2.5],[16.67,2.49],[16.74,2.36],[16.76,1.81],[16.7,1.47],[16.8,1.18],[16.78,1.07],[16.7,1],[16.7,0.86],[17.05,0.39],[16.34,0.04],[16.13,0.12],[16.08,0.3],[15.88,0.44],[15.66,0.46],[15.53,0.35],[15.29,0.39],[15.1,0.52],[15.07,0.89],[15.15,0.95],[15.14,1],[14.57,1.23],[14.5,1.39],[14.22,1.36],[13.79,1.43],[13.54,1.28],[13.38,1.29],[13.2,1.22],[13.15,1.26],[13.25,1.34],[13.16,1.54]]]}},{"type":"Feature","properties":{"id":"COG-15","nome":"Cuvette-Ouest","pais":"COG","tipo":"Region","lat":0.03,"lng":14.56},"geometry":{"type":"Polygon","coordinates":[[[14.18,0.54],[14.33,0.62],[14.47,0.91],[14.28,1.13],[14.24,1.36],[14.5,1.39],[14.57,1.23],[15.14,1],[15.15,0.95],[15.07,0.89],[15.09,0.53],[15.29,0.41],[15.13,0.3],[15.23,0.2],[15.19,0.08],[14.89,0],[14.95,-0.23],[15.09,-0.26],[15.15,-0.47],[15.01,-0.69],[15.19,-0.86],[14.99,-1.09],[14.44,-1.19],[14.39,-1.01],[14.5,-0.63],[14.47,-0.55],[14.32,-0.44],[14.16,-0.46],[14.1,-0.28],[13.88,-0.26],[13.83,-0.21],[13.93,0.02],[13.88,0.22],[14.06,0.44],[14.08,0.54],[14.18,0.54]]]}},{"type":"Feature","properties":{"id":"COG-2","nome":"Lékoumou","pais":"COG","tipo":"Region","lat":-3.24,"lng":13.47},"geometry":{"type":"Polygon","coordinates":[[[13.74,-2.1],[13.91,-2.36],[13.85,-2.47],[14.1,-2.48],[14.13,-2.58],[14.19,-2.61],[14.14,-2.67],[14.3,-2.7],[14.34,-2.88],[14.17,-3.04],[14.09,-3.25],[13.72,-3.73],[13.57,-3.77],[13.6,-3.83],[13.51,-4.03],[13.4,-4.04],[13.35,-3.93],[13.03,-3.93],[12.9,-3.83],[12.8,-3.56],[12.66,-3.53],[12.6,-3.42],[12.71,-3.3],[12.92,-3.29],[13.11,-3.14],[13.13,-2.99],[13,-2.87],[13.08,-2.82],[13.05,-2.38],[12.99,-2.36],[13.46,-2.44],[13.74,-2.1]]]}},{"type":"Feature","properties":{"id":"COG-16","nome":"Pointe Noire","pais":"COG","tipo":"Region","lat":-4.81,"lng":11.86},"geometry":{"type":"Polygon","coordinates":[[[11.89,-4.86],[11.82,-4.78],[11.84,-4.74],[11.9,-4.74],[11.89,-4.86]]]}}]}