{"type":"FeatureCollection","features":[{"type":"Feature","properties":{"id":"COK-X03~","nome":"Mangaia","pais":"COK","tipo":"Estado","lat":-21.94,"lng":-157.91},"geometry":{"type":"Polygon","coordinates":[[[-157.93,-21.88],[-157.89,-21.93],[-157.96,-21.92],[-157.93,-21.88]]]}},{"type":"Feature","properties":{"id":"COK-X04~","nome":"Rarotonga","pais":"COK","tipo":"Estado","lat":-21.21,"lng":-159.79},"geometry":{"type":"Polygon","coordinates":[[[-159.8,-21.19],[-159.74,-21.25],[-159.85,-21.23],[-159.8,-21.19]]]}}]}