{"type":"FeatureCollection","features":[{"type":"Feature","properties":{"id":"COM-M","nome":"Moûhîlî","pais":"COM","tipo":"Estado","lat":-12.32,"lng":43.75},"geometry":{"type":"Polygon","coordinates":[[[43.79,-12.31],[43.86,-12.37],[43.67,-12.35],[43.64,-12.24],[43.79,-12.31]]]}},{"type":"Feature","properties":{"id":"COM-A","nome":"Andjouân","pais":"COM","tipo":"Estado","lat":-12.23,"lng":44.45},"geometry":{"type":"Polygon","coordinates":[[[44.53,-12.23],[44.51,-12.38],[44.21,-12.16],[44.37,-12.18],[44.47,-12.06],[44.53,-12.23]]]}},{"type":"Feature","properties":{"id":"COM-G","nome":"Andjazîdja","pais":"COM","tipo":"Estado","lat":-11.7,"lng":43.34},"geometry":{"type":"Polygon","coordinates":[[[43.47,-11.82],[43.5,-11.88],[43.44,-11.93],[43.22,-11.75],[43.28,-11.38],[43.39,-11.4],[43.38,-11.61],[43.47,-11.82]]]}}]}