{"type":"FeatureCollection","features":[{"type":"Feature","properties":{"id":"CPV-BR","nome":"Brava","pais":"CPV","tipo":"Estado","lat":14.85,"lng":-24.72},"geometry":{"type":"Polygon","coordinates":[[[-24.7,14.9],[-24.72,14.8],[-24.76,14.87],[-24.7,14.9]]]}},{"type":"Feature","properties":{"id":"CPV-CF","nome":"Santa Catarina do Fogo","pais":"CPV","tipo":"Estado","lat":14.92,"lng":-24.33},"geometry":{"type":"Polygon","coordinates":[[[-24.3,14.95],[-24.32,14.87],[-24.37,14.89],[-24.37,14.94],[-24.3,14.95]]]}},{"type":"Feature","properties":{"id":"CPV-MO","nome":"Mosteiros","pais":"CPV","tipo":"Estado","lat":15,"lng":-24.35},"geometry":{"type":"Polygon","coordinates":[[[-24.43,15.03],[-24.34,15.04],[-24.3,14.95],[-24.37,14.94],[-24.43,15.03]]]}},{"type":"Feature","properties":{"id":"CPV-SF","nome":"São Filipe","pais":"CPV","tipo":"Estado","lat":14.92,"lng":-24.44},"geometry":{"type":"Polygon","coordinates":[[[-24.3,14.9],[-24.42,14.82],[-24.53,14.92],[-24.43,15.03],[-24.37,14.89],[-24.3,14.9]]]}},{"type":"Feature","properties":{"id":"CPV-TA","nome":"Tarrafal","pais":"CPV","tipo":"Estado","lat":15.24,"lng":-23.72},"geometry":{"type":"Polygon","coordinates":[[[-23.77,15.18],[-23.74,15.33],[-23.65,15.24],[-23.77,15.18]]]}},{"type":"Feature","properties":{"id":"CPV-CA","nome":"Santa Catarina","pais":"CPV","tipo":"Estado","lat":15.09,"lng":-23.7},"geometry":{"type":"Polygon","coordinates":[[[-23.72,14.97],[-23.79,15.09],[-23.77,15.18],[-23.62,15.12],[-23.64,15.01],[-23.72,14.97]]]}},{"type":"Feature","properties":{"id":"CPV-RS","nome":"Ribeira Grande de Santiago","pais":"CPV","tipo":"Estado","lat":14.98,"lng":-23.64},"geometry":{"type":"Polygon","coordinates":[[[-23.54,14.91],[-23.72,14.97],[-23.61,15.04],[-23.54,14.91]]]}},{"type":"Feature","properties":{"id":"CPV-PR","nome":"Praia","pais":"CPV","tipo":"Estado","lat":14.95,"lng":-23.52},"geometry":{"type":"Polygon","coordinates":[[[-23.47,14.97],[-23.54,14.91],[-23.56,14.96],[-23.47,14.97]]]}},{"type":"Feature","properties":{"id":"CPV-SD","nome":"São Domingos","pais":"CPV","tipo":"Estado","lat":15.02,"lng":-23.53},"geometry":{"type":"Polygon","coordinates":[[[-23.48,15.06],[-23.45,14.99],[-23.58,14.97],[-23.6,15.01],[-23.48,15.06]]]}},{"type":"Feature","properties":{"id":"CPV-CR","nome":"Santa Cruz","pais":"CPV","tipo":"Estado","lat":15.12,"lng":-23.55},"geometry":{"type":"Polygon","coordinates":[[[-23.59,15.17],[-23.49,15.05],[-23.62,15.11],[-23.59,15.17]]]}},{"type":"Feature","properties":{"id":"CPV-SM","nome":"São Miguel","pais":"CPV","tipo":"Estado","lat":15.18,"lng":-23.64},"geometry":{"type":"Polygon","coordinates":[[[-23.66,15.23],[-23.59,15.17],[-23.64,15.12],[-23.69,15.17],[-23.66,15.23]]]}},{"type":"Feature","properties":{"id":"CPV-MA","nome":"Maio","pais":"CPV","tipo":"Estado","lat":15.21,"lng":-23.18},"geometry":{"type":"Polygon","coordinates":[[[-23.13,15.31],[-23.11,15.17],[-23.2,15.12],[-23.26,15.17],[-23.25,15.26],[-23.19,15.33],[-23.13,15.31]]]}},{"type":"Feature","properties":{"id":"CPV-BV","nome":"Boa Vista","pais":"CPV","tipo":"Estado","lat":16.1,"lng":-22.81},"geometry":{"type":"Polygon","coordinates":[[[-22.68,16.11],[-22.68,16.06],[-22.81,15.99],[-22.96,16.05],[-22.92,16.24],[-22.72,16.21],[-22.68,16.11]]]}},{"type":"Feature","properties":{"id":"CPV-RB","nome":"Ribeira Brava","pais":"CPV","tipo":"Estado","lat":16.62,"lng":-24.29},"geometry":{"type":"Polygon","coordinates":[[[-24.38,16.68],[-24.09,16.62],[-24.03,16.56],[-24.23,16.6],[-24.32,16.48],[-24.32,16.61],[-24.38,16.68]]]}},{"type":"Feature","properties":{"id":"CPV-TS","nome":"Tarrafal de São Nicolau","pais":"CPV","tipo":"Estado","lat":16.6,"lng":-24.35},"geometry":{"type":"Polygon","coordinates":[[[-24.32,16.48],[-24.42,16.66],[-24.32,16.61],[-24.32,16.48]]]}},{"type":"Feature","properties":{"id":"CPV-SL","nome":"Sal","pais":"CPV","tipo":"Estado","lat":16.73,"lng":-22.94},"geometry":{"type":"Polygon","coordinates":[[[-22.93,16.59],[-22.99,16.82],[-22.92,16.86],[-22.88,16.69],[-22.93,16.59]]]}},{"type":"Feature","properties":{"id":"CPV-RG","nome":"Ribeira Grande","pais":"CPV","tipo":"Estado","lat":17.14,"lng":-25.12},"geometry":{"type":"Polygon","coordinates":[[[-25.25,17.14],[-25.1,17.2],[-25.03,17.17],[-25.16,17.09],[-25.25,17.14]]]}},{"type":"Feature","properties":{"id":"CPV-PN","nome":"Porto Novo","pais":"CPV","tipo":"Estado","lat":17.02,"lng":-25.23},"geometry":{"type":"Polygon","coordinates":[[[-24.99,17.08],[-25.19,16.93],[-25.29,16.92],[-25.36,17.06],[-25.25,17.14],[-24.99,17.08]]]}},{"type":"Feature","properties":{"id":"CPV-PA","nome":"Paul","pais":"CPV","tipo":"Estado","lat":17.12,"lng":-25.02},"geometry":{"type":"Polygon","coordinates":[[[-25.03,17.14],[-24.99,17.08],[-25.07,17.11],[-25.03,17.14]]]}},{"type":"Feature","properties":{"id":"CPV-SS","nome":"São Salvador do Mundo","pais":"CPV","tipo":"Estado","lat":15.07,"lng":-23.62},"geometry":{"type":"Polygon","coordinates":[[[-23.62,15.11],[-23.58,15.09],[-23.63,15.04],[-23.62,15.11]]]}}]}