{"type":"FeatureCollection","features":[{"type":"Feature","properties":{"id":"CRI-A","nome":"Alajuela","pais":"CRI","tipo":"Province","lat":10.75,"lng":-84.8},"geometry":{"type":"Polygon","coordinates":[[[-84.36,10.99],[-84.16,10.79],[-84.18,10],[-84.21,9.94],[-84.46,9.92],[-84.57,9.82],[-84.67,9.88],[-84.55,10],[-84.66,10.11],[-84.67,10.27],[-84.79,10.32],[-84.79,10.5],[-84.94,10.57],[-85.02,10.7],[-85.28,10.76],[-85.44,10.92],[-85.24,11.05],[-84.91,10.94],[-84.68,11.07],[-84.44,10.95],[-84.36,10.99]]]}},{"type":"Feature","properties":{"id":"CRI-G","nome":"Guanacaste","pais":"CRI","tipo":"Province","lat":10.33,"lng":-85.36},"geometry":{"type":"Polygon","coordinates":[[[-85.6,11.21],[-85.24,11.05],[-85.44,10.91],[-85.28,10.76],[-85.02,10.7],[-84.76,10.44],[-84.79,10.32],[-84.87,10.29],[-84.92,10.11],[-85.19,10.17],[-85.29,10.28],[-85.24,10.1],[-85.15,10.04],[-85.3,9.93],[-85.17,9.85],[-85.23,9.72],[-85.33,9.83],[-85.66,9.9],[-85.87,10.36],[-85.78,10.45],[-85.81,10.52],[-85.63,10.62],[-85.7,10.61],[-85.68,10.8],[-85.95,10.9],[-85.88,10.95],[-85.71,10.93],[-85.75,11.02],[-85.67,11.04],[-85.7,11.08],[-85.6,11.21]]]}},{"type":"Feature","properties":{"id":"CRI-L","nome":"Limón","pais":"CRI","tipo":"Province","lat":9.7,"lng":-83.15},"geometry":{"type":"Polygon","coordinates":[[[-82.72,9.54],[-82.85,9.6],[-82.85,9.49],[-82.94,9.46],[-82.94,9.07],[-83.17,9.32],[-83.32,9.37],[-83.39,9.33],[-83.45,9.38],[-83.51,9.57],[-83.34,9.82],[-83.32,9.97],[-83.59,9.98],[-83.94,10.14],[-83.85,10.29],[-83.83,10.64],[-83.7,10.69],[-83.76,10.77],[-83.66,10.81],[-83.7,10.94],[-83.58,10.81],[-83.62,10.86],[-83.64,10.72],[-83.58,10.77],[-83.47,10.49],[-83.2,10.13],[-83.09,10],[-83.03,10.01],[-82.79,9.67],[-82.62,9.62],[-82.56,9.54],[-82.63,9.48],[-82.72,9.54]]]}},{"type":"Feature","properties":{"id":"CRI-P","nome":"Puntarenas","pais":"CRI","tipo":"Province","lat":8.93,"lng":-83.23},"geometry":{"type":"MultiPolygon","coordinates":[[[[-82.94,9.07],[-82.72,8.92],[-82.92,8.76],[-82.84,8.6],[-82.85,8.47],[-83.05,8.33],[-82.94,8.25],[-82.9,8.03],[-82.97,8.22],[-83.15,8.37],[-83.09,8.45],[-83.14,8.51],[-83.1,8.55],[-83.19,8.6],[-83.12,8.6],[-83.32,8.67],[-83.35,8.73],[-83.47,8.72],[-83.4,8.59],[-83.29,8.54],[-83.28,8.4],[-83.58,8.44],[-83.74,8.62],[-83.58,8.79],[-83.64,8.78],[-83.58,8.85],[-83.62,8.89],[-83.58,8.88],[-83.63,8.91],[-83.63,9.04],[-83.92,9.29],[-84.18,9.4],[-84.21,9.46],[-84.62,9.58],[-84.68,9.65],[-84.63,9.78],[-84.73,9.97],[-84.85,9.97],[-84.79,9.99],[-85.07,10.16],[-84.92,10.11],[-84.83,10.33],[-84.68,10.28],[-84.66,10.11],[-84.55,10],[-84.67,9.88],[-84.54,9.78],[-84.59,9.75],[-84.53,9.57],[-84.43,9.56],[-84.35,9.64],[-84.15,9.61],[-84.01,9.44],[-83.9,9.4],[-83.83,9.25],[-83.72,9.23],[-83.56,9.08],[-83.48,9.09],[-83.51,9.2],[-83.45,9.33],[-83.32,9.37],[-83.17,9.32],[-82.94,9.07]]],[[[-85.17,10.02],[-84.96,9.95],[-84.91,9.91],[-84.93,9.84],[-84.86,9.83],[-84.96,9.73],[-85.01,9.74],[-85.11,9.56],[-85.23,9.72],[-85.17,9.85],[-85.3,9.93],[-85.17,10.02]]]]}},{"type":"Feature","properties":{"id":"CRI-H","nome":"Heredia","pais":"CRI","tipo":"Province","lat":10.46,"lng":-83.95},"geometry":{"type":"Polygon","coordinates":[[[-83.86,10.72],[-83.76,10.77],[-83.7,10.69],[-83.83,10.64],[-83.85,10.28],[-83.91,10.2],[-84.07,10.15],[-84.03,9.98],[-84.2,9.96],[-84.16,10.79],[-83.86,10.72]]]}},{"type":"Feature","properties":{"id":"CRI-SJ","nome":"San José","pais":"CRI","tipo":"Province","lat":9.6,"lng":-84.01},"geometry":{"type":"Polygon","coordinates":[[[-84.08,9.96],[-84.01,10.03],[-84.07,10.15],[-83.91,10.2],[-83.94,10.14],[-83.87,9.97],[-84,9.93],[-84.08,9.76],[-83.99,9.77],[-83.71,9.54],[-83.64,9.57],[-83.49,9.47],[-83.43,9.35],[-83.5,9.25],[-83.51,9.07],[-83.66,9.14],[-83.72,9.23],[-83.82,9.24],[-83.9,9.4],[-84.01,9.44],[-84.15,9.61],[-84.35,9.64],[-84.43,9.56],[-84.54,9.59],[-84.59,9.75],[-84.54,9.76],[-84.58,9.82],[-84.54,9.87],[-84.08,9.96]]]}},{"type":"Feature","properties":{"id":"CRI-C","nome":"Cartago","pais":"CRI","tipo":"Province","lat":9.78,"lng":-83.7},"geometry":{"type":"Polygon","coordinates":[[[-83.91,9.94],[-83.87,10.03],[-83.94,10.14],[-83.59,9.98],[-83.32,9.97],[-83.34,9.82],[-83.51,9.57],[-83.49,9.47],[-83.64,9.57],[-83.71,9.54],[-83.99,9.77],[-84.08,9.76],[-84,9.93],[-83.91,9.94]]]}}]}