{"type":"FeatureCollection","features":[{"type":"Feature","properties":{"id":"CUB-14","nome":"Guantánamo","pais":"CUB","tipo":"Province","lat":20.24,"lng":-74.81},"geometry":{"type":"Polygon","coordinates":[[[-75.1,19.9],[-75.09,19.97],[-75.14,19.97],[-75.09,20.06],[-75.28,19.89],[-75.38,19.88],[-75.48,20.01],[-75.43,20.1],[-75.48,20.34],[-75.42,20.41],[-75.34,20.44],[-75.24,20.4],[-75.21,20.46],[-75.11,20.48],[-74.99,20.41],[-74.97,20.47],[-74.84,20.41],[-74.72,20.56],[-74.39,20.29],[-74.24,20.32],[-74.14,20.24],[-74.27,20.07],[-74.81,20.04],[-75.1,19.9]]]}},{"type":"Feature","properties":{"id":"CUB-09","nome":"Camagüey","pais":"CUB","tipo":"Province","lat":21.37,"lng":-77.93},"geometry":{"type":"MultiPolygon","coordinates":[[[[-77.63,22.05],[-77.63,21.95],[-77.7,21.91],[-77.82,21.98],[-77.82,22.03],[-77.9,22.02],[-77.95,22.1],[-77.63,22.05]]],[[[-78.08,22.08],[-77.89,21.87],[-77.86,21.97],[-77.81,21.97],[-77.85,21.91],[-77.75,21.8],[-77.46,21.78],[-77.43,21.66],[-77.34,21.65],[-77.45,21.8],[-77.61,21.88],[-77.57,21.93],[-77.13,21.66],[-77.15,21.55],[-77.36,21.61],[-77.26,21.57],[-77.26,21.48],[-77.16,21.48],[-77.09,21.61],[-76.94,21.46],[-77.1,21.42],[-77.13,21.34],[-77.07,21.31],[-77.13,21.17],[-77.29,21],[-77.36,20.98],[-77.44,21.08],[-77.59,20.94],[-77.65,20.97],[-77.66,20.9],[-77.77,20.88],[-77.83,20.73],[-77.94,20.7],[-78.07,20.71],[-78.49,21.04],[-78.54,21.23],[-78.5,21.27],[-78.64,21.53],[-78.35,21.67],[-78.3,21.82],[-78.18,21.77],[-78.16,21.82],[-78.25,21.93],[-78.08,22.03],[-78.08,22.08]]]]}},{"type":"Feature","properties":{"id":"CUB-08","nome":"Ciego de Ávila","pais":"CUB","tipo":"Province","lat":21.96,"lng":-78.64},"geometry":{"type":"MultiPolygon","coordinates":[[[[-78.43,22.46],[-78.54,22.46],[-78.7,22.54],[-78.4,22.56],[-78.28,22.45],[-78.43,22.42],[-78.43,22.46]]],[[[-78.93,22.4],[-78.78,22.39],[-78.73,22.32],[-78.71,22.39],[-78.08,22.08],[-78.08,22.03],[-78.25,21.93],[-78.16,21.82],[-78.18,21.77],[-78.3,21.82],[-78.35,21.67],[-78.64,21.53],[-78.75,21.57],[-78.69,21.59],[-78.76,21.64],[-78.96,21.6],[-79.02,21.71],[-79.1,21.65],[-79.08,21.85],[-78.96,22],[-79.05,22.12],[-78.93,22.4]]]]}},{"type":"Feature","properties":{"id":"CUB-11","nome":"Holguín","pais":"CUB","tipo":"Province","lat":20.81,"lng":-76.19},"geometry":{"type":"Polygon","coordinates":[[[-76.31,21.25],[-76.14,21.17],[-76.12,21.09],[-75.87,21.09],[-75.82,21.14],[-75.61,21.06],[-75.58,21.01],[-75.63,20.91],[-75.74,20.89],[-75.55,20.82],[-75.77,20.84],[-75.78,20.75],[-75.72,20.7],[-75.63,20.78],[-75.55,20.68],[-75.45,20.69],[-75.44,20.74],[-75.31,20.66],[-75.26,20.67],[-75.33,20.7],[-75.29,20.72],[-75.11,20.66],[-75,20.7],[-74.75,20.62],[-74.72,20.56],[-74.84,20.41],[-74.97,20.47],[-74.99,20.41],[-75.11,20.48],[-75.21,20.46],[-75.24,20.4],[-75.38,20.42],[-75.42,20.48],[-75.39,20.55],[-75.51,20.55],[-75.66,20.44],[-75.86,20.41],[-76.05,20.57],[-76.11,20.4],[-76.37,20.58],[-76.56,20.64],[-76.57,20.7],[-76.72,20.72],[-76.67,20.97],[-76.52,20.98],[-76.34,21.13],[-76.31,21.25]]]}},{"type":"Feature","properties":{"id":"CUB-99","nome":"Isla de la Juventud","pais":"CUB","tipo":"Special Municipality","lat":21.68,"lng":-82.81},"geometry":{"type":"Polygon","coordinates":[[[-82.57,21.64],[-82.54,21.6],[-82.59,21.54],[-82.91,21.44],[-83.08,21.47],[-83.19,21.63],[-83.08,21.55],[-82.97,21.6],[-82.96,21.56],[-83.09,21.8],[-82.96,21.93],[-82.99,21.95],[-82.7,21.89],[-82.57,21.64]]]}},{"type":"Feature","properties":{"id":"CUB-07","nome":"Sancti Spíritus","pais":"CUB","tipo":"Province","lat":21.96,"lng":-79.38},"geometry":{"type":"Polygon","coordinates":[[[-79.42,22.47],[-79.24,22.38],[-78.93,22.4],[-79.05,22.12],[-78.96,22],[-79.12,21.75],[-79.1,21.65],[-79.02,21.71],[-78.97,21.69],[-78.96,21.6],[-79.25,21.55],[-79.65,21.69],[-79.85,21.68],[-79.9,21.76],[-80,21.72],[-80.1,21.82],[-79.92,22],[-79.77,22],[-79.72,22.09],[-79.77,22.19],[-79.54,22.15],[-79.45,22.24],[-79.36,22.23],[-79.42,22.47]]]}},{"type":"Feature","properties":{"id":"CUB-05","nome":"Villa Clara","pais":"CUB","tipo":"Province","lat":22.6,"lng":-79.95},"geometry":{"type":"Polygon","coordinates":[[[-80.59,23.07],[-80.54,22.99],[-80.28,22.91],[-80.15,22.96],[-80.05,22.96],[-79.92,22.85],[-79.79,22.9],[-79.87,22.84],[-79.65,22.76],[-79.63,22.66],[-79.46,22.53],[-79.36,22.23],[-79.45,22.24],[-79.54,22.15],[-79.77,22.19],[-79.72,22.09],[-79.77,22],[-79.91,22.01],[-80.02,21.94],[-80.1,22.12],[-80.08,22.25],[-80.24,22.38],[-80.26,22.58],[-80.38,22.52],[-80.45,22.59],[-80.52,22.54],[-80.58,22.81],[-80.67,22.8],[-80.75,22.88],[-80.73,22.97],[-80.63,22.97],[-80.59,23.07]]]}},{"type":"Feature","properties":{"id":"CUB-04","nome":"Matanzas","pais":"CUB","tipo":"Province","lat":22.62,"lng":-81.19},"geometry":{"type":"Polygon","coordinates":[[[-81.68,23.16],[-81.54,23.13],[-81.53,23.05],[-81.15,23.21],[-81.29,23.12],[-81.13,23.03],[-81.08,23.1],[-80.96,23.06],[-80.66,23.09],[-80.59,23.15],[-80.62,22.99],[-80.73,22.97],[-80.75,22.88],[-80.67,22.8],[-80.58,22.81],[-80.52,22.54],[-80.62,22.46],[-80.84,22.48],[-80.94,22.35],[-80.9,22.21],[-80.74,22.12],[-80.62,22.12],[-80.59,22.05],[-81.09,22.09],[-81.19,22.28],[-81.23,22.06],[-81.24,22.15],[-81.34,22.09],[-81.4,22.17],[-81.52,22.21],[-81.81,22.18],[-82.15,22.38],[-82.12,22.43],[-81.65,22.49],[-81.6,22.7],[-81.75,22.99],[-81.68,23.06],[-81.68,23.16]]]}},{"type":"Feature","properties":{"id":"CUB-10","nome":"Las Tunas","pais":"CUB","tipo":"Province","lat":21.03,"lng":-77.07},"geometry":{"type":"Polygon","coordinates":[[[-76.94,21.46],[-76.81,21.4],[-76.89,21.31],[-76.83,21.31],[-76.81,21.39],[-76.67,21.36],[-76.64,21.32],[-76.73,21.29],[-76.61,21.25],[-76.65,21.29],[-76.54,21.29],[-76.61,21.23],[-76.54,21.18],[-76.46,21.23],[-76.53,21.25],[-76.51,21.29],[-76.31,21.25],[-76.34,21.13],[-76.52,20.98],[-76.67,20.97],[-76.7,20.73],[-76.78,20.69],[-76.84,20.74],[-77.24,20.78],[-77.49,20.68],[-77.83,20.73],[-77.77,20.88],[-77.66,20.9],[-77.65,20.97],[-77.59,20.94],[-77.44,21.08],[-77.36,20.98],[-77.29,21],[-77.13,21.17],[-77.07,21.31],[-77.13,21.34],[-77.1,21.42],[-76.94,21.46]]]}},{"type":"Feature","properties":{"id":"CUB-16","nome":"Mayabeque","pais":"CUB","tipo":"Province","lat":22.88,"lng":-82.03},"geometry":{"type":"Polygon","coordinates":[[[-82.1,23.19],[-81.68,23.16],[-81.68,23.06],[-81.75,22.99],[-81.6,22.7],[-81.65,22.58],[-81.88,22.68],[-82.39,22.69],[-82.46,22.8],[-82.44,22.96],[-82.25,22.97],[-82.16,23.11],[-82.11,23.07],[-82.1,23.19]]]}},{"type":"Feature","properties":{"id":"CUB-03","nome":"Ciudad de la Habana","pais":"CUB","tipo":"Province","lat":23.07,"lng":-82.31},"geometry":{"type":"Polygon","coordinates":[[[-82.54,23.07],[-82.22,23.19],[-82.1,23.19],[-82.08,23.14],[-82.11,23.07],[-82.21,23.09],[-82.25,22.97],[-82.39,22.95],[-82.54,23.07]]]}},{"type":"Feature","properties":{"id":"CUB-15","nome":"Artemisa","pais":"CUB","tipo":"Province","lat":22.85,"lng":-82.69},"geometry":{"type":"Polygon","coordinates":[[[-82.94,22.99],[-82.92,23.03],[-82.49,23.07],[-82.5,23.02],[-82.44,22.96],[-82.46,22.8],[-82.39,22.69],[-82.76,22.71],[-82.82,22.61],[-82.98,22.81],[-82.92,22.84],[-82.94,22.99]]]}},{"type":"Feature","properties":{"id":"CUB-01","nome":"Pinar del Río","pais":"CUB","tipo":"Province","lat":22.5,"lng":-83.67},"geometry":{"type":"Polygon","coordinates":[[[-82.82,22.61],[-83.06,22.49],[-83.17,22.34],[-83.26,22.34],[-83.42,22.19],[-83.58,22.25],[-83.67,22.17],[-83.93,22.17],[-84.03,21.92],[-84.24,21.91],[-84.51,21.77],[-84.5,21.93],[-84.84,21.82],[-84.95,21.86],[-84.93,21.91],[-84.88,21.89],[-84.52,22.05],[-84.29,22.02],[-84.27,22.08],[-84.31,22.04],[-84.34,22.13],[-84.45,22.21],[-84.31,22.47],[-84.23,22.5],[-84.21,22.58],[-84.14,22.57],[-84.04,22.66],[-84.05,22.72],[-83.98,22.69],[-83.53,22.88],[-83.39,22.88],[-83.23,23],[-83.17,22.93],[-83.15,22.99],[-83,23.02],[-82.94,22.99],[-82.91,22.85],[-82.98,22.81],[-82.82,22.61]]]}},{"type":"Feature","properties":{"id":"CUB-06","nome":"Cienfuegos","pais":"CUB","tipo":"Province","lat":22.33,"lng":-80.48},"geometry":{"type":"Polygon","coordinates":[[[-80.1,21.82],[-80.27,21.89],[-80.45,22.05],[-80.39,22.08],[-80.48,22.19],[-80.54,22.16],[-80.47,22.04],[-80.83,22.16],[-80.93,22.25],[-80.93,22.42],[-80.83,22.48],[-80.58,22.47],[-80.45,22.59],[-80.38,22.57],[-80.38,22.52],[-80.26,22.58],[-80.24,22.38],[-80.08,22.25],[-80.1,22.12],[-80.02,21.95],[-80.1,21.82]]]}},{"type":"Feature","properties":{"id":"CUB-12","nome":"Granma","pais":"CUB","tipo":"Province","lat":20.32,"lng":-76.84},"geometry":{"type":"Polygon","coordinates":[[[-77.03,19.89],[-77.74,19.86],[-77.59,20.09],[-77.11,20.37],[-77.08,20.47],[-77.24,20.56],[-77.2,20.64],[-77.34,20.72],[-77.29,20.78],[-76.57,20.7],[-76.56,20.64],[-76.2,20.47],[-76.22,20.39],[-76.27,20.46],[-76.29,20.37],[-76.37,20.36],[-76.45,20.06],[-76.56,20],[-76.93,20],[-77.05,19.94],[-77.03,19.89]]]}},{"type":"Feature","properties":{"id":"CUB-13","nome":"Santiago de Cuba","pais":"CUB","tipo":"Province","lat":20.2,"lng":-76.21},"geometry":{"type":"Polygon","coordinates":[[[-75.38,19.88],[-76.2,19.99],[-76.96,19.89],[-77.03,19.89],[-77.05,19.94],[-76.8,20.04],[-76.65,20],[-76.46,20.05],[-76.41,20.11],[-76.36,20.37],[-76.29,20.37],[-76.27,20.46],[-76.23,20.39],[-76.18,20.44],[-76.11,20.4],[-76.05,20.57],[-75.82,20.41],[-75.66,20.44],[-75.51,20.55],[-75.39,20.55],[-75.42,20.48],[-75.38,20.42],[-75.48,20.34],[-75.43,20.1],[-75.49,20.06],[-75.38,19.88]]]}}]}