{"type":"FeatureCollection","features":[{"type":"Feature","properties":{"id":"CYP-03","nome":"Larnaca","pais":"CYP","tipo":"District","lat":34.97,"lng":33.87},"geometry":{"type":"Polygon","coordinates":[[[33.55,35.07],[33.72,35],[33.61,34.82],[33.27,34.71],[33.25,34.8],[33.13,34.86],[33.49,34.96],[33.49,35.06],[33.55,35.07]]]}},{"type":"Feature","properties":{"id":"CYP-04","nome":"Famagusta","pais":"CYP","tipo":"District","lat":35.02,"lng":33.95},"geometry":{"type":"Polygon","coordinates":[[[33.91,35.07],[34.01,35.06],[34.1,34.97],[33.9,34.96],[33.8,35.04],[33.91,35.07]]]}},{"type":"Feature","properties":{"id":"CYP-01","nome":"Nicosia","pais":"CYP","tipo":"District","lat":35.02,"lng":33.04},"geometry":{"type":"Polygon","coordinates":[[[33.41,35.2],[33.47,35.01],[33.51,35.04],[33.5,34.96],[33.13,34.88],[32.97,34.96],[32.8,34.96],[32.69,34.89],[32.57,35.17],[32.71,35.18],[32.85,35.08],[33.16,35.19],[33.41,35.2]]]}},{"type":"Feature","properties":{"id":"CYP-02","nome":"Limassol","pais":"CYP","tipo":"District","lat":34.78,"lng":32.97},"geometry":{"type":"Polygon","coordinates":[[[32.84,34.7],[32.64,34.66],[32.8,34.96],[32.98,34.96],[33.27,34.77],[33.26,34.7],[33.09,34.69],[32.96,34.63],[32.99,34.67],[32.84,34.7]]]}},{"type":"Feature","properties":{"id":"CYP-05","nome":"Paphos","pais":"CYP","tipo":"District","lat":34.93,"lng":32.53},"geometry":{"type":"Polygon","coordinates":[[[32.64,34.66],[32.41,34.75],[32.28,35.09],[32.41,35.04],[32.55,35.18],[32.63,35.11],[32.66,34.91],[32.78,34.87],[32.64,34.66]]]}}]}