{"type":"FeatureCollection","features":[{"type":"Feature","properties":{"id":"CZE-US","nome":"Ústecký","pais":"CZE","tipo":"Region","lat":50.5,"lng":13.84},"geometry":{"type":"Polygon","coordinates":[[[14.32,51.04],[14.48,51.04],[14.57,50.98],[14.55,50.91],[14.63,50.91],[14.54,50.79],[14.45,50.82],[14.34,50.68],[14.48,50.49],[14.36,50.43],[14.35,50.35],[14,50.33],[13.37,50.08],[13.25,50.13],[13.22,50.33],[12.96,50.41],[13.01,50.49],[13.16,50.5],[13.37,50.63],[13.45,50.6],[13.56,50.71],[13.83,50.72],[13.96,50.8],[14.35,50.88],[14.38,50.92],[14.24,50.98],[14.32,51.04]]]}},{"type":"Feature","properties":{"id":"CZE-LI","nome":"Liberecký","pais":"CZE","tipo":"Region","lat":50.73,"lng":14.92},"geometry":{"type":"Polygon","coordinates":[[[14.61,50.85],[14.76,50.81],[14.81,50.86],[14.98,50.86],[14.96,50.99],[15.16,51.01],[15.27,50.95],[15.26,50.9],[15.36,50.78],[15.52,50.78],[15.62,50.5],[15.22,50.48],[14.95,50.6],[14.7,50.49],[14.48,50.49],[14.34,50.68],[14.45,50.82],[14.53,50.79],[14.61,50.85]]]}},{"type":"Feature","properties":{"id":"CZE-KA","nome":"Karlovarský","pais":"CZE","tipo":"Region","lat":50.16,"lng":12.73},"geometry":{"type":"Polygon","coordinates":[[[12.95,50.4],[13.22,50.33],[13.29,50.11],[13.22,50],[13.08,50.04],[12.93,49.93],[12.52,49.9],[12.25,50.04],[12.08,50.24],[12.08,50.32],[12.15,50.31],[12.3,50.16],[12.34,50.26],[12.51,50.39],[12.82,50.44],[12.95,50.4]]]}},{"type":"Feature","properties":{"id":"CZE-PL","nome":"Plzeňský","pais":"CZE","tipo":"Region","lat":49.65,"lng":13.2},"geometry":{"type":"Polygon","coordinates":[[[12.48,49.83],[12.52,49.9],[12.93,49.93],[13.08,50.03],[13.22,50],[13.29,50.11],[13.81,49.92],[13.81,49.74],[13.69,49.68],[13.78,49.43],[13.72,49.19],[13.61,49.12],[13.52,48.97],[13.43,48.96],[13,49.29],[12.78,49.33],[12.64,49.43],[12.5,49.67],[12.38,49.74],[12.48,49.83]]]}},{"type":"Feature","properties":{"id":"CZE-JC","nome":"Jihočeský","pais":"CZE","tipo":"Region","lat":49.07,"lng":14.56},"geometry":{"type":"Polygon","coordinates":[[[13.59,48.94],[13.52,48.98],[13.72,49.19],[13.71,49.26],[13.78,49.35],[13.76,49.49],[14.25,49.55],[14.62,49.52],[14.77,49.61],[14.94,49.53],[14.89,49.5],[14.92,49.3],[15.6,49.09],[15.5,49.02],[15.57,48.97],[15.54,48.9],[15.27,48.99],[15.14,48.94],[15.14,48.99],[14.98,49.01],[14.94,48.76],[14.8,48.78],[14.68,48.58],[14.46,48.64],[14.33,48.56],[14.04,48.6],[13.99,48.7],[13.59,48.94]]]}},{"type":"Feature","properties":{"id":"CZE-KR","nome":"Královéhradecký","pais":"CZE","tipo":"Region","lat":50.37,"lng":15.88},"geometry":{"type":"Polygon","coordinates":[[[15.52,50.78],[15.79,50.74],[15.85,50.67],[15.96,50.69],[15.98,50.6],[16.33,50.64],[16.43,50.57],[16.19,50.42],[16.34,50.37],[16.58,50.13],[16.48,50.15],[16.19,50.02],[15.95,50.16],[15.41,50.1],[15.35,50.28],[15.12,50.34],[15.12,50.49],[15.3,50.52],[15.42,50.46],[15.48,50.52],[15.62,50.5],[15.52,50.78]]]}},{"type":"Feature","properties":{"id":"CZE-OL","nome":"Olomoucký","pais":"CZE","tipo":"Region","lat":49.69,"lng":17.12},"geometry":{"type":"Polygon","coordinates":[[[16.94,50.42],[17.19,50.38],[17.39,50.27],[17.4,50.2],[17.22,50.12],[17.14,49.84],[17.44,49.73],[17.65,49.73],[17.89,49.5],[17.47,49.36],[17.32,49.41],[17.32,49.34],[17.17,49.26],[16.94,49.49],[16.88,49.5],[16.87,49.39],[16.79,49.41],[16.79,49.52],[16.73,49.58],[16.84,49.68],[16.73,49.83],[16.72,49.99],[16.81,50.04],[16.87,50.19],[17.01,50.22],[16.87,50.41],[16.94,50.42]]]}},{"type":"Feature","properties":{"id":"CZE-PA","nome":"Pardubický","pais":"CZE","tipo":"Region","lat":49.87,"lng":16.28},"geometry":{"type":"Polygon","coordinates":[[[16.58,50.13],[16.7,50.09],[16.87,50.19],[16.81,50.04],[16.72,49.99],[16.73,49.83],[16.84,49.68],[16.79,49.61],[16.39,49.6],[16,49.73],[15.86,49.7],[15.76,49.78],[15.58,49.81],[15.48,49.88],[15.5,49.96],[15.34,50.03],[15.41,50.1],[15.71,50.11],[15.79,50.16],[15.83,50.11],[15.98,50.15],[16.19,50.02],[16.48,50.15],[16.58,50.13]]]}},{"type":"Feature","properties":{"id":"CZE-MO","nome":"Moravskoslezský","pais":"CZE","tipo":"Region","lat":49.77,"lng":17.97},"geometry":{"type":"Polygon","coordinates":[[[17.69,50.32],[17.75,50.22],[17.59,50.16],[17.63,50.11],[17.73,50.09],[17.84,49.97],[18.03,50],[18,50.05],[18.29,49.91],[18.56,49.91],[18.62,49.71],[18.79,49.67],[18.83,49.51],[18.56,49.49],[18.38,49.38],[18.29,49.48],[17.85,49.55],[17.65,49.73],[17.44,49.73],[17.14,49.84],[17.22,50.12],[17.4,50.2],[17.39,50.27],[17.61,50.26],[17.69,50.32]]]}},{"type":"Feature","properties":{"id":"CZE-JM","nome":"Jihomoravský","pais":"CZE","tipo":"Region","lat":49.11,"lng":16.75},"geometry":{"type":"Polygon","coordinates":[[[15.7,48.85],[15.54,48.9],[15.58,48.97],[15.74,48.95],[15.95,49.06],[16.23,49.08],[16.28,49.3],[16.39,49.36],[16.39,49.6],[16.62,49.63],[16.79,49.61],[16.73,49.58],[16.79,49.52],[16.79,49.41],[16.87,49.39],[16.88,49.5],[16.94,49.49],[17.14,49.31],[17.13,49.24],[17.2,49.16],[17.12,49.09],[17.52,48.95],[17.65,48.84],[17.17,48.86],[16.95,48.6],[16.87,48.72],[16.52,48.81],[16.36,48.73],[16.09,48.74],[15.82,48.87],[15.7,48.85]]]}},{"type":"Feature","properties":{"id":"CZE-ZL","nome":"Zlínský","pais":"CZE","tipo":"Region","lat":49.18,"lng":17.77},"geometry":{"type":"Polygon","coordinates":[[[18.36,49.33],[18.16,49.26],[18.08,49.05],[17.91,49.01],[17.86,48.92],[17.65,48.84],[17.52,48.95],[17.42,48.95],[17.23,49.03],[17.22,49.09],[17.11,49.1],[17.2,49.16],[17.13,49.25],[17.32,49.33],[17.32,49.41],[17.47,49.36],[17.65,49.45],[17.79,49.44],[17.91,49.53],[18.29,49.48],[18.39,49.38],[18.36,49.33]]]}},{"type":"Feature","properties":{"id":"CZE-VY","nome":"Vysočina","pais":"CZE","tipo":"Region","lat":49.41,"lng":15.77},"geometry":{"type":"Polygon","coordinates":[[[16.39,49.6],[16.39,49.36],[16.27,49.29],[16.25,49.1],[16.11,49.04],[15.95,49.06],[15.74,48.95],[15.5,49],[15.6,49.09],[15.54,49.13],[15.41,49.12],[15.33,49.2],[14.98,49.27],[14.88,49.37],[14.89,49.5],[14.98,49.6],[15.24,49.62],[15.17,49.69],[15.22,49.74],[15.43,49.8],[15.48,49.88],[15.86,49.7],[16,49.73],[16.39,49.6]]]}},{"type":"Feature","properties":{"id":"CZE-ST","nome":"Středočeský","pais":"CZE","tipo":"Region","lat":49.75,"lng":14.46},"geometry":{"type":"Polygon","coordinates":[[[15.48,49.88],[15.43,49.8],[15.22,49.74],[15.17,49.69],[15.24,49.62],[15.16,49.59],[14.98,49.6],[14.92,49.54],[14.77,49.61],[14.62,49.52],[14.25,49.55],[13.76,49.49],[13.69,49.68],[13.81,49.74],[13.83,49.91],[13.41,50.03],[13.41,50.09],[14,50.33],[14.35,50.35],[14.36,50.43],[14.48,50.49],[14.7,50.49],[14.96,50.6],[15.13,50.51],[15.12,50.34],[15.35,50.27],[15.36,50.15],[15.41,50.11],[15.34,50.03],[15.5,49.96],[15.48,49.88]],[[14.59,50],[14.65,50],[14.68,50.09],[14.54,50.17],[14.21,50.1],[14.32,49.95],[14.59,50]]]}},{"type":"Feature","properties":{"id":"CZE-PR","nome":"Prague","pais":"CZE","tipo":"Region","lat":50.06,"lng":14.45},"geometry":{"type":"Polygon","coordinates":[[[14.53,50.17],[14.68,50.09],[14.65,50],[14.33,49.95],[14.21,50.1],[14.53,50.17]]]}}]}