{"type":"FeatureCollection","features":[{"type":"Feature","properties":{"id":"DJI-AS","nome":"Ali Sabieh","pais":"DJI","tipo":"Region","lat":11.21,"lng":42.9},"geometry":{"type":"Polygon","coordinates":[[[43.19,11.41],[42.92,11],[42.77,11],[42.73,11.07],[42.61,11.09],[42.63,11.22],[42.86,11.36],[42.91,11.45],[43.06,11.48],[43.19,11.41]]]}},{"type":"Feature","properties":{"id":"DJI-AR","nome":"Arta","pais":"DJI","tipo":"Region","lat":11.45,"lng":42.8},"geometry":{"type":"Polygon","coordinates":[[[43.24,11.49],[43.19,11.41],[43.06,11.48],[42.91,11.45],[42.71,11.27],[42.5,11.3],[42.37,11.65],[42.6,11.47],[42.86,11.6],[42.96,11.52],[43.17,11.54],[43.24,11.49]]]}},{"type":"Feature","properties":{"id":"DJI-DI","nome":"Dikhil","pais":"DJI","tipo":"Region","lat":11.39,"lng":42.23},"geometry":{"type":"Polygon","coordinates":[[[41.94,10.93],[41.76,11],[41.75,11.54],[41.81,11.74],[41.97,11.88],[42.19,11.82],[42.37,11.65],[42.5,11.3],[42.71,11.27],[42.63,11.22],[42.61,11.09],[41.94,10.93]]]}},{"type":"Feature","properties":{"id":"DJI-TA","nome":"Tadjourah","pais":"DJI","tipo":"Region","lat":11.8,"lng":42.5},"geometry":{"type":"Polygon","coordinates":[[[41.97,11.88],[42.45,12.52],[42.7,12.38],[42.7,12.25],[43.09,11.84],[42.8,11.75],[42.68,11.57],[42.53,11.58],[42.53,11.55],[42.19,11.82],[41.97,11.88]]]}},{"type":"Feature","properties":{"id":"DJI-OB","nome":"Obock","pais":"DJI","tipo":"Region","lat":12.28,"lng":43.05},"geometry":{"type":"Polygon","coordinates":[[[42.89,12.62],[43.13,12.7],[43.33,12.49],[43.41,12.24],[43.4,12.03],[43.21,11.96],[43.09,11.84],[42.67,12.31],[42.89,12.62]]]}},{"type":"Feature","properties":{"id":"DJI-DJ","nome":"Djibouti","pais":"DJI","tipo":"City","lat":11.55,"lng":43.04},"geometry":{"type":"Polygon","coordinates":[[[42.9,11.58],[43.15,11.61],[43.17,11.54],[42.96,11.52],[42.9,11.58]]]}}]}