{"type":"FeatureCollection","features":[{"type":"Feature","properties":{"id":"DMA-09","nome":"Saint Patrick","pais":"DMA","tipo":"Parish","lat":15.28,"lng":-61.31},"geometry":{"type":"Polygon","coordinates":[[[-61.25,15.33],[-61.35,15.21],[-61.34,15.27],[-61.25,15.33]]]}},{"type":"Feature","properties":{"id":"DMA-03","nome":"Saint David","pais":"DMA","tipo":"Parish","lat":15.4,"lng":-61.29},"geometry":{"type":"Polygon","coordinates":[[[-61.27,15.51],[-61.25,15.33],[-61.31,15.32],[-61.33,15.4],[-61.27,15.51]]]}},{"type":"Feature","properties":{"id":"DMA-02","nome":"Saint Andrew","pais":"DMA","tipo":"Parish","lat":15.54,"lng":-61.36},"geometry":{"type":"Polygon","coordinates":[[[-61.45,15.63],[-61.31,15.58],[-61.27,15.48],[-61.39,15.48],[-61.45,15.63]]]}},{"type":"Feature","properties":{"id":"DMA-05","nome":"Saint John","pais":"DMA","tipo":"Parish","lat":15.58,"lng":-61.45},"geometry":{"type":"Polygon","coordinates":[[[-61.48,15.53],[-61.45,15.63],[-61.41,15.5],[-61.48,15.53]]]}},{"type":"Feature","properties":{"id":"DMA-11","nome":"Saint Peter","pais":"DMA","tipo":"Parish","lat":15.5,"lng":-61.44},"geometry":{"type":"Polygon","coordinates":[[[-61.46,15.47],[-61.48,15.53],[-61.41,15.5],[-61.46,15.47]]]}},{"type":"Feature","properties":{"id":"DMA-06","nome":"Saint Joseph","pais":"DMA","tipo":"Parish","lat":15.44,"lng":-61.39},"geometry":{"type":"Polygon","coordinates":[[[-61.42,15.39],[-61.43,15.49],[-61.32,15.46],[-61.33,15.4],[-61.42,15.39]]]}},{"type":"Feature","properties":{"id":"DMA-10","nome":"Saint Paul","pais":"DMA","tipo":"Parish","lat":15.35,"lng":-61.37},"geometry":{"type":"Polygon","coordinates":[[[-61.39,15.31],[-61.42,15.39],[-61.33,15.4],[-61.33,15.35],[-61.39,15.31]]]}},{"type":"Feature","properties":{"id":"DMA-04","nome":"Saint George","pais":"DMA","tipo":"Parish","lat":15.3,"lng":-61.35},"geometry":{"type":"Polygon","coordinates":[[[-61.37,15.26],[-61.39,15.31],[-61.31,15.34],[-61.37,15.26]]]}}]}