{"type":"FeatureCollection","features":[{"type":"Feature","properties":{"id":"DNK-83","nome":"Syddanmark","pais":"DNK","tipo":"Region","lat":55.35,"lng":9.13},"geometry":{"type":"MultiPolygon","coordinates":[[[[9.32,54.8],[8.9,54.9],[8.66,54.9],[8.68,55.13],[8.56,55.14],[8.5,55.07],[8.46,55.1],[8.49,55.2],[8.69,55.14],[8.63,55.42],[8.44,55.46],[8.33,55.58],[8.24,55.56],[8.31,55.47],[8.1,55.55],[8.18,55.8],[8.47,55.77],[8.57,55.84],[8.77,55.8],[8.88,55.88],[9.05,55.83],[9.25,55.94],[9.68,55.73],[9.55,55.7],[9.85,55.63],[9.5,55.49],[9.66,55.48],[9.59,55.43],[9.71,55.25],[9.68,55.2],[9.49,55.16],[9.46,55.13],[9.56,55.09],[9.43,55.04],[9.73,55],[9.76,54.9],[9.7,54.89],[9.75,54.84],[9.62,54.87],[9.62,54.93],[9.44,54.81],[9.32,54.8]]],[[[10.01,54.98],[10.06,54.88],[9.95,54.86],[9.87,54.89],[9.99,54.88],[9.78,54.92],[9.76,54.98],[9.85,54.95],[9.8,55.02],[9.63,55.06],[9.79,55.08],[10.01,54.98]]],[[[10.85,55.04],[10.96,55.15],[10.69,54.74],[10.6,54.84],[10.72,54.89],[10.7,54.93],[10.85,55.04]]],[[[10.67,55.06],[10.54,55.03],[10.07,55.09],[10.16,55.14],[10,55.2],[10.03,55.13],[9.99,55.13],[9.98,55.21],[9.88,55.25],[9.88,55.35],[9.7,55.47],[9.81,55.44],[9.68,55.5],[10.31,55.62],[10.52,55.53],[10.42,55.46],[10.47,55.44],[10.61,55.49],[10.57,55.52],[10.61,55.53],[10.63,55.61],[10.74,55.49],[10.55,55.44],[10.7,55.44],[10.83,55.29],[10.77,55.29],[10.82,55.21],[10.78,55.12],[10.67,55.06]]]]}},{"type":"Feature","properties":{"id":"DNK-82","nome":"Midtjylland","pais":"DNK","tipo":"Region","lat":56.24,"lng":9.27},"geometry":{"type":"Polygon","coordinates":[[[8.18,55.8],[8.13,55.99],[8.19,55.81],[8.39,55.91],[8.28,56.08],[8.15,56.11],[8.13,55.99],[8.11,56.02],[8.12,56.55],[8.21,56.71],[8.2,56.64],[8.3,56.56],[8.57,56.58],[8.65,56.48],[8.73,56.49],[8.76,56.56],[8.68,56.63],[8.92,56.71],[8.84,56.72],[8.96,56.8],[9.11,56.8],[9.18,56.71],[9.06,56.63],[9.06,56.57],[9.16,56.66],[9.28,56.63],[9.25,56.58],[9.32,56.53],[9.37,56.55],[9.29,56.56],[9.33,56.67],[9.44,56.64],[9.49,56.68],[9.66,56.62],[9.62,56.58],[9.81,56.56],[10.33,56.7],[10.34,56.62],[10.21,56.56],[10.18,56.47],[10.33,56.6],[10.47,56.52],[10.82,56.53],[10.96,56.45],[10.74,56.15],[10.63,56.24],[10.55,56.18],[10.57,56.11],[10.52,56.1],[10.51,56.17],[10.35,56.2],[10.49,56.22],[10.5,56.28],[10.44,56.3],[10.26,56.19],[10.23,56.02],[10.28,56.02],[10.18,55.83],[10.1,55.88],[9.87,55.85],[10.05,55.81],[10.02,55.77],[10.06,55.75],[10.01,55.7],[9.73,55.69],[9.25,55.94],[9.05,55.83],[8.88,55.88],[8.77,55.8],[8.57,55.84],[8.47,55.77],[8.18,55.8]]]}},{"type":"Feature","properties":{"id":"DNK-81","nome":"Nordjylland","pais":"DNK","tipo":"Region","lat":56.83,"lng":9.73},"geometry":{"type":"MultiPolygon","coordinates":[[[[9.33,56.67],[9.17,56.69],[9.24,56.75],[9.16,56.89],[9.22,56.96],[9.44,57.02],[9.61,56.97],[9.69,57.04],[9.92,57.06],[9.8,57.11],[9.25,57],[9.11,57.06],[8.68,56.95],[8.49,56.79],[8.48,56.72],[8.53,56.7],[8.41,56.69],[8.59,56.69],[8.61,56.63],[8.56,56.59],[8.3,56.76],[8.24,56.78],[8.25,56.7],[8.24,56.77],[8.62,57.12],[9.41,57.17],[9.57,57.24],[9.97,57.59],[10.2,57.6],[10.54,57.74],[10.65,57.74],[10.43,57.57],[10.55,57.44],[10.54,57.24],[10.41,57.14],[10.35,57.01],[10.24,56.99],[9.99,57.09],[9.93,57.06],[10,57.08],[10.31,56.98],[10.27,56.91],[10.34,56.72],[9.81,56.65],[10.19,56.69],[9.81,56.56],[9.62,56.58],[9.66,56.62],[9.49,56.68],[9.44,56.64],[9.33,56.67]]],[[[8.83,56.74],[8.66,56.68],[8.51,56.74],[8.67,56.83],[8.62,56.83],[8.65,56.89],[8.93,56.98],[8.9,56.87],[8.84,56.88],[8.88,56.81],[8.83,56.74]]]]}},{"type":"Feature","properties":{"id":"DNK-85","nome":"Sjaælland","pais":"DNK","tipo":"Region","lat":55.44,"lng":11.75},"geometry":{"type":"MultiPolygon","coordinates":[[[[11.85,54.73],[11.81,54.66],[11.47,54.63],[11,54.79],[11.11,54.83],[11.03,54.92],[11.23,54.96],[11.59,54.81],[11.57,54.85],[11.66,54.87],[11.65,54.91],[11.85,54.73]]],[[[12.42,55.03],[12.55,54.96],[12.12,54.91],[12.18,54.99],[12.29,54.99],[12.25,55.06],[12.42,55.03]]],[[[12.36,55.6],[12.2,55.49],[12.43,55.36],[12.47,55.29],[12.18,55.23],[12.1,55.14],[12.01,55.17],[12.17,55.13],[12.12,55.07],[12.16,55],[12.03,54.97],[11.91,55.01],[11.88,54.94],[12.17,54.84],[11.96,54.69],[11.95,54.57],[11.87,54.66],[11.91,54.72],[11.71,54.94],[11.88,54.98],[11.62,55.09],[11.83,55.05],[11.72,55.13],[11.81,55.15],[11.73,55.15],[11.72,55.21],[11.26,55.2],[11.24,55.24],[11.29,55.26],[11.15,55.33],[11.19,55.35],[11.09,55.36],[11.21,55.4],[11.16,55.5],[11.08,55.51],[11.15,55.58],[10.93,55.67],[11.09,55.66],[10.88,55.74],[11.16,55.75],[11.12,55.74],[11.19,55.7],[11.36,55.77],[11.35,55.84],[11.51,55.87],[11.48,55.94],[11.27,56],[11.6,55.94],[11.77,55.97],[11.74,55.9],[11.66,55.91],[11.72,55.81],[11.61,55.79],[11.74,55.8],[11.76,55.75],[11.67,55.72],[11.75,55.73],[11.78,55.66],[11.92,55.74],[11.97,55.72],[11.91,55.66],[12,55.7],[12.06,55.65],[12.11,55.78],[12.26,55.71],[12.16,55.67],[12.17,55.62],[12.36,55.6]]]]}},{"type":"Feature","properties":{"id":"DNK-84","nome":"Hovedstaden","pais":"DNK","tipo":"Region","lat":55.85,"lng":12.32},"geometry":{"type":"MultiPolygon","coordinates":[[[[15.15,55.13],[15.07,54.99],[14.68,55.1],[14.76,55.31],[15.15,55.13]]],[[[12.08,55.78],[12.03,55.94],[11.87,55.97],[12.25,56.13],[12.62,56.04],[12.51,55.93],[12.6,55.71],[12.49,55.61],[12.17,55.62],[12.16,55.67],[12.26,55.71],[12.08,55.78]]]]}}]}