{"type":"FeatureCollection","features":[{"type":"Feature","properties":{"id":"DOM-15","nome":"Monte Cristi","pais":"DOM","tipo":"Province","lat":19.73,"lng":-71.45},"geometry":{"type":"Polygon","coordinates":[[[-71.75,19.65],[-71.77,19.79],[-71.65,19.9],[-71.48,19.91],[-71.22,19.83],[-71.13,19.75],[-71.18,19.54],[-71.41,19.54],[-71.51,19.61],[-71.75,19.65]]]}},{"type":"Feature","properties":{"id":"DOM-05","nome":"Dajabón","pais":"DOM","tipo":"Province","lat":19.43,"lng":-71.6},"geometry":{"type":"Polygon","coordinates":[[[-71.75,19.28],[-71.78,19.33],[-71.7,19.46],[-71.75,19.65],[-71.51,19.61],[-71.41,19.54],[-71.51,19.28],[-71.65,19.22],[-71.75,19.28]]]}},{"type":"Feature","properties":{"id":"DOM-07","nome":"La Estrelleta","pais":"DOM","tipo":"Province","lat":19.04,"lng":-71.65},"geometry":{"type":"Polygon","coordinates":[[[-71.86,18.95],[-71.66,19.12],[-71.65,19.22],[-71.57,19.28],[-71.49,19.3],[-71.33,19.19],[-71.37,19.11],[-71.47,19.13],[-71.62,18.94],[-71.63,18.81],[-71.53,18.65],[-71.78,18.68],[-71.73,18.75],[-71.73,18.86],[-71.8,18.96],[-71.86,18.95]]]}},{"type":"Feature","properties":{"id":"DOM-10","nome":"Independencia","pais":"DOM","tipo":"Province","lat":18.38,"lng":-71.61},"geometry":{"type":"Polygon","coordinates":[[[-71.79,18.68],[-71.53,18.65],[-71.6,18.62],[-71.59,18.48],[-71.2,18.34],[-71.38,18.29],[-71.35,18.18],[-71.42,18.14],[-71.72,18.29],[-71.91,18.43],[-72.01,18.6],[-71.84,18.62],[-71.79,18.68]]]}},{"type":"Feature","properties":{"id":"DOM-16","nome":"Pedernales","pais":"DOM","tipo":"Province","lat":17.94,"lng":-71.52},"geometry":{"type":"Polygon","coordinates":[[[-71.78,18.04],[-71.72,18.29],[-71.39,18.12],[-71.42,18.01],[-71.3,17.93],[-71.28,17.85],[-71.42,17.6],[-71.53,17.76],[-71.68,17.77],[-71.63,17.82],[-71.66,17.95],[-71.78,18.04]]]}},{"type":"Feature","properties":{"id":"DOM-11","nome":"La Altagracia","pais":"DOM","tipo":"Province","lat":18.61,"lng":-68.64},"geometry":{"type":"Polygon","coordinates":[[[-68.79,18.98],[-68.33,18.62],[-68.46,18.36],[-68.61,18.37],[-68.66,18.21],[-68.76,18.21],[-68.9,18.4],[-68.85,18.55],[-68.94,18.71],[-68.84,18.76],[-68.83,18.94],[-68.79,18.98]]]}},{"type":"Feature","properties":{"id":"DOM-08","nome":"El Seybo","pais":"DOM","tipo":"Province","lat":18.76,"lng":-69.06},"geometry":{"type":"Polygon","coordinates":[[[-69.21,19.02],[-69.14,19.05],[-69.05,18.98],[-68.98,19.03],[-68.79,18.98],[-68.83,18.94],[-68.84,18.76],[-69.09,18.53],[-69.08,18.58],[-69.25,18.64],[-69.22,18.76],[-69.33,18.92],[-69.19,18.92],[-69.21,19.02]]]}},{"type":"Feature","properties":{"id":"DOM-30","nome":"Hato Mayor","pais":"DOM","tipo":"Province","lat":18.98,"lng":-69.4},"geometry":{"type":"Polygon","coordinates":[[[-69.62,19.1],[-69.4,19.11],[-69.21,19.02],[-69.19,18.92],[-69.33,18.92],[-69.22,18.76],[-69.35,18.52],[-69.46,18.77],[-69.38,18.87],[-69.64,19.01],[-69.62,19.1]]]}},{"type":"Feature","properties":{"id":"DOM-20","nome":"Samaná","pais":"DOM","tipo":"Province","lat":19.27,"lng":-69.48},"geometry":{"type":"Polygon","coordinates":[[[-69.77,19.3],[-69.53,19.34],[-69.34,19.29],[-69.23,19.36],[-69.25,19.3],[-69.16,19.29],[-69.25,19.18],[-69.62,19.23],[-69.64,19.01],[-69.76,19.09],[-69.68,19.21],[-69.79,19.2],[-69.77,19.3]]]}},{"type":"Feature","properties":{"id":"DOM-14","nome":"María Trinidad Sánchez","pais":"DOM","tipo":"Province","lat":19.47,"lng":-69.99},"geometry":{"type":"Polygon","coordinates":[[[-70.09,19.64],[-69.96,19.68],[-69.9,19.64],[-69.87,19.44],[-69.77,19.3],[-69.79,19.2],[-70.12,19.35],[-70.15,19.46],[-70.22,19.5],[-70.09,19.64]]]}},{"type":"Feature","properties":{"id":"DOM-09","nome":"Espaillat","pais":"DOM","tipo":"Province","lat":19.6,"lng":-70.35},"geometry":{"type":"Polygon","coordinates":[[[-70.37,19.71],[-70.28,19.65],[-70.09,19.64],[-70.11,19.58],[-70.21,19.55],[-70.22,19.5],[-70.29,19.56],[-70.36,19.5],[-70.41,19.54],[-70.47,19.32],[-70.59,19.35],[-70.51,19.64],[-70.4,19.66],[-70.37,19.71]]]}},{"type":"Feature","properties":{"id":"DOM-18","nome":"Puerto Plata","pais":"DOM","tipo":"Province","lat":19.74,"lng":-70.8},"geometry":{"type":"Polygon","coordinates":[[[-71.22,19.83],[-71,19.94],[-70.95,19.89],[-70.84,19.91],[-70.62,19.77],[-70.43,19.78],[-70.37,19.71],[-70.4,19.66],[-70.51,19.64],[-70.55,19.52],[-70.66,19.63],[-70.71,19.65],[-70.76,19.59],[-71.2,19.77],[-71.22,19.83]]]}},{"type":"Feature","properties":{"id":"DOM-04","nome":"Barahona","pais":"DOM","tipo":"Province","lat":18.17,"lng":-71.19},"geometry":{"type":"Polygon","coordinates":[[[-70.97,18.26],[-71.08,18.3],[-71.06,18.14],[-71.27,17.85],[-71.3,17.93],[-71.4,17.96],[-71.42,18.16],[-71.35,18.18],[-71.38,18.29],[-71.23,18.3],[-71.03,18.53],[-71,18.45],[-71.05,18.4],[-70.96,18.35],[-70.97,18.26]]]}},{"type":"Feature","properties":{"id":"DOM-02","nome":"Azua","pais":"DOM","tipo":"Province","lat":18.6,"lng":-70.82},"geometry":{"type":"Polygon","coordinates":[[[-70.58,18.27],[-70.58,18.39],[-70.68,18.44],[-70.74,18.36],[-70.97,18.26],[-70.96,18.35],[-71.05,18.4],[-70.99,18.53],[-71.16,18.62],[-71.06,18.68],[-71.06,18.77],[-70.99,18.77],[-70.89,18.99],[-70.69,18.73],[-70.65,18.57],[-70.48,18.41],[-70.49,18.32],[-70.58,18.27]]]}},{"type":"Feature","properties":{"id":"DOM-17","nome":"Peravia","pais":"DOM","tipo":"Province","lat":18.36,"lng":-70.38},"geometry":{"type":"Polygon","coordinates":[[[-70.18,18.23],[-70.55,18.2],[-70.58,18.27],[-70.36,18.5],[-70.24,18.43],[-70.27,18.37],[-70.18,18.23]]]}},{"type":"Feature","properties":{"id":"DOM-21","nome":"San Cristóbal","pais":"DOM","tipo":"Province","lat":18.51,"lng":-70.19},"geometry":{"type":"Polygon","coordinates":[[[-70,18.42],[-70.18,18.23],[-70.27,18.37],[-70.24,18.43],[-70.38,18.57],[-70.37,18.68],[-70.29,18.79],[-70.17,18.73],[-70.14,18.56],[-70,18.42]]]}},{"type":"Feature","properties":{"id":"DOM-32","nome":"Santo Domingo","pais":"DOM","tipo":"Province","lat":18.57,"lng":-69.84},"geometry":{"type":"Polygon","coordinates":[[[-69.98,18.43],[-70.12,18.53],[-70.17,18.73],[-70.01,18.66],[-69.89,18.7],[-69.79,18.57],[-69.58,18.65],[-69.62,18.52],[-69.52,18.47],[-69.53,18.41],[-69.62,18.46],[-69.65,18.41],[-69.97,18.54],[-69.98,18.43]]]}},{"type":"Feature","properties":{"id":"DOM-01","nome":"Distrito Nacional","pais":"DOM","tipo":"National District","lat":18.47,"lng":-69.94},"geometry":{"type":"Polygon","coordinates":[[[-69.88,18.47],[-69.98,18.43],[-69.99,18.52],[-69.88,18.47]]]}},{"type":"Feature","properties":{"id":"DOM-23","nome":"San Pedro de Macorís","pais":"DOM","tipo":"Province","lat":18.48,"lng":-69.35},"geometry":{"type":"Polygon","coordinates":[[[-69.09,18.4],[-69.24,18.45],[-69.53,18.41],[-69.52,18.47],[-69.62,18.52],[-69.59,18.64],[-69.46,18.8],[-69.35,18.52],[-69.25,18.64],[-69.08,18.58],[-69.12,18.48],[-69.09,18.4]]]}},{"type":"Feature","properties":{"id":"DOM-12","nome":"La Romana","pais":"DOM","tipo":"Province","lat":18.52,"lng":-68.99},"geometry":{"type":"Polygon","coordinates":[[[-68.9,18.4],[-69.09,18.4],[-69.12,18.48],[-68.94,18.67],[-68.85,18.55],[-68.9,18.4]]]}},{"type":"Feature","properties":{"id":"DOM-27","nome":"Valverde","pais":"DOM","tipo":"Province","lat":19.57,"lng":-71.02},"geometry":{"type":"Polygon","coordinates":[[[-71.15,19.63],[-71.13,19.75],[-70.86,19.64],[-70.89,19.58],[-70.94,19.59],[-70.89,19.45],[-71.15,19.48],[-71.18,19.54],[-71.15,19.63]]]}},{"type":"Feature","properties":{"id":"DOM-26","nome":"Santiago Rodríguez","pais":"DOM","tipo":"Province","lat":19.36,"lng":-71.29},"geometry":{"type":"Polygon","coordinates":[[[-71.4,19.56],[-71.2,19.54],[-71.08,19.47],[-71.07,19.41],[-71.24,19.33],[-71.23,19.17],[-71.42,19.23],[-71.52,19.34],[-71.4,19.56]]]}},{"type":"Feature","properties":{"id":"DOM-13","nome":"La Vega","pais":"DOM","tipo":"Province","lat":19.05,"lng":-70.68},"geometry":{"type":"Polygon","coordinates":[[[-70.61,19.37],[-70.52,19.36],[-70.28,19.14],[-70.5,19.07],[-70.58,18.92],[-70.55,18.74],[-70.61,18.68],[-70.7,18.68],[-70.69,18.73],[-70.83,18.86],[-70.92,19.07],[-70.68,19.19],[-70.74,19.32],[-70.61,19.37]]]}},{"type":"Feature","properties":{"id":"DOM-19","nome":"Hermanas","pais":"DOM","tipo":"Province","lat":19.4,"lng":-70.35},"geometry":{"type":"Polygon","coordinates":[[[-70.29,19.56],[-70.25,19.44],[-70.4,19.23],[-70.47,19.32],[-70.44,19.5],[-70.29,19.56]]]}},{"type":"Feature","properties":{"id":"DOM-06","nome":"Duarte","pais":"DOM","tipo":"Province","lat":19.2,"lng":-70.02},"geometry":{"type":"Polygon","coordinates":[[[-70.23,19.5],[-69.99,19.26],[-69.68,19.18],[-69.89,19.04],[-69.95,19.11],[-70.28,19.15],[-70.36,19.27],[-70.23,19.5]]]}},{"type":"Feature","properties":{"id":"DOM-25","nome":"Santiago","pais":"DOM","tipo":"Province","lat":19.26,"lng":-70.9},"geometry":{"type":"Polygon","coordinates":[[[-70.55,19.52],[-70.58,19.39],[-70.74,19.32],[-70.68,19.19],[-70.92,19.07],[-70.92,19.03],[-71.06,19.04],[-71.23,19.17],[-71.23,19.35],[-71.07,19.41],[-71.08,19.47],[-70.89,19.45],[-70.94,19.59],[-70.89,19.58],[-70.86,19.64],[-70.72,19.59],[-70.71,19.65],[-70.55,19.52]]]}},{"type":"Feature","properties":{"id":"DOM-03","nome":"Bahoruco","pais":"DOM","tipo":"Province","lat":18.51,"lng":-71.31},"geometry":{"type":"Polygon","coordinates":[[[-71.38,18.39],[-71.59,18.48],[-71.6,18.63],[-71.2,18.64],[-70.99,18.53],[-71.2,18.34],[-71.29,18.4],[-71.38,18.39]]]}},{"type":"Feature","properties":{"id":"DOM-22","nome":"San Juan","pais":"DOM","tipo":"Province","lat":18.89,"lng":-71.26},"geometry":{"type":"Polygon","coordinates":[[[-71.41,19.11],[-71.33,19.19],[-71.06,19.04],[-70.9,19.01],[-70.99,18.77],[-71.06,18.77],[-71.06,18.68],[-71.12,18.63],[-71.34,18.6],[-71.53,18.65],[-71.63,18.81],[-71.62,18.94],[-71.47,19.13],[-71.41,19.11]]]}},{"type":"Feature","properties":{"id":"DOM-28","nome":"Monseñor Nouel","pais":"DOM","tipo":"Province","lat":18.92,"lng":-70.41},"geometry":{"type":"Polygon","coordinates":[[[-70.39,19.07],[-70.22,18.85],[-70.31,18.72],[-70.45,18.74],[-70.59,18.85],[-70.5,19.07],[-70.42,19.11],[-70.39,19.07]]]}},{"type":"Feature","properties":{"id":"DOM-24","nome":"Sánchez Ramírez","pais":"DOM","tipo":"Province","lat":19.01,"lng":-70.15},"geometry":{"type":"Polygon","coordinates":[[[-70.22,18.85],[-70.37,19],[-70.36,19.1],[-70.27,19.16],[-69.91,19.09],[-69.95,18.91],[-70.22,18.85]]]}},{"type":"Feature","properties":{"id":"DOM-31","nome":"San José de Ocoa","pais":"DOM","tipo":"Province","lat":18.64,"lng":-70.53},"geometry":{"type":"Polygon","coordinates":[[[-70.53,18.79],[-70.35,18.72],[-70.36,18.5],[-70.48,18.41],[-70.7,18.68],[-70.61,18.68],[-70.53,18.79]]]}},{"type":"Feature","properties":{"id":"DOM-29","nome":"Monte Plata","pais":"DOM","tipo":"Province","lat":18.85,"lng":-69.82},"geometry":{"type":"Polygon","coordinates":[[[-70.25,18.8],[-70.22,18.85],[-69.98,18.89],[-69.92,19.04],[-69.82,19.09],[-69.38,18.87],[-69.58,18.65],[-69.79,18.57],[-69.89,18.7],[-70.09,18.68],[-70.25,18.8]]]}}]}