{"type":"FeatureCollection","features":[{"type":"Feature","properties":{"id":"DZA-01","nome":"Adrar","pais":"DZA","tipo":"Province","lat":25.7,"lng":-0.94},"geometry":{"type":"Polygon","coordinates":[[[-4.82,24.99],[-5.66,25.51],[-2.97,27.2],[-3.75,28.57],[-3.55,28.58],[-3.02,28.33],[-2.81,28.29],[-1.88,28.78],[-0.96,28.92],[-0.83,29.01],[-0.2,29.75],[0.4,30.71],[0.75,31.03],[2.09,31.66],[2.07,30.86],[1.94,30.09],[2.13,28.49],[1.94,26.81],[1.76,26.61],[1.63,26.58],[1.51,26.46],[1.07,26.42],[0.83,26.27],[1.09,25.96],[1.12,25.69],[1.31,25.54],[1.3,22.27],[1.37,22.18],[3.68,20.88],[3.75,20.78],[3.78,20.55],[3.79,19.06],[3.33,18.98],[3.16,19.08],[3.1,19.15],[3.26,19.39],[3.2,19.55],[3.2,19.82],[2.95,19.94],[2.4,20.06],[2.2,20.27],[2.07,20.21],[1.89,20.23],[1.78,20.3],[1.66,20.4],[1.64,20.52],[1.56,20.6],[1.36,20.66],[1.3,20.73],[1.15,20.74],[1.15,21.1],[-4.82,24.99]]]}},{"type":"Feature","properties":{"id":"DZA-11","nome":"Tamanghasset","pais":"DZA","tipo":"Province","lat":23.01,"lng":6.4},"geometry":{"type":"Polygon","coordinates":[[[11.97,23.52],[7.48,20.87],[5.79,19.45],[3.79,19.06],[3.78,20.55],[3.75,20.78],[3.68,20.88],[1.37,22.18],[1.3,22.27],[1.31,25.54],[1.12,25.69],[1.09,25.96],[0.83,26.27],[1.07,26.42],[1.51,26.46],[1.63,26.58],[1.76,26.61],[1.93,26.78],[2.13,28.49],[2.08,29.04],[2.99,29.12],[3.82,28.55],[4.75,28.46],[5.95,28.49],[6.51,28.09],[6.57,27.89],[6.26,27.77],[5.84,27.41],[5.82,27.32],[5.95,26.86],[6.26,26.6],[6.18,26.23],[6.31,26.17],[6.54,25.89],[6.96,25.76],[7,25.5],[7.17,25.29],[7.09,25.11],[7.11,24.92],[7.31,24.71],[7.63,24.6],[7.95,24.37],[8.52,24.23],[8.7,24],[11.71,24],[11.97,23.52]]]}},{"type":"Feature","properties":{"id":"DZA-37","nome":"Tindouf","pais":"DZA","tipo":"Province","lat":27.5,"lng":-5.83},"geometry":{"type":"Polygon","coordinates":[[[-5.66,25.51],[-8.68,27.29],[-8.67,28.71],[-7.62,29.39],[-7.35,29.38],[-7.15,29.51],[-6.78,29.45],[-6.7,29.52],[-6.41,29.57],[-6,29.58],[-5.27,28.21],[-3.75,28.57],[-2.97,27.2],[-5.66,25.51]]]}},{"type":"Feature","properties":{"id":"DZA-08","nome":"Béchar","pais":"DZA","tipo":"Province","lat":30.19,"lng":-2.82},"geometry":{"type":"Polygon","coordinates":[[[-2.52,32.13],[-1.25,32.08],[-1.19,32.13],[-1.31,32.15],[-1.27,32.23],[-1.12,32.24],[-0.99,32.22],[-0.9,32.1],[-0.04,32.33],[-0.4,31.39],[-0.15,31.12],[0.4,30.71],[-0.2,29.75],[-0.83,29.01],[-0.96,28.92],[-1.88,28.78],[-2.81,28.29],[-3.02,28.33],[-3.55,28.58],[-5.27,28.21],[-6,29.58],[-5.76,29.61],[-5.72,29.52],[-5.54,29.52],[-5.18,29.98],[-4.62,30.28],[-4.37,30.51],[-3.65,30.71],[-3.66,30.84],[-3.55,30.96],[-3.73,31.18],[-3.84,31.17],[-3.82,31.34],[-3.67,31.39],[-3.66,31.65],[-2.83,31.79],[-2.94,32.05],[-2.52,32.13]]]}},{"type":"Feature","properties":{"id":"DZA-36","nome":"El Tarf","pais":"DZA","tipo":"Province","lat":36.7,"lng":8.15},"geometry":{"type":"Polygon","coordinates":[[[8.6,36.94],[8.64,36.84],[8.41,36.78],[8.46,36.73],[8.43,36.66],[8.19,36.55],[8.05,36.41],[8.01,36.41],[7.97,36.51],[7.65,36.66],[7.75,36.77],[7.77,36.89],[7.91,36.85],[8.23,36.96],[8.46,36.9],[8.6,36.94]]]}},{"type":"Feature","properties":{"id":"DZA-39","nome":"El Oued","pais":"DZA","tipo":"Province","lat":33.11,"lng":7.04},"geometry":{"type":"Polygon","coordinates":[[[7.71,33.41],[7.72,33.23],[8.09,33.09],[8.28,32.84],[8.33,32.53],[9.02,32.1],[9.06,32],[7.31,32],[7.03,32.05],[6.68,32.51],[6.38,33.32],[6.19,33.38],[5.01,33.44],[5.33,33.85],[5.36,34.17],[5.19,34.36],[5.32,34.5],[6,34.39],[6.21,34.43],[6.53,34.32],[6.7,34.38],[6.74,34.3],[6.96,34.19],[7.27,34.11],[7.54,34.11],[7.48,33.86],[7.71,33.41]]]}},{"type":"Feature","properties":{"id":"DZA-12","nome":"Tébessa","pais":"DZA","tipo":"Province","lat":34.94,"lng":7.78},"geometry":{"type":"Polygon","coordinates":[[[8.1,34.54],[7.83,34.41],[7.77,34.24],[7.54,34.11],[7.14,34.16],[7.4,34.73],[7.37,34.96],[7.26,34.94],[7.27,34.83],[7.22,34.94],[7.41,35.16],[7.41,35.39],[7.84,35.62],[7.82,35.74],[7.91,35.9],[8.19,36],[8.27,35.97],[8.25,35.79],[8.32,35.65],[8.29,35.33],[8.43,35.24],[8.3,35.07],[8.24,34.65],[8.1,34.54]]]}},{"type":"Feature","properties":{"id":"DZA-41","nome":"Souk Ahras","pais":"DZA","tipo":"Province","lat":36.15,"lng":7.84},"geometry":{"type":"Polygon","coordinates":[[[8.36,36.36],[8.27,35.97],[8,35.97],[7.87,35.86],[7.73,35.93],[7.66,35.83],[7.58,35.83],[7.32,36.08],[7.41,36.18],[7.83,36.32],[7.8,36.44],[7.99,36.48],[8.02,36.4],[8.17,36.49],[8.35,36.45],[8.36,36.36]]]}},{"type":"Feature","properties":{"id":"DZA-30","nome":"Ouargla","pais":"DZA","tipo":"Province","lat":31,"lng":6.25},"geometry":{"type":"Polygon","coordinates":[[[9.06,32],[9.52,30.23],[9.29,30.12],[9.37,30.02],[7.15,28.84],[6.79,28.87],[5.95,28.49],[4.75,28.46],[3.82,28.55],[2.99,29.12],[3.34,29.31],[3.48,29.64],[3.8,29.99],[4.11,31.79],[4.36,32.26],[4.74,32.53],[4.98,32.84],[4.95,33.24],[5.01,33.44],[6.19,33.38],[6.38,33.32],[6.68,32.51],[7.03,32.05],[7.31,32],[9.06,32]]]}},{"type":"Feature","properties":{"id":"DZA-33","nome":"Illizi","pais":"DZA","tipo":"Province","lat":26.85,"lng":8.76},"geometry":{"type":"Polygon","coordinates":[[[9.37,30.02],[9.67,29.61],[9.83,29.13],[9.85,28.79],[9.78,28.27],[9.94,27.87],[9.72,27.31],[9.83,26.92],[9.91,26.84],[9.85,26.52],[9.48,26.35],[9.38,26.17],[10.01,25.33],[10.03,24.86],[10.19,24.75],[10.26,24.58],[10.41,24.47],[10.72,24.55],[11.51,24.31],[11.71,24],[8.69,24.01],[8.52,24.23],[7.95,24.37],[7.63,24.6],[7.31,24.71],[7.11,24.92],[7.09,25.11],[7.17,25.29],[7,25.5],[6.96,25.76],[6.54,25.89],[6.31,26.17],[6.18,26.23],[6.27,26.57],[5.96,26.85],[5.82,27.32],[5.87,27.46],[6.26,27.77],[6.57,27.89],[6.51,28.09],[5.95,28.49],[6.79,28.87],[7.15,28.84],[9.37,30.02]]]}},{"type":"Feature","properties":{"id":"DZA-45","nome":"Naâma","pais":"DZA","tipo":"Province","lat":33.16,"lng":-0.83},"geometry":{"type":"Polygon","coordinates":[[[-1.27,32.23],[-1.22,32.39],[-1.03,32.49],[-1.42,32.74],[-1.56,32.93],[-1.5,33.06],[-1.68,33.27],[-1.62,33.55],[-1.75,33.7],[-1.67,34.09],[-1.12,34.27],[-0.84,34.22],[-0.6,34.31],[-0.5,34.27],[-0.36,33.92],[-0.14,34.09],[-0.07,34.07],[-0.06,33.99],[0.09,34.05],[0.06,33.31],[-0.03,33.02],[-0.01,32.8],[-0.1,32.57],[-0.01,32.49],[-0.04,32.33],[-0.9,32.1],[-1.01,32.23],[-1.27,32.23]]]}},{"type":"Feature","properties":{"id":"DZA-13","nome":"Tlemcen","pais":"DZA","tipo":"Province","lat":34.74,"lng":-1.49},"geometry":{"type":"Polygon","coordinates":[[[-1.67,34.09],[-1.81,34.37],[-1.7,34.48],[-1.87,34.6],[-1.77,34.74],[-2.19,35],[-2.22,35.09],[-1.96,35.08],[-1.36,35.32],[-1.34,35.19],[-0.93,35.05],[-0.94,34.84],[-0.89,34.84],[-0.89,34.74],[-0.76,34.71],[-0.83,34.58],[-0.9,34.55],[-0.88,34.47],[-1.12,34.27],[-1.67,34.09]]]}},{"type":"Feature","properties":{"id":"DZA-23","nome":"Annaba","pais":"DZA","tipo":"Province","lat":36.82,"lng":7.53},"geometry":{"type":"Polygon","coordinates":[[[7.26,37.08],[7.38,37.08],[7.71,36.96],[7.8,36.99],[7.75,36.77],[7.61,36.62],[7.48,36.63],[7.38,36.73],[7.26,37.08]]]}},{"type":"Feature","properties":{"id":"DZA-21","nome":"Skikda","pais":"DZA","tipo":"Province","lat":36.76,"lng":6.82},"geometry":{"type":"Polygon","coordinates":[[[6.25,36.94],[6.27,37.02],[6.46,37.09],[6.6,36.97],[6.82,36.95],[6.91,36.89],[7.16,36.91],[7.25,36.99],[7.18,37.08],[7.22,37.09],[7.36,36.88],[7.38,36.73],[6.94,36.43],[6.82,36.47],[6.91,36.56],[6.65,36.61],[6.46,36.58],[6.47,36.67],[6.37,36.74],[6.25,36.94]]]}},{"type":"Feature","properties":{"id":"DZA-18","nome":"Jijel","pais":"DZA","tipo":"Province","lat":36.71,"lng":5.95},"geometry":{"type":"Polygon","coordinates":[[[5.43,36.66],[5.71,36.83],[6.04,36.85],[6.25,36.94],[6.48,36.66],[6.46,36.58],[6.29,36.62],[5.54,36.52],[5.43,36.66]]]}},{"type":"Feature","properties":{"id":"DZA-06","nome":"Béjaïa","pais":"DZA","tipo":"Province","lat":36.62,"lng":4.92},"geometry":{"type":"Polygon","coordinates":[[[4.59,36.9],[4.79,36.9],[5.1,36.78],[5.09,36.72],[5.24,36.65],[5.43,36.66],[5.46,36.51],[5.22,36.38],[5.19,36.53],[5.08,36.57],[4.95,36.5],[4.99,36.46],[4.92,36.39],[4.76,36.42],[4.64,36.34],[4.63,36.25],[4.42,36.23],[4.36,36.34],[4.4,36.37],[4.37,36.47],[4.59,36.66],[4.54,36.74],[4.65,36.8],[4.59,36.9]]]}},{"type":"Feature","properties":{"id":"DZA-15","nome":"Tizi Ouzou","pais":"DZA","tipo":"Province","lat":36.68,"lng":4.19},"geometry":{"type":"Polygon","coordinates":[[[4.04,36.9],[4.59,36.9],[4.65,36.79],[4.54,36.74],[4.59,36.66],[4.43,36.49],[3.89,36.49],[3.74,36.64],[3.93,36.68],[3.93,36.77],[4.04,36.9]]]}},{"type":"Feature","properties":{"id":"DZA-35","nome":"Boumerdès","pais":"DZA","tipo":"Province","lat":36.75,"lng":3.61},"geometry":{"type":"Polygon","coordinates":[[[3.17,36.74],[3.23,36.81],[3.46,36.78],[3.83,36.91],[4.04,36.9],[3.93,36.77],[3.96,36.7],[3.74,36.66],[3.73,36.61],[3.64,36.6],[3.65,36.69],[3.23,36.69],[3.17,36.74]]]}},{"type":"Feature","properties":{"id":"DZA-16","nome":"Alger","pais":"DZA","tipo":"Province","lat":36.7,"lng":3.1},"geometry":{"type":"Polygon","coordinates":[[[2.98,36.81],[3.23,36.69],[3.07,36.66],[2.97,36.75],[2.98,36.81]]]}},{"type":"Feature","properties":{"id":"DZA-42","nome":"Tipaza","pais":"DZA","tipo":"Province","lat":36.53,"lng":2.34},"geometry":{"type":"Polygon","coordinates":[[[1.7,36.55],[2.33,36.64],[2.6,36.6],[2.98,36.82],[2.97,36.75],[3.03,36.73],[3.04,36.67],[2.84,36.64],[2.48,36.42],[1.79,36.43],[1.71,36.37],[1.65,36.44],[1.7,36.55]]]}},{"type":"Feature","properties":{"id":"DZA-02","nome":"Chlef","pais":"DZA","tipo":"Province","lat":36.23,"lng":1.21},"geometry":{"type":"Polygon","coordinates":[[[0.74,36.34],[1.04,36.49],[1.7,36.55],[1.55,36.37],[1.63,36.21],[1.59,36.14],[1.71,35.92],[1.55,36.01],[1.41,35.84],[1.29,35.97],[1.16,35.95],[0.96,36.03],[0.9,36.2],[0.7,36.19],[0.74,36.34]]]}},{"type":"Feature","properties":{"id":"DZA-27","nome":"Mostaganem","pais":"DZA","tipo":"Province","lat":35.96,"lng":0.31},"geometry":{"type":"Polygon","coordinates":[[[-0.11,35.79],[0.03,35.86],[0.13,36.05],[0.34,36.21],[0.74,36.34],[0.7,36.19],[0.54,36.05],[0.53,35.97],[0.45,35.95],[0.39,35.79],[0.16,35.68],[0.11,35.76],[-0.04,35.71],[-0.11,35.79]]]}},{"type":"Feature","properties":{"id":"DZA-31","nome":"Oran","pais":"DZA","tipo":"Province","lat":35.52,"lng":-0.61},"geometry":{"type":"Polygon","coordinates":[[[-1.11,35.62],[-0.8,35.77],[-0.61,35.73],[-0.47,35.89],[-0.35,35.91],[-0.29,35.83],[-0.11,35.79],[-0.41,35.57],[-0.65,35.29],[-0.63,35.41],[-0.69,35.48],[-1.07,35.42],[-1.01,35.52],[-1.11,35.62]]]}},{"type":"Feature","properties":{"id":"DZA-46","nome":"Aïn Témouchent","pais":"DZA","tipo":"Province","lat":35.27,"lng":-1},"geometry":{"type":"Polygon","coordinates":[[[-1.36,35.32],[-1.11,35.62],[-1.01,35.52],[-1.06,35.41],[-1.02,35.46],[-0.72,35.48],[-0.63,35.41],[-0.67,35.33],[-0.88,35.25],[-0.89,35.16],[-1,35.09],[-1.34,35.19],[-1.36,35.32]]]}},{"type":"Feature","properties":{"id":"DZA-19","nome":"Sétif","pais":"DZA","tipo":"Province","lat":36.05,"lng":5.38},"geometry":{"type":"Polygon","coordinates":[[[4.84,36.3],[4.8,36.38],[4.92,36.39],[4.99,36.46],[4.95,36.5],[5.08,36.57],[5.19,36.53],[5.19,36.41],[5.26,36.38],[5.46,36.5],[5.48,36.59],[5.54,36.52],[5.74,36.56],[5.78,36.44],[5.87,36.4],[5.87,36.26],[5.93,36.22],[5.9,36.17],[5.98,36.06],[5.98,35.92],[5.94,35.86],[5.82,35.91],[5.75,35.89],[5.74,35.77],[5.58,35.82],[5.42,35.64],[5.23,35.66],[5.07,35.76],[5.05,35.82],[5.14,35.86],[5.18,36.12],[5.25,36.2],[5.03,36.31],[4.84,36.3]]]}},{"type":"Feature","properties":{"id":"DZA-34","nome":"Bordj Bou Arréridj","pais":"DZA","tipo":"Province","lat":36.1,"lng":4.67},"geometry":{"type":"Polygon","coordinates":[[[4.8,36.38],[4.82,36.31],[5.03,36.31],[5.25,36.2],[5.18,36.12],[5.14,35.86],[5.07,35.84],[5.05,35.78],[4.85,35.87],[4.47,35.83],[4.45,35.87],[4.54,35.94],[4.49,36.03],[4.38,35.99],[4.08,36.03],[4.36,36.34],[4.42,36.23],[4.51,36.23],[4.63,36.25],[4.64,36.34],[4.75,36.42],[4.8,36.38]]]}},{"type":"Feature","properties":{"id":"DZA-10","nome":"Bouira","pais":"DZA","tipo":"Province","lat":36.19,"lng":3.84},"geometry":{"type":"Polygon","coordinates":[[[4.36,36.34],[4.09,36.05],[4.04,35.87],[3.85,35.86],[3.74,35.93],[3.63,35.92],[3.58,36],[3.56,36.42],[3.42,36.41],[3.28,36.49],[3.51,36.62],[3.48,36.69],[3.64,36.69],[3.68,36.67],[3.64,36.6],[3.73,36.61],[3.89,36.49],[4.37,36.47],[4.4,36.37],[4.36,36.34]]]}},{"type":"Feature","properties":{"id":"DZA-09","nome":"Blida","pais":"DZA","tipo":"Province","lat":36.5,"lng":2.99},"geometry":{"type":"Polygon","coordinates":[[[3.48,36.69],[3.51,36.62],[3.47,36.58],[3.32,36.55],[3.01,36.36],[2.91,36.42],[2.82,36.37],[2.52,36.36],[2.48,36.42],[2.84,36.64],[3.03,36.66],[3.03,36.71],[3.1,36.65],[3.32,36.71],[3.48,36.69]]]}},{"type":"Feature","properties":{"id":"DZA-38","nome":"Tissemsilt","pais":"DZA","tipo":"Province","lat":35.73,"lng":1.78},"geometry":{"type":"Polygon","coordinates":[[[1.71,35.92],[1.85,35.86],[2.01,35.92],[2.31,35.87],[2.16,35.7],[2.25,35.56],[1.66,35.55],[1.35,35.69],[1.29,35.62],[1.25,35.65],[1.28,35.78],[1.38,35.79],[1.55,36],[1.71,35.92]]]}},{"type":"Feature","properties":{"id":"DZA-44","nome":"Aïn Defla","pais":"DZA","tipo":"Province","lat":36.17,"lng":2.11},"geometry":{"type":"Polygon","coordinates":[[[1.85,35.86],[1.71,35.92],[1.59,36.14],[1.63,36.21],[1.55,36.37],[1.65,36.44],[1.72,36.37],[1.79,36.43],[2.65,36.39],[2.65,36.33],[2.49,36.24],[2.64,36.18],[2.31,35.87],[2.01,35.92],[1.85,35.86]]]}},{"type":"Feature","properties":{"id":"DZA-48","nome":"Relizane","pais":"DZA","tipo":"Province","lat":35.82,"lng":0.82},"geometry":{"type":"Polygon","coordinates":[[[1.41,35.84],[1.36,35.78],[1.28,35.78],[1.25,35.65],[0.96,35.55],[0.87,35.44],[0.32,35.56],[0.23,35.7],[0.42,35.82],[0.45,35.95],[0.53,35.97],[0.54,36.05],[0.7,36.19],[0.9,36.2],[0.95,36.03],[1.16,35.95],[1.29,35.97],[1.41,35.84]]]}},{"type":"Feature","properties":{"id":"DZA-32","nome":"El Bayadh","pais":"DZA","tipo":"Province","lat":32.78,"lng":0.97},"geometry":{"type":"Polygon","coordinates":[[[0.34,34.23],[0.73,34.44],[0.97,34.38],[1.03,34.34],[1.02,34.19],[1.23,34.19],[1.41,33.96],[1.79,33.82],[2.02,33.5],[1.98,33.29],[2.29,32.7],[2.34,32.17],[2.22,31.92],[2.24,31.79],[2.2,31.74],[0.84,31.1],[0.4,30.71],[-0.15,31.12],[-0.4,31.39],[0,32.44],[-0.1,32.57],[-0.01,32.8],[-0.03,33.02],[0.06,33.31],[0.09,34.05],[0.24,34.23],[0.34,34.23]]]}},{"type":"Feature","properties":{"id":"DZA-20","nome":"Saïda","pais":"DZA","tipo":"Province","lat":34.59,"lng":0.18},"geometry":{"type":"Polygon","coordinates":[[[0.76,34.44],[0.24,34.23],[0.09,34.05],[-0.04,33.99],[-0.08,34.08],[-0.22,34.06],[-0.36,33.92],[-0.5,34.19],[-0.06,34.55],[-0.11,34.68],[-0.37,34.87],[-0.27,34.9],[-0.3,34.98],[-0.24,35.02],[-0.25,35.1],[-0.11,35.16],[-0.01,35.06],[0.11,35.1],[0.19,35.02],[0.63,35.1],[0.75,35.01],[0.78,34.95],[0.67,34.86],[0.67,34.79],[0.86,34.5],[0.76,34.44]]]}},{"type":"Feature","properties":{"id":"DZA-22","nome":"Sidi Bel Abbès","pais":"DZA","tipo":"Province","lat":34.83,"lng":-0.59},"geometry":{"type":"Polygon","coordinates":[[[-0.17,35.12],[-0.25,35.09],[-0.24,35.02],[-0.3,34.98],[-0.27,34.9],[-0.37,34.87],[-0.11,34.68],[-0.06,34.6],[-0.07,34.53],[-0.49,34.23],[-0.58,34.31],[-0.84,34.22],[-1.12,34.27],[-0.88,34.47],[-0.9,34.55],[-0.83,34.58],[-0.76,34.71],[-0.89,34.74],[-0.89,34.84],[-0.94,34.84],[-0.97,34.92],[-0.93,35.05],[-1,35.09],[-0.89,35.16],[-0.88,35.25],[-0.75,35.32],[-0.63,35.3],[-0.57,35.41],[-0.46,35.43],[-0.46,35.36],[-0.19,35.3],[-0.22,35.19],[-0.17,35.12]]]}},{"type":"Feature","properties":{"id":"DZA-29","nome":"Mascara","pais":"DZA","tipo":"Province","lat":35.36,"lng":0.17},"geometry":{"type":"Polygon","coordinates":[[[0.23,35.7],[0.32,35.56],[0.83,35.44],[0.88,35.37],[0.78,35.28],[0.62,35.28],[0.45,35.06],[0.21,35.02],[0.11,35.1],[-0.01,35.06],[-0.11,35.16],[-0.17,35.12],[-0.22,35.19],[-0.19,35.3],[-0.46,35.36],[-0.46,35.43],[-0.55,35.41],[-0.3,35.67],[-0.11,35.78],[-0.04,35.71],[0.1,35.76],[0.15,35.68],[0.23,35.7]]]}},{"type":"Feature","properties":{"id":"DZA-47","nome":"Ghardaïa","pais":"DZA","tipo":"Province","lat":31.15,"lng":3.11},"geometry":{"type":"Polygon","coordinates":[[[2.09,31.66],[2.24,31.77],[2.22,31.92],[2.34,32.13],[2.29,32.7],[3.1,32.83],[3.32,32.78],[3.74,33],[4.18,33.03],[4.98,32.84],[4.74,32.53],[4.36,32.26],[4.11,31.79],[3.8,29.99],[3.48,29.64],[3.34,29.31],[2.99,29.12],[2.08,29.04],[1.94,30.09],[2.07,30.86],[2.09,31.66]]]}},{"type":"Feature","properties":{"id":"DZA-03","nome":"Laghouat","pais":"DZA","tipo":"Province","lat":33.45,"lng":2.76},"geometry":{"type":"Polygon","coordinates":[[[2.29,32.7],[1.98,33.29],[2.02,33.5],[1.78,33.83],[1.43,33.95],[1.34,34.07],[1.64,34.26],[1.81,34.45],[2.22,34.67],[2.36,34.69],[2.3,34.44],[2.48,34.11],[2.47,33.92],[2.64,33.91],[2.65,34.1],[2.82,34.14],[2.95,34.26],[3.09,34.24],[3.23,33.95],[4.06,33.25],[4.18,33.03],[3.74,33],[3.32,32.78],[3.1,32.83],[2.29,32.7]]]}},{"type":"Feature","properties":{"id":"DZA-26","nome":"Médéa","pais":"DZA","tipo":"Province","lat":35.9,"lng":2.76},"geometry":{"type":"Polygon","coordinates":[[[2.25,35.56],[2.16,35.71],[2.64,36.19],[2.53,36.19],[2.49,36.24],[2.53,36.3],[2.91,36.42],[3,36.35],[3.28,36.49],[3.42,36.41],[3.56,36.42],[3.56,36.05],[3.63,35.89],[3.54,35.8],[3.54,35.67],[3.41,35.81],[3.34,35.75],[3.26,35.8],[3.2,35.69],[3.08,35.67],[2.96,35.8],[2.88,35.78],[2.89,35.62],[2.67,35.45],[2.53,35.5],[2.29,35.44],[2.25,35.56]]]}},{"type":"Feature","properties":{"id":"DZA-14","nome":"Tiaret","pais":"DZA","tipo":"Province","lat":34.9,"lng":1.56},"geometry":{"type":"Polygon","coordinates":[[[1.35,35.69],[1.63,35.55],[2.25,35.56],[2.29,35.33],[2.62,35.03],[2.52,35],[2.36,34.69],[2.22,34.67],[1.81,34.45],[1.64,34.26],[1.34,34.07],[1.23,34.19],[1.02,34.19],[1.03,34.34],[0.97,34.38],[0.76,34.44],[0.86,34.5],[0.67,34.84],[0.78,34.97],[0.65,35.09],[0.49,35.09],[0.62,35.28],[0.82,35.31],[0.88,35.39],[0.83,35.44],[0.96,35.55],[1.21,35.65],[1.29,35.62],[1.35,35.69]]]}},{"type":"Feature","properties":{"id":"DZA-28","nome":"M'Sila","pais":"DZA","tipo":"Province","lat":35.36,"lng":4.38},"geometry":{"type":"Polygon","coordinates":[[[5.05,35.78],[5.38,35.63],[5.17,35.51],[4.88,35.52],[4.89,35.3],[4.78,35.17],[5.04,35.08],[5.04,34.92],[4.93,34.84],[4.39,34.75],[4.18,34.51],[4.32,34.25],[4.21,34.23],[4.05,34.35],[3.91,34.76],[3.67,34.79],[3.6,34.89],[3.61,35.07],[3.53,35.05],[3.47,35.16],[3.66,35.29],[3.7,35.47],[3.44,35.67],[3.39,35.79],[3.54,35.67],[3.54,35.79],[3.63,35.92],[4.02,35.87],[4.08,36.03],[4.38,35.99],[4.49,36.03],[4.54,35.94],[4.45,35.87],[4.47,35.83],[4.85,35.87],[5.05,35.78]]]}},{"type":"Feature","properties":{"id":"DZA-05","nome":"Batna","pais":"DZA","tipo":"Province","lat":35.59,"lng":5.78},"geometry":{"type":"Polygon","coordinates":[[[5.94,35.86],[5.98,35.92],[6.35,35.88],[6.48,35.84],[6.49,35.78],[6.65,35.8],[6.77,35.68],[6.78,35.56],[6.59,35.44],[6.63,35.32],[6.51,35.12],[6.6,34.9],[6.58,34.77],[6.44,34.84],[6.43,35.06],[6.17,34.99],[6.07,35.06],[5.99,34.99],[5.93,35.06],[6.01,35.23],[5.83,35.29],[5.55,35.19],[5.6,35.09],[5.31,35.02],[4.78,35.17],[4.89,35.3],[4.88,35.53],[5.17,35.51],[5.44,35.64],[5.58,35.82],[5.74,35.77],[5.71,35.86],[5.8,35.91],[5.94,35.86]]]}},{"type":"Feature","properties":{"id":"DZA-40","nome":"Khenchela","pais":"DZA","tipo":"Province","lat":34.89,"lng":7.03},"geometry":{"type":"Polygon","coordinates":[[[6.6,35.33],[6.59,35.44],[6.78,35.56],[6.77,35.68],[6.82,35.62],[7,35.63],[7.05,35.58],[7.27,35.62],[7.32,35.54],[7.39,35.57],[7.54,35.45],[7.41,35.39],[7.41,35.16],[7.22,34.95],[7.27,34.83],[7.26,34.94],[7.37,34.96],[7.4,34.75],[7.14,34.16],[6.71,34.33],[6.75,34.73],[6.71,34.79],[6.59,34.78],[6.6,34.9],[6.51,35.05],[6.6,35.33]]]}},{"type":"Feature","properties":{"id":"DZA-24","nome":"Guelma","pais":"DZA","tipo":"Province","lat":36.44,"lng":7.46},"geometry":{"type":"Polygon","coordinates":[[[7.01,36.16],[7.05,36.28],[6.94,36.43],[7.37,36.72],[7.53,36.62],[7.7,36.66],[7.99,36.48],[7.8,36.44],[7.81,36.3],[7.36,36.13],[7.22,36.14],[7.13,36.05],[7.07,36.05],[7.01,36.16]]]}},{"type":"Feature","properties":{"id":"DZA-25","nome":"Constantine","pais":"DZA","tipo":"Province","lat":36.37,"lng":6.68},"geometry":{"type":"Polygon","coordinates":[[[6.94,36.43],[7.05,36.24],[7.01,36.16],[6.9,36.11],[6.77,36.19],[6.58,36.11],[6.47,36.27],[6.32,36.37],[6.48,36.43],[6.5,36.58],[6.65,36.61],[6.92,36.56],[6.82,36.47],[6.94,36.43]]]}},{"type":"Feature","properties":{"id":"DZA-43","nome":"Mila","pais":"DZA","tipo":"Province","lat":36.24,"lng":6.13},"geometry":{"type":"Polygon","coordinates":[[[5.81,36.43],[5.74,36.56],[6.29,36.62],[6.5,36.58],[6.48,36.43],[6.32,36.37],[6.47,36.27],[6.52,36.17],[6.41,36.11],[6.38,36.01],[6.17,35.95],[6.15,35.9],[5.98,35.92],[5.98,36.06],[5.9,36.17],[5.93,36.22],[5.87,36.26],[5.87,36.4],[5.81,36.43]]]}},{"type":"Feature","properties":{"id":"DZA-04","nome":"Oum el Bouaghi","pais":"DZA","tipo":"Province","lat":35.89,"lng":7.01},"geometry":{"type":"Polygon","coordinates":[[[6.28,35.87],[6.15,35.94],[6.38,36.01],[6.48,36.16],[6.58,36.11],[6.77,36.19],[6.9,36.11],[7.01,36.16],[7.08,36.04],[7.29,36.14],[7.4,35.97],[7.58,35.83],[7.66,35.83],[7.73,35.93],[7.87,35.86],[7.84,35.62],[7.54,35.45],[7.39,35.57],[7.32,35.54],[7.27,35.62],[7.08,35.58],[6.99,35.63],[6.82,35.62],[6.65,35.8],[6.49,35.78],[6.47,35.85],[6.28,35.87]]]}},{"type":"Feature","properties":{"id":"DZA-07","nome":"Biskra","pais":"DZA","tipo":"Province","lat":34.76,"lng":5.47},"geometry":{"type":"Polygon","coordinates":[[[4.83,34.82],[5.03,34.9],[5.04,35.08],[5.27,35.02],[5.54,35.07],[5.61,35.11],[5.55,35.19],[5.83,35.29],[6.01,35.23],[5.93,35.06],[5.99,34.99],[6.07,35.06],[6.17,34.99],[6.43,35.06],[6.44,34.84],[6.54,34.77],[6.71,34.79],[6.75,34.71],[6.7,34.38],[6.56,34.32],[6.21,34.43],[6,34.39],[5.31,34.5],[5.19,34.36],[5.36,34.17],[5.33,33.85],[5.12,33.57],[4.41,33.93],[4.34,33.99],[4.3,34.14],[4.21,34.17],[4.21,34.23],[4.32,34.25],[4.18,34.51],[4.27,34.63],[4.43,34.77],[4.83,34.82]]]}},{"type":"Feature","properties":{"id":"DZA-17","nome":"Djelfa","pais":"DZA","tipo":"Province","lat":34.15,"lng":3.7},"geometry":{"type":"Polygon","coordinates":[[[4.98,32.84],[4.18,33.03],[4.06,33.25],[3.23,33.95],[3.09,34.24],[2.95,34.26],[2.82,34.14],[2.65,34.1],[2.64,33.91],[2.47,33.92],[2.48,34.11],[2.29,34.47],[2.37,34.78],[2.52,35],[2.62,35.03],[2.38,35.21],[2.29,35.33],[2.29,35.44],[2.53,35.5],[2.69,35.45],[2.89,35.62],[2.88,35.78],[2.96,35.8],[3.08,35.67],[3.2,35.69],[3.26,35.8],[3.38,35.75],[3.68,35.5],[3.66,35.29],[3.47,35.16],[3.53,35.05],[3.61,35.07],[3.57,35],[3.66,34.81],[3.91,34.76],[4.05,34.35],[4.3,34.14],[4.36,33.96],[5.12,33.57],[5.01,33.44],[4.95,33.24],[4.98,32.84]]]}}]}