{"type":"FeatureCollection","features":[{"type":"Feature","properties":{"id":"ERI-DK","nome":"Debubawi Keyih Bahri","pais":"ERI","tipo":"Region","lat":13.57,"lng":41.74},"geometry":{"type":"Polygon","coordinates":[[[43.12,12.71],[42.87,12.63],[42.79,12.52],[42.79,12.43],[42.68,12.36],[42.48,12.52],[42.38,12.47],[42.18,12.73],[41.95,12.88],[41.71,13.25],[41.19,13.62],[40.83,14.11],[40.35,14.34],[40.59,14.74],[40.57,14.95],[40.69,14.9],[40.77,14.7],[40.88,14.71],[41.17,14.64],[41.68,13.94],[41.97,13.85],[42.11,13.64],[42.22,13.55],[42.18,13.67],[42.29,13.57],[42.38,13.22],[42.53,13.23],[42.73,13.03],[42.78,12.85],[42.93,12.79],[43,12.9],[43.12,12.71]]]}},{"type":"Feature","properties":{"id":"ERI-DU","nome":"Debub","pais":"ERI","tipo":"Region","lat":15.62,"lng":40.17},"geometry":{"type":"MultiPolygon","coordinates":[[[[38.21,17.52],[38.34,17.66],[38.46,17.89],[38.6,18],[39.01,17.17],[39.29,15.93],[39.44,15.81],[39.44,15.64],[39.48,15.63],[39.43,15.6],[39.46,15.52],[39.61,15.5],[39.72,15.26],[39.72,15.09],[39.81,15.08],[39.85,15.17],[39.77,15.39],[39.88,15.5],[40.08,15.34],[40.03,15.24],[40.16,14.98],[40.29,14.91],[40.39,15],[40.4,14.97],[40.55,14.99],[40.59,14.74],[40.35,14.34],[40.19,14.44],[39.91,14.42],[39.72,14.5],[39.33,15.18],[39.15,15.29],[39,15.49],[38.82,15.86],[38.51,15.98],[38.52,16.24],[38.32,16.58],[38.04,16.66],[38.05,16.81],[37.99,16.91],[38.01,17.54],[38.06,17.55],[38.08,17.48],[38.12,17.55],[38.21,17.52]]],[[[40.39,15.64],[40.39,15.57],[39.98,15.61],[39.94,15.7],[40.08,15.66],[39.93,15.74],[40.04,15.84],[39.95,15.89],[40.09,15.85],[40.1,15.78],[40.14,15.81],[40.16,15.64],[40.23,15.63],[40.26,15.66],[40.22,15.69],[40.27,15.7],[40.39,15.64]]]]}},{"type":"Feature","properties":{"id":"ERI-SK","nome":"Semenawi Keyih Bahri","pais":"ERI","tipo":"Region","lat":16.63,"lng":37.92},"geometry":{"type":"Polygon","coordinates":[[[37.87,17.44],[38.01,17.54],[37.99,16.91],[38.05,16.81],[38.04,16.66],[38.32,16.58],[38.52,16.24],[38.51,15.98],[38.82,15.86],[38.96,15.58],[38.5,15.55],[38.31,15.72],[38.12,15.69],[37.75,15.85],[37.54,15.85],[37.31,16.08],[37.08,16.17],[37.01,16.26],[36.97,16.4],[36.88,16.51],[37,16.84],[36.97,17.06],[37.4,17.03],[37.49,17.17],[37.5,17.31],[37.72,17.38],[37.8,17.48],[37.87,17.44]]]}},{"type":"Feature","properties":{"id":"ERI-GB","nome":"Gash Barka","pais":"ERI","tipo":"Region","lat":15.03,"lng":37.61},"geometry":{"type":"Polygon","coordinates":[[[36.53,14.26],[36.43,15.13],[36.63,15.45],[36.67,15.72],[36.95,16.28],[36.93,16.44],[37.07,16.17],[37.31,16.08],[37.54,15.85],[37.75,15.85],[38.12,15.69],[38.31,15.72],[38.5,15.55],[38.79,15.56],[38.79,15.16],[38.46,15.11],[38.26,14.94],[38.21,14.84],[38.25,14.65],[38.01,14.72],[37.89,14.88],[37.55,14.11],[37.29,14.46],[37.12,14.42],[37.06,14.28],[36.75,14.33],[36.53,14.26]]]}},{"type":"Feature","properties":{"id":"ERI-MA","nome":"Maekel","pais":"ERI","tipo":"Region","lat":14.86,"lng":38.97},"geometry":{"type":"Polygon","coordinates":[[[38.44,14.42],[38.25,14.62],[38.22,14.85],[38.43,15.09],[38.72,15.16],[39.33,15.18],[39.72,14.5],[39.52,14.57],[39.21,14.44],[39.13,14.6],[39.01,14.65],[38.87,14.49],[38.44,14.42]]]}},{"type":"Feature","properties":{"id":"ERI-AN","nome":"Anseba","pais":"ERI","tipo":"Region","lat":15.28,"lng":39.06},"geometry":{"type":"Polygon","coordinates":[[[38.79,15.16],[38.79,15.56],[38.96,15.58],[39.09,15.35],[39.33,15.18],[38.79,15.16]]]}}]}