{"type":"FeatureCollection","features":[{"type":"Feature","properties":{"id":"EST-84","nome":"Viljandi","pais":"EST","tipo":"County","lat":58.3,"lng":25.56},"geometry":{"type":"Polygon","coordinates":[[[25.33,58.03],[25.26,58.08],[25.28,58.01],[25.22,57.99],[25.14,58.07],[25.03,58.05],[25.01,58.09],[25.15,58.2],[25.23,58.2],[25.25,58.26],[24.95,58.34],[24.99,58.49],[25.23,58.63],[25.44,58.61],[25.78,58.69],[25.75,58.61],[26.01,58.56],[26.17,58.42],[26.04,58.3],[26.07,58.13],[25.85,58.15],[25.61,58.04],[25.55,57.95],[25.33,58.03]]]}},{"type":"Feature","properties":{"id":"EST-67","nome":"Pärnu","pais":"EST","tipo":"County","lat":58.13,"lng":23.98},"geometry":{"type":"Polygon","coordinates":[[[25.03,58.05],[24.31,57.87],[24.46,58.07],[24.47,58.25],[24.55,58.33],[24.36,58.4],[24.24,58.28],[24.09,58.24],[23.98,58.32],[23.74,58.34],[23.68,58.52],[23.59,58.54],[23.9,58.56],[23.86,58.63],[24.13,58.7],[24.36,58.67],[24.69,58.75],[24.88,58.75],[24.92,58.67],[25.06,58.73],[25.28,58.71],[25.23,58.59],[24.99,58.49],[24.97,58.32],[25.25,58.26],[25.23,58.2],[25.15,58.2],[25.01,58.09],[25.03,58.05]]]}},{"type":"Feature","properties":{"id":"EST-82","nome":"Valga","pais":"EST","tipo":"County","lat":57.94,"lng":26.07},"geometry":{"type":"Polygon","coordinates":[[[25.63,57.91],[25.55,57.95],[25.61,58.04],[25.85,58.15],[25.93,58.11],[26.24,58.12],[26.38,58.18],[26.59,58.12],[26.54,57.96],[26.39,57.94],[26.36,57.89],[26.46,57.78],[26.43,57.56],[26.02,57.77],[26.01,57.84],[25.63,57.91]]]}},{"type":"Feature","properties":{"id":"EST-86","nome":"Võru","pais":"EST","tipo":"County","lat":57.77,"lng":26.96},"geometry":{"type":"Polygon","coordinates":[[[26.5,57.52],[26.43,57.56],[26.47,57.7],[26.36,57.88],[26.39,57.94],[27.04,57.92],[27.09,57.96],[27.28,57.92],[27.25,57.85],[27.3,57.83],[27.56,57.81],[27.51,57.71],[27.38,57.67],[27.32,57.52],[26.87,57.63],[26.5,57.52]]]}},{"type":"Feature","properties":{"id":"EST-44","nome":"Ida-Viru","pais":"EST","tipo":"County","lat":59.13,"lng":27.44},"geometry":{"type":"Polygon","coordinates":[[[28.02,59.48],[28.18,59.36],[27.88,59.28],[27.71,58.99],[27.45,58.82],[26.75,58.88],[26.7,58.96],[26.81,59.02],[26.8,59.11],[26.94,59.15],[26.84,59.26],[26.74,59.26],[26.8,59.34],[26.71,59.36],[26.79,59.4],[26.78,59.5],[26.94,59.45],[27.87,59.41],[28.02,59.48]]]}},{"type":"Feature","properties":{"id":"EST-65","nome":"Põlva","pais":"EST","tipo":"County","lat":58.09,"lng":27.17},"geometry":{"type":"Polygon","coordinates":[[[27.52,58.19],[27.63,58.09],[27.66,57.92],[27.79,57.85],[27.32,57.83],[27.25,57.85],[27.28,57.92],[27.09,57.96],[27.04,57.92],[26.54,57.96],[26.55,58.08],[26.64,58.17],[26.88,58.24],[27.13,58.26],[27.52,58.19]]]}},{"type":"Feature","properties":{"id":"EST-78","nome":"Tartu","pais":"EST","tipo":"County","lat":58.37,"lng":26.8},"geometry":{"type":"Polygon","coordinates":[[[27.43,58.71],[27.55,58.4],[27.48,58.27],[27.52,58.19],[27.03,58.26],[26.64,58.17],[26.59,58.12],[26.38,58.18],[26.07,58.13],[26.04,58.3],[26.17,58.41],[26.13,58.48],[26.62,58.52],[26.81,58.56],[26.86,58.63],[27.01,58.6],[27.09,58.68],[27.43,58.71]]]}},{"type":"Feature","properties":{"id":"EST-49","nome":"Jõgeva","pais":"EST","tipo":"County","lat":58.73,"lng":26.6},"geometry":{"type":"Polygon","coordinates":[[[27.45,58.82],[27.43,58.71],[27.09,58.68],[27.01,58.6],[26.86,58.63],[26.81,58.56],[26.62,58.52],[26.13,58.48],[25.93,58.59],[25.75,58.61],[25.84,58.75],[26.29,58.92],[26.41,58.89],[26.7,58.96],[26.75,58.88],[27.45,58.82]]]}},{"type":"Feature","properties":{"id":"EST-57","nome":"Lääne","pais":"EST","tipo":"County","lat":59.01,"lng":23.25},"geometry":{"type":"Polygon","coordinates":[[[23.59,58.54],[23.5,58.57],[23.53,58.75],[23.8,58.73],[23.79,58.78],[23.87,58.77],[23.43,58.76],[23.53,58.82],[23.42,58.93],[23.63,58.98],[23.56,59.05],[23.61,59.01],[23.55,58.97],[23.41,59.03],[23.52,59.07],[23.47,59.21],[23.66,59.26],[23.91,59.13],[24.12,59.11],[24.15,59.06],[24.08,58.96],[24.19,58.84],[24.07,58.75],[24.15,58.74],[24.13,58.7],[23.86,58.63],[23.9,58.56],[23.59,58.54]]]}},{"type":"Feature","properties":{"id":"EST-37","nome":"Harju","pais":"EST","tipo":"County","lat":59.32,"lng":25.17},"geometry":{"type":"Polygon","coordinates":[[[23.72,59.23],[23.76,59.28],[24.08,59.27],[24.03,59.39],[24.22,59.36],[24.16,59.4],[24.31,59.42],[24.33,59.47],[24.64,59.44],[24.67,59.5],[24.77,59.45],[24.8,59.57],[24.93,59.51],[25.15,59.54],[25.41,59.49],[25.54,59.54],[25.48,59.67],[25.68,59.57],[25.72,59.59],[25.67,59.66],[25.78,59.64],[25.95,59.29],[25.49,59.26],[25.49,59.09],[25.32,58.99],[24.87,59.23],[24.66,59.22],[24.57,59.17],[24.57,59.1],[24.37,59.09],[24.29,59.02],[24.1,58.98],[24.15,59.06],[24.12,59.11],[23.91,59.13],[23.72,59.23]]]}},{"type":"Feature","properties":{"id":"EST-59","nome":"Lääne-Viru","pais":"EST","tipo":"County","lat":59.23,"lng":26.38},"geometry":{"type":"Polygon","coordinates":[[[25.84,59.58],[25.99,59.63],[26.09,59.59],[26.7,59.54],[26.79,59.44],[26.71,59.36],[26.8,59.34],[26.74,59.26],[26.84,59.26],[26.94,59.15],[26.8,59.11],[26.77,58.98],[26.41,58.89],[26.15,58.89],[26.14,58.98],[25.93,59.06],[26.02,59.18],[25.92,59.25],[25.94,59.3],[25.82,59.52],[25.84,59.58]]]}},{"type":"Feature","properties":{"id":"EST-74","nome":"Saare","pais":"EST","tipo":"Municipality","lat":57.8,"lng":23.25},"geometry":{"type":"MultiPolygon","coordinates":[[[[23.23,58.5],[23.33,58.46],[23.16,58.48],[23.04,58.37],[22.95,58.38],[22.9,58.31],[22.72,58.27],[22.72,58.23],[22.54,58.25],[22.3,58.19],[22.2,57.99],[22.05,57.92],[21.96,57.98],[22.2,58.15],[21.84,58.29],[21.91,58.3],[21.87,58.34],[22.01,58.35],[21.83,58.51],[22,58.51],[22.09,58.42],[22.19,58.54],[22.27,58.5],[22.29,58.57],[22.55,58.63],[22.65,58.59],[22.92,58.62],[23.23,58.5]]],[[[23.38,58.58],[23.36,58.53],[23.23,58.53],[23.06,58.6],[23.2,58.68],[23.33,58.65],[23.38,58.58]]]]}},{"type":"Feature","properties":{"id":"EST-39","nome":"Hiiu","pais":"EST","tipo":"County","lat":58.86,"lng":22.54},"geometry":{"type":"Polygon","coordinates":[[[22.29,58.9],[22.04,58.94],[22.46,58.97],[22.59,59.09],[22.67,59.08],[22.74,59.01],[22.93,58.98],[23.04,58.84],[22.88,58.83],[22.85,58.78],[22.78,58.82],[22.65,58.7],[22.56,58.69],[22.46,58.72],[22.5,58.74],[22.43,58.85],[22.29,58.9]]]}},{"type":"Feature","properties":{"id":"EST-70","nome":"Rapla","pais":"EST","tipo":"County","lat":58.98,"lng":24.7},"geometry":{"type":"Polygon","coordinates":[[[24.13,58.7],[24.15,58.74],[24.07,58.75],[24.19,58.84],[24.1,58.98],[24.29,59.02],[24.37,59.09],[24.57,59.1],[24.57,59.17],[24.66,59.22],[24.9,59.23],[24.96,59.15],[25.32,58.99],[25.2,58.73],[24.92,58.67],[24.86,58.75],[24.52,58.74],[24.36,58.67],[24.13,58.7]]]}},{"type":"Feature","properties":{"id":"EST-51","nome":"Järva","pais":"EST","tipo":"County","lat":58.97,"lng":25.68},"geometry":{"type":"Polygon","coordinates":[[[25.78,58.69],[25.35,58.62],[25.26,58.63],[25.29,58.71],[25.2,58.73],[25.29,58.97],[25.49,59.09],[25.49,59.26],[25.93,59.28],[26.02,59.18],[25.93,59.06],[26.04,59.04],[26.16,58.95],[26.11,58.84],[25.98,58.82],[25.78,58.69]]]}}]}