{"type":"FeatureCollection","features":[{"type":"Feature","properties":{"id":"ETH-SN","nome":"Southern Nations, Nationalities and Peoples","pais":"ETH","tipo":"Administrative State","lat":6.21,"lng":36.45},"geometry":{"type":"Polygon","coordinates":[[[35.32,5.35],[35.25,5.44],[35.26,5.51],[35.1,5.62],[34.98,5.84],[34.96,6.06],[34.84,6.25],[34.7,6.68],[34.54,6.74],[34.5,6.89],[34.3,6.97],[34.2,7.1],[34.66,7.01],[35.06,7.16],[35.16,7.12],[35.33,7.13],[35.37,7.41],[35.26,7.49],[35.24,7.68],[35.44,7.88],[35.53,7.88],[35.59,7.81],[35.76,7.88],[35.8,7.94],[35.73,8.03],[35.79,8.08],[35.87,8.07],[35.91,7.93],[35.86,7.84],[36,7.74],[36.06,7.56],[36.61,7.37],[36.83,7.24],[37.14,7.24],[37.39,7.4],[37.44,7.9],[37.39,8],[37.62,7.96],[37.6,8.23],[37.47,8.31],[37.52,8.42],[37.83,8.34],[38.24,8.41],[38.36,8.26],[38.5,8.45],[38.65,8.41],[38.69,8.11],[38.6,8.25],[38.55,8.23],[38.62,8.02],[38.43,7.69],[38.43,7.53],[38.34,7.48],[38.26,7.31],[38.09,7.2],[38.07,7.1],[38.15,7.04],[38.25,7.06],[38.33,7.16],[38.61,7.08],[38.67,6.97],[38.65,6.78],[38.94,6.66],[39.09,6.52],[39.14,6.16],[38.99,6.15],[38.76,6.41],[38.49,6.43],[38.43,6.38],[38.44,6.21],[38.29,6.01],[38.39,5.92],[38.23,5.86],[38.09,6.15],[38.18,6.17],[38.19,6.31],[38.29,6.43],[38.02,6.57],[37.88,6.59],[37.8,6.47],[37.86,6.35],[37.79,6.02],[37.97,5.94],[38.09,5.73],[37.94,5.64],[37.9,5.25],[37.69,5.31],[37.4,5.17],[36.97,5.19],[36.87,4.96],[36.9,4.78],[36.65,4.43],[36,4.46],[35.76,4.81],[35.8,5.32],[35.47,5.43],[35.32,5.35]]]}},{"type":"Feature","properties":{"id":"ETH-SO","nome":"Somali","pais":"ETH","tipo":"Administrative State","lat":7.09,"lng":43.53},"geometry":{"type":"Polygon","coordinates":[[[47.98,8],[46.42,6.5],[44.94,4.91],[43.97,4.95],[43.53,4.84],[43.12,4.65],[42.96,4.52],[42.83,4.3],[42.1,4.19],[41.84,3.95],[41.7,4],[41.16,3.94],[40.76,4.28],[39.85,3.87],[39.54,3.41],[39.09,3.52],[39.3,3.64],[39.47,3.92],[39.82,5.02],[40.01,5.38],[40.19,5.35],[40.53,5.42],[40.92,5.7],[40.86,6.42],[41.03,6.66],[41.12,6.69],[41.42,6.56],[41.62,6.36],[41.76,6.54],[41.91,6.54],[41.99,6.61],[42.23,7.22],[42.21,7.29],[41.9,7.41],[41.88,7.51],[41.95,7.75],[41.93,8.12],[42.03,8.43],[42.27,8.62],[42.33,8.54],[42.5,8.49],[42.58,8.23],[42.67,8.14],[42.77,8.37],[42.9,8.41],[42.91,8.57],[42.83,8.71],[42.86,8.84],[42.64,9.08],[42.49,9.48],[42.39,9.57],[42.38,9.71],[42.3,9.76],[42.2,9.77],[42.04,9.63],[41.89,9.68],[41.76,9.64],[41.71,9.47],[41.62,9.52],[41.49,9.46],[41.27,9.51],[40.85,9.31],[40.8,9.39],[40.91,9.43],[40.7,9.44],[40.74,9.62],[41.02,9.95],[40.94,10.05],[41.08,10.68],[41.27,10.96],[41.77,10.99],[41.94,10.93],[42.62,11.09],[42.73,11.07],[42.77,11],[42.92,11],[42.65,10.63],[42.84,10.21],[42.98,10.09],[43.07,9.92],[43.19,9.88],[43.25,9.65],[43.37,9.54],[43.42,9.41],[43.62,9.34],[43.98,9.01],[46.98,8],[47.98,8]]]}},{"type":"Feature","properties":{"id":"ETH-AF","nome":"Afar","pais":"ETH","tipo":"Administrative State","lat":12.12,"lng":41.02},"geometry":{"type":"Polygon","coordinates":[[[41.97,11.88],[41.81,11.74],[41.75,11.54],[41.77,10.99],[41.25,10.94],[41.08,10.68],[40.94,10.05],[41.02,9.95],[40.74,9.62],[40.7,9.44],[40.46,9.34],[40.24,9.01],[40.03,8.85],[40.04,8.98],[39.95,9.01],[39.91,9.13],[39.81,9.14],[39.9,9.32],[39.79,9.38],[39.89,9.5],[39.85,9.74],[40.02,9.73],[40.09,9.92],[40,10.09],[40.13,10.1],[40.18,10.49],[40.11,10.76],[40.2,11.08],[39.99,11.65],[39.88,11.78],[39.88,11.92],[39.76,12.24],[39.79,12.52],[39.89,12.76],[39.75,12.89],[39.81,13.09],[39.72,13.25],[39.72,13.48],[39.76,13.57],[39.82,13.57],[39.82,13.93],[39.78,14.08],[39.72,14.1],[39.76,14.15],[39.69,14.17],[39.77,14.3],[39.68,14.33],[39.8,14.39],[39.96,14.37],[39.99,14.45],[40.1,14.47],[40.48,14.24],[40.77,14.15],[41.04,13.87],[41.22,13.59],[41.75,13.21],[41.95,12.88],[42.18,12.73],[42.38,12.47],[41.97,11.88]]]}},{"type":"Feature","properties":{"id":"ETH-AM","nome":"Amhara","pais":"ETH","tipo":"Administrative State","lat":11.7,"lng":37.72},"geometry":{"type":"Polygon","coordinates":[[[36.1,12.7],[36.23,13.36],[36.38,13.57],[36.44,13.78],[36.54,13.6],[36.71,13.56],[36.9,13.4],[37.03,13.37],[37.19,13.43],[37.3,13.37],[37.52,13.37],[37.67,13.44],[37.74,13.57],[38.06,13.47],[38.14,13.52],[38.38,13.53],[38.46,13.59],[38.45,13.47],[38.68,13.49],[38.7,13.39],[39,13.13],[39.01,13.01],[39.22,13.02],[39.26,12.8],[39.18,12.63],[39.26,12.34],[39.3,12.3],[39.53,12.33],[39.54,12.25],[39.78,12.33],[39.88,11.78],[39.98,11.66],[40.07,11.35],[40.19,11.16],[40.11,10.76],[40.18,10.49],[40.13,10.1],[39.99,10.07],[40.09,9.96],[40.02,9.73],[39.85,9.74],[39.89,9.5],[39.79,9.38],[39.89,9.27],[39.77,9.1],[39.76,8.87],[39.52,8.76],[39.43,8.84],[39.36,8.78],[39.3,8.8],[39.28,8.95],[39.37,9.15],[39.28,9.19],[39.25,9.29],[39.51,9.34],[39.45,9.43],[39.34,9.46],[39.22,9.63],[38.86,9.75],[38.8,9.94],[38.67,10.03],[38.82,10.11],[38.85,10.36],[38.5,10.37],[38.42,10.14],[38.25,10.12],[37.7,9.84],[37.53,10.01],[37.37,10.06],[37.31,10.02],[37.29,10.09],[37.19,10.13],[37.2,10.25],[36.76,10.38],[36.55,10.38],[36.51,10.47],[36.39,10.47],[36.33,10.62],[36.39,10.77],[36.31,10.75],[36.31,10.82],[36.49,11.08],[36.46,11.23],[36.51,11.35],[36.41,11.44],[36.45,11.49],[36.34,11.64],[36.33,11.81],[36.15,11.68],[35.96,11.99],[35.84,12.03],[35.76,12.03],[35.54,11.81],[35.41,11.78],[35.25,11.96],[35.69,12.66],[36.1,12.7]]]}},{"type":"Feature","properties":{"id":"ETH-TI","nome":"Tigray","pais":"ETH","tipo":"Administrative State","lat":14.1,"lng":38.22},"geometry":{"type":"Polygon","coordinates":[[[36.44,13.78],[36.44,13.99],[36.57,14.29],[36.82,14.33],[37.01,14.26],[37.08,14.3],[37.15,14.44],[37.29,14.46],[37.55,14.11],[37.89,14.88],[38.01,14.72],[38.23,14.68],[38.43,14.42],[38.87,14.49],[39.01,14.65],[39.13,14.6],[39.21,14.44],[39.52,14.57],[39.89,14.43],[40,14.46],[39.96,14.37],[39.8,14.39],[39.67,14.32],[39.77,14.3],[39.69,14.17],[39.76,14.15],[39.72,14.1],[39.78,14.08],[39.82,13.93],[39.82,13.57],[39.76,13.57],[39.72,13.48],[39.72,13.25],[39.81,13.09],[39.75,12.89],[39.89,12.76],[39.79,12.52],[39.8,12.34],[39.54,12.25],[39.53,12.33],[39.27,12.31],[39.18,12.63],[39.26,12.8],[39.22,13.02],[39.01,13.01],[39,13.13],[38.7,13.39],[38.68,13.49],[38.45,13.47],[38.46,13.59],[38.38,13.53],[38.14,13.52],[38.06,13.47],[37.74,13.57],[37.67,13.44],[37.52,13.37],[37.3,13.37],[37.19,13.43],[37.03,13.37],[36.9,13.4],[36.71,13.56],[36.54,13.6],[36.44,13.78]]]}},{"type":"Feature","properties":{"id":"ETH-BE","nome":"Benshangul-Gumaz","pais":"ETH","tipo":"Administrative State","lat":10.54,"lng":35.6},"geometry":{"type":"MultiPolygon","coordinates":[[[[34.83,10.73],[34.95,10.87],[34.91,10.96],[34.98,11.19],[34.94,11.25],[35.07,11.55],[35.07,11.82],[35.25,11.96],[35.37,11.8],[35.54,11.81],[35.76,12.03],[35.85,12.03],[36.04,11.9],[36.15,11.68],[36.33,11.81],[36.34,11.64],[36.45,11.49],[36.41,11.44],[36.51,11.35],[36.46,11.23],[36.49,11.08],[36.31,10.82],[36.31,10.75],[36.39,10.77],[36.33,10.62],[36.37,10.49],[36.51,10.47],[36.55,10.38],[37.05,10.3],[36.99,10.21],[36.73,10.31],[36.59,10.21],[36.53,10.23],[36.57,10.34],[36.5,10.34],[36.33,10.13],[36.13,10.05],[36.12,9.68],[36.27,9.48],[36.23,9.33],[36.08,9.14],[35.93,9.33],[35.8,9.35],[35.76,9.49],[35.7,9.48],[35.28,9.92],[35.04,9.93],[35.02,10.01],[34.88,10.03],[34.84,9.78],[34.69,9.59],[34.57,9.66],[34.46,9.64],[34.36,9.2],[34.08,9.21],[34.1,9.68],[34.33,10.22],[34.28,10.57],[34.42,10.78],[34.57,10.88],[34.75,10.74],[34.75,10.68],[34.83,10.73]]],[[[36.06,9.04],[36.23,8.97],[36.25,8.79],[36.16,8.88],[36.01,8.86],[36.06,9.04]]]]}},{"type":"Feature","properties":{"id":"ETH-GA","nome":"Gambela Peoples","pais":"ETH","tipo":"Administrative State","lat":7.87,"lng":34.18},"geometry":{"type":"Polygon","coordinates":[[[33.74,8.37],[33.97,8.45],[34.11,8.6],[34.16,8.56],[34.27,8.61],[34.82,8.19],[35.09,8.17],[34.89,8.06],[34.96,8.02],[34.87,7.83],[35.02,7.61],[35.15,7.55],[35.1,7.48],[35.2,7.46],[35.26,7.54],[35.36,7.43],[35.33,7.13],[35.16,7.12],[35.06,7.16],[34.66,7.01],[34.48,7.08],[34.3,7.05],[34.03,7.25],[34.01,7.41],[33.72,7.66],[33.02,7.84],[32.99,7.92],[33.19,8.14],[33.16,8.36],[33.24,8.46],[33.62,8.46],[33.74,8.37]]]}},{"type":"Feature","properties":{"id":"ETH-OR","nome":"Oromiya","pais":"ETH","tipo":"Administrative State","lat":7.56,"lng":40.22},"geometry":{"type":"Polygon","coordinates":[[[34.11,8.6],[34.08,9.21],[34.36,9.2],[34.46,9.64],[34.57,9.66],[34.69,9.59],[34.84,9.78],[34.88,10.03],[35.02,10.01],[35.04,9.93],[35.28,9.92],[35.7,9.48],[35.76,9.49],[35.8,9.35],[35.93,9.33],[36.08,9.14],[36.23,9.33],[36.27,9.48],[36.12,9.68],[36.13,10.05],[36.33,10.13],[36.48,10.33],[36.57,10.34],[36.53,10.23],[36.59,10.21],[36.73,10.31],[36.99,10.21],[37.05,10.3],[37.18,10.26],[37.19,10.13],[37.29,10.09],[37.31,10.02],[37.37,10.06],[37.53,10.01],[37.7,9.84],[38.25,10.12],[38.42,10.14],[38.5,10.37],[38.73,10.38],[38.86,10.35],[38.82,10.11],[38.66,10.06],[38.8,9.94],[38.83,9.79],[39.22,9.63],[39.34,9.46],[39.45,9.43],[39.51,9.34],[39.25,9.29],[39.28,9.19],[39.37,9.15],[39.28,8.95],[39.32,8.78],[39.43,8.84],[39.52,8.76],[39.76,8.87],[39.77,9.1],[39.86,9.15],[39.95,9.01],[40.04,8.98],[40.04,8.84],[40.24,9.01],[40.46,9.34],[40.7,9.45],[40.91,9.43],[40.8,9.39],[40.85,9.31],[41.27,9.51],[41.49,9.46],[41.62,9.52],[41.69,9.47],[42.08,9.47],[42.15,9.54],[42.13,9.62],[42.34,9.72],[42.64,9.08],[42.86,8.84],[42.83,8.71],[42.91,8.54],[42.9,8.41],[42.77,8.37],[42.67,8.14],[42.58,8.23],[42.5,8.49],[42.33,8.54],[42.27,8.62],[42.07,8.48],[41.94,8.17],[41.95,7.75],[41.88,7.51],[41.9,7.41],[42.21,7.29],[42.23,7.22],[41.99,6.61],[41.91,6.54],[41.76,6.54],[41.62,6.36],[41.42,6.56],[41.12,6.69],[41.03,6.66],[40.86,6.42],[40.92,5.7],[40.53,5.42],[40.19,5.35],[40.01,5.38],[39.82,5.02],[39.5,3.98],[39.33,3.68],[39.09,3.52],[38.9,3.51],[38.51,3.65],[38.45,3.6],[38.1,3.61],[37.02,4.37],[36.65,4.43],[36.9,4.78],[36.87,4.96],[36.97,5.19],[37.4,5.17],[37.69,5.31],[37.9,5.25],[37.94,5.64],[38.09,5.73],[37.97,5.94],[37.79,6.02],[37.86,6.35],[37.8,6.47],[37.88,6.59],[38.02,6.57],[38.29,6.43],[38.19,6.31],[38.18,6.17],[38.09,6.15],[38.23,5.86],[38.39,5.92],[38.29,6.01],[38.44,6.21],[38.43,6.38],[38.49,6.43],[38.76,6.41],[38.99,6.15],[39.14,6.16],[39.09,6.52],[38.94,6.66],[38.65,6.78],[38.67,6.97],[38.61,7.08],[38.33,7.16],[38.25,7.06],[38.15,7.04],[38.07,7.1],[38.09,7.2],[38.26,7.31],[38.34,7.48],[38.43,7.53],[38.43,7.69],[38.62,8.02],[38.55,8.23],[38.6,8.25],[38.69,8.11],[38.65,8.41],[38.5,8.45],[38.36,8.26],[38.24,8.41],[37.83,8.34],[37.52,8.42],[37.47,8.31],[37.6,8.23],[37.62,7.98],[37.39,8],[37.44,7.58],[37.38,7.37],[37.14,7.24],[36.92,7.22],[36.05,7.57],[36,7.74],[35.86,7.84],[35.91,7.96],[35.83,8.08],[35.73,8.03],[35.8,7.94],[35.74,7.87],[35.61,7.81],[35.53,7.88],[35.36,7.84],[35.24,7.68],[35.27,7.52],[35.19,7.46],[35.1,7.48],[35.15,7.55],[35.02,7.61],[34.87,7.83],[34.96,8.02],[34.89,8.06],[35.09,8.17],[34.82,8.19],[34.3,8.59],[34.16,8.56],[34.11,8.6]],[[38.83,9.08],[38.71,9.08],[38.66,9],[38.82,8.83],[38.91,8.98],[38.88,9.08],[38.83,9.08]],[[36.46,9.36],[36.44,9.43],[36.5,9.49],[36.44,9.52],[36.38,9.44],[36.41,9.34],[36.46,9.36]],[[36.12,9.02],[36.05,9.03],[36.01,8.86],[36.16,8.88],[36.25,8.79],[36.23,8.97],[36.12,9.02]],[[42.25,9.19],[42.27,9.36],[42.13,9.38],[42.06,9.23],[42.25,9.19]]]}},{"type":"Feature","properties":{"id":"ETH-DD","nome":"Dire Dawa","pais":"ETH","tipo":"Administrative State","lat":9.56,"lng":42.04},"geometry":{"type":"Polygon","coordinates":[[[42.34,9.72],[42.13,9.62],[42.15,9.54],[42.08,9.47],[41.74,9.47],[41.76,9.64],[41.89,9.68],[42.04,9.63],[42.2,9.77],[42.34,9.72]]]}},{"type":"Feature","properties":{"id":"ETH-AA","nome":"Addis Ababa","pais":"ETH","tipo":"Administrative State","lat":8.97,"lng":38.78},"geometry":{"type":"Polygon","coordinates":[[[38.82,9.1],[38.91,8.98],[38.82,8.83],[38.66,9],[38.71,9.08],[38.82,9.1]]]}},{"type":"Feature","properties":{"id":"ETH-HA","nome":"Harari People","pais":"ETH","tipo":"Administrative State","lat":9.29,"lng":42.17},"geometry":{"type":"Polygon","coordinates":[[[42.26,9.38],[42.27,9.2],[42.06,9.23],[42.13,9.38],[42.26,9.38]]]}}]}