{"type":"FeatureCollection","features":[{"type":"Feature","properties":{"id":"FJI-E","nome":"Eastern","pais":"FJI","tipo":"Division","lat":-20.67,"lng":-178.72},"geometry":{"type":"Polygon","coordinates":[[[178.43,-18.96],[178.5,-19.01],[178.34,-19.05],[178.28,-19.01],[178.17,-19.08],[178.18,-19.16],[178.16,-19.12],[178.09,-19.16],[177.95,-19.13],[178.05,-19.06],[178.13,-19.07],[178.23,-18.96],[178.43,-18.96]]]}},{"type":"Feature","properties":{"id":"FJI-W","nome":"Western","pais":"FJI","tipo":"Division","lat":-21.69,"lng":174.61},"geometry":{"type":"Polygon","coordinates":[[[177.78,-18.22],[177.34,-18.11],[177.26,-17.99],[177.27,-17.86],[177.36,-17.83],[177.37,-17.75],[177.43,-17.75],[177.39,-17.64],[177.63,-17.44],[177.66,-17.5],[177.66,-17.44],[177.83,-17.36],[177.84,-17.42],[178.24,-17.32],[178.29,-17.38],[178.25,-17.47],[178.36,-17.45],[178.45,-17.55],[178.43,-17.66],[178.28,-17.62],[178.14,-17.67],[178.03,-17.57],[178.01,-17.74],[178.1,-17.7],[177.97,-17.85],[178,-17.98],[177.81,-17.99],[177.78,-18.22]]]}},{"type":"Feature","properties":{"id":"FJI-C","nome":"Central","pais":"FJI","tipo":"Division","lat":-18.38,"lng":178.13},"geometry":{"type":"Polygon","coordinates":[[[178.45,-17.55],[178.6,-17.65],[178.57,-17.75],[178.64,-17.86],[178.59,-17.93],[178.71,-17.99],[178.68,-18.07],[178.59,-18.14],[178.53,-18.09],[178.44,-18.15],[178.39,-18.1],[178.14,-18.26],[177.89,-18.27],[177.78,-18.22],[177.81,-17.99],[178,-17.98],[177.97,-17.85],[178.1,-17.7],[178.01,-17.74],[178.03,-17.57],[178.14,-17.67],[178.28,-17.62],[178.42,-17.67],[178.45,-17.55]]]}},{"type":"Feature","properties":{"id":"FJI-N","nome":"Northern","pais":"FJI","tipo":"Division","lat":-16.81,"lng":178.31},"geometry":{"type":"MultiPolygon","coordinates":[[[[-180,-16.79],[-179.88,-16.68],[-179.82,-16.77],[-180,-16.96],[-180,-16.79]]],[[[180,-16.17],[179.48,-16.7],[179.48,-16.76],[179.55,-16.77],[179.94,-16.46],[179.85,-16.66],[179.95,-16.73],[179.91,-16.77],[179.73,-16.72],[179.58,-16.81],[179.3,-16.81],[179.35,-16.73],[179.27,-16.69],[179.07,-16.8],[179.03,-16.92],[178.91,-16.85],[178.73,-17.01],[178.64,-16.81],[178.49,-16.79],[178.59,-16.67],[178.53,-16.63],[178.69,-16.67],[178.79,-16.6],[178.8,-16.64],[178.93,-16.51],[178.92,-16.47],[179.4,-16.41],[179.38,-16.36],[179.57,-16.22],[179.63,-16.26],[179.76,-16.18],[179.78,-16.23],[179.86,-16.23],[180,-16.17]]]]}}]}