{"type":"FeatureCollection","features":[{"type":"Feature","properties":{"id":"FLK-X01~","nome":"Falkland Islands","pais":"FLK","tipo":"Estado","lat":-51.86,"lng":-59.19},"geometry":{"type":"MultiPolygon","coordinates":[[[[-60.95,-51.95],[-61.04,-51.94],[-61.15,-51.84],[-60.99,-51.78],[-60.94,-51.81],[-61.03,-51.87],[-60.95,-51.85],[-60.86,-51.76],[-60.91,-51.9],[-60.87,-51.9],[-60.95,-51.95]]],[[[-59.63,-51.74],[-59.89,-51.96],[-60.28,-51.99],[-60.27,-52.08],[-60.37,-52.16],[-60.55,-52.11],[-60.5,-52.19],[-60.59,-52.24],[-60.68,-52.19],[-60.64,-52.19],[-60.69,-52.11],[-60.82,-52.1],[-60.72,-52.17],[-60.8,-52.17],[-61.04,-52.05],[-61.02,-52.01],[-60.86,-52.06],[-60.87,-52.03],[-60.74,-52.01],[-60.85,-51.95],[-60.53,-52],[-60.4,-51.92],[-60.61,-51.93],[-60.48,-51.92],[-60.44,-51.78],[-60.37,-51.77],[-60.41,-51.8],[-60.34,-51.86],[-60.3,-51.75],[-60.18,-51.76],[-60.18,-51.71],[-60.34,-51.71],[-60.55,-51.79],[-60.62,-51.67],[-60.08,-51.69],[-60.49,-51.53],[-60.51,-51.48],[-60.39,-51.48],[-60.61,-51.42],[-60.65,-51.35],[-60.15,-51.49],[-59.99,-51.47],[-60.08,-51.45],[-60.02,-51.38],[-59.76,-51.42],[-59.83,-51.43],[-59.8,-51.45],[-59.49,-51.39],[-59.58,-51.44],[-59.49,-51.46],[-59.39,-51.43],[-59.44,-51.4],[-59.41,-51.34],[-59.21,-51.41],[-59.37,-51.49],[-59.4,-51.6],[-59.58,-51.65],[-59.63,-51.74]]],[[[-57.82,-51.69],[-57.73,-51.69],[-58.26,-51.76],[-58.15,-51.79],[-58.36,-51.82],[-58.19,-51.81],[-58.42,-51.89],[-58.76,-51.89],[-58.94,-51.8],[-58.97,-51.85],[-58.81,-51.95],[-58.63,-51.97],[-58.6,-52],[-58.67,-52.04],[-58.64,-52.11],[-58.79,-52.03],[-58.93,-52.1],[-59.14,-51.98],[-59.27,-51.99],[-59.3,-52.02],[-59.08,-52.1],[-59.15,-52.14],[-59.04,-52.14],[-59.1,-52.17],[-59.05,-52.21],[-59.22,-52.21],[-59.37,-52.12],[-59.46,-52.14],[-59.43,-52.22],[-59.35,-52.24],[-59.34,-52.34],[-59.72,-52.11],[-59.64,-52.12],[-59.57,-52.06],[-59.63,-52.01],[-59.56,-52.02],[-59.59,-51.98],[-59.52,-51.96],[-59.61,-51.92],[-59.49,-51.93],[-59.49,-51.84],[-59.38,-51.83],[-59.21,-51.71],[-59.06,-51.69],[-59.04,-51.82],[-58.99,-51.8],[-59.03,-51.69],[-58.99,-51.65],[-59.17,-51.57],[-59.11,-51.5],[-59.01,-51.56],[-59.04,-51.51],[-58.99,-51.51],[-59.13,-51.46],[-59.1,-51.41],[-58.86,-51.36],[-58.95,-51.25],[-58.63,-51.34],[-58.41,-51.32],[-58.33,-51.43],[-58.43,-51.45],[-58.5,-51.4],[-58.55,-51.43],[-58.52,-51.49],[-58.42,-51.48],[-58.42,-51.55],[-58.3,-51.56],[-58.23,-51.65],[-58.24,-51.59],[-58.17,-51.61],[-58.24,-51.56],[-58.22,-51.53],[-58.36,-51.5],[-58.29,-51.42],[-57.91,-51.38],[-57.77,-51.49],[-57.78,-51.54],[-58.03,-51.5],[-58.15,-51.54],[-57.78,-51.62],[-57.9,-51.67],[-57.82,-51.69]]]]}}]}