{"type":"FeatureCollection","features":[{"type":"Feature","properties":{"id":"FRA-GF","nome":"Guyane française","pais":"FRA","tipo":"Overseas department","lat":3.86,"lng":-53.13},"geometry":{"type":"Polygon","coordinates":[[[-54.21,3.13],[-54.02,3.42],[-53.99,3.61],[-54.35,4.04],[-54.49,4.9],[-54.31,5.23],[-54.06,5.44],[-53.94,5.74],[-52.9,5.41],[-52.4,4.97],[-52.39,4.9],[-52.28,4.93],[-52.34,4.72],[-52.23,4.88],[-52.02,4.69],[-51.95,4.45],[-52.05,4.33],[-51.94,4.39],[-51.91,4.66],[-51.79,4.6],[-51.69,4.39],[-51.67,4.06],[-51.78,3.98],[-52.23,3.26],[-52.36,3.15],[-52.41,2.9],[-52.58,2.63],[-52.59,2.5],[-52.92,2.2],[-53.27,2.2],[-53.23,2.25],[-53.34,2.35],[-53.53,2.25],[-53.74,2.31],[-53.76,2.37],[-53.96,2.21],[-54.08,2.18],[-54.11,2.11],[-54.49,2.22],[-54.62,2.33],[-54.38,2.48],[-54.17,2.85],[-54.21,3.13]]]}},{"type":"Feature","properties":{"id":"FRA-59","nome":"Nord","pais":"FRA","tipo":"Metropolitan department","lat":50.4,"lng":3.23},"geometry":{"type":"Polygon","coordinates":[[[2.52,51.09],[2.61,50.96],[2.58,50.91],[2.62,50.82],[2.89,50.7],[3.13,50.78],[3.23,50.7],[3.27,50.53],[3.61,50.48],[3.7,50.3],[3.76,50.35],[4,50.34],[4.2,50.26],[4.13,50.13],[4.21,50.06],[4.1,49.97],[3.96,50.04],[3.09,50.05],[3.17,50.23],[3.02,50.27],[3.06,50.32],[3,50.38],[3.06,50.44],[2.79,50.54],[2.87,50.63],[2.37,50.67],[2.39,50.77],[2.22,50.81],[2.06,51.01],[2.52,51.09]]]}},{"type":"Feature","properties":{"id":"FRA-08","nome":"Ardennes","pais":"FRA","tipo":"Metropolitan department","lat":49.54,"lng":4.62},"geometry":{"type":"Polygon","coordinates":[[[4.82,50.16],[4.87,50.14],[4.78,49.96],[4.86,49.91],[4.85,49.79],[5.26,49.69],[5.3,49.61],[5.39,49.59],[5.28,49.54],[5.11,49.57],[5.07,49.5],[5.11,49.41],[4.98,49.24],[4.64,49.24],[4.03,49.43],[4.07,49.45],[4.05,49.63],[4.23,49.74],[4.22,49.95],[4.44,49.93],[4.65,49.98],[4.68,50.08],[4.82,50.16]]]}},{"type":"Feature","properties":{"id":"FRA-02","nome":"Aisne","pais":"FRA","tipo":"Metropolitan department","lat":49.57,"lng":3.52},"geometry":{"type":"Polygon","coordinates":[[[4.13,49.97],[4.22,49.95],[4.23,49.74],[4.05,49.63],[4.05,49.37],[3.88,49.38],[3.65,49.3],[3.75,49.17],[3.63,49.14],[3.58,49.04],[3.67,49.02],[3.48,48.85],[3.17,49.01],[3.16,49.08],[3.08,49.11],[3.12,49.18],[2.97,49.2],[3.02,49.26],[2.96,49.32],[3.17,49.44],[3.11,49.75],[3.06,49.78],[3.19,49.98],[3.16,50.02],[3.7,50.06],[3.97,50.04],[3.99,49.99],[4.13,49.97]]]}},{"type":"Feature","properties":{"id":"FRA-55","nome":"Meuse","pais":"FRA","tipo":"Metropolitan department","lat":48.95,"lng":5.51},"geometry":{"type":"Polygon","coordinates":[[[5.39,49.61],[5.49,49.42],[5.64,49.44],[5.72,49.38],[5.76,49.3],[5.72,49.21],[5.76,49.11],[5.82,49.1],[5.85,48.96],[5.76,48.92],[5.73,48.74],[5.76,48.63],[5.72,48.57],[5.77,48.5],[5.48,48.41],[5.04,48.62],[4.91,48.8],[5.03,49.01],[4.96,49.17],[5.11,49.41],[5.1,49.56],[5.28,49.54],[5.39,49.61]]]}},{"type":"Feature","properties":{"id":"FRA-54","nome":"Meurthe-et-Moselle","pais":"FRA","tipo":"Metropolitan department","lat":48.71,"lng":6.28},"geometry":{"type":"Polygon","coordinates":[[[5.75,49.55],[5.93,49.48],[5.92,49.38],[6.02,49.24],[6.01,49.13],[5.93,49.1],[5.97,49.04],[6.14,48.93],[6.31,48.92],[6.3,48.85],[6.37,48.78],[6.97,48.61],[7.09,48.52],[6.81,48.4],[6.61,48.47],[6.4,48.39],[6.28,48.44],[5.98,48.36],[5.87,48.41],[5.9,48.49],[5.77,48.5],[5.72,48.57],[5.76,48.63],[5.72,48.73],[5.76,48.92],[5.85,48.95],[5.84,49.06],[5.75,49.12],[5.72,49.22],[5.76,49.3],[5.7,49.4],[5.5,49.41],[5.46,49.46],[5.75,49.55]]]}},{"type":"Feature","properties":{"id":"FRA-57","nome":"Moselle","pais":"FRA","tipo":"Metropolitan department","lat":49.08,"lng":6.52},"geometry":{"type":"Polygon","coordinates":[[[6.35,49.46],[6.51,49.42],[6.71,49.16],[6.82,49.15],[6.83,49.21],[6.91,49.21],[7.01,49.18],[7.04,49.11],[7.27,49.11],[7.41,49.17],[7.64,49.04],[7.56,48.94],[7.34,48.94],[7.08,49.06],[6.98,48.9],[7.1,48.86],[7.11,48.79],[7.2,48.85],[7.32,48.76],[7.26,48.58],[7.09,48.52],[6.97,48.61],[6.37,48.78],[6.3,48.85],[6.31,48.92],[6.14,48.93],[5.95,49.05],[6.02,49.24],[5.92,49.38],[5.93,49.48],[5.96,49.44],[6.19,49.5],[6.35,49.46]]]}},{"type":"Feature","properties":{"id":"FRA-06","nome":"Alpes-Maritimes","pais":"FRA","tipo":"Metropolitan department","lat":43.87,"lng":7.19},"geometry":{"type":"Polygon","coordinates":[[[7.69,44.09],[7.48,43.87],[7.48,43.76],[7.15,43.65],[7.14,43.55],[6.98,43.55],[6.93,43.48],[6.88,43.52],[6.91,43.6],[6.64,43.79],[6.81,43.91],[6.94,43.9],[6.76,44.04],[6.7,44.15],[6.74,44.26],[6.88,44.35],[6.98,44.24],[7.33,44.13],[7.62,44.18],[7.69,44.09]]]}},{"type":"Feature","properties":{"id":"FRA-04","nome":"Alpes-de-Haute-Provence","pais":"FRA","tipo":"Metropolitan department","lat":44.05,"lng":6.25},"geometry":{"type":"Polygon","coordinates":[[[6.94,44.66],[6.84,44.53],[6.92,44.44],[6.7,44.15],[6.76,44.04],[6.94,43.9],[6.81,43.91],[6.7,43.86],[6.7,43.81],[6.43,43.79],[6.35,43.74],[6.24,43.8],[6.03,43.67],[5.93,43.75],[5.75,43.73],[5.61,43.84],[5.54,43.82],[5.59,43.9],[5.51,43.96],[5.54,44.05],[5.51,44.12],[5.6,44.18],[5.89,44.19],[5.82,44.28],[5.91,44.27],[5.97,44.41],[6.13,44.47],[6.24,44.38],[6.26,44.47],[6.37,44.53],[6.47,44.46],[6.61,44.45],[6.68,44.54],[6.94,44.66]]]}},{"type":"Feature","properties":{"id":"FRA-05","nome":"Hautes-Alpes","pais":"FRA","tipo":"Metropolitan department","lat":44.67,"lng":6.38},"geometry":{"type":"Polygon","coordinates":[[[7.04,44.71],[6.68,44.54],[6.61,44.45],[6.47,44.46],[6.37,44.53],[6.26,44.47],[6.24,44.38],[6.07,44.47],[5.91,44.34],[5.91,44.27],[5.84,44.3],[5.89,44.19],[5.68,44.19],[5.63,44.33],[5.5,44.35],[5.43,44.42],[5.5,44.43],[5.47,44.49],[5.65,44.5],[5.61,44.56],[5.66,44.64],[5.8,44.66],[5.85,44.75],[6,44.82],[6.36,44.86],[6.33,45],[6.22,45.02],[6.27,45.12],[6.46,45.05],[6.63,45.12],[6.75,44.91],[6.98,44.85],[7.04,44.71]]]}},{"type":"Feature","properties":{"id":"FRA-73","nome":"Savoie","pais":"FRA","tipo":"Metropolitan department","lat":45.48,"lng":6.47},"geometry":{"type":"Polygon","coordinates":[[[7.08,45.47],[7.16,45.41],[7.06,45.21],[6.46,45.05],[6.16,45.15],[6.13,45.28],[6.19,45.35],[6.13,45.44],[5.95,45.49],[5.91,45.39],[5.76,45.44],[5.6,45.66],[5.76,45.72],[5.84,45.94],[5.99,45.76],[6.14,45.76],[6.25,45.68],[6.52,45.91],[6.69,45.73],[6.78,45.76],[6.82,45.7],[6.96,45.64],[6.98,45.51],[7.08,45.47]]]}},{"type":"Feature","properties":{"id":"FRA-74","nome":"Haute-Savoie","pais":"FRA","tipo":"Metropolitan department","lat":46.05,"lng":6.52},"geometry":{"type":"Polygon","coordinates":[[[7.02,45.93],[6.8,45.83],[6.71,45.73],[6.51,45.91],[6.25,45.68],[5.88,45.84],[5.83,46.1],[6.14,46.15],[6.28,46.24],[6.21,46.32],[6.27,46.38],[6.61,46.46],[6.79,46.41],[6.75,46.35],[6.83,46.27],[6.77,46.15],[6.87,46.11],[6.85,46.05],[6.92,46.05],[7.02,45.93]]]}},{"type":"Feature","properties":{"id":"FRA-64","nome":"Pyrénées-Atlantiques","pais":"FRA","tipo":"Metropolitan department","lat":43.26,"lng":-0.75},"geometry":{"type":"Polygon","coordinates":[[[-1.75,43.29],[-1.79,43.39],[-1.66,43.4],[-1.51,43.54],[-1.32,43.51],[-1.2,43.56],[-1.15,43.49],[-0.46,43.59],[-0.43,43.55],[-0.09,43.56],[0.02,43.34],[-0.19,43.04],[-0.29,42.99],[-0.31,42.83],[-0.57,42.77],[-0.76,42.95],[-1.15,43.01],[-1.29,43.06],[-1.29,43.11],[-1.37,43.03],[-1.46,43.05],[-1.49,43.08],[-1.4,43.24],[-1.75,43.29]]]}},{"type":"Feature","properties":{"id":"FRA-31","nome":"Haute-Garonne","pais":"FRA","tipo":"Metropolitan department","lat":43.55,"lng":1.42},"geometry":{"type":"Polygon","coordinates":[[[0.78,42.83],[0.66,42.84],[0.66,42.69],[0.47,42.69],[0.46,42.85],[0.64,42.96],[0.61,43.03],[0.53,43],[0.56,43.07],[0.44,43.13],[0.78,43.41],[1,43.36],[1.05,43.52],[1.18,43.56],[1.19,43.6],[0.95,43.79],[1.16,43.82],[1.25,43.77],[1.36,43.82],[1.3,43.85],[1.56,43.92],[1.58,43.81],[1.73,43.67],[1.69,43.63],[1.95,43.48],[2.05,43.49],[2.03,43.42],[1.84,43.42],[1.8,43.34],[1.65,43.25],[1.52,43.3],[1.44,43.21],[1.31,43.3],[1.38,43.23],[1.22,43.17],[1.29,43.12],[1.24,43.09],[1.07,43.14],[0.99,43.08],[0.99,42.99],[0.84,42.91],[0.86,42.81],[0.78,42.83]]]}},{"type":"Feature","properties":{"id":"FRA-65","nome":"Hautes-Pyrénées","pais":"FRA","tipo":"Metropolitan department","lat":43.06,"lng":0.14},"geometry":{"type":"Polygon","coordinates":[[[-0.21,42.78],[-0.31,42.83],[-0.29,42.99],[-0.19,43.04],[0.02,43.34],[-0.09,43.59],[-0.01,43.61],[0.2,43.37],[0.61,43.31],[0.44,43.13],[0.56,43.07],[0.53,43],[0.61,43.03],[0.64,42.96],[0.46,42.85],[0.47,42.69],[0.35,42.72],[0.28,42.67],[0.17,42.73],[-0.04,42.69],[-0.21,42.78]]]}},{"type":"Feature","properties":{"id":"FRA-09","nome":"Ariège","pais":"FRA","tipo":"Metropolitan department","lat":42.9,"lng":1.54},"geometry":{"type":"Polygon","coordinates":[[[0.92,42.78],[0.86,42.81],[0.84,42.91],[0.99,42.99],[1,43.09],[1.13,43.16],[1.24,43.09],[1.29,43.12],[1.22,43.17],[1.38,43.23],[1.31,43.3],[1.44,43.21],[1.52,43.3],[1.7,43.27],[1.72,43.18],[1.95,43.1],[1.99,42.87],[1.87,42.82],[2.17,42.67],[1.99,42.65],[1.93,42.57],[1.76,42.57],[1.54,42.65],[1.43,42.6],[1.34,42.71],[1.15,42.71],[1.09,42.77],[0.92,42.78]]]}},{"type":"Feature","properties":{"id":"FRA-66","nome":"Pyrénées-Orientales","pais":"FRA","tipo":"Metropolitan department","lat":42.57,"lng":2.55},"geometry":{"type":"Polygon","coordinates":[[[1.72,42.54],[2.32,42.71],[2.34,42.84],[2.7,42.83],[2.86,42.91],[3.05,42.84],[3.05,42.55],[3.14,42.52],[3.18,42.44],[2.93,42.47],[2.69,42.41],[2.66,42.34],[2.51,42.33],[2.28,42.43],[2.01,42.35],[1.93,42.44],[1.71,42.49],[1.72,42.54]]]}},{"type":"Feature","properties":{"id":"FRA-67","nome":"Bas-Rhin","pais":"FRA","tipo":"Metropolitan department","lat":48.62,"lng":7.57},"geometry":{"type":"Polygon","coordinates":[[[7.64,49.04],[7.93,49.03],[8.2,48.96],[8.09,48.81],[7.81,48.62],[7.75,48.34],[7.54,48.12],[7.47,48.21],[7.11,48.34],[7.15,48.5],[7.09,48.52],[7.26,48.58],[7.32,48.76],[7.2,48.85],[7.1,48.79],[7.1,48.86],[6.98,48.92],[7.09,49.06],[7.34,48.94],[7.56,48.94],[7.64,49.04]]]}},{"type":"Feature","properties":{"id":"FRA-68","nome":"Haute-Rhin","pais":"FRA","tipo":"Metropolitan department","lat":47.89,"lng":7.25},"geometry":{"type":"Polygon","coordinates":[[[7.58,48.12],[7.62,47.97],[7.51,47.71],[7.59,47.58],[7.41,47.49],[7.41,47.44],[7.17,47.44],[7.14,47.54],[7.02,47.61],[7.05,47.72],[6.87,47.8],[6.95,47.96],[7.21,48.3],[7.58,48.12]]]}},{"type":"Feature","properties":{"id":"FRA-90","nome":"Territoire de Belfort","pais":"FRA","tipo":"Metropolitan department","lat":47.66,"lng":6.94},"geometry":{"type":"Polygon","coordinates":[[[7.05,47.49],[6.97,47.49],[6.94,47.43],[6.92,47.53],[6.81,47.56],[6.76,47.72],[6.84,47.82],[7.05,47.72],[7.02,47.61],[7.15,47.52],[7.05,47.49]]]}},{"type":"Feature","properties":{"id":"FRA-25","nome":"Doubs","pais":"FRA","tipo":"Metropolitan department","lat":47.16,"lng":6.32},"geometry":{"type":"Polygon","coordinates":[[[6.94,47.43],[6.87,47.35],[7.04,47.33],[6.67,47.02],[6.44,46.94],[6.43,46.76],[6.14,46.56],[6.05,46.62],[6.21,46.77],[6.02,46.86],[5.95,46.98],[5.75,47.02],[5.82,47.14],[5.7,47.27],[6.07,47.36],[6.32,47.5],[6.55,47.49],[6.81,47.56],[6.92,47.53],[6.94,47.43]]]}},{"type":"Feature","properties":{"id":"FRA-01","nome":"Ain","pais":"FRA","tipo":"Metropolitan department","lat":46.08,"lng":5.38},"geometry":{"type":"Polygon","coordinates":[[[6.12,46.33],[6.09,46.25],[5.96,46.21],[5.96,46.13],[5.83,46.1],[5.84,45.93],[5.77,45.74],[5.64,45.65],[5.37,45.88],[5.24,45.79],[4.92,45.81],[4.91,45.87],[4.75,45.96],[4.82,46.25],[4.95,46.51],[5.31,46.46],[5.51,46.26],[5.65,46.34],[5.72,46.27],[5.87,46.27],[6.06,46.42],[6.14,46.37],[6.12,46.33]]]}},{"type":"Feature","properties":{"id":"FRA-39","nome":"Jura","pais":"FRA","tipo":"Metropolitan department","lat":46.73,"lng":5.73},"geometry":{"type":"Polygon","coordinates":[[[6.14,46.56],[6.06,46.42],[5.88,46.28],[5.72,46.27],[5.65,46.34],[5.48,46.27],[5.31,46.42],[5.42,46.49],[5.36,46.55],[5.42,46.64],[5.35,46.81],[5.46,46.86],[5.25,46.98],[5.4,47.1],[5.52,47.29],[5.7,47.27],[5.82,47.14],[5.75,47.02],[5.95,46.98],[6.02,46.86],[6.21,46.77],[6.05,46.62],[6.14,46.56]]]}},{"type":"Feature","properties":{"id":"FRA-83","nome":"Var","pais":"FRA","tipo":"Metropolitan department","lat":43.41,"lng":6.27},"geometry":{"type":"Polygon","coordinates":[[[6.93,43.48],[6.86,43.42],[6.75,43.42],[6.6,43.28],[6.69,43.27],[6.68,43.2],[6.4,43.15],[6.38,43.09],[6.19,43.11],[6.18,43.04],[6.09,43.03],[6.13,43.07],[5.94,43.13],[5.88,43.12],[5.94,43.07],[5.82,43.05],[5.81,43.11],[5.67,43.18],[5.76,43.28],[5.69,43.32],[5.68,43.4],[5.78,43.41],[5.68,43.61],[5.81,43.69],[5.78,43.76],[5.93,43.75],[6.03,43.67],[6.24,43.8],[6.35,43.74],[6.43,43.79],[6.62,43.81],[6.91,43.6],[6.88,43.52],[6.93,43.48]]]}},{"type":"Feature","properties":{"id":"FRA-13","nome":"Bouches-du-Rhône","pais":"FRA","tipo":"Metropolitan department","lat":43.53,"lng":5.4},"geometry":{"type":"Polygon","coordinates":[[[5.67,43.18],[5.35,43.22],[5.37,43.27],[5.29,43.36],[5.03,43.34],[5.03,43.41],[5.23,43.48],[5.03,43.56],[5.05,43.43],[4.87,43.42],[4.9,43.37],[4.86,43.34],[4.76,43.42],[4.69,43.58],[4.82,43.35],[4.59,43.36],[4.51,43.46],[4.21,43.46],[4.45,43.59],[4.48,43.69],[4.61,43.7],[4.64,43.87],[4.77,43.93],[5.19,43.75],[5.53,43.67],[5.77,43.73],[5.79,43.66],[5.68,43.61],[5.78,43.41],[5.68,43.4],[5.69,43.31],[5.76,43.28],[5.67,43.18]]]}},{"type":"Feature","properties":{"id":"FRA-30","nome":"Gard","pais":"FRA","tipo":"Metropolitan department","lat":43.99,"lng":4.19},"geometry":{"type":"Polygon","coordinates":[[[4.21,43.46],[4.1,43.56],[4.18,43.69],[3.97,43.8],[3.95,43.87],[3.83,43.87],[3.82,43.94],[3.72,43.97],[3.45,43.85],[3.34,43.9],[3.45,44.01],[3.29,44.09],[3.38,44.17],[3.52,44.11],[3.62,44.12],[3.67,44.18],[3.88,44.13],[3.97,44.25],[3.89,44.39],[3.99,44.46],[4.05,44.33],[4.25,44.28],[4.52,44.34],[4.66,44.28],[4.73,44.09],[4.85,44],[4.64,43.87],[4.61,43.7],[4.48,43.69],[4.45,43.59],[4.21,43.46]]]}},{"type":"Feature","properties":{"id":"FRA-34","nome":"Hérault","pais":"FRA","tipo":"Metropolitan department","lat":43.55,"lng":3.27},"geometry":{"type":"Polygon","coordinates":[[[4.11,43.55],[3.95,43.54],[3.51,43.28],[3.24,43.22],[2.93,43.32],[2.87,43.39],[2.76,43.26],[2.56,43.37],[2.66,43.47],[2.64,43.63],[3.03,43.69],[3.07,43.82],[3.2,43.81],[3.34,43.9],[3.57,43.87],[3.72,43.97],[4.14,43.74],[4.18,43.64],[4.11,43.55]]]}},{"type":"Feature","properties":{"id":"FRA-11","nome":"Aude","pais":"FRA","tipo":"Metropolitan department","lat":43.1,"lng":2.48},"geometry":{"type":"Polygon","coordinates":[[[3.24,43.22],[3.07,43.03],[3.05,42.84],[2.86,42.91],[2.7,42.83],[2.37,42.85],[2.33,42.82],[2.34,42.72],[2.19,42.65],[2.08,42.74],[1.91,42.76],[1.87,42.82],[1.99,42.87],[1.94,42.94],[1.99,42.97],[1.96,43.09],[1.73,43.18],[1.7,43.24],[1.84,43.42],[2.21,43.38],[2.26,43.44],[2.57,43.42],[2.58,43.32],[2.69,43.32],[2.76,43.26],[2.87,43.39],[2.93,43.32],[3.24,43.22]]]}},{"type":"Feature","properties":{"id":"FRA-40","nome":"Landes","pais":"FRA","tipo":"Metropolitan department","lat":43.96,"lng":-0.79},"geometry":{"type":"Polygon","coordinates":[[[-1.51,43.54],[-1.25,44.47],[-1.08,44.53],[-1,44.5],[-0.99,44.43],[-0.64,44.45],[-0.39,44.29],[-0.38,44.21],[-0.24,44.2],[-0.2,44.26],[-0.13,44.15],[0.14,44.12],[0.06,44.02],[0.07,43.91],[0,43.91],[-0.02,43.97],[-0.22,43.9],[-0.18,43.84],[-0.27,43.63],[-0.24,43.59],[-0.8,43.57],[-1.15,43.49],[-1.2,43.56],[-1.32,43.51],[-1.51,43.54]]]}},{"type":"Feature","properties":{"id":"FRA-33","nome":"Gironde","pais":"FRA","tipo":"Metropolitan department","lat":44.73,"lng":-0.52},"geometry":{"type":"Polygon","coordinates":[[[-1.25,44.47],[-1.21,44.65],[-1.04,44.67],[-1.17,44.78],[-1.26,44.63],[-1.14,45.49],[-1.07,45.57],[-0.77,45.33],[-0.72,45.13],[-0.53,44.89],[-0.6,45.02],[-0.49,45],[-0.66,45.1],[-0.71,45.32],[-0.58,45.35],[-0.43,45.26],[-0.39,45.17],[-0.23,45.11],[0.03,45.12],[0.07,45.06],[-0.01,44.86],[0.03,44.84],[0.32,44.86],[0.26,44.83],[0.3,44.76],[0.12,44.72],[0.17,44.64],[-0.01,44.5],[0.01,44.37],[-0.09,44.35],[-0.03,44.28],[-0.14,44.23],[-0.22,44.26],[-0.24,44.2],[-0.38,44.21],[-0.39,44.29],[-0.64,44.45],[-0.99,44.43],[-1,44.5],[-1.08,44.53],[-1.25,44.47]]]}},{"type":"Feature","properties":{"id":"FRA-17","nome":"Charente-Maritime","pais":"FRA","tipo":"Metropolitan department","lat":45.84,"lng":-0.71},"geometry":{"type":"Polygon","coordinates":[[[-0.71,45.32],[-0.84,45.51],[-1.25,45.71],[-1.23,45.79],[-1.16,45.81],[-0.99,45.72],[-1.15,45.87],[-1.07,45.9],[-1.11,46.02],[-1.05,46.04],[-1.21,46.17],[-1.09,46.34],[-0.83,46.33],[-0.64,46.15],[-0.26,46.07],[-0.09,45.95],[-0.15,45.93],[-0.12,45.85],[-0.17,45.79],[-0.46,45.74],[-0.42,45.74],[-0.42,45.62],[-0.24,45.5],[-0.31,45.38],[-0.29,45.32],[-0.01,45.23],[-0.01,45.15],[-0.23,45.11],[-0.39,45.17],[-0.43,45.26],[-0.58,45.35],[-0.71,45.32]]]}},{"type":"Feature","properties":{"id":"FRA-85","nome":"Vendée","pais":"FRA","tipo":"Metropolitan department","lat":46.69,"lng":-1.32},"geometry":{"type":"Polygon","coordinates":[[[-1.12,46.31],[-1.24,46.28],[-1.79,46.53],[-1.8,46.49],[-1.82,46.59],[-2.12,46.82],[-2.13,46.89],[-1.99,47.04],[-1.72,46.88],[-1.55,46.86],[-1.5,46.88],[-1.55,47.02],[-1.5,47.04],[-1.44,46.93],[-1.27,47.08],[-0.91,46.98],[-0.71,46.8],[-0.63,46.61],[-0.63,46.41],[-0.56,46.37],[-0.76,46.3],[-0.96,46.32],[-0.97,46.36],[-1.12,46.31]]]}},{"type":"Feature","properties":{"id":"FRA-44","nome":"Loire-Atlantique","pais":"FRA","tipo":"Metropolitan department","lat":47.36,"lng":-1.6},"geometry":{"type":"Polygon","coordinates":[[[-1.99,47.04],[-2.03,47.09],[-2.24,47.14],[-2.17,47.17],[-2.15,47.28],[-1.93,47.29],[-1.73,47.21],[-2.01,47.32],[-2.28,47.25],[-2.45,47.27],[-2.54,47.3],[-2.44,47.31],[-2.56,47.38],[-2.44,47.4],[-2.39,47.42],[-2.45,47.46],[-2.29,47.51],[-2.18,47.48],[-2.03,47.67],[-1.69,47.72],[-1.46,47.82],[-1.25,47.78],[-1.16,47.63],[-1.01,47.59],[-1.17,47.54],[-0.97,47.49],[-0.92,47.39],[-1.33,47.32],[-1.2,47.25],[-1.16,47.19],[-1.23,47.11],[-1.12,47.04],[-1.27,47.08],[-1.44,46.93],[-1.47,47.03],[-1.55,47.02],[-1.5,46.88],[-1.55,46.86],[-1.72,46.88],[-1.99,47.04]]]}},{"type":"Feature","properties":{"id":"FRA-56","nome":"Morbihan","pais":"FRA","tipo":"Metropolitan department","lat":47.87,"lng":-2.89},"geometry":{"type":"Polygon","coordinates":[[[-2.46,47.45],[-2.49,47.49],[-2.36,47.51],[-2.63,47.52],[-2.58,47.55],[-2.82,47.5],[-2.91,47.56],[-2.74,47.55],[-2.68,47.62],[-2.92,47.6],[-2.97,47.66],[-2.94,47.56],[-3.12,47.6],[-3.08,47.48],[-3.13,47.48],[-3.14,47.6],[-3.2,47.64],[-3.12,47.73],[-3.19,47.75],[-3.16,47.71],[-3.22,47.66],[-3.36,47.7],[-3.28,47.69],[-3.36,47.71],[-3.28,47.79],[-3.46,47.71],[-3.55,47.82],[-3.4,47.87],[-3.39,47.95],[-3.63,47.98],[-3.72,48.13],[-3.56,48.19],[-3.29,48.14],[-3.04,48.2],[-2.77,48.09],[-2.67,48.13],[-2.64,48.03],[-2.52,48.16],[-2.29,48.13],[-2.18,48.07],[-2.27,48.01],[-2.12,47.96],[-2.11,47.85],[-2.05,47.84],[-2.12,47.77],[-2.06,47.74],[-2.13,47.71],[-2.09,47.61],[-2.18,47.48],[-2.29,47.51],[-2.46,47.45]]]}},{"type":"Feature","properties":{"id":"FRA-29","nome":"Finistère","pais":"FRA","tipo":"Metropolitan department","lat":48.33,"lng":-3.93},"geometry":{"type":"Polygon","coordinates":[[[-3.54,47.77],[-3.85,47.8],[-3.96,47.9],[-4.04,47.86],[-4.13,47.92],[-4.11,47.87],[-4.19,47.87],[-4.19,47.81],[-4.37,47.81],[-4.35,47.86],[-4.43,47.98],[-4.73,48.04],[-4.29,48.12],[-4.3,48.2],[-4.38,48.23],[-4.49,48.24],[-4.56,48.18],[-4.55,48.25],[-4.63,48.29],[-4.55,48.35],[-4.52,48.3],[-4.19,48.31],[-4.32,48.32],[-4.27,48.36],[-4.45,48.34],[-4.29,48.43],[-4.77,48.35],[-4.76,48.52],[-4.34,48.68],[-4.19,48.65],[-3.97,48.73],[-3.95,48.66],[-3.89,48.68],[-3.85,48.63],[-3.81,48.73],[-3.64,48.7],[-3.56,48.45],[-3.61,48.39],[-3.52,48.28],[-3.54,48.19],[-3.73,48.1],[-3.63,47.98],[-3.39,47.93],[-3.4,47.87],[-3.54,47.83],[-3.54,47.77]]]}},{"type":"Feature","properties":{"id":"FRA-22","nome":"Côtes-d'Armor","pais":"FRA","tipo":"Metropolitan department","lat":48.44,"lng":-2.93},"geometry":{"type":"Polygon","coordinates":[[[-3.64,48.69],[-3.53,48.74],[-3.58,48.79],[-3.52,48.84],[-3.4,48.81],[-3.21,48.87],[-3.22,48.79],[-3.1,48.88],[-3.08,48.83],[-3.13,48.76],[-3.01,48.82],[-3.04,48.79],[-2.93,48.77],[-2.68,48.51],[-2.49,48.65],[-2.32,48.7],[-2.28,48.67],[-2.33,48.63],[-2.25,48.65],[-2.21,48.58],[-2.05,48.65],[-1.98,48.51],[-1.93,48.55],[-1.91,48.49],[-1.98,48.28],[-2.16,48.26],[-2.34,48.12],[-2.52,48.16],[-2.64,48.03],[-2.67,48.13],[-2.77,48.09],[-3.04,48.2],[-3.29,48.14],[-3.56,48.19],[-3.52,48.28],[-3.61,48.39],[-3.56,48.45],[-3.64,48.69]]]}},{"type":"Feature","properties":{"id":"FRA-35","nome":"Ille-et-Vilaine","pais":"FRA","tipo":"Metropolitan department","lat":48.14,"lng":-1.66},"geometry":{"type":"Polygon","coordinates":[[[-1.95,48.54],[-2.03,48.65],[-1.84,48.71],[-1.84,48.62],[-1.59,48.64],[-1.45,48.47],[-1.27,48.54],[-1.08,48.5],[-1.1,48.27],[-1.04,48],[-1.17,47.96],[-1.25,47.78],[-1.46,47.82],[-1.69,47.72],[-2.1,47.64],[-2.12,47.73],[-2.06,47.74],[-2.12,47.77],[-2.05,47.84],[-2.11,47.85],[-2.12,47.96],[-2.27,48.01],[-2.18,48.07],[-2.29,48.13],[-2.17,48.26],[-1.96,48.3],[-1.91,48.49],[-1.95,48.54]]]}},{"type":"Feature","properties":{"id":"FRA-50","nome":"Manche","pais":"FRA","tipo":"Metropolitan department","lat":49.16,"lng":-1.35},"geometry":{"type":"Polygon","coordinates":[[[-1.59,48.64],[-1.36,48.64],[-1.55,48.75],[-1.6,48.85],[-1.51,49.03],[-1.59,49.03],[-1.61,49.22],[-1.55,49.23],[-1.62,49.22],[-1.7,49.36],[-1.82,49.38],[-1.88,49.53],[-1.84,49.62],[-1.95,49.68],[-1.94,49.72],[-1.61,49.65],[-1.41,49.71],[-1.26,49.7],[-1.23,49.62],[-1.31,49.56],[-1.18,49.42],[-1.18,49.36],[-1.12,49.35],[-1.12,49.28],[-1.01,49.2],[-0.91,49.21],[-0.86,49.03],[-1.06,48.95],[-1.04,48.9],[-1.15,48.82],[-0.74,48.69],[-0.86,48.5],[-1.25,48.54],[-1.41,48.46],[-1.5,48.49],[-1.59,48.64]]]}},{"type":"Feature","properties":{"id":"FRA-14","nome":"Calvados","pais":"FRA","tipo":"Metropolitan department","lat":49.06,"lng":-0.29},"geometry":{"type":"Polygon","coordinates":[[[-1.12,49.35],[-1.07,49.4],[-0.94,49.39],[-0.22,49.28],[0.29,49.43],[0.3,49.31],[0.38,49.27],[0.34,49.24],[0.42,49.14],[0.37,49.07],[0.43,48.96],[0.11,48.95],[-0.14,48.83],[-0.44,48.87],[-0.69,48.84],[-0.84,48.75],[-1.04,48.78],[-1.14,48.84],[-1.04,48.9],[-1.06,48.95],[-0.86,49.03],[-0.91,49.21],[-1.01,49.2],[-1.12,49.28],[-1.12,49.35]]]}},{"type":"Feature","properties":{"id":"FRA-27","nome":"Eure","pais":"FRA","tipo":"Metropolitan department","lat":49.04,"lng":0.93},"geometry":{"type":"Polygon","coordinates":[[[0.29,49.43],[0.5,49.49],[0.66,49.41],[0.8,49.42],[0.92,49.36],[0.87,49.32],[1.02,49.26],[1.28,49.36],[1.35,49.44],[1.54,49.44],[1.72,49.41],[1.78,49.25],[1.69,49.25],[1.62,49.08],[1.44,49.04],[1.49,48.94],[1.33,48.78],[1.11,48.78],[0.82,48.67],[0.6,48.87],[0.4,48.9],[0.43,49.01],[0.37,49.07],[0.42,49.13],[0.34,49.24],[0.38,49.27],[0.3,49.31],[0.29,49.43]]]}},{"type":"Feature","properties":{"id":"FRA-76","nome":"Seine-Maritime","pais":"FRA","tipo":"Metropolitan department","lat":49.59,"lng":1.15},"geometry":{"type":"Polygon","coordinates":[[[0.49,49.49],[0.34,49.46],[0.08,49.52],[0.24,49.73],[0.6,49.86],[1.17,49.96],[1.37,50.07],[1.68,49.89],[1.75,49.78],[1.68,49.65],[1.71,49.51],[1.77,49.49],[1.68,49.4],[1.39,49.45],[1.02,49.26],[0.87,49.32],[0.92,49.36],[0.82,49.42],[0.66,49.41],[0.49,49.49]]]}},{"type":"Feature","properties":{"id":"FRA-80","nome":"Somme","pais":"FRA","tipo":"Metropolitan department","lat":49.88,"lng":2.36},"geometry":{"type":"Polygon","coordinates":[[[1.37,50.07],[1.52,50.21],[1.67,50.19],[1.54,50.28],[1.57,50.38],[1.94,50.33],[2.1,50.2],[2.46,50.21],[2.38,50.14],[2.4,50.1],[2.57,50.13],[2.69,50.08],[2.71,50.13],[2.75,50.04],[2.83,50.07],[2.87,50.02],[3.02,50.08],[3.19,49.98],[3.06,49.79],[3.12,49.71],[2.88,49.71],[2.79,49.62],[2.64,49.58],[2.31,49.69],[1.86,49.7],[1.68,49.89],[1.37,50.07]]]}},{"type":"Feature","properties":{"id":"FRA-62","nome":"Pas-de-Calais","pais":"FRA","tipo":"Metropolitan department","lat":50.47,"lng":2.36},"geometry":{"type":"Polygon","coordinates":[[[1.59,50.37],[1.56,50.4],[1.61,50.55],[1.58,50.87],[2.06,51.01],[2.22,50.81],[2.39,50.77],[2.37,50.67],[2.49,50.63],[2.84,50.66],[2.87,50.63],[2.79,50.54],[3.06,50.44],[3,50.38],[3.06,50.32],[3.02,50.27],[3.17,50.22],[3.09,50.05],[2.99,50.08],[2.86,50.02],[2.83,50.07],[2.75,50.04],[2.71,50.13],[2.69,50.08],[2.57,50.13],[2.4,50.1],[2.38,50.15],[2.47,50.19],[2.41,50.22],[2.1,50.2],[1.94,50.33],[1.59,50.37]]]}},{"type":"Feature","properties":{"id":"FRA-MQ","nome":"Martinique","pais":"FRA","tipo":"Overseas department","lat":14.72,"lng":-61.06},"geometry":{"type":"Polygon","coordinates":[[[-60.81,14.46],[-60.87,14.41],[-60.87,14.48],[-61.07,14.47],[-61.11,14.52],[-61,14.57],[-61.16,14.67],[-61.22,14.85],[-61.14,14.88],[-60.96,14.75],[-60.88,14.78],[-60.93,14.75],[-60.94,14.67],[-60.83,14.58],[-60.81,14.46]]]}},{"type":"Feature","properties":{"id":"FRA-GP","nome":"Guadeloupe","pais":"FRA","tipo":"Overseas department","lat":16.19,"lng":-61.68},"geometry":{"type":"MultiPolygon","coordinates":[[[[-61.55,16.29],[-61.57,16.03],[-61.69,15.95],[-61.8,16.31],[-61.74,16.37],[-61.55,16.29]]],[[[-61.54,16.29],[-61.5,16.37],[-61.53,16.45],[-61.46,16.51],[-61.37,16.35],[-61.16,16.25],[-61.46,16.2],[-61.54,16.29]]]]}},{"type":"Feature","properties":{"id":"FRA-RE","nome":"La Réunion","pais":"FRA","tipo":"Overseas department","lat":-21.12,"lng":55.54},"geometry":{"type":"Polygon","coordinates":[[[55.79,-21.1],[55.85,-21.16],[55.81,-21.34],[55.58,-21.37],[55.35,-21.27],[55.23,-21.03],[55.29,-20.91],[55.58,-20.87],[55.7,-20.94],[55.79,-21.1]]]}},{"type":"Feature","properties":{"id":"FRA-YT","nome":"Mayotte","pais":"FRA","tipo":"Overseas department","lat":-12.78,"lng":45.28},"geometry":{"type":"Polygon","coordinates":[[[45.2,-12.72],[45.19,-12.97],[45.1,-12.98],[45.06,-12.9],[45.14,-12.9],[45.04,-12.7],[45.09,-12.65],[45.2,-12.72]]]}},{"type":"Feature","properties":{"id":"FRA-2B","nome":"Haute-Corse","pais":"FRA","tipo":"Metropolitan department","lat":42.4,"lng":9.23},"geometry":{"type":"Polygon","coordinates":[[[8.57,42.38],[8.66,42.43],[8.71,42.58],[8.79,42.56],[9.12,42.73],[9.29,42.67],[9.34,42.75],[9.31,42.84],[9.35,43],[9.46,42.99],[9.44,42.64],[9.53,42.56],[9.56,42.15],[9.4,41.95],[9.4,41.86],[9.23,41.86],[9.22,42.03],[9.16,42.03],[9.04,42.2],[8.87,42.32],[8.57,42.38]]]}},{"type":"Feature","properties":{"id":"FRA-2A","nome":"Corse-du-Sud","pais":"FRA","tipo":"Metropolitan department","lat":41.84,"lng":9.02},"geometry":{"type":"Polygon","coordinates":[[[9.4,41.86],[9.4,41.71],[9.35,41.62],[9.29,41.63],[9.35,41.58],[9.21,41.45],[9.21,41.41],[9.25,41.43],[9.22,41.37],[9.1,41.4],[9.08,41.48],[8.8,41.56],[8.8,41.64],[8.92,41.69],[8.66,41.75],[8.78,41.82],[8.75,41.85],[8.81,41.91],[8.61,41.91],[8.59,41.97],[8.74,42.06],[8.56,42.15],[8.59,42.17],[8.55,42.24],[8.69,42.28],[8.61,42.31],[8.61,42.35],[8.55,42.34],[8.55,42.39],[8.87,42.32],[9.04,42.2],[9.16,42.03],[9.22,42.03],[9.23,41.86],[9.4,41.86]]]}},{"type":"Feature","properties":{"id":"FRA-32","nome":"Gers","pais":"FRA","tipo":"Metropolitan department","lat":43.68,"lng":0.54},"geometry":{"type":"Polygon","coordinates":[[[0.1,43.51],[-0.01,43.61],[-0.24,43.59],[-0.18,43.84],[-0.22,43.9],[-0.02,43.97],[0.06,43.91],[0.09,43.97],[0.21,44.02],[0.59,44.07],[0.84,44.05],[0.76,43.95],[0.87,43.92],[0.9,43.79],[1.19,43.6],[1.05,43.52],[1,43.36],[0.79,43.41],[0.64,43.31],[0.2,43.37],[0.1,43.51]]]}},{"type":"Feature","properties":{"id":"FRA-87","nome":"Haute-Vienne","pais":"FRA","tipo":"Metropolitan department","lat":45.85,"lng":1.22},"geometry":{"type":"Polygon","coordinates":[[[1.89,45.7],[1.57,45.56],[1.44,45.58],[1.26,45.45],[1.13,45.48],[1.16,45.53],[1.02,45.61],[0.79,45.6],[0.73,45.69],[0.64,45.71],[0.79,45.8],[0.81,45.92],[0.92,45.97],[0.81,46.06],[0.79,46.23],[0.99,46.28],[1.06,46.36],[1.33,46.4],[1.44,46.34],[1.39,46.21],[1.58,45.99],[1.52,45.93],[1.61,45.92],[1.63,45.85],[1.76,45.86],[1.87,45.79],[1.89,45.7]]]}},{"type":"Feature","properties":{"id":"FRA-19","nome":"Corrèze","pais":"FRA","tipo":"Metropolitan department","lat":45.36,"lng":1.9},"geometry":{"type":"Polygon","coordinates":[[[1.86,45.67],[2.04,45.76],[2.29,45.68],[2.49,45.74],[2.52,45.7],[2.47,45.58],[2.52,45.48],[2.49,45.4],[2.35,45.41],[2.35,45.34],[2.19,45.22],[2.21,45.16],[2.11,45.05],[2.13,44.99],[1.77,44.94],[1.61,45.03],[1.46,45.02],[1.4,45.13],[1.28,45.15],[1.24,45.29],[1.33,45.38],[1.27,45.39],[1.28,45.48],[1.44,45.58],[1.57,45.56],[1.79,45.68],[1.86,45.67]]]}},{"type":"Feature","properties":{"id":"FRA-82","nome":"Tarn-et-Garonne","pais":"FRA","tipo":"Metropolitan department","lat":44.07,"lng":1.23},"geometry":{"type":"Polygon","coordinates":[[[1.98,44.17],[1.78,44.1],[1.66,44.12],[1.68,44.02],[1.52,43.9],[1.3,43.85],[1.36,43.82],[1.25,43.77],[1.16,43.82],[0.9,43.79],[0.88,43.91],[0.76,43.95],[0.85,44.04],[0.74,44.07],[0.81,44.15],[0.89,44.15],[0.95,44.27],[0.89,44.31],[0.92,44.38],[1.12,44.39],[1.13,44.32],[1.36,44.22],[1.47,44.28],[1.57,44.23],[1.57,44.29],[1.88,44.34],[1.87,44.29],[1.97,44.28],[1.91,44.21],[1.98,44.17]]]}},{"type":"Feature","properties":{"id":"FRA-81","nome":"Tarn","pais":"FRA","tipo":"Metropolitan department","lat":43.8,"lng":2.14},"geometry":{"type":"Polygon","coordinates":[[[1.97,44.16],[2.13,44.19],[2.38,44.1],[2.67,43.75],[2.9,43.74],[2.93,43.69],[2.78,43.62],[2.64,43.63],[2.66,43.47],[2.61,43.43],[2.06,43.4],[2.04,43.5],[1.95,43.48],[1.69,43.63],[1.73,43.67],[1.55,43.88],[1.55,43.96],[1.7,44.03],[1.66,44.12],[1.78,44.1],[1.97,44.16]]]}},{"type":"Feature","properties":{"id":"FRA-38","nome":"Isère","pais":"FRA","tipo":"Metropolitan department","lat":45.25,"lng":5.42},"geometry":{"type":"Polygon","coordinates":[[[5.03,45.32],[4.78,45.32],[4.76,45.44],[4.87,45.55],[4.8,45.59],[5.03,45.62],[5.15,45.7],[5.07,45.76],[5.1,45.83],[5.24,45.79],[5.37,45.88],[5.76,45.44],[5.91,45.39],[5.92,45.48],[5.97,45.49],[6.17,45.4],[6.16,45.16],[6.26,45.14],[6.22,45.02],[6.33,45],[6.37,44.87],[6.02,44.83],[5.81,44.71],[5.65,44.72],[5.46,44.8],[5.49,45.08],[5.18,45.08],[5.17,45.24],[5.03,45.32]]]}},{"type":"Feature","properties":{"id":"FRA-26","nome":"Drôme","pais":"FRA","tipo":"Metropolitan department","lat":44.74,"lng":5.13},"geometry":{"type":"Polygon","coordinates":[[[4.99,45.34],[5.16,45.26],[5.18,45.08],[5.49,45.08],[5.48,44.79],[5.83,44.7],[5.66,44.64],[5.61,44.56],[5.65,44.5],[5.47,44.49],[5.5,44.43],[5.43,44.42],[5.5,44.35],[5.63,44.33],[5.68,44.26],[5.67,44.15],[5.6,44.18],[5.47,44.12],[5.37,44.21],[5.18,44.23],[5.17,44.31],[4.83,44.24],[4.76,44.32],[4.66,44.33],[4.79,44.66],[4.77,44.78],[4.89,44.95],[4.81,45.3],[4.99,45.34]],[[4.9,44.31],[4.99,44.32],[5.04,44.38],[4.95,44.42],[4.9,44.31]]]}},{"type":"Feature","properties":{"id":"FRA-12","nome":"Aveyron","pais":"FRA","tipo":"Metropolitan department","lat":44.29,"lng":2.66},"geometry":{"type":"Polygon","coordinates":[[[2.14,44.58],[2.23,44.65],[2.47,44.67],[2.73,44.93],[2.93,44.78],[2.93,44.68],[3.08,44.54],[3.14,44.43],[3.12,44.26],[3.37,44.18],[3.29,44.08],[3.45,44.01],[3.21,43.82],[3.06,43.82],[3.03,43.69],[2.71,43.74],[2.38,44.1],[2.16,44.19],[1.99,44.15],[1.92,44.19],[1.97,44.28],[1.87,44.29],[1.9,44.36],[1.83,44.49],[2.14,44.58]]]}},{"type":"Feature","properties":{"id":"FRA-46","nome":"Lot","pais":"FRA","tipo":"Metropolitan department","lat":44.63,"lng":1.61},"geometry":{"type":"Polygon","coordinates":[[[2.21,44.62],[1.83,44.49],[1.9,44.35],[1.64,44.27],[1.57,44.29],[1.57,44.23],[1.47,44.28],[1.34,44.22],[1.15,44.3],[1,44.53],[1.3,44.73],[1.44,44.88],[1.43,45],[1.52,45.05],[1.78,44.93],[2.06,44.98],[2.16,44.78],[2.13,44.7],[2.21,44.62]]]}},{"type":"Feature","properties":{"id":"FRA-37","nome":"Indre-et-Loire","pais":"FRA","tipo":"Metropolitan department","lat":47.29,"lng":0.71},"geometry":{"type":"Polygon","coordinates":[[[1.33,47.19],[1.36,47.11],[1.24,47.02],[1.06,47],[0.94,46.74],[0.83,46.78],[0.67,46.97],[0.57,47],[0.57,46.95],[0.33,46.94],[0.31,47.04],[0.07,47.15],[0.24,47.6],[0.39,47.58],[0.4,47.63],[0.65,47.71],[0.85,47.67],[0.87,47.6],[1.04,47.6],[1.12,47.44],[1.11,47.31],[1.24,47.28],[1.33,47.19]]]}},{"type":"Feature","properties":{"id":"FRA-36","nome":"Indre","pais":"FRA","tipo":"Metropolitan department","lat":46.8,"lng":1.62},"geometry":{"type":"Polygon","coordinates":[[[1.31,47.07],[1.36,47.13],[1.33,47.19],[1.6,47.28],[1.72,47.29],[1.84,47.22],[1.79,47.12],[2.04,47.11],[2.13,46.9],[2.07,46.73],[2.18,46.64],[2.19,46.48],[2.14,46.42],[1.77,46.45],[1.74,46.4],[1.53,46.41],[1.41,46.35],[1.18,46.39],[1.14,46.52],[0.92,46.62],[0.88,46.75],[0.98,46.76],[1.07,47.01],[1.24,47.02],[1.31,47.07]]]}},{"type":"Feature","properties":{"id":"FRA-41","nome":"Loir-et-Cher","pais":"FRA","tipo":"Metropolitan department","lat":47.55,"lng":1.59},"geometry":{"type":"Polygon","coordinates":[[[1.84,47.22],[1.72,47.29],[1.6,47.28],[1.33,47.19],[1.24,47.28],[1.11,47.31],[1.12,47.44],[1.04,47.6],[0.61,47.69],[0.74,47.79],[0.84,47.95],[0.8,48.06],[1.01,48.13],[1.21,47.97],[1.55,47.99],[1.55,47.77],[1.71,47.73],[1.79,47.64],[1.86,47.7],[2.22,47.66],[2.24,47.62],[2.13,47.56],[2.26,47.44],[2.13,47.42],[2.14,47.29],[1.94,47.28],[1.84,47.22]]]}},{"type":"Feature","properties":{"id":"FRA-23","nome":"Creuse","pais":"FRA","tipo":"Metropolitan department","lat":46.07,"lng":2.04},"geometry":{"type":"Polygon","coordinates":[[[1.92,45.7],[1.87,45.71],[1.87,45.79],[1.76,45.86],[1.63,45.85],[1.61,45.92],[1.52,45.93],[1.58,45.99],[1.39,46.21],[1.41,46.35],[1.53,46.41],[1.74,46.4],[1.77,46.45],[2.25,46.42],[2.51,46.23],[2.6,45.97],[2.4,45.82],[2.49,45.74],[2.3,45.67],[2.04,45.76],[1.92,45.7]]]}},{"type":"Feature","properties":{"id":"FRA-53","nome":"Mayenne","pais":"FRA","tipo":"Metropolitan department","lat":48.16,"lng":-0.64},"geometry":{"type":"Polygon","coordinates":[[[-0.38,47.8],[-0.63,47.74],[-1.24,47.81],[-1.17,47.96],[-1.04,48],[-1.1,48.27],[-1.08,48.5],[-0.86,48.5],[-0.75,48.44],[-0.34,48.49],[-0.23,48.56],[-0.06,48.44],[-0.05,48.38],[-0.15,48.35],[-0.14,48.23],[-0.23,48.16],[-0.23,48.07],[-0.34,48.04],[-0.29,47.96],[-0.39,47.93],[-0.44,47.84],[-0.38,47.8]]]}},{"type":"Feature","properties":{"id":"FRA-72","nome":"Sarthe","pais":"FRA","tipo":"Metropolitan department","lat":47.97,"lng":0.17},"geometry":{"type":"Polygon","coordinates":[[[-0.42,47.76],[-0.38,47.8],[-0.44,47.84],[-0.39,47.93],[-0.29,47.96],[-0.34,48.04],[-0.23,48.07],[-0.12,48.37],[0.31,48.47],[0.37,48.45],[0.42,48.32],[0.91,48.15],[0.8,48.06],[0.84,47.95],[0.74,47.79],[0.61,47.72],[0.61,47.67],[0.38,47.62],[0.39,47.58],[-0.17,47.64],[-0.19,47.72],[-0.42,47.76]]]}},{"type":"Feature","properties":{"id":"FRA-84","nome":"Vaucluse","pais":"FRA","tipo":"Metropolitan department","lat":44,"lng":5.22},"geometry":{"type":"Polygon","coordinates":[[[5.75,43.73],[5.53,43.67],[5.19,43.75],[4.77,43.93],[4.85,44.01],[4.73,44.09],[4.66,44.33],[4.76,44.32],[4.83,44.24],[5.17,44.31],[5.18,44.23],[5.38,44.2],[5.54,44.05],[5.51,43.96],[5.59,43.9],[5.54,43.82],[5.61,43.84],[5.75,43.73]]]}},{"type":"Feature","properties":{"id":"FRA-52","nome":"Haute-Marne","pais":"FRA","tipo":"Metropolitan department","lat":48.16,"lng":5.24},"geometry":{"type":"Polygon","coordinates":[[[4.87,48.69],[4.99,48.69],[5.07,48.6],[5.34,48.5],[5.46,48.42],[5.44,48.33],[5.51,48.35],[5.71,48.21],[5.66,48.1],[5.9,47.92],[5.7,47.8],[5.69,47.69],[5.43,47.67],[5.28,47.59],[5.18,47.68],[4.98,47.69],[4.93,47.77],[4.99,47.8],[4.97,47.84],[4.7,48.02],[4.71,48.1],[4.83,48.11],[4.86,48.2],[4.82,48.34],[4.64,48.46],[4.67,48.53],[4.79,48.54],[4.78,48.6],[4.85,48.61],[4.77,48.64],[4.87,48.69]]]}},{"type":"Feature","properties":{"id":"FRA-51","nome":"Marne","pais":"FRA","tipo":"Metropolitan department","lat":49.02,"lng":4.26},"geometry":{"type":"Polygon","coordinates":[[[4.99,48.69],[4.8,48.68],[4.77,48.64],[4.85,48.61],[4.78,48.6],[4.79,48.54],[4.53,48.53],[4.33,48.61],[4.32,48.7],[4.08,48.69],[3.85,48.53],[3.64,48.54],[3.46,48.64],[3.39,48.76],[3.67,49.02],[3.58,49.04],[3.63,49.14],[3.75,49.17],[3.65,49.3],[3.88,49.38],[4.04,49.36],[4.06,49.41],[4.64,49.24],[4.98,49.24],[4.96,49.17],[5.03,49.01],[4.91,48.8],[4.99,48.69]]]}},{"type":"Feature","properties":{"id":"FRA-24","nome":"Dordogne","pais":"FRA","tipo":"Metropolitan department","lat":45.16,"lng":0.78},"geometry":{"type":"Polygon","coordinates":[[[-0.01,44.86],[0.07,45.06],[-0.03,45.12],[-0.01,45.18],[0.25,45.29],[0.28,45.42],[0.43,45.49],[0.52,45.63],[0.64,45.71],[0.73,45.69],[0.79,45.6],[1.02,45.61],[1.16,45.53],[1.13,45.48],[1.29,45.44],[1.27,45.39],[1.33,45.38],[1.25,45.32],[1.28,45.25],[1.24,45.21],[1.4,45.13],[1.46,45.02],[1.43,44.88],[1.08,44.57],[0.97,44.64],[0.84,44.6],[0.81,44.69],[0.42,44.65],[0.27,44.79],[0.31,44.87],[0.23,44.88],[0.17,44.83],[-0.01,44.86]]]}},{"type":"Feature","properties":{"id":"FRA-69","nome":"Rhône","pais":"FRA","tipo":"Metropolitan department","lat":45.84,"lng":4.65},"geometry":{"type":"Polygon","coordinates":[[[4.8,46.17],[4.75,45.96],[4.91,45.87],[4.92,45.81],[5.1,45.83],[5.07,45.76],[5.16,45.71],[5.01,45.61],[4.8,45.59],[4.87,45.55],[4.76,45.44],[4.65,45.49],[4.64,45.58],[4.5,45.58],[4.38,45.65],[4.4,45.75],[4.34,45.78],[4.39,45.84],[4.26,45.97],[4.31,46.01],[4.25,46.05],[4.43,46.15],[4.38,46.22],[4.41,46.29],[4.66,46.29],[4.72,46.19],[4.8,46.17]]]}},{"type":"Feature","properties":{"id":"FRA-88","nome":"Vosges","pais":"FRA","tipo":"Metropolitan department","lat":48.24,"lng":6.67},"geometry":{"type":"Polygon","coordinates":[[[6.89,48.42],[7.09,48.52],[7.15,48.5],[7.11,48.35],[7.21,48.3],[6.87,47.82],[6.62,47.94],[6.54,47.9],[6.24,47.93],[6.1,48.01],[5.97,47.94],[5.96,47.98],[5.89,47.93],[5.8,47.96],[5.79,48.02],[5.66,48.1],[5.71,48.21],[5.42,48.38],[5.84,48.5],[5.9,48.48],[5.87,48.41],[5.98,48.36],[6.28,48.44],[6.4,48.39],[6.61,48.47],[6.81,48.4],[6.89,48.42]]]}},{"type":"Feature","properties":{"id":"FRA-07","nome":"Ardèche","pais":"FRA","tipo":"Metropolitan department","lat":44.8,"lng":4.5},"geometry":{"type":"Polygon","coordinates":[[[4.81,45.3],[4.89,44.95],[4.77,44.78],[4.79,44.66],[4.72,44.57],[4.66,44.28],[4.52,44.34],[4.25,44.28],[4.05,44.33],[3.87,44.75],[4.3,44.97],[4.37,45.04],[4.37,45.13],[4.44,45.13],[4.46,45.24],[4.6,45.24],[4.61,45.31],[4.72,45.36],[4.81,45.3]]]}},{"type":"Feature","properties":{"id":"FRA-42","nome":"Loire","pais":"FRA","tipo":"Metropolitan department","lat":45.71,"lng":4.16},"geometry":{"type":"Polygon","coordinates":[[[4.76,45.44],[4.77,45.37],[4.61,45.31],[4.6,45.24],[4.36,45.27],[4.3,45.39],[3.89,45.35],[3.97,45.5],[3.69,45.8],[3.73,45.89],[3.68,45.96],[3.82,46],[3.77,46.23],[3.89,46.28],[3.9,46.21],[3.99,46.18],[4.42,46.21],[4.43,46.15],[4.25,46.05],[4.31,46.01],[4.26,45.97],[4.39,45.84],[4.34,45.78],[4.4,45.75],[4.38,45.65],[4.5,45.58],[4.64,45.58],[4.65,45.49],[4.76,45.44]]]}},{"type":"Feature","properties":{"id":"FRA-63","nome":"Puy-de-Dôme","pais":"FRA","tipo":"Metropolitan department","lat":45.81,"lng":3.27},"geometry":{"type":"Polygon","coordinates":[[[2.87,46.26],[3.02,46.1],[3.33,46.04],[3.44,46.07],[3.46,46],[3.68,45.96],[3.73,45.89],[3.7,45.79],[3.97,45.5],[3.89,45.36],[3.62,45.35],[3.51,45.42],[3.33,45.42],[3,45.29],[2.9,45.37],[2.7,45.39],[2.5,45.49],[2.47,45.58],[2.52,45.7],[2.4,45.83],[2.6,45.97],[2.57,46.14],[2.65,46.13],[2.73,46.22],[2.82,46.2],[2.87,46.26]]]}},{"type":"Feature","properties":{"id":"FRA-03","nome":"Allier","pais":"FRA","tipo":"Metropolitan department","lat":46.41,"lng":3.19},"geometry":{"type":"Polygon","coordinates":[[[3.02,46.1],[2.87,46.26],[2.82,46.2],[2.73,46.22],[2.65,46.13],[2.57,46.14],[2.47,46.27],[2.25,46.42],[2.34,46.5],[2.62,46.55],[2.58,46.65],[2.63,46.69],[2.98,46.79],[3.2,46.69],[3.43,46.71],[3.47,46.65],[3.62,46.74],[3.74,46.55],[3.98,46.46],[4,46.33],[3.77,46.23],[3.8,45.99],[3.68,45.96],[3.46,46],[3.44,46.07],[3.33,46.04],[3.02,46.1]]]}},{"type":"Feature","properties":{"id":"FRA-45","nome":"Loiret","pais":"FRA","tipo":"Metropolitan department","lat":47.9,"lng":2.19},"geometry":{"type":"Polygon","coordinates":[[[1.6,47.74],[1.55,47.77],[1.58,47.9],[1.52,48.03],[1.85,48.09],[1.97,48.19],[1.99,48.28],[2.2,48.34],[2.4,48.31],[2.51,48.21],[2.47,48.12],[2.96,48.15],[3.12,48],[2.99,47.91],[2.99,47.79],[2.83,47.75],[2.97,47.57],[2.82,47.5],[2.68,47.48],[2.57,47.57],[2.24,47.62],[2.17,47.68],[1.86,47.7],[1.79,47.64],[1.71,47.73],[1.6,47.74]]]}},{"type":"Feature","properties":{"id":"FRA-49","nome":"Maine-et-Loire","pais":"FRA","tipo":"Metropolitan department","lat":47.38,"lng":-0.53},"geometry":{"type":"Polygon","coordinates":[[[-1.06,47.56],[-1.01,47.59],[-1.17,47.64],[-1.24,47.81],[-0.63,47.74],[-0.5,47.78],[-0.19,47.72],[-0.17,47.64],[0.24,47.6],[0.07,47.15],[0,47.16],[-0.12,47.06],[-0.18,47.1],[-0.52,47.08],[-0.7,46.99],[-1.08,47.01],[-1.23,47.11],[-1.16,47.19],[-1.18,47.23],[-1.33,47.32],[-0.92,47.39],[-0.97,47.49],[-1.13,47.5],[-1.18,47.56],[-1.06,47.56]]]}},{"type":"Feature","properties":{"id":"FRA-10","nome":"Aube","pais":"FRA","tipo":"Metropolitan department","lat":48.31,"lng":4.16},"geometry":{"type":"Polygon","coordinates":[[[4.2,48.71],[4.32,48.7],[4.33,48.61],[4.53,48.53],[4.67,48.53],[4.64,48.46],[4.85,48.29],[4.83,48.11],[4.73,48.11],[4.7,48.02],[4.54,47.97],[3.93,47.93],[3.73,48.16],[3.58,48.18],[3.6,48.27],[3.39,48.42],[3.41,48.52],[3.54,48.61],[3.64,48.54],[3.85,48.53],[4.01,48.66],[4.2,48.71]]]}},{"type":"Feature","properties":{"id":"FRA-75","nome":"Paris","pais":"FRA","tipo":"Metropolitan department","lat":48.86,"lng":2.34},"geometry":{"type":"Polygon","coordinates":[[[2.24,48.83],[2.27,48.9],[2.47,48.86],[2.44,48.82],[2.24,48.83]]]}},{"type":"Feature","properties":{"id":"FRA-92","nome":"Hauts-de-Seine","pais":"FRA","tipo":"Metropolitan department","lat":48.86,"lng":2.2},"geometry":{"type":"Polygon","coordinates":[[[2.27,48.9],[2.23,48.85],[2.33,48.82],[2.3,48.73],[2.15,48.84],[2.18,48.91],[2.33,48.95],[2.27,48.9]]]}},{"type":"Feature","properties":{"id":"FRA-93","nome":"Seine-Saint-Denis","pais":"FRA","tipo":"Metropolitan department","lat":48.93,"lng":2.52},"geometry":{"type":"Polygon","coordinates":[[[2.27,48.9],[2.35,48.97],[2.56,49.01],[2.59,48.81],[2.27,48.9]]]}},{"type":"Feature","properties":{"id":"FRA-95","nome":"Val-d'Oise","pais":"FRA","tipo":"Metropolitan department","lat":49.08,"lng":2.23},"geometry":{"type":"Polygon","coordinates":[[[2.32,48.96],[2.12,48.89],[2.17,48.99],[2.07,49],[2.02,48.94],[1.84,49.07],[1.62,49.08],[1.7,49.23],[1.89,49.17],[2.07,49.21],[2.32,49.18],[2.58,49.08],[2.47,48.96],[2.32,48.96]]]}},{"type":"Feature","properties":{"id":"FRA-78","nome":"Yvelines","pais":"FRA","tipo":"Metropolitan department","lat":48.82,"lng":1.9},"geometry":{"type":"Polygon","coordinates":[[[1.62,49.08],[1.84,49.07],[2.02,48.94],[2.07,49],[2.18,48.98],[2.12,48.89],[2.23,48.78],[2.05,48.69],[2.03,48.58],[1.95,48.55],[1.92,48.44],[1.78,48.48],[1.58,48.7],[1.57,48.85],[1.44,49.04],[1.62,49.08]]]}},{"type":"Feature","properties":{"id":"FRA-16","nome":"Charente","pais":"FRA","tipo":"Metropolitan department","lat":45.7,"lng":0.15},"geometry":{"type":"Polygon","coordinates":[[[-0.2,45.78],[-0.13,45.83],[-0.15,45.93],[0.09,46.1],[0.44,46.05],[0.49,46.13],[0.6,46.08],[0.8,46.13],[0.81,46.05],[0.92,45.97],[0.81,45.92],[0.78,45.8],[0.71,45.8],[0.52,45.63],[0.43,45.49],[0.28,45.42],[0.25,45.29],[0.13,45.21],[0,45.19],[-0.12,45.25],[-0.11,45.29],[-0.29,45.32],[-0.31,45.38],[-0.24,45.5],[-0.42,45.62],[-0.42,45.74],[-0.46,45.74],[-0.27,45.8],[-0.2,45.78]]]}},{"type":"Feature","properties":{"id":"FRA-18","nome":"Cher","pais":"FRA","tipo":"Metropolitan department","lat":47.14,"lng":2.52},"geometry":{"type":"Polygon","coordinates":[[[1.89,47.1],[1.77,47.13],[1.84,47.22],[1.94,47.28],[2.14,47.29],[2.13,47.42],[2.25,47.41],[2.25,47.48],[2.13,47.59],[2.44,47.61],[2.68,47.48],[2.88,47.51],[2.93,47.44],[2.88,47.34],[2.98,47.26],[3.07,47.05],[3.07,46.87],[3.03,46.79],[2.58,46.66],[2.61,46.55],[2.14,46.42],[2.19,46.49],[2.19,46.62],[2.07,46.73],[2.13,46.9],[2.05,47.11],[1.89,47.1]]]}},{"type":"Feature","properties":{"id":"FRA-28","nome":"Eure-et-Loir","pais":"FRA","tipo":"Metropolitan department","lat":48.36,"lng":1.37},"geometry":{"type":"Polygon","coordinates":[[[1.21,47.97],[1.02,48.13],[0.83,48.09],[0.91,48.15],[0.8,48.19],[0.78,48.32],[0.98,48.43],[0.82,48.67],[1.11,48.78],[1.32,48.78],[1.49,48.94],[1.61,48.75],[1.58,48.69],[1.78,48.48],[1.92,48.44],[2,48.33],[1.98,48.2],[1.85,48.09],[1.54,48.04],[1.52,47.98],[1.21,47.97]]]}},{"type":"Feature","properties":{"id":"FRA-43","nome":"Haute-Loire","pais":"FRA","tipo":"Metropolitan department","lat":45.13,"lng":3.72},"geometry":{"type":"Polygon","coordinates":[[[3.11,45.28],[3.1,45.35],[3.33,45.42],[3.51,45.42],[3.62,45.35],[4.3,45.39],[4.35,45.28],[4.48,45.22],[4.44,45.12],[4.37,45.13],[4.37,45.04],[4.3,44.97],[3.87,44.75],[3.64,44.87],[3.48,44.82],[3.3,45.04],[3.33,45.11],[3.23,45.27],[3.11,45.28]]]}},{"type":"Feature","properties":{"id":"FRA-15","nome":"Cantal","pais":"FRA","tipo":"Metropolitan department","lat":45.16,"lng":2.75},"geometry":{"type":"Polygon","coordinates":[[[3.1,45.35],[3.11,45.28],[3.23,45.27],[3.37,44.95],[3.11,44.89],[2.98,44.64],[2.93,44.78],[2.73,44.94],[2.47,44.67],[2.21,44.62],[2.13,44.7],[2.16,44.78],[2.06,44.98],[2.13,44.99],[2.11,45.05],[2.21,45.16],[2.19,45.22],[2.35,45.34],[2.35,45.41],[2.48,45.39],[2.54,45.48],[2.7,45.39],[2.9,45.37],[3,45.29],[3.1,45.35]]]}},{"type":"Feature","properties":{"id":"FRA-47","nome":"Lot-et-Garonne","pais":"FRA","tipo":"Metropolitan department","lat":44.38,"lng":0.45},"geometry":{"type":"Polygon","coordinates":[[[-0.13,44.15],[-0.14,44.23],[-0.03,44.28],[-0.09,44.35],[0.01,44.37],[-0.01,44.5],[0.17,44.64],[0.11,44.7],[0.14,44.74],[0.3,44.76],[0.42,44.65],[0.81,44.69],[0.84,44.6],[0.97,44.64],[1.08,44.57],[1,44.53],[1.06,44.38],[0.9,44.37],[0.89,44.31],[0.95,44.27],[0.89,44.15],[0.81,44.15],[0.68,44.04],[0.58,44.07],[0.09,43.97],[0.06,44.02],[0.14,44.12],[-0.13,44.15]]]}},{"type":"Feature","properties":{"id":"FRA-48","nome":"Lozère","pais":"FRA","tipo":"Metropolitan department","lat":44.49,"lng":3.55},"geometry":{"type":"Polygon","coordinates":[[[3.99,44.46],[3.89,44.39],[3.97,44.25],[3.88,44.13],[3.67,44.18],[3.62,44.12],[3.52,44.11],[3.12,44.26],[3.14,44.43],[2.98,44.64],[3.11,44.89],[3.38,44.96],[3.48,44.82],[3.64,44.87],[3.87,44.75],[3.99,44.46]]]}},{"type":"Feature","properties":{"id":"FRA-58","nome":"Nièvre","pais":"FRA","tipo":"Metropolitan department","lat":47.15,"lng":3.57},"geometry":{"type":"Polygon","coordinates":[[[4.11,47.34],[4.12,47.25],[4.22,47.2],[4.06,47.11],[4.06,47.03],[4,47],[4.09,46.86],[4.05,46.79],[3.81,46.7],[3.74,46.75],[3.6,46.74],[3.48,46.65],[3.41,46.71],[3.2,46.69],[3.03,46.77],[3.07,47.05],[2.98,47.26],[2.88,47.34],[2.93,47.45],[2.86,47.54],[3.1,47.58],[3.35,47.48],[3.49,47.49],[3.49,47.56],[3.72,47.41],[3.81,47.39],[3.87,47.43],[3.87,47.37],[3.95,47.39],[4,47.31],[4.11,47.34]]]}},{"type":"Feature","properties":{"id":"FRA-21","nome":"Côte-d'Or","pais":"FRA","tipo":"Metropolitan department","lat":47.4,"lng":4.77},"geometry":{"type":"Polygon","coordinates":[[[4.16,47.25],[4.06,47.42],[4.26,47.73],[4.34,47.77],[4.26,47.84],[4.29,47.92],[4.6,48.01],[4.86,47.95],[4.85,47.9],[4.99,47.81],[4.93,47.77],[4.98,47.69],[5.18,47.68],[5.28,47.59],[5.45,47.62],[5.5,47.55],[5.41,47.46],[5.5,47.36],[5.49,47.2],[5.25,46.98],[4.68,46.9],[4.55,47.02],[4.21,47.16],[4.22,47.22],[4.16,47.25]]]}},{"type":"Feature","properties":{"id":"FRA-60","nome":"Oise","pais":"FRA","tipo":"Metropolitan department","lat":49.4,"lng":2.64},"geometry":{"type":"Polygon","coordinates":[[[3.12,49.71],[3.12,49.49],[3.17,49.44],[2.96,49.32],[3.02,49.26],[2.98,49.19],[3.13,49.17],[3.06,49.1],[2.58,49.08],[2.32,49.18],[2.07,49.21],[1.89,49.17],[1.69,49.24],[1.78,49.25],[1.72,49.42],[1.77,49.5],[1.71,49.51],[1.68,49.65],[1.75,49.77],[1.86,49.7],[2.31,49.69],[2.64,49.58],[2.79,49.62],[2.88,49.71],[3.12,49.71]]]}},{"type":"Feature","properties":{"id":"FRA-61","nome":"Orne","pais":"FRA","tipo":"Metropolitan department","lat":48.65,"lng":0.06},"geometry":{"type":"Polygon","coordinates":[[[-0.86,48.5],[-0.74,48.69],[-0.84,48.75],[-0.69,48.84],[-0.44,48.87],[-0.14,48.83],[0.11,48.95],[0.28,48.97],[0.4,48.96],[0.42,48.88],[0.59,48.88],[0.74,48.78],[0.73,48.71],[0.82,48.67],[0.98,48.43],[0.78,48.33],[0.83,48.21],[0.77,48.18],[0.4,48.32],[0.37,48.45],[0.31,48.47],[-0.05,48.38],[-0.23,48.56],[-0.34,48.49],[-0.75,48.44],[-0.86,48.5]]]}},{"type":"Feature","properties":{"id":"FRA-70","nome":"Haute-Saône","pais":"FRA","tipo":"Metropolitan department","lat":47.7,"lng":6.17},"geometry":{"type":"Polygon","coordinates":[[[5.62,47.26],[5.51,47.3],[5.41,47.46],[5.49,47.53],[5.48,47.6],[5.37,47.61],[5.42,47.67],[5.69,47.69],[5.7,47.8],[5.96,47.98],[5.97,47.94],[6.1,48.01],[6.24,47.93],[6.37,47.95],[6.52,47.9],[6.62,47.94],[6.84,47.82],[6.76,47.72],[6.78,47.54],[6.34,47.51],[6.07,47.36],[5.62,47.26]]]}},{"type":"Feature","properties":{"id":"FRA-71","nome":"Saône-et-Loire","pais":"FRA","tipo":"Metropolitan department","lat":46.68,"lng":4.51},"geometry":{"type":"Polygon","coordinates":[[[3.81,46.7],[4.05,46.79],[4.09,46.86],[4,47],[4.06,47.03],[4.06,47.12],[4.21,47.16],[4.55,47.02],[4.68,46.9],[5.23,46.99],[5.46,46.86],[5.35,46.81],[5.42,46.64],[5.36,46.55],[5.42,46.48],[4.94,46.5],[4.8,46.17],[4.72,46.19],[4.64,46.3],[4.59,46.26],[4.41,46.29],[4.3,46.17],[3.9,46.21],[3.89,46.28],[4,46.33],[3.98,46.47],[3.74,46.55],[3.62,46.74],[3.74,46.75],[3.81,46.7]]]}},{"type":"Feature","properties":{"id":"FRA-79","nome":"Deux-Sèvres","pais":"FRA","tipo":"Metropolitan department","lat":46.57,"lng":-0.3},"geometry":{"type":"Polygon","coordinates":[[[-0.59,46.14],[-0.75,46.25],[-0.76,46.3],[-0.56,46.36],[-0.63,46.41],[-0.63,46.61],[-0.72,46.81],[-0.94,47.01],[-0.7,46.99],[-0.52,47.08],[-0.11,47.07],[0.03,46.85],[-0.02,46.81],[0.01,46.74],[-0.03,46.63],[0.02,46.6],[-0.03,46.51],[-0.01,46.41],[0.07,46.31],[0.17,46.33],[0.11,46.2],[0.2,46.15],[0.2,46.1],[0.04,46.08],[-0.1,45.97],[-0.26,46.07],[-0.59,46.14]]]}},{"type":"Feature","properties":{"id":"FRA-86","nome":"Vienne","pais":"FRA","tipo":"Metropolitan department","lat":46.53,"lng":0.41},"geometry":{"type":"Polygon","coordinates":[[[0.8,46.13],[0.6,46.08],[0.49,46.13],[0.46,46.06],[0.29,46.06],[0.11,46.19],[0.18,46.31],[0.05,46.32],[-0.01,46.41],[-0.03,46.51],[0.02,46.6],[-0.03,46.63],[0.01,46.74],[-0.02,46.81],[0.03,46.85],[-0.1,47.08],[0.07,47.15],[0.31,47.04],[0.33,46.94],[0.57,46.95],[0.57,47],[0.67,46.97],[0.9,46.73],[0.92,46.61],[1.14,46.52],[1.18,46.39],[0.79,46.23],[0.8,46.13]]]}},{"type":"Feature","properties":{"id":"FRA-89","nome":"Yonne","pais":"FRA","tipo":"Metropolitan department","lat":47.77,"lng":3.64},"geometry":{"type":"Polygon","coordinates":[[[3.25,47.49],[3.11,47.58],[2.97,47.57],[2.83,47.72],[2.99,47.79],[2.99,47.91],[3.12,48],[3.02,48.13],[2.93,48.16],[3.03,48.26],[3.04,48.36],[3.4,48.41],[3.6,48.27],[3.58,48.18],[3.73,48.16],[3.92,47.93],[4.22,47.97],[4.34,47.79],[4.07,47.42],[4.11,47.34],[4.02,47.31],[3.95,47.39],[3.87,47.37],[3.87,47.43],[3.8,47.39],[3.59,47.47],[3.49,47.56],[3.49,47.49],[3.25,47.49]]]}},{"type":"Feature","properties":{"id":"FRA-91","nome":"Essonne","pais":"FRA","tipo":"Metropolitan department","lat":48.56,"lng":2.3},"geometry":{"type":"Polygon","coordinates":[[[2,48.56],[2.05,48.69],[2.21,48.78],[2.51,48.73],[2.58,48.67],[2.5,48.52],[2.53,48.42],[2.39,48.31],[2.2,48.34],[1.97,48.28],[2,48.33],[1.92,48.46],[2,48.56]]]}},{"type":"Feature","properties":{"id":"FRA-77","nome":"Seien-et-Marne","pais":"FRA","tipo":"Metropolitan department","lat":48.55,"lng":2.84},"geometry":{"type":"Polygon","coordinates":[[[2.39,48.31],[2.53,48.42],[2.5,48.52],[2.6,48.75],[2.58,49.08],[3.14,49.09],[3.18,49],[3.48,48.85],[3.4,48.75],[3.54,48.61],[3.41,48.52],[3.4,48.41],[3.04,48.36],[3.03,48.26],[2.93,48.16],[2.47,48.12],[2.51,48.21],[2.39,48.31]]]}},{"type":"Feature","properties":{"id":"FRA-94","nome":"Val-de-Marne","pais":"FRA","tipo":"Metropolitan department","lat":48.78,"lng":2.52},"geometry":{"type":"Polygon","coordinates":[[[2.47,48.86],[2.59,48.81],[2.57,48.69],[2.32,48.75],[2.33,48.82],[2.47,48.86]]]}}]}