{"type":"FeatureCollection","features":[{"type":"Feature","properties":{"id":"FRO-X00~","nome":"Eysturoyar","pais":"FRO","tipo":"Region","lat":62.14,"lng":-6.96},"geometry":{"type":"MultiPolygon","coordinates":[[[[-6.65,61.4],[-6.87,61.5],[-6.96,61.63],[-6.89,61.65],[-6.87,61.62],[-6.91,61.6],[-6.72,61.57],[-6.81,61.55],[-6.68,61.48],[-6.78,61.46],[-6.68,61.46],[-6.65,61.4]]],[[[-7.38,62.09],[-7.43,62.15],[-7.22,62.16],[-7.04,62.09],[-7.2,62.02],[-7.22,62.07],[-7.38,62.09]]],[[[-7.22,62.17],[-7.2,62.31],[-7.07,62.29],[-7,62.18],[-6.85,62.14],[-6.9,62.1],[-6.78,62.07],[-6.85,62.05],[-6.72,62.03],[-6.7,61.94],[-7.22,62.17]]],[[[-7.06,62.29],[-7.09,62.31],[-6.93,62.34],[-6.88,62.31],[-6.93,62.29],[-6.91,62.24],[-6.91,62.28],[-6.81,62.29],[-6.74,62.26],[-6.78,62.23],[-6.61,62.2],[-6.72,62.18],[-6.56,62.14],[-6.67,62.15],[-6.59,62.12],[-6.65,62.06],[-6.75,62.18],[-6.81,62.19],[-6.73,62.15],[-6.74,62.1],[-6.96,62.19],[-7.06,62.29]]]]}}]}