{"type":"FeatureCollection","features":[{"type":"Feature","properties":{"id":"FSM-KSA","nome":"Kosrae","pais":"FSM","tipo":"Estado","lat":5.36,"lng":162.93},"geometry":{"type":"Polygon","coordinates":[[[163.03,5.34],[163.02,5.27],[162.92,5.29],[162.99,5.37],[163.03,5.34]]]}},{"type":"Feature","properties":{"id":"FSM-PNI","nome":"Pohnpei","pais":"FSM","tipo":"Estado","lat":6.87,"lng":158.16},"geometry":{"type":"Polygon","coordinates":[[[158.29,6.94],[158.34,6.88],[158.31,6.81],[158.18,6.8],[158.13,6.94],[158.18,6.98],[158.29,6.94]]]}}]}