{"type":"FeatureCollection","features":[{"type":"Feature","properties":{"id":"GAB-9","nome":"Wouleu-Ntem","pais":"GAB","tipo":"Province","lat":1.44,"lng":11.83},"geometry":{"type":"Polygon","coordinates":[[[11.66,2.32],[11.77,2.28],[12.32,2.31],[12.75,2.24],[13.25,2.27],[13.29,2.07],[13.16,1.9],[13.19,1.83],[13.13,1.59],[13.25,1.34],[13.15,1.26],[13.18,1.22],[12.35,1.23],[12.22,1],[12.2,0.85],[11.48,0.35],[11.58,0.23],[10.81,0.23],[10.97,0.67],[10.96,0.82],[10.4,0.64],[10.36,0.73],[10.42,1],[11.34,1],[11.35,2.3],[11.66,2.32]]]}},{"type":"Feature","properties":{"id":"GAB-6","nome":"Ogooué-Ivindo","pais":"GAB","tipo":"Province","lat":0.72,"lng":12.87},"geometry":{"type":"Polygon","coordinates":[[[13.18,1.22],[13.38,1.29],[13.54,1.28],[13.79,1.43],[14.14,1.39],[14.25,1.33],[14.28,1.13],[14.47,0.91],[14.45,0.82],[14.33,0.62],[14.23,0.54],[14.08,0.54],[14.06,0.44],[13.95,0.35],[13.87,0.2],[13.93,0.02],[13.91,-0.07],[13.18,0.06],[13.05,0.22],[12.61,0.28],[12.46,-0.4],[11.56,-0.75],[11.28,-0.08],[11.32,0.01],[11.58,0.17],[11.48,0.35],[12.2,0.85],[12.22,1],[12.35,1.23],[13.18,1.22]]]}},{"type":"Feature","properties":{"id":"GAB-2","nome":"Haut-Ogooué","pais":"GAB","tipo":"Province","lat":-1.13,"lng":13.62},"geometry":{"type":"Polygon","coordinates":[[[13.89,-0.09],[13.83,-0.18],[13.88,-0.26],[14.1,-0.28],[14.16,-0.46],[14.36,-0.46],[14.5,-0.63],[14.39,-1.01],[14.47,-1.22],[14.43,-1.33],[14.49,-1.41],[14.46,-1.55],[14.36,-1.61],[14.45,-1.69],[14.4,-1.91],[14.25,-1.97],[14.23,-2.13],[14.15,-2.22],[14.23,-2.35],[14.14,-2.39],[14.09,-2.5],[13.86,-2.48],[13.91,-2.36],[13.74,-2.1],[13.46,-2.44],[13.03,-2.34],[12.97,-2.37],[13.01,-2.28],[12.91,-2.2],[12.8,-1.92],[12.74,-1.89],[12.78,-1.75],[12.95,-1.42],[13.17,-1.26],[13.16,-1.12],[13.26,-1.16],[13.56,-0.77],[13.25,-0.2],[13.22,-0.11],[13.28,0.04],[13.72,-0.01],[13.89,-0.09]]]}},{"type":"Feature","properties":{"id":"GAB-7","nome":"Ogooué-Lolo","pais":"GAB","tipo":"Province","lat":-0.97,"lng":12.53},"geometry":{"type":"Polygon","coordinates":[[[12.74,-1.89],[12.58,-1.83],[12.49,-1.92],[12.44,-1.86],[12.21,-1.81],[12.03,-1.63],[12.02,-1.39],[11.81,-1.21],[11.75,-1.06],[11.56,-1.12],[11.5,-0.9],[11.56,-0.75],[12.46,-0.4],[12.61,0.27],[12.73,0.28],[12.8,0.23],[13.06,0.22],[13.12,0.09],[13.28,0.04],[13.22,-0.11],[13.25,-0.2],[13.56,-0.75],[13.26,-1.16],[13.16,-1.12],[13.17,-1.26],[12.91,-1.47],[12.74,-1.89]]]}},{"type":"Feature","properties":{"id":"GAB-4","nome":"Ngounié","pais":"GAB","tipo":"Province","lat":-1.49,"lng":11.19},"geometry":{"type":"Polygon","coordinates":[[[12.45,-1.9],[12.44,-2.05],[12.5,-2.1],[12.46,-2.33],[12.06,-2.41],[11.94,-2.33],[11.76,-2.42],[11.57,-2.33],[11.62,-2.63],[11.54,-2.8],[11.07,-2.26],[10.61,-2.31],[10.45,-2.05],[10.46,-1.96],[9.98,-1.82],[9.87,-1.67],[9.96,-1.59],[9.97,-1.41],[10.07,-1.26],[10.2,-1.14],[10.36,-1.16],[10.65,-0.63],[11.16,-0.58],[11.38,-0.72],[11.56,-0.75],[11.5,-0.9],[11.55,-1.11],[11.75,-1.06],[11.81,-1.21],[12.03,-1.4],[12.03,-1.63],[12.21,-1.81],[12.45,-1.9]]]}},{"type":"Feature","properties":{"id":"GAB-5","nome":"Nyanga","pais":"GAB","tipo":"Province","lat":-2.98,"lng":10.98},"geometry":{"type":"Polygon","coordinates":[[[11.54,-2.8],[11.53,-2.87],[11.64,-2.83],[11.78,-3.01],[11.71,-3.05],[11.69,-3.17],[11.94,-3.3],[11.83,-3.55],[11.9,-3.67],[11.84,-3.71],[11.67,-3.69],[11.57,-3.54],[11.48,-3.51],[11.21,-3.7],[11.11,-3.94],[11.02,-3.86],[10.96,-3.69],[10.65,-3.45],[10.64,-3.31],[9.96,-2.75],[10.33,-2.64],[10.43,-2.41],[10.61,-2.31],[11.04,-2.25],[11.54,-2.8]]]}},{"type":"Feature","properties":{"id":"GAB-1","nome":"Estuaire","pais":"GAB","tipo":"Province","lat":0.32,"lng":10.14},"geometry":{"type":"Polygon","coordinates":[[[10.03,1],[10.42,1],[10.36,0.73],[10.4,0.64],[10.96,0.82],[10.95,0.62],[10.83,0.26],[10.67,0.21],[10.52,-0.08],[10.02,-0.41],[9.9,-0.3],[9.57,-0.42],[9.57,-0.58],[9.4,-0.46],[9.31,-0.27],[9.36,0.02],[9.31,0.32],[9.37,0.35],[9.36,0.18],[9.42,0.21],[9.49,0.1],[9.5,0.19],[9.59,0.11],[9.71,0.13],[9.81,0.02],[9.76,0.13],[10.03,0.2],[9.79,0.18],[9.57,0.32],[9.5,0.29],[9.4,0.49],[9.31,0.54],[9.31,0.61],[9.54,0.68],[9.56,0.62],[9.46,0.6],[9.57,0.6],[9.61,0.47],[9.64,0.6],[9.58,1],[9.75,1.06],[9.79,0.97],[9.83,0.99],[9.94,0.92],[10.03,1]]]}},{"type":"Feature","properties":{"id":"GAB-8","nome":"Ogooué-Maritime","pais":"GAB","tipo":"Province","lat":-0.68,"lng":9},"geometry":{"type":"Polygon","coordinates":[[[9.96,-2.75],[9.7,-2.44],[9.79,-2.5],[9.84,-2.46],[9.85,-2.53],[9.98,-2.63],[10.16,-2.56],[10.08,-2.49],[10.09,-2.56],[10.01,-2.51],[9.98,-2.56],[9.99,-2.49],[9.87,-2.41],[9.75,-2.47],[9.72,-2.38],[9.7,-2.44],[9.6,-2.35],[9.57,-2.19],[9.27,-1.88],[9.47,-1.92],[9.54,-2.07],[9.52,-1.93],[9.37,-1.82],[9.34,-1.89],[9.26,-1.84],[9.22,-1.58],[8.98,-1.23],[9.26,-1.54],[9.28,-1.68],[9.3,-1.63],[9.4,-1.61],[9.42,-1.67],[9.42,-1.61],[9.56,-1.61],[9.46,-1.47],[9.38,-1.56],[9.29,-1.57],[9.25,-1.48],[9.33,-1.4],[9.34,-1.28],[9.32,-1.37],[9.19,-1.41],[9.15,-1.33],[9.03,-1.3],[9.03,-1.19],[9,-1.16],[8.99,-1.22],[8.87,-0.98],[8.91,-1.01],[8.94,-0.96],[8.84,-0.92],[8.7,-0.59],[8.77,-0.63],[8.84,-0.8],[8.87,-0.72],[8.91,-0.72],[8.89,-0.68],[8.93,-0.69],[9.01,-0.87],[9.05,-0.71],[9.11,-0.68],[9.1,-0.6],[9.29,-0.37],[9.31,-0.27],[9.4,-0.46],[9.57,-0.58],[9.68,-0.84],[9.92,-0.94],[9.91,-1.16],[10.07,-1.26],[9.97,-1.41],[9.96,-1.59],[9.87,-1.67],[9.93,-1.77],[9.99,-1.83],[10.46,-1.96],[10.45,-2.05],[10.61,-2.31],[10.43,-2.41],[10.33,-2.64],[9.96,-2.75]]]}},{"type":"Feature","properties":{"id":"GAB-3","nome":"Moyen-Ogooué","pais":"GAB","tipo":"Province","lat":-0.37,"lng":10.57},"geometry":{"type":"Polygon","coordinates":[[[11.58,0.23],[11.57,0.16],[11.36,0.04],[11.28,-0.07],[11.56,-0.75],[11.38,-0.72],[11.16,-0.58],[10.78,-0.65],[10.66,-0.63],[10.36,-1.16],[10.2,-1.14],[10.07,-1.26],[9.91,-1.16],[9.92,-0.94],[9.75,-0.9],[9.64,-0.79],[9.57,-0.42],[9.9,-0.3],[9.98,-0.33],[10,-0.42],[10.11,-0.38],[10.55,-0.05],[10.67,0.21],[11.58,0.23]]]}}]}