{"type":"FeatureCollection","features":[{"type":"Feature","properties":{"id":"GBR-DRY","nome":"Derry","pais":"GBR","tipo":"London Borough (city)","lat":54.97,"lng":-7.21},"geometry":{"type":"Polygon","coordinates":[[[-7.42,54.94],[-7.36,55.04],[-7.15,55.05],[-7.01,54.82],[-7.42,54.94]]]}},{"type":"Feature","properties":{"id":"GBR-STB","nome":"Strabane","pais":"GBR","tipo":"District","lat":54.81,"lng":-7.41},"geometry":{"type":"Polygon","coordinates":[[[-7.56,54.74],[-7.42,54.94],[-6.9,54.78],[-7.31,54.73],[-7.44,54.64],[-7.69,54.6],[-7.93,54.7],[-7.56,54.74]]]}},{"type":"Feature","properties":{"id":"GBR-FER","nome":"Fermanagh","pais":"GBR","tipo":"District","lat":54.38,"lng":-7.66},"geometry":{"type":"Polygon","coordinates":[[[-7.89,54.53],[-7.71,54.6],[-7.55,54.57],[-7.56,54.43],[-7.36,54.43],[-7.25,54.33],[-7.19,54.34],[-7.15,54.22],[-7.25,54.2],[-7.28,54.13],[-7.33,54.15],[-7.31,54.11],[-7.61,54.14],[-7.86,54.21],[-7.88,54.29],[-8.17,54.46],[-8,54.54],[-7.89,54.53]]]}},{"type":"Feature","properties":{"id":"GBR-DGN","nome":"Dungannon","pais":"GBR","tipo":"District","lat":54.48,"lng":-6.95},"geometry":{"type":"Polygon","coordinates":[[[-6.87,54.33],[-7.02,54.41],[-7.23,54.32],[-7.36,54.43],[-7.11,54.47],[-6.96,54.58],[-6.53,54.54],[-6.58,54.51],[-6.55,54.46],[-6.8,54.41],[-6.87,54.33]]]}},{"type":"Feature","properties":{"id":"GBR-ARM","nome":"Armagh","pais":"GBR","tipo":"District","lat":54.33,"lng":-6.62},"geometry":{"type":"Polygon","coordinates":[[[-6.73,54.18],[-6.88,54.28],[-6.8,54.41],[-6.55,54.46],[-6.37,54.34],[-6.37,54.27],[-6.73,54.18]]]}},{"type":"Feature","properties":{"id":"GBR-NYM","nome":"Newry and Mourne","pais":"GBR","tipo":"District","lat":54.18,"lng":-6.27},"geometry":{"type":"Polygon","coordinates":[[[-6.62,54.04],[-6.67,54.07],[-6.65,54.19],[-6.45,54.27],[-6.07,54.25],[-6.03,54.17],[-5.87,54.18],[-5.89,54.1],[-6.04,54.04],[-6.35,54.11],[-6.38,54.06],[-6.62,54.04]]]}},{"type":"Feature","properties":{"id":"GBR-FLN","nome":"Flintshire","pais":"GBR","tipo":"Unitary Authority (wales)","lat":53.18,"lng":-3.15},"geometry":{"type":"Polygon","coordinates":[[[-3.08,53.26],[-2.91,53.17],[-3.12,53.07],[-3.34,53.22],[-3.38,53.33],[-3.08,53.26]]]}},{"type":"Feature","properties":{"id":"GBR-CHW","nome":"Cheshire West and Chester","pais":"GBR","tipo":"Unitary Authority","lat":53.17,"lng":-2.77},"geometry":{"type":"Polygon","coordinates":[[[-2.96,53.14],[-2.92,53.19],[-3.1,53.29],[-2.51,53.33],[-2.41,53.23],[-2.65,53.09],[-2.62,52.99],[-2.73,52.97],[-2.82,52.99],[-2.96,53.14]]]}},{"type":"Feature","properties":{"id":"GBR-WRX","nome":"Wrexham","pais":"GBR","tipo":"Unitary Authority (wales)","lat":53.02,"lng":-3.05},"geometry":{"type":"Polygon","coordinates":[[[-2.96,53.14],[-2.72,52.92],[-2.99,52.95],[-3.13,52.88],[-3.14,52.8],[-3.24,52.78],[-3.39,52.87],[-3.31,52.93],[-3.09,52.96],[-3.13,53.06],[-2.96,53.14]]]}},{"type":"Feature","properties":{"id":"GBR-SHR","nome":"Shropshire","pais":"GBR","tipo":"Unitary Single-Tier County","lat":52.62,"lng":-2.72},"geometry":{"type":"Polygon","coordinates":[[[-3.14,52.8],[-3.13,52.88],[-2.99,52.95],[-2.78,52.9],[-2.72,52.92],[-2.73,52.97],[-2.37,52.99],[-2.45,52.9],[-2.37,52.88],[-2.4,52.82],[-2.66,52.74],[-2.42,52.61],[-2.32,52.75],[-2.23,52.66],[-2.31,52.6],[-2.26,52.52],[-2.35,52.42],[-2.32,52.38],[-2.56,52.31],[-2.7,52.3],[-2.84,52.39],[-3.07,52.35],[-3.21,52.45],[-2.98,52.54],[-3.11,52.53],[-3.12,52.58],[-2.96,52.73],[-3.14,52.8]]]}},{"type":"Feature","properties":{"id":"GBR-POW","nome":"Powys","pais":"GBR","tipo":"Unitary Authority (wales)","lat":52.34,"lng":-3.44},"geometry":{"type":"Polygon","coordinates":[[[-3.14,52.8],[-2.96,52.73],[-3.12,52.58],[-3.11,52.53],[-2.98,52.54],[-3.22,52.44],[-3.07,52.35],[-2.96,52.34],[-3,52.3],[-2.96,52.26],[-3.12,52.13],[-3.03,51.89],[-3.16,51.81],[-3.41,51.83],[-3.58,51.75],[-3.76,51.76],[-3.8,51.79],[-3.64,52.04],[-3.76,52.12],[-3.7,52.27],[-3.73,52.32],[-3.65,52.35],[-3.76,52.44],[-3.72,52.5],[-3.81,52.48],[-3.84,52.55],[-3.93,52.55],[-3.8,52.67],[-3.6,52.7],[-3.59,52.81],[-3.47,52.86],[-3.38,52.87],[-3.26,52.78],[-3.14,52.8]]]}},{"type":"Feature","properties":{"id":"GBR-HEF","nome":"Herefordshire","pais":"GBR","tipo":"Unitary Authority","lat":52.08,"lng":-2.74},"geometry":{"type":"Polygon","coordinates":[[[-3.05,51.98],[-3.12,52.13],[-2.96,52.26],[-3,52.3],[-2.9,52.38],[-2.7,52.3],[-2.64,52.33],[-2.61,52.24],[-2.45,52.26],[-2.35,52.11],[-2.35,52.01],[-2.47,52],[-2.43,51.9],[-2.66,51.82],[-3.05,51.98]]]}},{"type":"Feature","properties":{"id":"GBR-MON","nome":"Monmouthshire","pais":"GBR","tipo":"Unitary Authority (wales)","lat":51.77,"lng":-2.9},"geometry":{"type":"Polygon","coordinates":[[[-3.05,51.98],[-2.65,51.82],[-2.67,51.62],[-2.83,51.57],[-2.8,51.64],[-2.96,51.63],[-3.05,51.78],[-3.16,51.81],[-3.03,51.89],[-3.05,51.98]]]}},{"type":"Feature","properties":{"id":"GBR-GLS","nome":"Gloucestershire","pais":"GBR","tipo":"Administrative County","lat":51.82,"lng":-2.15},"geometry":{"type":"Polygon","coordinates":[[[-2.67,51.62],[-2.68,51.79],[-2.64,51.85],[-2.43,51.9],[-2.46,52.02],[-2.25,51.96],[-2.16,51.99],[-2.16,52.04],[-2.11,52.04],[-2.13,52],[-1.83,52.01],[-1.86,52.06],[-1.76,52.11],[-1.61,52.03],[-1.71,51.77],[-1.65,51.67],[-2.06,51.66],[-2.27,51.58],[-2.29,51.62],[-2.38,51.59],[-2.38,51.64],[-2.54,51.67],[-2.4,51.78],[-2.67,51.62]]]}},{"type":"Feature","properties":{"id":"GBR-SCB","nome":"Scottish Borders","pais":"GBR","tipo":"Unitary District","lat":55.49,"lng":-2.78},"geometry":{"type":"Polygon","coordinates":[[[-2.02,55.81],[-2.33,55.64],[-2.19,55.45],[-2.46,55.36],[-2.85,55.11],[-2.88,55.27],[-3.03,55.27],[-3.21,55.37],[-3.3,55.34],[-3.24,55.43],[-3.53,55.44],[-3.49,55.51],[-3.53,55.6],[-3.39,55.71],[-3.46,55.76],[-3.39,55.82],[-3.27,55.77],[-3.18,55.8],[-3.12,55.71],[-2.94,55.82],[-2.91,55.78],[-2.4,55.87],[-2.44,55.9],[-2.36,55.95],[-2.14,55.91],[-2.02,55.81]]]}},{"type":"Feature","properties":{"id":"GBR-NBL","nome":"Northumberland","pais":"GBR","tipo":"Unitary Single-Tier County","lat":55.32,"lng":-2.07},"geometry":{"type":"Polygon","coordinates":[[[-2.69,55.19],[-2.55,55.31],[-2.19,55.45],[-2.33,55.64],[-2.02,55.81],[-1.82,55.63],[-1.63,55.59],[-1.57,55.28],[-1.46,55.07],[-1.69,55.07],[-1.9,54.83],[-1.99,54.86],[-2.31,54.78],[-2.4,54.85],[-2.56,54.82],[-2.59,54.88],[-2.54,54.92],[-2.59,54.97],[-2.49,55.08],[-2.69,55.19]]]}},{"type":"Feature","properties":{"id":"GBR-CMA","nome":"Cumbria","pais":"GBR","tipo":"Administrative County","lat":54.64,"lng":-2.89},"geometry":{"type":"Polygon","coordinates":[[[-2.85,55.11],[-2.69,55.19],[-2.49,55.08],[-2.59,54.97],[-2.54,54.92],[-2.59,54.88],[-2.56,54.82],[-2.4,54.85],[-2.31,54.78],[-2.35,54.69],[-2.16,54.53],[-2.16,54.46],[-2.28,54.44],[-2.35,54.35],[-2.31,54.24],[-2.67,54.16],[-2.84,54.17],[-2.8,54.25],[-2.94,54.16],[-3.04,54.23],[-3.15,54.06],[-3.24,54.11],[-3.21,54.26],[-3.31,54.19],[-3.63,54.51],[-3.39,54.88],[-3.25,54.9],[-3.32,54.92],[-3.28,54.94],[-3.02,54.95],[-3.09,54.95],[-3.02,54.97],[-3.03,55.05],[-2.85,55.11]]]}},{"type":"Feature","properties":{"id":"GBR-DGY","nome":"Dumfries and Galloway","pais":"GBR","tipo":"Unitary District","lat":55.1,"lng":-4.02},"geometry":{"type":"Polygon","coordinates":[[[-2.85,55.11],[-3.03,55.05],[-3.05,54.98],[-3.57,55],[-3.58,54.88],[-3.82,54.89],[-3.86,54.84],[-3.82,54.82],[-3.96,54.77],[-4.04,54.77],[-4.06,54.83],[-4.12,54.77],[-4.2,54.87],[-4.27,54.84],[-4.4,54.91],[-4.42,54.85],[-4.34,54.79],[-4.38,54.68],[-4.86,54.87],[-4.95,54.8],[-4.86,54.63],[-4.95,54.66],[-4.95,54.73],[-5.13,54.85],[-5.18,54.95],[-5.12,55.03],[-5.01,54.91],[-5.03,54.99],[-4.63,55.05],[-4.65,55.12],[-4.55,55.16],[-4.42,55.14],[-4.3,55.31],[-4.14,55.28],[-4.09,55.4],[-3.98,55.46],[-3.83,55.45],[-3.64,55.29],[-3.5,55.41],[-3.24,55.43],[-3.3,55.34],[-3.21,55.37],[-3.03,55.27],[-2.88,55.27],[-2.85,55.11]]]}},{"type":"Feature","properties":{"id":"GBR-LMV","nome":"Limavady","pais":"GBR","tipo":"District","lat":54.99,"lng":-6.97},"geometry":{"type":"Polygon","coordinates":[[[-7.15,55.05],[-7.02,55.07],[-6.96,55.19],[-6.84,55.18],[-6.78,54.87],[-7.01,54.82],[-7.15,55.05]]]}},{"type":"Feature","properties":{"id":"GBR-CLR","nome":"Coleraine","pais":"GBR","tipo":"District","lat":55.06,"lng":-6.69},"geometry":{"type":"Polygon","coordinates":[[[-6.84,55.18],[-6.55,55.23],[-6.52,55.14],[-6.61,55.08],[-6.52,54.95],[-6.78,54.91],[-6.84,55.18]]]}},{"type":"Feature","properties":{"id":"GBR-MYL","nome":"Moyle","pais":"GBR","tipo":"District","lat":55.16,"lng":-6.26},"geometry":{"type":"Polygon","coordinates":[[[-6.55,55.23],[-6.1,55.21],[-6.04,55.17],[-6.06,55.07],[-5.98,55.06],[-6.14,54.99],[-6.23,55.12],[-6.52,55.15],[-6.55,55.23]]]}},{"type":"Feature","properties":{"id":"GBR-LRN","nome":"Larne","pais":"GBR","tipo":"District","lat":54.86,"lng":-5.9},"geometry":{"type":"Polygon","coordinates":[[[-5.98,55.06],[-5.99,54.98],[-5.72,54.78],[-5.8,54.84],[-5.72,54.84],[-5.69,54.77],[-6.01,54.79],[-5.94,54.83],[-6.03,54.86],[-6.02,54.93],[-6.1,54.99],[-5.98,55.06]]]}},{"type":"Feature","properties":{"id":"GBR-CKF","nome":"Carrickfergus","pais":"GBR","tipo":"District","lat":54.74,"lng":-5.8},"geometry":{"type":"Polygon","coordinates":[[[-5.69,54.77],[-5.88,54.68],[-5.91,54.71],[-5.89,54.77],[-5.69,54.77]]]}},{"type":"Feature","properties":{"id":"GBR-NTA","nome":"Newtownabbey","pais":"GBR","tipo":"District","lat":54.72,"lng":-5.98},"geometry":{"type":"Polygon","coordinates":[[[-5.88,54.68],[-6.04,54.67],[-6.08,54.79],[-5.9,54.78],[-5.88,54.68]]]}},{"type":"Feature","properties":{"id":"GBR-BFS","nome":"Belfast","pais":"GBR","tipo":"District","lat":54.61,"lng":-5.94},"geometry":{"type":"Polygon","coordinates":[[[-5.91,54.65],[-5.82,54.59],[-5.97,54.54],[-6.07,54.62],[-5.91,54.65]]]}},{"type":"Feature","properties":{"id":"GBR-NDN","nome":"North Down","pais":"GBR","tipo":"District","lat":54.65,"lng":-5.72},"geometry":{"type":"Polygon","coordinates":[[[-5.87,54.62],[-5.75,54.68],[-5.56,54.67],[-5.65,54.62],[-5.87,54.62]]]}},{"type":"Feature","properties":{"id":"GBR-ARD","nome":"Ards","pais":"GBR","tipo":"District","lat":54.52,"lng":-5.63},"geometry":{"type":"Polygon","coordinates":[[[-5.56,54.67],[-5.43,54.49],[-5.5,54.34],[-5.58,54.4],[-5.56,54.51],[-5.64,54.57],[-5.72,54.54],[-5.63,54.52],[-5.67,54.51],[-5.65,54.46],[-5.82,54.49],[-5.76,54.62],[-5.56,54.67]]]}},{"type":"Feature","properties":{"id":"GBR-DOW","nome":"Down","pais":"GBR","tipo":"District","lat":54.36,"lng":-5.81},"geometry":{"type":"Polygon","coordinates":[[[-5.64,54.46],[-5.71,54.35],[-5.58,54.38],[-5.54,54.33],[-5.64,54.24],[-6.03,54.17],[-6.08,54.23],[-5.97,54.25],[-5.94,54.41],[-5.87,54.48],[-5.64,54.46]]]}},{"type":"Feature","properties":{"id":"GBR-CLK","nome":"Clackmannanshire","pais":"GBR","tipo":"Unitary District","lat":56.14,"lng":-3.71},"geometry":{"type":"Polygon","coordinates":[[[-3.75,56.07],[-3.86,56.12],[-3.82,56.19],[-3.55,56.18],[-3.75,56.07]]]}},{"type":"Feature","properties":{"id":"GBR-STG","nome":"Stirling","pais":"GBR","tipo":"Unitary District","lat":56.22,"lng":-4.29},"geometry":{"type":"Polygon","coordinates":[[[-3.84,56.11],[-3.74,56.05],[-4.41,55.98],[-4.47,56.02],[-4.43,56.05],[-4.61,56.09],[-4.68,56.2],[-4.65,56.32],[-4.78,56.32],[-4.84,56.37],[-4.51,56.52],[-4.14,56.51],[-4.1,56.47],[-4.19,56.46],[-4.22,56.33],[-3.84,56.22],[-3.84,56.11]]]}},{"type":"Feature","properties":{"id":"GBR-FAL","nome":"Falkirk","pais":"GBR","tipo":"Unitary District","lat":55.98,"lng":-3.76},"geometry":{"type":"Polygon","coordinates":[[[-3.74,56.05],[-3.51,56.01],[-3.81,55.9],[-4.01,56.01],[-3.74,56.05]]]}},{"type":"Feature","properties":{"id":"GBR-WLN","nome":"West Lothian","pais":"GBR","tipo":"Unitary District","lat":55.89,"lng":-3.61},"geometry":{"type":"Polygon","coordinates":[[[-3.51,56.01],[-3.39,55.88],[-3.46,55.77],[-3.73,55.78],[-3.71,55.88],[-3.82,55.89],[-3.51,56.01]]]}},{"type":"Feature","properties":{"id":"GBR-EDH","nome":"Edinburgh","pais":"GBR","tipo":"Unitary District (city)","lat":55.91,"lng":-3.26},"geometry":{"type":"Polygon","coordinates":[[[-3.45,56],[-3.12,55.97],[-3.09,55.89],[-3.4,55.82],[-3.45,56]]]}},{"type":"Feature","properties":{"id":"GBR-MLN","nome":"Midlothian","pais":"GBR","tipo":"Unitary District","lat":55.82,"lng":-3.07},"geometry":{"type":"Polygon","coordinates":[[[-3.08,55.95],[-2.82,55.82],[-2.94,55.82],[-3.12,55.71],[-3.18,55.8],[-3.36,55.81],[-3.09,55.89],[-3.08,55.95]]]}},{"type":"Feature","properties":{"id":"GBR-ELN","nome":"East Lothian","pais":"GBR","tipo":"Unitary District","lat":55.95,"lng":-2.71},"geometry":{"type":"Polygon","coordinates":[[[-3.06,55.95],[-2.8,56.06],[-2.36,55.95],[-2.44,55.9],[-2.4,55.87],[-2.82,55.82],[-3.06,55.95]]]}},{"type":"Feature","properties":{"id":"GBR-NTY","nome":"North Tyneside","pais":"GBR","tipo":"Metropolitan Borough","lat":55.02,"lng":-1.48},"geometry":{"type":"Polygon","coordinates":[[[-1.46,55.07],[-1.41,55],[-1.49,54.98],[-1.65,55.07],[-1.46,55.07]]]}},{"type":"Feature","properties":{"id":"GBR-STY","nome":"South Tyneside","pais":"GBR","tipo":"Metropolitan Borough","lat":54.95,"lng":-1.44},"geometry":{"type":"Polygon","coordinates":[[[-1.41,55],[-1.36,54.92],[-1.53,54.92],[-1.41,55]]]}},{"type":"Feature","properties":{"id":"GBR-SND","nome":"Sunderland","pais":"GBR","tipo":"Metropolitan Borough","lat":54.86,"lng":-1.46},"geometry":{"type":"Polygon","coordinates":[[[-1.36,54.92],[-1.34,54.87],[-1.44,54.8],[-1.58,54.89],[-1.36,54.92]]]}},{"type":"Feature","properties":{"id":"GBR-DUR","nome":"Durham","pais":"GBR","tipo":"Unitary Single-Tier County","lat":54.7,"lng":-1.8},"geometry":{"type":"Polygon","coordinates":[[[-1.34,54.87],[-1.25,54.73],[-1.33,54.65],[-1.48,54.57],[-1.67,54.59],[-1.68,54.53],[-1.93,54.45],[-2.16,54.46],[-2.16,54.53],[-2.35,54.69],[-2.31,54.78],[-1.99,54.86],[-1.9,54.83],[-1.82,54.9],[-1.6,54.89],[-1.47,54.8],[-1.34,54.87]]]}},{"type":"Feature","properties":{"id":"GBR-HPL","nome":"Hartlepool","pais":"GBR","tipo":"Unitary Authority","lat":54.66,"lng":-1.28},"geometry":{"type":"Polygon","coordinates":[[[-1.25,54.73],[-1.17,54.7],[-1.21,54.61],[-1.39,54.63],[-1.25,54.73]]]}},{"type":"Feature","properties":{"id":"GBR-RCC","nome":"Redcar and Cleveland","pais":"GBR","tipo":"Unitary Authority","lat":54.55,"lng":-1},"geometry":{"type":"Polygon","coordinates":[[[-1.19,54.62],[-0.78,54.56],[-0.84,54.49],[-1.18,54.5],[-1.19,54.62]]]}},{"type":"Feature","properties":{"id":"GBR-NYK","nome":"North Yorkshire","pais":"GBR","tipo":"Administrative County","lat":54.22,"lng":-1.38},"geometry":{"type":"Polygon","coordinates":[[[-0.78,54.56],[-0.53,54.46],[-0.4,54.27],[-0.2,54.15],[-0.4,54.17],[-0.67,54.01],[-0.93,53.97],[-1.03,54.04],[-1.15,54.03],[-1.23,53.97],[-1.22,53.91],[-1.14,53.86],[-0.94,53.87],[-0.92,53.81],[-0.96,53.74],[-0.93,53.72],[-1.09,53.71],[-1.07,53.65],[-1.13,53.63],[-1.25,53.64],[-1.21,53.71],[-1.31,53.74],[-1.34,53.86],[-1.29,53.91],[-1.33,53.94],[-1.7,53.9],[-1.94,53.96],[-2.03,53.85],[-2.55,54.13],[-2.45,54.23],[-2.3,54.25],[-2.35,54.35],[-2.24,54.45],[-1.93,54.45],[-1.71,54.53],[-1.46,54.44],[-1.46,54.5],[-0.84,54.49],[-0.78,54.56]]]}},{"type":"Feature","properties":{"id":"GBR-ERY","nome":"East Riding of Yorkshire","pais":"GBR","tipo":"Unitary Authority","lat":53.9,"lng":-0.48},"geometry":{"type":"Polygon","coordinates":[[[-0.2,54.15],[-0.08,54.11],[-0.22,54.02],[0.13,53.64],[0.13,53.57],[0.06,53.64],[-0.11,53.64],[-0.36,53.79],[-0.45,53.71],[-0.66,53.73],[-0.84,53.61],[-1.11,53.68],[-0.93,53.72],[-0.96,53.74],[-0.89,54.01],[-0.67,54.01],[-0.4,54.17],[-0.2,54.15]]]}},{"type":"Feature","properties":{"id":"GBR-KHL","nome":"Kingston upon Hull","pais":"GBR","tipo":"Unitary Authority","lat":53.76,"lng":-0.37},"geometry":{"type":"Polygon","coordinates":[[[-0.3,53.74],[-0.45,53.71],[-0.39,53.79],[-0.3,53.74]]]}},{"type":"Feature","properties":{"id":"GBR-NLN","nome":"North Lincolnshire","pais":"GBR","tipo":"Unitary Authority","lat":53.57,"lng":-0.57},"geometry":{"type":"Polygon","coordinates":[[[-0.7,53.69],[-0.31,53.71],[-0.2,53.63],[-0.48,53.54],[-0.39,53.52],[-0.51,53.46],[-0.74,53.51],[-0.8,53.45],[-0.91,53.46],[-0.94,53.52],[-0.87,53.53],[-0.9,53.57],[-0.7,53.69]]]}},{"type":"Feature","properties":{"id":"GBR-NEL","nome":"North East Lincolnshire","pais":"GBR","tipo":"Unitary Authority","lat":53.52,"lng":-0.13},"geometry":{"type":"Polygon","coordinates":[[[-0.2,53.63],[0.02,53.52],[-0.06,53.51],[-0.11,53.43],[-0.19,53.48],[-0.17,53.56],[-0.28,53.61],[-0.2,53.63]]]}},{"type":"Feature","properties":{"id":"GBR-LIN","nome":"Lincolnshire","pais":"GBR","tipo":"Administrative County","lat":53.12,"lng":-0.22},"geometry":{"type":"Polygon","coordinates":[[[0.02,53.52],[0.22,53.42],[0.36,53.19],[0.33,53.09],[0.01,52.9],[0.28,52.8],[0.28,52.76],[0.06,52.71],[0.03,52.65],[-0.51,52.64],[-0.42,52.69],[-0.65,52.75],[-0.76,52.89],[-0.78,53.01],[-0.69,53.05],[-0.75,53.17],[-0.64,53.23],[-0.78,53.23],[-0.74,53.32],[-0.8,53.45],[-0.74,53.51],[-0.62,53.51],[-0.6,53.45],[-0.47,53.47],[-0.39,53.52],[-0.48,53.54],[-0.29,53.61],[-0.17,53.56],[-0.19,53.48],[-0.11,53.43],[-0.06,53.51],[0.02,53.52]]]}},{"type":"Feature","properties":{"id":"GBR-NFK","nome":"Norfolk","pais":"GBR","tipo":"Administrative County","lat":52.66,"lng":0.95},"geometry":{"type":"Polygon","coordinates":[[[0.28,52.8],[0.38,52.77],[0.49,52.93],[0.68,52.99],[1.27,52.93],[1.67,52.76],[1.75,52.53],[1.66,52.53],[1.7,52.48],[1.66,52.46],[1.43,52.46],[1.2,52.35],[0.69,52.39],[0.68,52.45],[0.45,52.43],[0.22,52.52],[0.25,52.6],[0.16,52.67],[0.28,52.8]]]}},{"type":"Feature","properties":{"id":"GBR-SFK","nome":"Suffolk","pais":"GBR","tipo":"Administrative County","lat":52.16,"lng":1.06},"geometry":{"type":"Polygon","coordinates":[[[1.75,52.53],[1.77,52.49],[1.63,52.27],[1.59,52.09],[1.33,51.94],[1.19,52.03],[1.27,51.96],[0.79,51.95],[0.68,52.08],[0.41,52.06],[0.52,52.22],[0.35,52.26],[0.51,52.27],[0.39,52.39],[0.45,52.43],[0.68,52.45],[0.69,52.39],[1.2,52.35],[1.43,52.46],[1.66,52.46],[1.7,52.48],[1.66,52.53],[1.75,52.53]]]}},{"type":"Feature","properties":{"id":"GBR-ESS","nome":"Essex","pais":"GBR","tipo":"Administrative County","lat":51.77,"lng":0.5},"geometry":{"type":"Polygon","coordinates":[[[1.08,51.95],[1.28,51.95],[1.2,51.88],[1.29,51.86],[1.07,51.78],[0.98,51.84],[0.87,51.75],[0.7,51.72],[0.95,51.73],[0.91,51.62],[0.95,51.62],[0.83,51.54],[0.69,51.58],[0.57,51.51],[0.32,51.56],[0.25,51.63],[0.08,51.6],[-0.01,51.65],[0.04,51.77],[0.19,51.82],[0.19,51.89],[0.14,51.88],[0.08,51.98],[0.11,52.05],[0.68,52.08],[0.79,51.95],[1.08,51.95]]]}},{"type":"Feature","properties":{"id":"GBR-THR","nome":"Thurrock","pais":"GBR","tipo":"Unitary Authority","lat":51.5,"lng":0.38},"geometry":{"type":"Polygon","coordinates":[[[0.55,51.52],[0.36,51.45],[0.22,51.48],[0.32,51.56],[0.55,51.52]]]}},{"type":"Feature","properties":{"id":"GBR-KEN","nome":"Kent","pais":"GBR","tipo":"Administrative County","lat":51.2,"lng":0.72},"geometry":{"type":"Polygon","coordinates":[[[0.38,51.45],[0.51,51.49],[0.45,51.34],[0.59,51.31],[0.71,51.42],[0.76,51.36],[0.98,51.35],[1.45,51.38],[1.38,51.33],[1.38,51.15],[1.07,51.06],[0.95,50.91],[0.76,51],[0.48,51.03],[0.33,51.12],[0.06,51.14],[0.05,51.29],[0.18,51.44],[0.38,51.45]]]}},{"type":"Feature","properties":{"id":"GBR-MDW","nome":"Medway","pais":"GBR","tipo":"Unitary Authority","lat":51.35,"lng":0.58},"geometry":{"type":"Polygon","coordinates":[[[0.51,51.49],[0.72,51.45],[0.55,51.41],[0.67,51.39],[0.59,51.31],[0.45,51.34],[0.51,51.49]]]}},{"type":"Feature","properties":{"id":"GBR-ESX","nome":"East Sussex","pais":"GBR","tipo":"Administrative County","lat":50.95,"lng":0.37},"geometry":{"type":"Polygon","coordinates":[[[0.87,50.93],[0.37,50.82],[0.27,50.75],[0.02,50.78],[-0.13,50.88],[-0.11,50.97],[-0.02,50.98],[0.02,51.05],[-0.03,51.08],[0.02,51.14],[0.13,51.14],[0.33,51.12],[0.57,51],[0.76,51],[0.87,50.93]]]}},{"type":"Feature","properties":{"id":"GBR-BNH","nome":"Brighton and Hove","pais":"GBR","tipo":"Unitary Authority","lat":50.84,"lng":-0.11},"geometry":{"type":"Polygon","coordinates":[[[0.02,50.78],[-0.23,50.87],[-0.15,50.89],[0.02,50.78]]]}},{"type":"Feature","properties":{"id":"GBR-WSX","nome":"West Sussex","pais":"GBR","tipo":"Administrative County","lat":50.95,"lng":-0.46},"geometry":{"type":"Polygon","coordinates":[[[-0.21,50.83],[-0.76,50.78],[-0.79,50.73],[-0.91,50.78],[-0.86,50.81],[-0.95,50.89],[-0.86,51.04],[-0.75,51.09],[-0.54,51.08],[-0.18,51.16],[0.02,51.14],[-0.03,51.08],[0.02,51.05],[-0.02,50.98],[-0.11,50.97],[-0.13,50.88],[-0.23,50.87],[-0.21,50.83]]]}},{"type":"Feature","properties":{"id":"GBR-HAM","nome":"Hampshire","pais":"GBR","tipo":"Administrative County","lat":51.13,"lng":-1.24},"geometry":{"type":"Polygon","coordinates":[[[-0.93,50.84],[-1.16,50.84],[-1.15,50.78],[-1.32,50.86],[-1.31,50.92],[-1.43,50.94],[-1.47,50.91],[-1.32,50.8],[-1.56,50.72],[-1.79,50.77],[-1.84,50.89],[-1.81,50.93],[-1.95,50.99],[-1.61,50.96],[-1.7,51.24],[-1.54,51.24],[-1.53,51.33],[-1.4,51.37],[-0.82,51.35],[-0.73,51.29],[-0.73,51.24],[-0.84,51.2],[-0.74,51.1],[-0.89,51.01],[-0.93,50.84]]]}},{"type":"Feature","properties":{"id":"GBR-STH","nome":"Southampton","pais":"GBR","tipo":"Unitary Authority","lat":50.92,"lng":-1.38},"geometry":{"type":"Polygon","coordinates":[[[-1.32,50.86],[-1.45,50.93],[-1.31,50.92],[-1.32,50.86]]]}},{"type":"Feature","properties":{"id":"GBR-DOR","nome":"Dorset","pais":"GBR","tipo":"Administrative County","lat":50.86,"lng":-2.31},"geometry":{"type":"Polygon","coordinates":[[[-1.67,50.74],[-1.99,50.77],[-2.08,50.7],[-1.95,50.68],[-1.97,50.6],[-2.4,50.65],[-2.46,50.61],[-2.46,50.53],[-2.48,50.59],[-2.69,50.69],[-2.95,50.73],[-2.88,50.8],[-2.95,50.82],[-2.61,50.89],[-2.54,51],[-2.45,50.95],[-2.34,50.98],[-2.37,51.01],[-2.32,51.08],[-2.1,50.96],[-1.97,50.99],[-1.81,50.93],[-1.84,50.89],[-1.8,50.78],[-1.67,50.74]]]}},{"type":"Feature","properties":{"id":"GBR-POL","nome":"Poole","pais":"GBR","tipo":"Unitary Authority","lat":50.74,"lng":-1.96},"geometry":{"type":"Polygon","coordinates":[[[-1.9,50.72],[-2.03,50.73],[-1.96,50.77],[-1.9,50.72]]]}},{"type":"Feature","properties":{"id":"GBR-DEV","nome":"Devon","pais":"GBR","tipo":"Administrative County","lat":50.8,"lng":-3.86},"geometry":{"type":"Polygon","coordinates":[[[-2.95,50.73],[-3.37,50.62],[-3.46,50.68],[-3.43,50.61],[-3.51,50.51],[-3.65,50.45],[-3.53,50.35],[-3.63,50.31],[-3.65,50.23],[-3.79,50.21],[-3.95,50.32],[-4.11,50.34],[-4.04,50.4],[-4.24,50.46],[-4.18,50.51],[-4.27,50.54],[-4.38,50.76],[-4.49,50.79],[-4.42,50.85],[-4.46,50.92],[-4.55,50.92],[-4.53,51.01],[-4.34,51],[-4.21,51.08],[-4.23,51.19],[-3.77,51.25],[-3.71,51.24],[-3.72,51.18],[-3.82,51.18],[-3.81,51.13],[-3.6,51.06],[-3.6,51.01],[-3.42,51.03],[-3.16,50.95],[-3.15,50.9],[-3.05,50.91],[-3.03,50.85],[-2.88,50.8],[-2.95,50.73]]]}},{"type":"Feature","properties":{"id":"GBR-TOB","nome":"Torbay","pais":"GBR","tipo":"Unitary Authority","lat":50.45,"lng":-3.57},"geometry":{"type":"Polygon","coordinates":[[[-3.51,50.51],[-3.49,50.46],[-3.56,50.43],[-3.5,50.38],[-3.65,50.43],[-3.61,50.5],[-3.51,50.51]]]}},{"type":"Feature","properties":{"id":"GBR-PLY","nome":"Plymouth","pais":"GBR","tipo":"Unitary Authority","lat":50.4,"lng":-4.11},"geometry":{"type":"Polygon","coordinates":[[[-4.12,50.35],[-4.19,50.43],[-4.04,50.4],[-4.12,50.35]]]}},{"type":"Feature","properties":{"id":"GBR-CON","nome":"Cornwall","pais":"GBR","tipo":"Unitary Single-Tier County","lat":50.44,"lng":-4.75},"geometry":{"type":"Polygon","coordinates":[[[-4.2,50.45],[-4.29,50.4],[-4.19,50.38],[-4.19,50.32],[-4.34,50.37],[-4.69,50.34],[-4.76,50.32],[-4.8,50.23],[-5,50.14],[-5.05,50.2],[-5.04,50.14],[-5.13,50.1],[-5.06,50.06],[-5.19,49.96],[-5.3,50.08],[-5.47,50.13],[-5.62,50.05],[-5.72,50.08],[-5.68,50.16],[-5.44,50.19],[-5.15,50.35],[-5,50.55],[-4.84,50.51],[-4.92,50.59],[-4.79,50.6],[-4.58,50.77],[-4.55,50.92],[-4.46,50.92],[-4.42,50.85],[-4.49,50.79],[-4.38,50.76],[-4.27,50.54],[-4.18,50.51],[-4.24,50.46],[-4.2,50.45]]]}},{"type":"Feature","properties":{"id":"GBR-SOM","nome":"Somerset","pais":"GBR","tipo":"Administrative County","lat":51.03,"lng":-3.03},"geometry":{"type":"Polygon","coordinates":[[[-3.71,51.24],[-3.02,51.19],[-3.02,51.32],[-2.89,51.29],[-2.79,51.3],[-2.81,51.33],[-2.46,51.27],[-2.28,51.33],[-2.24,51.26],[-2.35,51.12],[-2.34,50.98],[-2.45,50.95],[-2.54,51],[-2.61,50.89],[-2.95,50.82],[-3.05,50.91],[-3.18,50.91],[-3.16,50.95],[-3.42,51.03],[-3.6,51.01],[-3.6,51.06],[-3.83,51.14],[-3.72,51.18],[-3.71,51.24]]]}},{"type":"Feature","properties":{"id":"GBR-NSM","nome":"North Somerset","pais":"GBR","tipo":"Unitary Authority","lat":51.41,"lng":-2.79},"geometry":{"type":"Polygon","coordinates":[[[-2.99,51.32],[-2.97,51.38],[-2.78,51.49],[-2.63,51.44],[-2.65,51.35],[-2.71,51.32],[-2.99,51.32]]]}},{"type":"Feature","properties":{"id":"GBR-BST","nome":"Bristol","pais":"GBR","tipo":"Unitary Authority","lat":51.46,"lng":-2.6},"geometry":{"type":"Polygon","coordinates":[[[-2.73,51.5],[-2.68,51.53],[-2.53,51.48],[-2.52,51.42],[-2.63,51.38],[-2.63,51.44],[-2.73,51.5]]]}},{"type":"Feature","properties":{"id":"GBR-SGC","nome":"South Gloucestershire","pais":"GBR","tipo":"Unitary Authority","lat":51.52,"lng":-2.46},"geometry":{"type":"Polygon","coordinates":[[[-2.68,51.53],[-2.54,51.67],[-2.38,51.64],[-2.38,51.59],[-2.29,51.62],[-2.25,51.52],[-2.32,51.48],[-2.28,51.42],[-2.47,51.4],[-2.53,51.48],[-2.68,51.53]]]}},{"type":"Feature","properties":{"id":"GBR-NWP","nome":"Newport","pais":"GBR","tipo":"Unitary Authority (wales)","lat":51.59,"lng":-2.95},"geometry":{"type":"Polygon","coordinates":[[[-2.8,51.56],[-3.08,51.51],[-3.11,51.59],[-2.82,51.65],[-2.85,51.58],[-2.8,51.56]]]}},{"type":"Feature","properties":{"id":"GBR-CRF","nome":"Cardiff","pais":"GBR","tipo":"Unitary Authority (wales)","lat":51.5,"lng":-3.18},"geometry":{"type":"Polygon","coordinates":[[[-3.08,51.51],[-3.17,51.45],[-3.29,51.5],[-3.16,51.55],[-3.08,51.51]]]}},{"type":"Feature","properties":{"id":"GBR-VGL","nome":"Vale of Glamorgan","pais":"GBR","tipo":"Unitary Authority (wales)","lat":51.45,"lng":-3.37},"geometry":{"type":"Polygon","coordinates":[[[-3.17,51.45],[-3.18,51.4],[-3.29,51.38],[-3.58,51.42],[-3.45,51.52],[-3.17,51.45]]]}},{"type":"Feature","properties":{"id":"GBR-BGE","nome":"Bridgend","pais":"GBR","tipo":"Unitary Authority (wales)","lat":51.54,"lng":-3.61},"geometry":{"type":"Polygon","coordinates":[[[-3.58,51.42],[-3.75,51.5],[-3.64,51.54],[-3.68,51.59],[-3.65,51.64],[-3.46,51.59],[-3.58,51.42]]]}},{"type":"Feature","properties":{"id":"GBR-NTL","nome":"Neath Port Talbot","pais":"GBR","tipo":"Unitary Authority (wales)","lat":51.65,"lng":-3.74},"geometry":{"type":"Polygon","coordinates":[[[-3.75,51.53],[-3.89,51.62],[-3.83,51.69],[-3.93,51.76],[-3.87,51.8],[-3.59,51.76],[-3.55,51.64],[-3.65,51.64],[-3.68,51.59],[-3.64,51.54],[-3.75,51.53]]]}},{"type":"Feature","properties":{"id":"GBR-SWA","nome":"Swansea","pais":"GBR","tipo":"Unitary Authority (wales)","lat":51.62,"lng":-4.06},"geometry":{"type":"Polygon","coordinates":[[[-3.89,51.62],[-4.03,51.55],[-4.3,51.57],[-4.23,51.64],[-4.09,51.64],[-3.98,51.77],[-3.83,51.69],[-3.89,51.62]]]}},{"type":"Feature","properties":{"id":"GBR-CMN","nome":"Carmarthenshire","pais":"GBR","tipo":"Unitary Authority (wales)","lat":51.86,"lng":-4.2},"geometry":{"type":"Polygon","coordinates":[[[-4.07,51.68],[-4.32,51.68],[-4.38,51.73],[-4.31,51.73],[-4.37,51.79],[-4.64,51.73],[-4.65,51.82],[-4.77,51.83],[-4.69,51.91],[-4.49,51.96],[-4.56,52.04],[-4.24,52.03],[-4.07,52.1],[-3.71,52.11],[-3.64,52.04],[-3.72,51.87],[-3.8,51.79],[-4.01,51.75],[-4.07,51.68]]]}},{"type":"Feature","properties":{"id":"GBR-PEM","nome":"Pembrokeshire","pais":"GBR","tipo":"Unitary Authority (wales)","lat":51.66,"lng":-4.9},"geometry":{"type":"Polygon","coordinates":[[[-4.64,51.73],[-4.71,51.65],[-4.94,51.6],[-5.12,51.68],[-4.84,51.71],[-4.88,51.76],[-4.82,51.8],[-4.93,51.78],[-4.91,51.72],[-5.18,51.69],[-5.25,51.73],[-5.11,51.78],[-5.13,51.86],[-5.31,51.86],[-5.07,52.03],[-4.84,52.01],[-4.71,52.11],[-4.49,51.97],[-4.69,51.91],[-4.77,51.83],[-4.65,51.82],[-4.64,51.73]]]}},{"type":"Feature","properties":{"id":"GBR-CGN","nome":"Ceredigion","pais":"GBR","tipo":"Principality","lat":52.18,"lng":-4.18},"geometry":{"type":"Polygon","coordinates":[[[-4.69,52.11],[-4.2,52.28],[-4.06,52.53],[-3.87,52.56],[-3.81,52.48],[-3.72,52.5],[-3.76,52.44],[-3.65,52.35],[-3.73,52.32],[-3.7,52.27],[-3.76,52.11],[-3.93,52.12],[-4.41,52.03],[-4.7,52.07],[-4.69,52.11]]]}},{"type":"Feature","properties":{"id":"GBR-GWN","nome":"Gwynedd","pais":"GBR","tipo":"Unitary Authority (wales)","lat":52.85,"lng":-3.92},"geometry":{"type":"Polygon","coordinates":[[[-3.95,52.55],[-4.05,52.54],[-4.13,52.6],[-3.99,52.73],[-4.05,52.72],[-4.15,52.81],[-4.08,52.93],[-4.41,52.89],[-4.52,52.79],[-4.76,52.79],[-4.12,53.23],[-4,53.25],[-3.93,53.2],[-4.01,53.1],[-3.98,53],[-3.89,53.01],[-3.79,52.94],[-3.6,53.01],[-3.42,52.97],[-3.48,52.84],[-3.59,52.81],[-3.6,52.7],[-3.8,52.67],[-3.95,52.55]]]}},{"type":"Feature","properties":{"id":"GBR-CWY","nome":"Conwy","pais":"GBR","tipo":"Unitary Authority (wales)","lat":53.13,"lng":-3.73},"geometry":{"type":"Polygon","coordinates":[[[-4,53.25],[-3.83,53.29],[-3.88,53.34],[-3.72,53.29],[-3.51,53.31],[-3.47,53.17],[-3.59,53.09],[-3.48,53.06],[-3.46,52.98],[-3.6,53.01],[-3.79,52.94],[-3.89,53.01],[-3.98,53],[-4.01,53.1],[-3.93,53.2],[-4,53.25]]]}},{"type":"Feature","properties":{"id":"GBR-DEN","nome":"Denbighshire","pais":"GBR","tipo":"Unitary Authority (wales)","lat":53.07,"lng":-3.34},"geometry":{"type":"Polygon","coordinates":[[[-3.51,53.31],[-3.36,53.35],[-3.34,53.22],[-3.18,53.14],[-3.09,52.96],[-3.47,52.86],[-3.42,52.97],[-3.48,53.06],[-3.59,53.09],[-3.47,53.17],[-3.51,53.31]]]}},{"type":"Feature","properties":{"id":"GBR-WRL","nome":"Halton","pais":"GBR","tipo":"Metropolitan Borough","lat":53.37,"lng":-3.06},"geometry":{"type":"Polygon","coordinates":[[[-3.1,53.29],[-3.19,53.39],[-3.06,53.43],[-2.93,53.3],[-3.1,53.29]]]}},{"type":"Feature","properties":{"id":"GBR-HAL","nome":"Halton","pais":"GBR","tipo":"Unitary Authority","lat":53.33,"lng":-2.69},"geometry":{"type":"Polygon","coordinates":[[[-2.78,53.3],[-2.7,53.35],[-2.81,53.32],[-2.74,53.39],[-2.57,53.31],[-2.78,53.3]]]}},{"type":"Feature","properties":{"id":"GBR-KWL","nome":"Knowsley","pais":"GBR","tipo":"Metropolitan Borough","lat":53.41,"lng":-2.83},"geometry":{"type":"Polygon","coordinates":[[[-2.81,53.32],[-2.88,53.33],[-2.93,53.49],[-2.9,53.52],[-2.82,53.49],[-2.75,53.38],[-2.81,53.32]]]}},{"type":"Feature","properties":{"id":"GBR-LIV","nome":"Liverpool","pais":"GBR","tipo":"Metropolitan Borough","lat":53.43,"lng":-2.93},"geometry":{"type":"Polygon","coordinates":[[[-2.88,53.33],[-3.05,53.48],[-2.9,53.47],[-2.88,53.33]]]}},{"type":"Feature","properties":{"id":"GBR-SFT","nome":"Sefton","pais":"GBR","tipo":"Metropolitan Borough","lat":53.56,"lng":-3.06},"geometry":{"type":"Polygon","coordinates":[[[-3.05,53.48],[-3.1,53.57],[-2.95,53.71],[-2.93,53.66],[-3.03,53.54],[-2.9,53.52],[-3.05,53.48]]]}},{"type":"Feature","properties":{"id":"GBR-LAN","nome":"Lancashire","pais":"GBR","tipo":"Administrative County","lat":53.86,"lng":-2.54},"geometry":{"type":"Polygon","coordinates":[[[-2.95,53.71],[-2.9,53.74],[-3.02,53.75],[-2.95,53.85],[-3.02,53.93],[-2.86,53.97],[-2.83,54.02],[-2.92,54.03],[-2.82,54.1],[-2.84,54.17],[-2.79,54.19],[-2.67,54.16],[-2.46,54.24],[-2.55,54.11],[-2.03,53.85],[-2.26,53.61],[-2.47,53.77],[-2.53,53.74],[-2.5,53.63],[-2.69,53.6],[-2.71,53.53],[-2.82,53.49],[-3.03,53.54],[-2.93,53.66],[-2.95,53.71]]]}},{"type":"Feature","properties":{"id":"GBR-BPL","nome":"Blackpool","pais":"GBR","tipo":"Unitary Authority","lat":53.84,"lng":-3},"geometry":{"type":"Polygon","coordinates":[[[-3.02,53.75],[-3.06,53.91],[-3.02,53.93],[-2.95,53.85],[-3.02,53.75]]]}},{"type":"Feature","properties":{"id":"GBR-SAY","nome":"South Ayrshire","pais":"GBR","tipo":"Unitary District","lat":55.23,"lng":-4.74},"geometry":{"type":"Polygon","coordinates":[[[-5.03,54.99],[-5.01,55.14],[-4.87,55.22],[-4.75,55.41],[-4.63,55.47],[-4.69,55.54],[-4.58,55.59],[-4.44,55.54],[-4.47,55.39],[-4.58,55.39],[-4.44,55.28],[-4.47,55.16],[-4.65,55.12],[-4.63,55.05],[-5.03,54.99]]]}},{"type":"Feature","properties":{"id":"GBR-NAY","nome":"North Ayshire","pais":"GBR","tipo":"Unitary District","lat":55.71,"lng":-4.71},"geometry":{"type":"Polygon","coordinates":[[[-4.67,55.56],[-4.92,55.71],[-4.86,55.76],[-4.89,55.87],[-4.52,55.76],[-4.63,55.67],[-4.51,55.62],[-4.67,55.56]]]}},{"type":"Feature","properties":{"id":"GBR-IVC","nome":"Inverclyde","pais":"GBR","tipo":"Unitary District","lat":55.9,"lng":-4.74},"geometry":{"type":"Polygon","coordinates":[[[-4.89,55.87],[-4.87,55.94],[-4.8,55.96],[-4.63,55.93],[-4.58,55.86],[-4.89,55.87]]]}},{"type":"Feature","properties":{"id":"GBR-RFW","nome":"Renfrewshire","pais":"GBR","tipo":"Unitary District","lat":55.84,"lng":-4.55},"geometry":{"type":"Polygon","coordinates":[[[-4.63,55.93],[-4.49,55.93],[-4.36,55.86],[-4.36,55.82],[-4.63,55.77],[-4.75,55.86],[-4.59,55.85],[-4.63,55.93]]]}},{"type":"Feature","properties":{"id":"GBR-WDU","nome":"West Dunbartonshire","pais":"GBR","tipo":"Unitary District","lat":55.99,"lng":-4.48},"geometry":{"type":"Polygon","coordinates":[[[-4.49,55.93],[-4.59,55.94],[-4.6,56.08],[-4.43,56.05],[-4.47,56.02],[-4.36,55.98],[-4.36,55.86],[-4.49,55.93]]]}},{"type":"Feature","properties":{"id":"GBR-AGB","nome":"Argyll and Bute","pais":"GBR","tipo":"Unitary District","lat":56.23,"lng":-5.14},"geometry":{"type":"MultiPolygon","coordinates":[[[[-4.59,55.94],[-4.82,56.08],[-4.78,55.99],[-4.86,56],[-4.76,56.21],[-4.85,56.11],[-4.92,56.17],[-4.89,55.99],[-4.95,56],[-4.91,55.96],[-4.97,55.88],[-5.04,55.88],[-5.12,56.01],[-5.09,55.9],[-5.18,55.97],[-5.24,55.89],[-5.2,55.83],[-5.3,55.85],[-5.34,56],[-4.92,56.28],[-5.06,56.23],[-5.37,56.01],[-5.45,56.02],[-5.41,55.87],[-5.32,55.78],[-5.49,55.64],[-5.45,55.59],[-5.58,55.43],[-5.53,55.36],[-5.62,55.31],[-5.78,55.31],[-5.68,55.67],[-5.45,55.85],[-5.6,55.76],[-5.66,55.8],[-5.67,55.85],[-5.57,55.93],[-5.7,55.92],[-5.57,56.04],[-5.71,55.94],[-5.58,56.1],[-5.53,56.09],[-5.56,56.13],[-5.51,56.19],[-5.61,56.14],[-5.49,56.26],[-5.59,56.25],[-5.57,56.33],[-5.45,56.36],[-5.54,56.36],[-5.46,56.44],[-5.21,56.45],[-5.06,56.57],[-5.2,56.46],[-5.47,56.48],[-5.43,56.54],[-5.24,56.57],[-5.41,56.54],[-5.3,56.64],[-5.08,56.61],[-4.92,56.66],[-4.62,56.65],[-4.56,56.57],[-4.69,56.55],[-4.64,56.47],[-4.84,56.37],[-4.78,56.32],[-4.65,56.32],[-4.68,56.2],[-4.6,56.08],[-4.59,55.94]]],[[[-5.07,55.51],[-5.12,55.44],[-5.3,55.46],[-5.39,55.65],[-5.3,55.72],[-5.2,55.7],[-5.07,55.51]]],[[[-6.03,55.73],[-6.06,55.66],[-6.29,55.58],[-6.32,55.63],[-6.24,55.66],[-6.33,55.72],[-6.25,55.78],[-6.5,55.68],[-6.45,55.85],[-6.33,55.89],[-6.31,55.82],[-6.14,55.94],[-6.03,55.73]]],[[[-5.8,56.11],[-5.69,56.12],[-5.96,55.8],[-6.06,55.81],[-6.08,55.92],[-5.89,55.98],[-6,55.99],[-5.8,56.11]]],[[[-5.69,56.43],[-5.66,56.4],[-5.74,56.41],[-5.78,56.37],[-5.7,56.36],[-5.81,56.32],[-5.87,56.36],[-6.27,56.26],[-6.37,56.32],[-6.02,56.38],[-6.2,56.38],[-6.02,56.5],[-6.13,56.47],[-6.34,56.55],[-6.29,56.57],[-6.33,56.61],[-6.15,56.65],[-6.06,56.64],[-5.96,56.53],[-5.65,56.45],[-5.69,56.43]]]]}},{"type":"Feature","properties":{"id":"GBR-HLD","nome":"Highland","pais":"GBR","tipo":"Unitary District","lat":57.41,"lng":-4.81},"geometry":{"type":"MultiPolygon","coordinates":[[[[-5.3,56.64],[-5,56.72],[-5.24,56.72],[-5.12,56.82],[-5.67,56.5],[-5.77,56.54],[-5.75,56.57],[-5.85,56.55],[-6.01,56.64],[-5.54,56.7],[-6.16,56.68],[-6.24,56.72],[-5.76,56.78],[-5.85,56.83],[-5.66,56.87],[-5.92,56.89],[-5.85,56.9],[-5.83,57],[-5.52,57],[-5.79,57.06],[-5.72,57.12],[-5.4,57.11],[-5.68,57.16],[-5.58,57.27],[-5.41,57.23],[-5.5,57.28],[-5.44,57.32],[-5.73,57.3],[-5.45,57.42],[-5.56,57.36],[-5.64,57.37],[-5.62,57.42],[-5.81,57.35],[-5.87,57.49],[-5.84,57.58],[-5.64,57.51],[-5.51,57.54],[-5.66,57.54],[-5.81,57.64],[-5.79,57.7],[-5.67,57.71],[-5.8,57.74],[-5.81,57.83],[-5.7,57.87],[-5.61,57.77],[-5.59,57.83],[-5.65,57.89],[-5.61,57.93],[-5.49,57.86],[-5.41,57.91],[-5.22,57.85],[-5.39,57.92],[-5.37,57.94],[-5.07,57.83],[-5.45,58.08],[-5.3,58.07],[-5.3,58.13],[-5.24,58.15],[-5.39,58.26],[-4.93,58.22],[-4.98,58.25],[-4.93,58.26],[-5.05,58.26],[-5.17,58.35],[-5.14,58.41],[-5.02,58.39],[-5.1,58.41],[-5,58.44],[-5.11,58.51],[-5,58.62],[-4.84,58.61],[-4.82,58.52],[-4.78,58.61],[-4.66,58.56],[-4.76,58.45],[-4.58,58.57],[-4.43,58.55],[-4.5,58.45],[-4.34,58.54],[-4.03,58.6],[-3.36,58.6],[-3.41,58.66],[-3.37,58.68],[-3.02,58.64],[-3.13,58.51],[-3.05,58.47],[-3.13,58.37],[-4,57.94],[-4.08,57.96],[-3.99,57.91],[-4.01,57.87],[-4.3,57.86],[-4.39,57.91],[-4.31,57.85],[-3.91,57.81],[-3.79,57.87],[-3.99,57.7],[-4.04,57.74],[-4.29,57.68],[-4.43,57.58],[-4.2,57.67],[-4.01,57.69],[-4.1,57.58],[-4.26,57.55],[-4.19,57.49],[-4.03,57.56],[-4.08,57.59],[-3.75,57.63],[-3.68,57.51],[-3.72,57.41],[-3.5,57.46],[-3.4,57.42],[-3.39,57.37],[-3.49,57.31],[-3.44,57.19],[-3.74,57.08],[-3.8,56.93],[-4.18,56.91],[-4.44,56.78],[-4.51,56.8],[-4.59,56.69],[-4.71,56.64],[-5.3,56.64]]],[[[-6.56,57.35],[-6.7,57.36],[-6.78,57.46],[-6.72,57.46],[-6.72,57.51],[-6.61,57.44],[-6.63,57.5],[-6.56,57.5],[-6.65,57.55],[-6.64,57.61],[-6.31,57.46],[-6.42,57.65],[-6.31,57.7],[-6.15,57.59],[-6.13,57.48],[-6.19,57.39],[-6.13,57.41],[-6.1,57.33],[-6.15,57.31],[-5.9,57.24],[-5.65,57.26],[-5.69,57.19],[-6.01,57.03],[-5.99,57.12],[-5.85,57.19],[-5.99,57.17],[-6.04,57.23],[-6.09,57.13],[-6.16,57.2],[-6.32,57.16],[-6.28,57.2],[-6.35,57.19],[-6.35,57.24],[-6.48,57.31],[-6.32,57.31],[-6.53,57.42],[-6.56,57.35]]]]}},{"type":"Feature","properties":{"id":"GBR-MRY","nome":"Moray","pais":"GBR","tipo":"Unitary District","lat":57.46,"lng":-3.23},"geometry":{"type":"Polygon","coordinates":[[[-3.75,57.63],[-3.41,57.72],[-3.08,57.67],[-2.82,57.7],[-2.82,57.63],[-2.71,57.51],[-2.99,57.48],[-2.99,57.3],[-3.33,57.18],[-3.35,57.09],[-3.66,57.08],[-3.44,57.19],[-3.49,57.31],[-3.38,57.38],[-3.5,57.46],[-3.72,57.41],[-3.68,57.51],[-3.75,57.63]]]}},{"type":"Feature","properties":{"id":"GBR-ABD","nome":"Aberdeenshire","pais":"GBR","tipo":"Unitary District","lat":57.24,"lng":-2.78},"geometry":{"type":"Polygon","coordinates":[[[-2.82,57.7],[-2,57.7],[-1.83,57.61],[-1.76,57.47],[-2.04,57.23],[-2.3,57.22],[-2.27,57.16],[-2.35,57.09],[-2.07,57.1],[-2.19,56.98],[-2.22,56.87],[-2.44,56.74],[-2.62,56.78],[-2.69,56.92],[-2.87,56.98],[-3.06,56.96],[-3.12,56.89],[-3.8,56.93],[-3.74,57.08],[-3.35,57.09],[-3.33,57.18],[-3.19,57.26],[-3.01,57.28],[-2.97,57.33],[-2.99,57.48],[-2.71,57.51],[-2.82,57.63],[-2.82,57.7]]]}},{"type":"Feature","properties":{"id":"GBR-ABE","nome":"Aberdeen","pais":"GBR","tipo":"Unitary District (city)","lat":57.17,"lng":-2.2},"geometry":{"type":"Polygon","coordinates":[[[-2.04,57.23],[-2.07,57.1],[-2.35,57.1],[-2.28,57.15],[-2.28,57.24],[-2.04,57.23]]]}},{"type":"Feature","properties":{"id":"GBR-ANS","nome":"Angus","pais":"GBR","tipo":"Unitary District","lat":56.75,"lng":-2.92},"geometry":{"type":"Polygon","coordinates":[[[-2.44,56.74],[-2.51,56.59],[-2.73,56.47],[-2.88,56.52],[-3.11,56.48],[-3.17,56.53],[-3.08,56.61],[-3.34,56.72],[-3.4,56.88],[-3.27,56.93],[-3.12,56.89],[-3.06,56.96],[-2.87,56.98],[-2.69,56.92],[-2.62,56.78],[-2.44,56.74]]]}},{"type":"Feature","properties":{"id":"GBR-DND","nome":"Dundee","pais":"GBR","tipo":"Unitary District (city)","lat":56.49,"lng":-2.95},"geometry":{"type":"Polygon","coordinates":[[[-2.82,56.47],[-3.08,56.47],[-2.88,56.52],[-2.82,56.47]]]}},{"type":"Feature","properties":{"id":"GBR-PKN","nome":"Perthshire and Kinross","pais":"GBR","tipo":"Unitary District","lat":56.57,"lng":-3.88},"geometry":{"type":"Polygon","coordinates":[[[-3.06,56.45],[-3.32,56.37],[-3.24,56.31],[-3.36,56.26],[-3.26,56.22],[-3.27,56.17],[-3.63,56.13],[-3.55,56.18],[-3.83,56.19],[-4.22,56.33],[-4.19,56.46],[-4.1,56.47],[-4.14,56.51],[-4.28,56.48],[-4.35,56.54],[-4.66,56.48],[-4.69,56.55],[-4.56,56.57],[-4.71,56.66],[-4.59,56.69],[-4.51,56.8],[-4.44,56.78],[-4.18,56.91],[-3.59,56.93],[-3.4,56.88],[-3.34,56.72],[-3.08,56.61],[-3.17,56.52],[-3.06,56.45]]]}},{"type":"Feature","properties":{"id":"GBR-FIF","nome":"Fife","pais":"GBR","tipo":"Unitary District","lat":56.22,"lng":-3.16},"geometry":{"type":"Polygon","coordinates":[[[-3.26,56.35],[-2.88,56.46],[-2.8,56.43],[-2.8,56.35],[-2.58,56.28],[-2.78,56.19],[-2.96,56.21],[-3.16,56.06],[-3.34,56.03],[-3.75,56.07],[-3.57,56.15],[-3.27,56.17],[-3.26,56.22],[-3.36,56.26],[-3.24,56.31],[-3.26,56.35]]]}},{"type":"Feature","properties":{"id":"GBR-IOW","nome":"Isle of Wight","pais":"GBR","tipo":"Unitary Authority","lat":50.68,"lng":-1.32},"geometry":{"type":"Polygon","coordinates":[[[-1.08,50.71],[-1.17,50.6],[-1.28,50.58],[-1.57,50.66],[-1.32,50.77],[-1.08,50.71]]]}},{"type":"Feature","properties":{"id":"GBR-AGY","nome":"Anglesey","pais":"GBR","tipo":"Unitary Authority (wales)","lat":53.3,"lng":-4.38},"geometry":{"type":"Polygon","coordinates":[[[-4.1,53.31],[-4.04,53.3],[-4.41,53.13],[-4.39,53.18],[-4.5,53.18],[-4.57,53.28],[-4.57,53.39],[-4.32,53.42],[-4.2,53.3],[-4.1,53.31]]]}},{"type":"Feature","properties":{"id":"GBR-ELS","nome":"Eilean Siar","pais":"GBR","tipo":"Island Area","lat":58.11,"lng":-6.75},"geometry":{"type":"MultiPolygon","coordinates":[[[[-7.24,57.33],[-7.2,57.31],[-7.26,57.24],[-7.35,57.24],[-7.26,57.16],[-7.35,57.15],[-7.22,57.11],[-7.35,57.1],[-7.46,57.24],[-7.39,57.31],[-7.43,57.39],[-7.35,57.41],[-7.22,57.34],[-7.37,57.36],[-7.24,57.33]]],[[[-7.13,57.65],[-7.07,57.63],[-7.22,57.63],[-7.13,57.57],[-7.31,57.55],[-7.14,57.55],[-7.16,57.51],[-7.54,57.59],[-7.48,57.66],[-7.4,57.64],[-7.31,57.69],[-7.13,57.65]]],[[[-6.96,57.74],[-7.13,57.84],[-6.91,57.87],[-6.96,57.89],[-6.84,57.94],[-7.11,57.99],[-6.93,58.05],[-7.06,58.04],[-7.02,58.08],[-7.11,58.1],[-7.11,58.18],[-7.02,58.19],[-7.03,58.24],[-6.91,58.22],[-6.86,58.11],[-6.87,58.19],[-6.71,58.19],[-6.82,58.29],[-6.22,58.5],[-6.17,58.42],[-6.22,58.37],[-6.17,58.35],[-6.37,58.24],[-6.15,58.26],[-6.16,58.22],[-6.4,58.21],[-6.37,58.14],[-6.62,58.09],[-6.41,58.11],[-6.35,58.04],[-6.54,58.02],[-6.46,57.98],[-6.54,57.92],[-6.66,57.93],[-6.71,58],[-6.59,58.06],[-6.69,58.06],[-6.76,58],[-6.66,57.88],[-6.79,57.9],[-6.74,57.83],[-6.85,57.83],[-6.96,57.74]]]]}},{"type":"Feature","properties":{"id":"GBR-ORK","nome":"Orkney","pais":"GBR","tipo":"Unitary District","lat":58.97,"lng":-3.16},"geometry":{"type":"MultiPolygon","coordinates":[[[[-3.25,58.79],[-3.13,58.81],[-3.3,58.78],[-3.43,58.88],[-3.35,58.93],[-3.25,58.9],[-3.17,58.82],[-3.25,58.79]]],[[[-2.73,58.97],[-2.71,58.93],[-2.82,58.88],[-2.98,58.96],[-3.2,58.92],[-3.23,59.04],[-3.29,58.95],[-3.37,59.02],[-3.32,59.13],[-3.18,59.15],[-2.99,59.07],[-3.12,59],[-2.78,58.99],[-2.84,58.95],[-2.79,58.93],[-2.73,58.97]]]]}},{"type":"Feature","properties":{"id":"GBR-ZET","nome":"Shetland Islands","pais":"GBR","tipo":"Unitary District (city)","lat":60.31,"lng":-1.24},"geometry":{"type":"MultiPolygon","coordinates":[[[[-1.1,60.42],[-1.03,60.45],[-1.13,60.38],[-1.07,60.36],[-1.17,60.35],[-1.08,60.32],[-1.14,60.29],[-1.09,60.27],[-1.22,60.24],[-1.12,60.15],[-1.21,60.11],[-1.16,60.06],[-1.22,60.04],[-1.2,59.99],[-1.25,60],[-1.27,59.85],[-1.38,59.91],[-1.26,60.12],[-1.27,60.19],[-1.31,60.18],[-1.27,60.25],[-1.33,60.2],[-1.41,60.26],[-1.35,60.21],[-1.46,60.16],[-1.53,60.19],[-1.47,60.22],[-1.5,60.24],[-1.62,60.22],[-1.69,60.29],[-1.48,60.32],[-1.47,60.28],[-1.42,60.33],[-1.36,60.29],[-1.34,60.35],[-1.26,60.36],[-1.4,60.39],[-1.45,60.49],[-1.61,60.48],[-1.53,60.56],[-1.38,60.51],[-1.48,60.54],[-1.42,60.61],[-1.32,60.59],[-1.3,60.64],[-1.34,60.49],[-1.3,60.49],[-1.37,60.4],[-1.23,60.44],[-1.3,60.47],[-1.22,60.5],[-1.15,60.43],[-1.22,60.41],[-1.1,60.42]]],[[[-0.99,60.7],[-0.99,60.64],[-1.06,60.66],[-1.01,60.62],[-1.07,60.62],[-1.01,60.58],[-1.02,60.5],[-1.15,60.51],[-1.18,60.62],[-1.1,60.62],[-1.11,60.71],[-0.99,60.7]]]]}},{"type":"Feature","properties":{"id":"GBR-CAY","nome":"Caerphilly","pais":"GBR","tipo":"Unitary Authority (wales)","lat":51.64,"lng":-3.18},"geometry":{"type":"Polygon","coordinates":[[[-3.03,51.61],[-3.11,51.59],[-3.1,51.54],[-3.23,51.55],[-3.33,51.79],[-3.07,51.68],[-3.03,51.61]]]}},{"type":"Feature","properties":{"id":"GBR-RCT","nome":"Rhondda, Cynon, Taff","pais":"GBR","tipo":"Unitary Authority (wales)","lat":51.62,"lng":-3.41},"geometry":{"type":"Polygon","coordinates":[[[-3.3,51.65],[-3.23,51.55],[-3.29,51.5],[-3.48,51.51],[-3.46,51.59],[-3.59,51.74],[-3.44,51.82],[-3.44,51.75],[-3.3,51.65]]]}},{"type":"Feature","properties":{"id":"GBR-BGW","nome":"Blaenau Gwent","pais":"GBR","tipo":"Unitary Authority (wales)","lat":51.77,"lng":-3.2},"geometry":{"type":"Polygon","coordinates":[[[-3.22,51.73],[-3.29,51.81],[-3.16,51.81],[-3.11,51.7],[-3.22,51.73]]]}},{"type":"Feature","properties":{"id":"GBR-TOF","nome":"Torfaen","pais":"GBR","tipo":"Unitary Authority (wales)","lat":51.69,"lng":-3.04},"geometry":{"type":"Polygon","coordinates":[[[-3.03,51.61],[-3.13,51.79],[-2.98,51.71],[-2.96,51.63],[-3.03,51.61]]]}},{"type":"Feature","properties":{"id":"GBR-MTY","nome":"Merthyr Tydfil","pais":"GBR","tipo":"Unitary Authority (wales)","lat":51.75,"lng":-3.36},"geometry":{"type":"Polygon","coordinates":[[[-3.33,51.79],[-3.3,51.65],[-3.44,51.75],[-3.41,51.83],[-3.33,51.79]]]}},{"type":"Feature","properties":{"id":"GBR-NLK","nome":"North Lanarkshire","pais":"GBR","tipo":"Unitary District","lat":55.87,"lng":-3.94},"geometry":{"type":"Polygon","coordinates":[[[-4.02,56.03],[-3.79,55.87],[-3.71,55.88],[-3.73,55.78],[-3.9,55.73],[-4.17,55.9],[-4.06,55.91],[-4.04,55.95],[-4.11,55.95],[-4.13,56.01],[-4.02,56.03]]]}},{"type":"Feature","properties":{"id":"GBR-EDU","nome":"East Dunbartonshire","pais":"GBR","tipo":"Unitary District","lat":55.95,"lng":-4.2},"geometry":{"type":"Polygon","coordinates":[[[-4.14,56.03],[-4.11,55.95],[-4.04,55.95],[-4.06,55.91],[-4.36,55.91],[-4.36,55.98],[-4.27,55.97],[-4.28,56.03],[-4.14,56.03]]]}},{"type":"Feature","properties":{"id":"GBR-GLG","nome":"Glasgow","pais":"GBR","tipo":"Unitary District (city)","lat":55.84,"lng":-4.21},"geometry":{"type":"Polygon","coordinates":[[[-4.36,55.86],[-4.27,55.92],[-4.07,55.86],[-4.23,55.78],[-4.35,55.79],[-4.36,55.86]]]}},{"type":"Feature","properties":{"id":"GBR-ERW","nome":"East Renfrewshire","pais":"GBR","tipo":"Unitary District","lat":55.77,"lng":-4.37},"geometry":{"type":"Polygon","coordinates":[[[-4.52,55.76],[-4.26,55.8],[-4.22,55.7],[-4.52,55.76]]]}},{"type":"Feature","properties":{"id":"GBR-EAY","nome":"East Ayrshire","pais":"GBR","tipo":"Unitary District","lat":55.5,"lng":-4.29},"geometry":{"type":"Polygon","coordinates":[[[-4.49,55.39],[-4.43,55.52],[-4.58,55.59],[-4.5,55.65],[-4.63,55.67],[-4.52,55.76],[-4.25,55.69],[-4.17,55.61],[-4.2,55.55],[-3.96,55.54],[-4,55.44],[-4.09,55.4],[-4.11,55.3],[-4.3,55.31],[-4.42,55.14],[-4.47,55.16],[-4.44,55.28],[-4.58,55.39],[-4.49,55.39]]]}},{"type":"Feature","properties":{"id":"GBR-SLK","nome":"South Lanarkshire","pais":"GBR","tipo":"Unitary District","lat":55.6,"lng":-3.83},"geometry":{"type":"Polygon","coordinates":[[[-3.96,55.45],[-3.99,55.57],[-4.21,55.56],[-4.17,55.61],[-4.25,55.69],[-4.24,55.79],[-4.08,55.83],[-3.88,55.73],[-3.61,55.8],[-3.39,55.71],[-3.53,55.6],[-3.48,55.55],[-3.53,55.44],[-3.5,55.41],[-3.62,55.29],[-3.83,55.45],[-3.96,55.45]]]}},{"type":"Feature","properties":{"id":"GBR-MFT","nome":"Magherafelt","pais":"GBR","tipo":"District","lat":54.82,"lng":-6.72},"geometry":{"type":"Polygon","coordinates":[[[-6.93,54.77],[-6.89,54.85],[-6.81,54.85],[-6.74,54.93],[-6.52,54.95],[-6.47,54.83],[-6.5,54.71],[-6.97,54.74],[-6.93,54.77]]]}},{"type":"Feature","properties":{"id":"GBR-OMH","nome":"Omagh","pais":"GBR","tipo":"District","lat":54.58,"lng":-7.31},"geometry":{"type":"Polygon","coordinates":[[[-7.67,54.58],[-7.65,54.63],[-7.44,54.64],[-7.31,54.73],[-6.93,54.77],[-7,54.73],[-6.97,54.54],[-7.11,54.47],[-7.51,54.4],[-7.58,54.48],[-7.53,54.55],[-7.67,54.58]]]}},{"type":"Feature","properties":{"id":"GBR-CKT","nome":"Mid Ulster","pais":"GBR","tipo":"Province","lat":54.63,"lng":-6.71},"geometry":{"type":"Polygon","coordinates":[[[-6.9,54.56],[-6.96,54.58],[-7,54.73],[-6.56,54.73],[-6.42,54.64],[-6.44,54.57],[-6.53,54.54],[-6.9,54.56]]]}},{"type":"Feature","properties":{"id":"GBR-CGV","nome":"Craigavon","pais":"GBR","tipo":"District","lat":54.49,"lng":-6.4},"geometry":{"type":"Polygon","coordinates":[[[-6.44,54.38],[-6.58,54.51],[-6.27,54.6],[-6.3,54.57],[-6.21,54.41],[-6.44,54.38]]]}},{"type":"Feature","properties":{"id":"GBR-BNB","nome":"Banbridge","pais":"GBR","tipo":"District","lat":54.35,"lng":-6.17},"geometry":{"type":"Polygon","coordinates":[[[-6.34,54.27],[-6.39,54.4],[-6.17,54.44],[-5.94,54.37],[-5.97,54.25],[-6.34,54.27]]]}},{"type":"Feature","properties":{"id":"GBR-ANT","nome":"Antrim","pais":"GBR","tipo":"District","lat":54.69,"lng":-6.26},"geometry":{"type":"Polygon","coordinates":[[[-6.5,54.71],[-6.48,54.78],[-6.15,54.81],[-6.05,54.77],[-6.02,54.66],[-6.43,54.57],[-6.42,54.65],[-6.5,54.71]]]}},{"type":"Feature","properties":{"id":"GBR-LSB","nome":"Lisburn","pais":"GBR","tipo":"District","lat":54.52,"lng":-6.08},"geometry":{"type":"Polygon","coordinates":[[[-5.87,54.48],[-6.01,54.38],[-6.21,54.43],[-6.3,54.57],[-6.07,54.62],[-5.87,54.48]]]}},{"type":"Feature","properties":{"id":"GBR-BLY","nome":"Ballymoney","pais":"GBR","tipo":"District","lat":55.05,"lng":-6.4},"geometry":{"type":"Polygon","coordinates":[[[-6.51,54.92],[-6.61,55.08],[-6.57,55.13],[-6.23,55.12],[-6.2,55.02],[-6.51,54.92]]]}},{"type":"Feature","properties":{"id":"GBR-BLA","nome":"Ballymena","pais":"GBR","tipo":"District","lat":54.9,"lng":-6.23},"geometry":{"type":"Polygon","coordinates":[[[-6.48,54.78],[-6.51,54.92],[-6.19,55.03],[-5.94,54.83],[-6.48,54.78]]]}},{"type":"Feature","properties":{"id":"GBR-CSR","nome":"Castlereagh","pais":"GBR","tipo":"District","lat":54.54,"lng":-5.85},"geometry":{"type":"Polygon","coordinates":[[[-5.82,54.49],[-5.95,54.55],[-5.76,54.62],[-5.82,54.49]]]}},{"type":"Feature","properties":{"id":"GBR-WND","nome":"Wandsworth","pais":"GBR","tipo":"London Borough","lat":51.45,"lng":-0.18},"geometry":{"type":"Polygon","coordinates":[[[-0.13,51.42],[-0.25,51.46],[-0.13,51.49],[-0.13,51.42]]]}},{"type":"Feature","properties":{"id":"GBR-MRT","nome":"Merton","pais":"GBR","tipo":"London Borough","lat":51.41,"lng":-0.18},"geometry":{"type":"Polygon","coordinates":[[[-0.19,51.44],[-0.12,51.39],[-0.22,51.38],[-0.24,51.43],[-0.19,51.44]]]}},{"type":"Feature","properties":{"id":"GBR-HNS","nome":"Hounslow","pais":"GBR","tipo":"London Borough","lat":51.47,"lng":-0.34},"geometry":{"type":"Polygon","coordinates":[[[-0.27,51.5],[-0.24,51.49],[-0.38,51.41],[-0.44,51.44],[-0.39,51.49],[-0.27,51.5]]]}},{"type":"Feature","properties":{"id":"GBR-EAL","nome":"Ealing","pais":"GBR","tipo":"London Borough","lat":51.52,"lng":-0.32},"geometry":{"type":"Polygon","coordinates":[[[-0.25,51.49],[-0.41,51.53],[-0.31,51.55],[-0.24,51.53],[-0.25,51.49]]]}},{"type":"Feature","properties":{"id":"GBR-STT","nome":"Stockton-on-Tees","pais":"GBR","tipo":"Unitary Authority","lat":54.54,"lng":-1.32},"geometry":{"type":"Polygon","coordinates":[[[-1.43,54.48],[-1.39,54.63],[-1.21,54.61],[-1.3,54.53],[-1.25,54.49],[-1.43,54.48]]]}},{"type":"Feature","properties":{"id":"GBR-DAL","nome":"Darlington","pais":"GBR","tipo":"Unitary Authority","lat":54.52,"lng":-1.54},"geometry":{"type":"Polygon","coordinates":[[[-1.41,54.6],[-1.45,54.44],[-1.68,54.53],[-1.67,54.59],[-1.41,54.6]]]}},{"type":"Feature","properties":{"id":"GBR-MDB","nome":"Middlesbrough","pais":"GBR","tipo":"Unitary Authority","lat":54.54,"lng":-1.24},"geometry":{"type":"Polygon","coordinates":[[[-1.23,54.58],[-1.18,54.5],[-1.29,54.5],[-1.23,54.58]]]}},{"type":"Feature","properties":{"id":"GBR-RIC","nome":"Richmond upon Thames","pais":"GBR","tipo":"London Borough","lat":51.41,"lng":-0.3},"geometry":{"type":"Polygon","coordinates":[[[-0.21,51.47],[-0.31,51.38],[-0.38,51.41],[-0.21,51.47]]]}},{"type":"Feature","properties":{"id":"GBR-TWH","nome":"Tower Hamlets","pais":"GBR","tipo":"London Borough","lat":51.52,"lng":-0.03},"geometry":{"type":"Polygon","coordinates":[[[-0.07,51.51],[-0.01,51.54],[0.02,51.5],[-0.07,51.51]]]}},{"type":"Feature","properties":{"id":"GBR-GAT","nome":"Gateshead","pais":"GBR","tipo":"Metropolitan Borough","lat":54.94,"lng":-1.67},"geometry":{"type":"Polygon","coordinates":[[[-1.7,54.89],[-1.85,54.92],[-1.75,55],[-1.52,54.94],[-1.58,54.89],[-1.7,54.89]]]}},{"type":"Feature","properties":{"id":"GBR-NET","nome":"Newcastle upon Tyne","pais":"GBR","tipo":"Metropolitan Borough","lat":54.99,"lng":-1.6},"geometry":{"type":"Polygon","coordinates":[[[-1.69,55.07],[-1.49,54.98],[-1.75,55],[-1.69,55.07]]]}},{"type":"Feature","properties":{"id":"GBR-YOR","nome":"York","pais":"GBR","tipo":"Unitary Authority","lat":53.95,"lng":-1.08},"geometry":{"type":"Polygon","coordinates":[[[-1.05,54.04],[-0.93,53.97],[-0.94,53.87],[-1.14,53.86],[-1.22,53.91],[-1.23,53.97],[-1.05,54.04]]]}},{"type":"Feature","properties":{"id":"GBR-SHN","nome":"Merseyside","pais":"GBR","tipo":"Metropolitan Borough","lat":53.44,"lng":-2.73},"geometry":{"type":"Polygon","coordinates":[[[-2.68,53.38],[-2.79,53.4],[-2.8,53.52],[-2.57,53.44],[-2.67,53.44],[-2.68,53.38]]]}},{"type":"Feature","properties":{"id":"GBR-ENF","nome":"Enfield","pais":"GBR","tipo":"London Borough","lat":51.64,"lng":-0.09},"geometry":{"type":"Polygon","coordinates":[[[-0.15,51.69],[0,51.65],[-0.03,51.6],[-0.13,51.61],[-0.15,51.69]]]}},{"type":"Feature","properties":{"id":"GBR-HRT","nome":"Hertfordshire","pais":"GBR","tipo":"Administrative County","lat":51.81,"lng":-0.27},"geometry":{"type":"Polygon","coordinates":[[[-0.01,51.68],[-0.15,51.69],[-0.49,51.59],[-0.53,51.73],[-0.73,51.83],[-0.36,51.83],[-0.38,51.98],[-0.25,51.98],[-0.15,52.07],[-0.11,52.02],[0.05,52.04],[0.2,51.87],[0.16,51.79],[0.04,51.77],[-0.01,51.68]]]}},{"type":"Feature","properties":{"id":"GBR-BNE","nome":"Barnet","pais":"GBR","tipo":"London Borough","lat":51.61,"lng":-0.2},"geometry":{"type":"Polygon","coordinates":[[[-0.24,51.67],[-0.12,51.63],[-0.16,51.57],[-0.29,51.63],[-0.24,51.67]]]}},{"type":"Feature","properties":{"id":"GBR-WFT","nome":"Waltham Forest","pais":"GBR","tipo":"London Borough","lat":51.59,"lng":-0.01},"geometry":{"type":"Polygon","coordinates":[[[-0.03,51.6],[0.02,51.64],[0.02,51.55],[-0.05,51.57],[-0.03,51.6]]]}},{"type":"Feature","properties":{"id":"GBR-RDB","nome":"Redbridge","pais":"GBR","tipo":"London Borough","lat":51.57,"lng":0.09},"geometry":{"type":"Polygon","coordinates":[[[0.15,51.62],[0.13,51.55],[0.02,51.55],[0.02,51.62],[0.15,51.62]]]}},{"type":"Feature","properties":{"id":"GBR-HAV","nome":"Havering","pais":"GBR","tipo":"London Borough","lat":51.56,"lng":0.24},"geometry":{"type":"Polygon","coordinates":[[[0.15,51.6],[0.25,51.63],[0.34,51.54],[0.19,51.48],[0.15,51.6]]]}},{"type":"Feature","properties":{"id":"GBR-CAM","nome":"Cambridgeshire","pais":"GBR","tipo":"Administrative County","lat":52.35,"lng":0.02},"geometry":{"type":"Polygon","coordinates":[[[-0.11,52.02],[-0.13,52.13],[-0.22,52.13],[-0.49,52.35],[-0.34,52.46],[-0.41,52.56],[-0.29,52.5],[-0.05,52.59],[-0.05,52.66],[0.17,52.72],[0.16,52.67],[0.25,52.6],[0.23,52.51],[0.45,52.43],[0.39,52.39],[0.51,52.27],[0.35,52.26],[0.5,52.23],[0.5,52.16],[0.43,52.14],[0.39,52.04],[0.29,52.08],[0.11,52.05],[0.08,52],[-0.01,52.05],[-0.11,52.02]]]}},{"type":"Feature","properties":{"id":"GBR-BEX","nome":"Bexley","pais":"GBR","tipo":"London Borough","lat":51.45,"lng":0.15},"geometry":{"type":"Polygon","coordinates":[[[0.17,51.5],[0.22,51.49],[0.17,51.4],[0.08,51.43],[0.17,51.5]]]}},{"type":"Feature","properties":{"id":"GBR-STN","nome":"Sutton","pais":"GBR","tipo":"London Borough","lat":51.36,"lng":-0.18},"geometry":{"type":"Polygon","coordinates":[[[-0.15,51.39],[-0.11,51.35],[-0.14,51.32],[-0.24,51.37],[-0.15,51.39]]]}},{"type":"Feature","properties":{"id":"GBR-MIK","nome":"Milton Keynes","pais":"GBR","tipo":"Unitary Authority","lat":52.06,"lng":-0.73},"geometry":{"type":"Polygon","coordinates":[[[-0.69,51.95],[-0.87,52.03],[-0.83,52.07],[-0.88,52.12],[-0.62,52.17],[-0.57,52.1],[-0.69,51.95]]]}},{"type":"Feature","properties":{"id":"GBR-BKM","nome":"Buckinghamshire","pais":"GBR","tipo":"Administrative County","lat":51.77,"lng":-0.81},"geometry":{"type":"Polygon","coordinates":[[[-0.87,52.03],[-0.66,51.95],[-0.69,51.9],[-0.53,51.83],[-0.73,51.83],[-0.53,51.73],[-0.5,51.48],[-0.57,51.53],[-0.68,51.49],[-0.72,51.56],[-0.89,51.55],[-0.94,51.62],[-0.88,51.72],[-1.11,51.78],[-1.13,51.83],[-1.05,51.83],[-1.05,51.99],[-1.14,52.02],[-0.95,52.07],[-0.87,52.03]]]}},{"type":"Feature","properties":{"id":"GBR-HIL","nome":"Hillingdon","pais":"GBR","tipo":"London Borough","lat":51.53,"lng":-0.43},"geometry":{"type":"Polygon","coordinates":[[[-0.37,51.55],[-0.42,51.45],[-0.5,51.48],[-0.48,51.62],[-0.4,51.61],[-0.37,51.55]]]}},{"type":"Feature","properties":{"id":"GBR-BEN","nome":"Brent","pais":"GBR","tipo":"London Borough","lat":51.56,"lng":-0.25},"geometry":{"type":"Polygon","coordinates":[[[-0.18,51.53],[-0.33,51.55],[-0.27,51.6],[-0.18,51.53]]]}},{"type":"Feature","properties":{"id":"GBR-LUT","nome":"Luton","pais":"GBR","tipo":"Unitary Authority","lat":51.88,"lng":-0.41},"geometry":{"type":"Polygon","coordinates":[[[-0.39,51.92],[-0.36,51.83],[-0.47,51.87],[-0.46,51.91],[-0.39,51.92]]]}},{"type":"Feature","properties":{"id":"GBR-HRW","nome":"Harrow","pais":"GBR","tipo":"London Borough","lat":51.59,"lng":-0.33},"geometry":{"type":"Polygon","coordinates":[[[-0.33,51.55],[-0.4,51.61],[-0.29,51.64],[-0.27,51.6],[-0.33,51.55]]]}},{"type":"Feature","properties":{"id":"GBR-CBF","nome":"Central Bedfordshire","pais":"GBR","tipo":"Unitary Authority","lat":52.02,"lng":-0.38},"geometry":{"type":"Polygon","coordinates":[[[-0.66,51.95],[-0.66,52.04],[-0.57,52.1],[-0.39,52.07],[-0.32,52.18],[-0.25,52.19],[-0.22,52.13],[-0.13,52.13],[-0.2,52.01],[-0.46,51.91],[-0.45,51.85],[-0.51,51.8],[-0.69,51.9],[-0.66,51.95]]]}},{"type":"Feature","properties":{"id":"GBR-BDF","nome":"Bedford","pais":"GBR","tipo":"Unitary Authority","lat":52.18,"lng":-0.47},"geometry":{"type":"Polygon","coordinates":[[[-0.57,52.1],[-0.64,52.25],[-0.54,52.25],[-0.5,52.3],[-0.25,52.19],[-0.32,52.18],[-0.39,52.07],[-0.57,52.1]]]}},{"type":"Feature","properties":{"id":"GBR-RUT","nome":"Rutland","pais":"GBR","tipo":"Unitary Authority","lat":52.66,"lng":-0.61},"geometry":{"type":"Polygon","coordinates":[[[-0.65,52.75],[-0.42,52.69],[-0.73,52.51],[-0.81,52.71],[-0.65,52.75]]]}},{"type":"Feature","properties":{"id":"GBR-NTT","nome":"Nottinghamshire","pais":"GBR","tipo":"Administrative County","lat":53.12,"lng":-0.98},"geometry":{"type":"Polygon","coordinates":[[[-0.92,53.49],[-0.8,53.45],[-0.74,53.32],[-0.78,53.23],[-0.64,53.24],[-0.75,53.17],[-0.69,53.05],[-0.98,52.81],[-1.23,52.78],[-1.32,53.01],[-1.31,53.14],[-1.19,53.17],[-1.12,53.38],[-0.92,53.49]],[[-1.17,52.87],[-1.1,52.92],[-1.16,53],[-1.23,52.94],[-1.17,52.87]]]}},{"type":"Feature","properties":{"id":"GBR-NTH","nome":"Northamptonshire","pais":"GBR","tipo":"Administrative County","lat":52.31,"lng":-0.88},"geometry":{"type":"Polygon","coordinates":[[[-0.65,52.19],[-0.88,52.12],[-0.83,52.06],[-0.89,52.02],[-1.02,52.06],[-1.18,51.98],[-1.27,51.98],[-1.31,52.08],[-1.24,52.1],[-1.32,52.16],[-1.21,52.25],[-1.25,52.32],[-1.17,52.35],[-1.19,52.38],[-0.88,52.45],[-0.87,52.5],[-0.73,52.5],[-0.49,52.64],[-0.34,52.46],[-0.48,52.37],[-0.46,52.31],[-0.53,52.25],[-0.64,52.26],[-0.65,52.19]]]}},{"type":"Feature","properties":{"id":"GBR-CMD","nome":"Camden","pais":"GBR","tipo":"London Borough","lat":51.55,"lng":-0.15},"geometry":{"type":"Polygon","coordinates":[[[-0.13,51.56],[-0.11,51.5],[-0.2,51.55],[-0.13,51.56]]]}},{"type":"Feature","properties":{"id":"GBR-ISL","nome":"Islington","pais":"GBR","tipo":"London Borough","lat":51.54,"lng":-0.1},"geometry":{"type":"Polygon","coordinates":[[[-0.1,51.52],[-0.13,51.57],[-0.07,51.55],[-0.1,51.52]]]}},{"type":"Feature","properties":{"id":"GBR-PTE","nome":"Peterborough","pais":"GBR","tipo":"Unitary Authority","lat":52.58,"lng":-0.27},"geometry":{"type":"Polygon","coordinates":[[[-0.05,52.66],[-0.05,52.59],[-0.29,52.5],[-0.47,52.57],[-0.49,52.64],[-0.05,52.66]]]}},{"type":"Feature","properties":{"id":"GBR-LBH","nome":"Lambeth","pais":"GBR","tipo":"London Borough","lat":51.46,"lng":-0.11},"geometry":{"type":"Polygon","coordinates":[[[-0.13,51.41],[-0.11,51.51],[-0.07,51.42],[-0.13,51.41]]]}},{"type":"Feature","properties":{"id":"GBR-SWK","nome":"Southwark","pais":"GBR","tipo":"London Borough","lat":51.47,"lng":-0.07},"geometry":{"type":"Polygon","coordinates":[[[-0.08,51.51],[-0.02,51.5],[-0.07,51.42],[-0.08,51.51]]]}},{"type":"Feature","properties":{"id":"GBR-DNC","nome":"Doncaster","pais":"GBR","tipo":"Metropolitan Borough","lat":53.52,"lng":-1.08},"geometry":{"type":"Polygon","coordinates":[[[-1.13,53.63],[-0.86,53.63],[-0.9,53.57],[-0.87,53.53],[-1.12,53.38],[-1.33,53.48],[-1.29,53.51],[-1.34,53.58],[-1.13,53.63]]]}},{"type":"Feature","properties":{"id":"GBR-CRY","nome":"Croydon","pais":"GBR","tipo":"London Borough","lat":51.36,"lng":-0.08},"geometry":{"type":"Polygon","coordinates":[[[-0.13,51.39],[-0.08,51.41],[0.01,51.32],[-0.13,51.29],[-0.13,51.39]]]}},{"type":"Feature","properties":{"id":"GBR-LEW","nome":"Lewisham","pais":"GBR","tipo":"London Borough","lat":51.44,"lng":-0.01},"geometry":{"type":"Polygon","coordinates":[[[-0.03,51.49],[0.04,51.42],[-0.07,51.42],[-0.03,51.49]]]}},{"type":"Feature","properties":{"id":"GBR-HRY","nome":"Haringey","pais":"GBR","tipo":"London Borough","lat":51.58,"lng":-0.1},"geometry":{"type":"Polygon","coordinates":[[[-0.09,51.56],[-0.16,51.57],[-0.03,51.6],[-0.09,51.56]]]}},{"type":"Feature","properties":{"id":"GBR-KTT","nome":"Kingston upon Thames","pais":"GBR","tipo":"London Borough (royal)","lat":51.39,"lng":-0.27},"geometry":{"type":"Polygon","coordinates":[[[-0.24,51.43],[-0.22,51.39],[-0.31,51.32],[-0.3,51.43],[-0.24,51.43]]]}},{"type":"Feature","properties":{"id":"GBR-NWM","nome":"Newham","pais":"GBR","tipo":"London Borough","lat":51.53,"lng":0.04},"geometry":{"type":"Polygon","coordinates":[[[0.02,51.5],[-0.01,51.55],[0.1,51.52],[0.02,51.5]]]}},{"type":"Feature","properties":{"id":"GBR-GRE","nome":"Greenwich","pais":"GBR","tipo":"London Borough (royal)","lat":51.46,"lng":0.05},"geometry":{"type":"Polygon","coordinates":[[[0,51.48],[0.12,51.5],[0.07,51.42],[0,51.48]]]}},{"type":"Feature","properties":{"id":"GBR-HCK","nome":"Hackney","pais":"GBR","tipo":"London Borough","lat":51.55,"lng":-0.05},"geometry":{"type":"Polygon","coordinates":[[[-0.09,51.53],[-0.09,51.57],[-0.01,51.55],[-0.09,51.53]]]}},{"type":"Feature","properties":{"id":"GBR-BDG","nome":"Barking and Dagenham","pais":"GBR","tipo":"London Borough","lat":51.54,"lng":0.13},"geometry":{"type":"Polygon","coordinates":[[[0.15,51.6],[0.17,51.5],[0.1,51.5],[0.07,51.54],[0.15,51.6]]]}},{"type":"Feature","properties":{"id":"GBR-LEC","nome":"Leicestershire","pais":"GBR","tipo":"Kingdom","lat":52.49,"lng":-1.12},"geometry":{"type":"Polygon","coordinates":[[[-0.77,52.96],[-0.65,52.75],[-0.81,52.71],[-0.73,52.5],[-0.86,52.51],[-0.88,52.45],[-0.96,52.46],[-1.16,52.38],[-1.55,52.58],[-1.58,52.68],[-1.54,52.75],[-1.34,52.85],[-1.26,52.86],[-1.26,52.8],[-1.19,52.77],[-0.98,52.81],[-0.77,52.96]],[[-1.12,52.57],[-1.06,52.62],[-1.16,52.66],[-1.17,52.58],[-1.12,52.57]]]}},{"type":"Feature","properties":{"id":"GBR-CHE","nome":"Cheshire East","pais":"GBR","tipo":"Unitary Authority","lat":53.24,"lng":-2.21},"geometry":{"type":"Polygon","coordinates":[[[-2.02,53.37],[-1.98,53.21],[-2.37,53.05],[-2.38,52.99],[-2.58,52.95],[-2.67,53.05],[-2.41,53.23],[-2.51,53.33],[-2.43,53.38],[-2.16,53.32],[-2.02,53.37]]]}},{"type":"Feature","properties":{"id":"GBR-DBY","nome":"Derbyshire","pais":"GBR","tipo":"Administrative County","lat":52.99,"lng":-1.59},"geometry":{"type":"Polygon","coordinates":[[[-1.98,53.21],[-2.01,53.42],[-1.9,53.53],[-1.58,53.33],[-1.61,53.31],[-1.16,53.29],[-1.19,53.17],[-1.31,53.14],[-1.33,53.05],[-1.23,52.88],[-1.58,52.68],[-1.7,52.73],[-1.61,52.83],[-1.84,52.9],[-1.75,53],[-1.8,53.15],[-1.98,53.21]]]}},{"type":"Feature","properties":{"id":"GBR-ROT","nome":"Rotherham","pais":"GBR","tipo":"Metropolitan Borough","lat":53.39,"lng":-1.29},"geometry":{"type":"Polygon","coordinates":[[[-1.33,53.3],[-1.39,53.33],[-1.37,53.47],[-1.26,53.47],[-1.12,53.38],[-1.18,53.29],[-1.33,53.3]]]}},{"type":"Feature","properties":{"id":"GBR-SHF","nome":"Sheffield","pais":"GBR","tipo":"Metropolitan Borough","lat":53.41,"lng":-1.57},"geometry":{"type":"Polygon","coordinates":[[[-1.39,53.33],[-1.61,53.31],[-1.58,53.33],[-1.82,53.52],[-1.46,53.47],[-1.39,53.33]]]}},{"type":"Feature","properties":{"id":"GBR-STE","nome":"Stoke-on-Trent","pais":"GBR","tipo":"Unitary Authority","lat":53,"lng":-2.17},"geometry":{"type":"Polygon","coordinates":[[[-2.24,53.09],[-2.2,53.11],[-2.1,52.95],[-2.2,52.96],[-2.24,53.09]]]}},{"type":"Feature","properties":{"id":"GBR-TFW","nome":"Telford and Wrekin","pais":"GBR","tipo":"Unitary Authority","lat":52.72,"lng":-2.49},"geometry":{"type":"Polygon","coordinates":[[[-2.4,52.82],[-2.32,52.75],[-2.42,52.61],[-2.66,52.74],[-2.4,52.82]]]}},{"type":"Feature","properties":{"id":"GBR-STS","nome":"Staffordshire","pais":"GBR","tipo":"Administrative County","lat":52.9,"lng":-2.02},"geometry":{"type":"Polygon","coordinates":[[[-2.32,52.75],[-2.4,52.82],[-2.37,52.88],[-2.45,52.89],[-2.36,52.97],[-2.37,53.05],[-2.24,53.09],[-2.2,52.96],[-2.11,52.94],[-2.1,52.99],[-2.2,53.11],[-1.95,53.21],[-1.77,53.09],[-1.75,53],[-1.84,52.92],[-1.82,52.88],[-1.61,52.83],[-1.7,52.73],[-1.58,52.68],[-1.67,52.58],[-1.86,52.58],[-1.93,52.67],[-2.13,52.63],[-2.2,52.58],[-2.13,52.54],[-2.17,52.42],[-2.29,52.44],[-2.25,52.56],[-2.31,52.6],[-2.23,52.66],[-2.32,52.75]]]}},{"type":"Feature","properties":{"id":"GBR-BRY","nome":"Bromley","pais":"GBR","tipo":"London Borough","lat":51.37,"lng":0.05},"geometry":{"type":"Polygon","coordinates":[[[0.17,51.4],[0.07,51.28],[-0.08,51.42],[0.17,51.4]]]}},{"type":"Feature","properties":{"id":"GBR-WOR","nome":"Worcestershire","pais":"GBR","tipo":"Administrative County","lat":52.21,"lng":-2.2},"geometry":{"type":"Polygon","coordinates":[[[-1.76,52.11],[-1.86,52.06],[-1.83,52.01],[-2.13,52],[-2.11,52.04],[-2.16,52.04],[-2.17,51.99],[-2.31,51.97],[-2.45,52.26],[-2.61,52.24],[-2.64,52.33],[-2.47,52.33],[-2.29,52.44],[-2.03,52.44],[-2,52.38],[-1.84,52.38],[-1.94,52.16],[-1.76,52.11]]]}},{"type":"Feature","properties":{"id":"GBR-WAR","nome":"Warwickshire","pais":"GBR","tipo":"Administrative County","lat":52.17,"lng":-1.55},"geometry":{"type":"Polygon","coordinates":[[[-1.66,52.03],[-1.79,52.13],[-1.94,52.16],[-1.84,52.38],[-1.76,52.34],[-1.43,52.38],[-1.44,52.44],[-1.66,52.42],[-1.74,52.5],[-1.78,52.58],[-1.64,52.58],[-1.58,52.68],[-1.55,52.58],[-1.29,52.48],[-1.17,52.35],[-1.25,52.32],[-1.2,52.3],[-1.25,52.2],[-1.36,52.1],[-1.47,52.09],[-1.52,51.99],[-1.6,51.95],[-1.65,51.98],[-1.61,52.03],[-1.66,52.03]]]}},{"type":"Feature","properties":{"id":"GBR-OXF","nome":"Oxfordshire","pais":"GBR","tipo":"Administrative County","lat":51.79,"lng":-1.29},"geometry":{"type":"Polygon","coordinates":[[[-1.65,51.67],[-1.71,51.77],[-1.61,51.93],[-1.65,51.98],[-1.55,51.97],[-1.47,52.09],[-1.36,52.1],[-1.32,52.16],[-1.24,52.1],[-1.31,52.08],[-1.27,51.98],[-1.05,51.99],[-1.05,51.83],[-1.13,51.83],[-1.07,51.75],[-0.88,51.72],[-0.94,51.62],[-0.87,51.51],[-0.99,51.45],[-1.31,51.55],[-1.6,51.52],[-1.68,51.57],[-1.69,51.67],[-1.65,51.67]]]}},{"type":"Feature","properties":{"id":"GBR-WGN","nome":"Wigan","pais":"GBR","tipo":"Metropolitan Borough","lat":53.53,"lng":-2.61},"geometry":{"type":"Polygon","coordinates":[[[-2.69,53.47],[-2.75,53.51],[-2.69,53.6],[-2.59,53.61],[-2.49,53.46],[-2.69,53.47]]]}},{"type":"Feature","properties":{"id":"GBR-SKP","nome":"Stockport","pais":"GBR","tipo":"Metropolitan Borough","lat":53.38,"lng":-2.14},"geometry":{"type":"Polygon","coordinates":[[[-2.01,53.41],[-2,53.37],[-2.16,53.32],[-2.27,53.37],[-2.23,53.44],[-2.01,53.41]]]}},{"type":"Feature","properties":{"id":"GBR-WRT","nome":"Warrington","pais":"GBR","tipo":"Unitary Authority","lat":53.38,"lng":-2.55},"geometry":{"type":"Polygon","coordinates":[[[-2.67,53.44],[-2.49,53.46],[-2.43,53.38],[-2.57,53.31],[-2.68,53.38],[-2.67,53.44]]]}},{"type":"Feature","properties":{"id":"GBR-WBK","nome":"West Berkshire","pais":"GBR","tipo":"Unitary Authority","lat":51.45,"lng":-1.29},"geometry":{"type":"Polygon","coordinates":[[[-1.03,51.35],[-1.49,51.33],[-1.58,51.52],[-1.15,51.53],[-1.03,51.35]]]}},{"type":"Feature","properties":{"id":"GBR-WOK","nome":"Wokingham","pais":"GBR","tipo":"Unitary Authority","lat":51.4,"lng":-0.91},"geometry":{"type":"Polygon","coordinates":[[[-0.97,51.36],[-1.03,51.35],[-1.05,51.41],[-0.85,51.54],[-0.81,51.4],[-0.85,51.35],[-0.97,51.36]]]}},{"type":"Feature","properties":{"id":"GBR-BRC","nome":"Bracknell Forest","pais":"GBR","tipo":"Unitary Authority","lat":51.39,"lng":-0.76},"geometry":{"type":"Polygon","coordinates":[[[-0.77,51.33],[-0.85,51.35],[-0.83,51.47],[-0.68,51.43],[-0.77,51.33]]]}},{"type":"Feature","properties":{"id":"GBR-WNM","nome":"Royal Borough of Windsor and Maidenhead","pais":"GBR","tipo":"Unitary Authority","lat":51.48,"lng":-0.7},"geometry":{"type":"Polygon","coordinates":[[[-0.72,51.56],[-0.7,51.51],[-0.58,51.48],[-0.62,51.39],[-0.7,51.37],[-0.68,51.43],[-0.83,51.47],[-0.85,51.54],[-0.72,51.56]]]}},{"type":"Feature","properties":{"id":"GBR-SLG","nome":"Slough","pais":"GBR","tipo":"Unitary Authority","lat":51.48,"lng":-0.55},"geometry":{"type":"Polygon","coordinates":[[[-0.62,51.53],[-0.52,51.51],[-0.52,51.44],[-0.64,51.49],[-0.62,51.53]]]}},{"type":"Feature","properties":{"id":"GBR-RDG","nome":"Reading","pais":"GBR","tipo":"Unitary Authority","lat":51.45,"lng":-1.03},"geometry":{"type":"Polygon","coordinates":[[[-1.08,51.49],[-0.96,51.45],[-1.05,51.41],[-1.08,51.49]]]}},{"type":"Feature","properties":{"id":"GBR-SRY","nome":"Surrey","pais":"GBR","tipo":"Administrative County","lat":51.26,"lng":-0.39},"geometry":{"type":"Polygon","coordinates":[[[-0.44,51.45],[-0.31,51.39],[-0.31,51.32],[-0.24,51.37],[-0.13,51.29],[0,51.33],[0.05,51.29],[0.06,51.14],[-0.18,51.16],[-0.69,51.07],[-0.82,51.15],[-0.83,51.23],[-0.73,51.24],[-0.77,51.33],[-0.51,51.48],[-0.44,51.45]]]}},{"type":"Feature","properties":{"id":"GBR-BBD","nome":"Blackburn with Darwen","pais":"GBR","tipo":"Unitary Authority","lat":53.71,"lng":-2.44},"geometry":{"type":"Polygon","coordinates":[[[-2.45,53.77],[-2.36,53.65],[-2.5,53.63],[-2.53,53.74],[-2.45,53.77]]]}},{"type":"Feature","properties":{"id":"GBR-SWD","nome":"Swindon","pais":"GBR","tipo":"Unitary Authority","lat":51.57,"lng":-1.71},"geometry":{"type":"Polygon","coordinates":[[[-1.7,51.68],[-1.68,51.57],[-1.58,51.5],[-1.81,51.48],[-1.83,51.57],[-1.7,51.68]]]}},{"type":"Feature","properties":{"id":"GBR-BAS","nome":"Bath and North East Somerset","pais":"GBR","tipo":"Unitary Authority","lat":51.35,"lng":-2.5},"geometry":{"type":"Polygon","coordinates":[[[-2.29,51.32],[-2.46,51.27],[-2.71,51.34],[-2.52,51.42],[-2.28,51.42],[-2.33,51.35],[-2.29,51.32]]]}},{"type":"Feature","properties":{"id":"GBR-WIL","nome":"Wiltshire","pais":"GBR","tipo":"Unitary Single-Tier County","lat":51.33,"lng":-1.92},"geometry":{"type":"Polygon","coordinates":[[[-1.81,51.7],[-1.75,51.66],[-1.84,51.55],[-1.81,51.48],[-1.58,51.5],[-1.49,51.34],[-1.54,51.24],[-1.7,51.24],[-1.61,50.96],[-1.84,51.01],[-2.1,50.96],[-2.35,51.09],[-2.24,51.26],[-2.33,51.35],[-2.28,51.37],[-2.32,51.48],[-2.25,51.52],[-2.27,51.58],[-2.06,51.66],[-1.87,51.64],[-1.81,51.7]]]}},{"type":"Feature","properties":{"id":"GBR-CLD","nome":"Calderdale","pais":"GBR","tipo":"Metropolitan Borough","lat":53.74,"lng":-1.95},"geometry":{"type":"Polygon","coordinates":[[[-2.15,53.7],[-2.12,53.79],[-2,53.87],[-1.74,53.7],[-2.02,53.64],[-2.15,53.7]]]}},{"type":"Feature","properties":{"id":"GBR-KIR","nome":"Kirklees","pais":"GBR","tipo":"Metropolitan Borough","lat":53.62,"lng":-1.74},"geometry":{"type":"Polygon","coordinates":[[[-1.82,53.52],[-2.02,53.64],[-1.65,53.76],[-1.58,53.7],[-1.6,53.57],[-1.82,53.52]]]}},{"type":"Feature","properties":{"id":"GBR-NGM","nome":"Nottingham","pais":"GBR","tipo":"Unitary Authority","lat":52.94,"lng":-1.17},"geometry":{"type":"Polygon","coordinates":[[[-1.16,53],[-1.1,52.92],[-1.17,52.87],[-1.23,52.94],[-1.16,53]]]}},{"type":"Feature","properties":{"id":"GBR-LCE","nome":"Leicester","pais":"GBR","tipo":"Unitary Authority","lat":52.61,"lng":-1.12},"geometry":{"type":"Polygon","coordinates":[[[-1.12,52.66],[-1.06,52.6],[-1.17,52.58],[-1.18,52.64],[-1.12,52.66]]]}},{"type":"Feature","properties":{"id":"GBR-DER","nome":"Derby","pais":"GBR","tipo":"Unitary Authority","lat":52.89,"lng":-1.47},"geometry":{"type":"Polygon","coordinates":[[[-1.49,52.94],[-1.4,52.91],[-1.43,52.84],[-1.55,52.88],[-1.49,52.94]]]}},{"type":"Feature","properties":{"id":"GBR-LDS","nome":"Leeds","pais":"GBR","tipo":"Metropolitan Borough","lat":53.81,"lng":-1.48},"geometry":{"type":"Polygon","coordinates":[[[-1.65,53.76],[-1.73,53.9],[-1.29,53.93],[-1.34,53.86],[-1.29,53.76],[-1.33,53.72],[-1.58,53.7],[-1.65,53.76]]]}},{"type":"Feature","properties":{"id":"GBR-BRD","nome":"Bradford","pais":"GBR","tipo":"Metropolitan Borough","lat":53.85,"lng":-1.78},"geometry":{"type":"Polygon","coordinates":[[[-1.73,53.9],[-1.65,53.76],[-1.76,53.74],[-1.98,53.87],[-1.94,53.96],[-1.73,53.9]]]}},{"type":"Feature","properties":{"id":"GBR-WKF","nome":"Wakefield","pais":"GBR","tipo":"Metropolitan Borough","lat":53.65,"lng":-1.39},"geometry":{"type":"Polygon","coordinates":[[[-1.6,53.57],[-1.58,53.7],[-1.21,53.71],[-1.24,53.6],[-1.6,53.57]]]}},{"type":"Feature","properties":{"id":"GBR-BNS","nome":"Barnsley","pais":"GBR","tipo":"Metropolitan Borough","lat":53.53,"lng":-1.46},"geometry":{"type":"Polygon","coordinates":[[[-1.51,53.47],[-1.82,53.52],[-1.56,53.61],[-1.35,53.59],[-1.29,53.51],[-1.41,53.41],[-1.51,53.47]]]}},{"type":"Feature","properties":{"id":"GBR-SLF","nome":"Salford","pais":"GBR","tipo":"Metropolitan Borough","lat":53.5,"lng":-2.41},"geometry":{"type":"Polygon","coordinates":[[[-2.49,53.46],[-2.51,53.54],[-2.44,53.55],[-2.34,53.53],[-2.3,53.47],[-2.45,53.42],[-2.49,53.46]]]}},{"type":"Feature","properties":{"id":"GBR-BOL","nome":"Bolton","pais":"GBR","tipo":"Metropolitan Borough","lat":53.59,"lng":-2.43},"geometry":{"type":"Polygon","coordinates":[[[-2.37,53.53],[-2.51,53.54],[-2.56,53.6],[-2.38,53.63],[-2.34,53.53],[-2.37,53.53]]]}},{"type":"Feature","properties":{"id":"GBR-TRF","nome":"Trafford","pais":"GBR","tipo":"Metropolitan Borough","lat":53.41,"lng":-2.38},"geometry":{"type":"Polygon","coordinates":[[[-2.37,53.46],[-2.3,53.43],[-2.32,53.36],[-2.46,53.39],[-2.37,53.46]]]}},{"type":"Feature","properties":{"id":"GBR-MAN","nome":"Manchester","pais":"GBR","tipo":"Metropolitan Borough","lat":53.46,"lng":-2.27},"geometry":{"type":"Polygon","coordinates":[[[-2.32,53.36],[-2.31,53.5],[-2.25,53.55],[-2.18,53.53],[-2.26,53.34],[-2.32,53.36]]]}},{"type":"Feature","properties":{"id":"GBR-OLD","nome":"Oldham","pais":"GBR","tipo":"Metropolitan Borough","lat":53.55,"lng":-2.04},"geometry":{"type":"Polygon","coordinates":[[[-2.18,53.53],[-1.99,53.61],[-1.9,53.53],[-1.98,53.47],[-2.1,53.51],[-2.2,53.48],[-2.18,53.53]]]}},{"type":"Feature","properties":{"id":"GBR-RCH","nome":"Rochdale","pais":"GBR","tipo":"Metropolitan Borough","lat":53.63,"lng":-2.14},"geometry":{"type":"Polygon","coordinates":[[[-1.99,53.61],[-2.18,53.53],[-2.25,53.55],[-2.25,53.66],[-2.15,53.7],[-2.05,53.68],[-1.99,53.61]]]}},{"type":"Feature","properties":{"id":"GBR-TAM","nome":"Tameside","pais":"GBR","tipo":"Metropolitan Borough","lat":53.46,"lng":-2.1},"geometry":{"type":"Polygon","coordinates":[[[-2.1,53.51],[-1.98,53.44],[-2.23,53.44],[-2.1,53.51]]]}},{"type":"Feature","properties":{"id":"GBR-BUR","nome":"Bury","pais":"GBR","tipo":"Metropolitan Borough","lat":53.58,"lng":-2.31},"geometry":{"type":"Polygon","coordinates":[[[-2.31,53.5],[-2.35,53.67],[-2.26,53.61],[-2.31,53.5]]]}},{"type":"Feature","properties":{"id":"GBR-SOL","nome":"Solihull","pais":"GBR","tipo":"Metropolitan Borough","lat":52.4,"lng":-1.71},"geometry":{"type":"Polygon","coordinates":[[[-1.62,52.44],[-1.64,52.35],[-1.84,52.38],[-1.77,52.42],[-1.79,52.49],[-1.62,52.44]]]}},{"type":"Feature","properties":{"id":"GBR-COV","nome":"Coventry","pais":"GBR","tipo":"Metropolitan Borough","lat":52.41,"lng":-1.53},"geometry":{"type":"Polygon","coordinates":[[[-1.64,52.35],[-1.62,52.44],[-1.44,52.43],[-1.46,52.37],[-1.64,52.35]]]}},{"type":"Feature","properties":{"id":"GBR-BIR","nome":"Birmingham","pais":"GBR","tipo":"Metropolitan Borough","lat":52.48,"lng":-1.82},"geometry":{"type":"Polygon","coordinates":[[[-1.74,52.5],[-1.79,52.49],[-1.77,52.42],[-1.84,52.38],[-2,52.38],[-2.03,52.44],[-1.83,52.59],[-1.74,52.5]]]}},{"type":"Feature","properties":{"id":"GBR-SAW","nome":"Sandwell","pais":"GBR","tipo":"Metropolitan Borough","lat":52.51,"lng":-2},"geometry":{"type":"Polygon","coordinates":[[[-2.08,52.48],[-2.06,52.57],[-1.9,52.55],[-1.96,52.46],[-2.08,52.48]]]}},{"type":"Feature","properties":{"id":"GBR-DUD","nome":"Dudley","pais":"GBR","tipo":"Metropolitan Borough","lat":52.47,"lng":-2.11},"geometry":{"type":"Polygon","coordinates":[[[-2.08,52.56],[-2.09,52.49],[-2.03,52.44],[-2.15,52.42],[-2.18,52.5],[-2.08,52.56]]]}},{"type":"Feature","properties":{"id":"GBR-WLL","nome":"Walsall","pais":"GBR","tipo":"Metropolitan Borough","lat":52.6,"lng":-1.95},"geometry":{"type":"Polygon","coordinates":[[[-2.06,52.57],[-1.94,52.67],[-1.86,52.58],[-2.06,52.57]]]}},{"type":"Feature","properties":{"id":"GBR-WLV","nome":"Wolverhampton","pais":"GBR","tipo":"Metropolitan Borough","lat":52.6,"lng":-2.11},"geometry":{"type":"Polygon","coordinates":[[[-2.05,52.62],[-2.13,52.54],[-2.2,52.58],[-2.05,52.62]]]}}]}