{"type":"FeatureCollection","features":[{"type":"Feature","properties":{"id":"GHA-UE","nome":"Upper East","pais":"GHA","tipo":"Region","lat":10.82,"lng":-0.78},"geometry":{"type":"Polygon","coordinates":[[[-0.17,11.13],[0,11.09],[0.02,11.03],[-0.03,10.81],[-0.17,10.66],[-0.48,10.62],[-0.51,10.55],[-0.67,10.52],[-0.7,10.63],[-0.79,10.64],[-0.92,10.48],[-1,10.53],[-1.13,10.48],[-1.23,10.3],[-1.33,10.34],[-1.37,10.47],[-1.42,10.46],[-1.56,10.61],[-1.57,10.72],[-1.45,10.85],[-1.42,11.02],[-0.7,10.99],[-0.63,10.91],[-0.43,11.1],[-0.37,11.07],[-0.32,11.1],[-0.3,11.16],[-0.17,11.13]]]}},{"type":"Feature","properties":{"id":"GHA-NP","nome":"Northern","pais":"GHA","tipo":"Region","lat":9.27,"lng":-1.12},"geometry":{"type":"Polygon","coordinates":[[[-0.09,10.7],[-0.09,10.63],[0.03,10.58],[0.18,10.39],[0.27,10.41],[0.31,10.3],[0.4,10.28],[0.35,9.66],[0.26,9.66],[0.28,9.61],[0.38,9.59],[0.23,9.58],[0.3,9.51],[0.23,9.43],[0.43,9.49],[0.54,9.38],[0.43,9.03],[0.51,8.87],[0.47,8.79],[0.19,8.77],[0.17,8.59],[0.1,8.52],[0.1,8.39],[0.25,8.36],[0.2,8.25],[0.1,8.24],[-0.07,8.34],[-0.2,8.21],[-0.34,8.21],[-0.42,8.13],[-0.7,8.32],[-0.82,8.32],[-1.02,8.14],[-1.01,8.02],[-1.06,7.97],[-1.27,8.36],[-1.14,8.56],[-1.17,8.66],[-1.44,8.76],[-1.54,8.67],[-1.87,8.61],[-1.9,8.38],[-1.77,8.33],[-1.77,8.24],[-1.87,8.26],[-1.96,8.17],[-2.13,8.16],[-2.29,8.31],[-2.39,8.58],[-2.61,8.78],[-2.66,9.01],[-2.77,9.05],[-2.66,9.27],[-2.71,9.31],[-2.68,9.47],[-2.77,9.58],[-2.74,9.65],[-2.33,9.81],[-1.76,9.84],[-1.65,10.06],[-1.56,10.07],[-1.65,10.17],[-1.49,10.43],[-1.23,10.3],[-1.13,10.48],[-1,10.53],[-0.92,10.48],[-0.79,10.64],[-0.7,10.63],[-0.71,10.52],[-0.67,10.52],[-0.51,10.55],[-0.48,10.62],[-0.09,10.7]]]}},{"type":"Feature","properties":{"id":"GHA-TV","nome":"Volta","pais":"GHA","tipo":"Region","lat":7.34,"lng":0.4},"geometry":{"type":"Polygon","coordinates":[[[0.6,7.89],[0.61,7.7],[0.5,7.5],[0.55,7.38],[0.63,7.39],[0.64,7.3],[0.6,7.03],[0.49,6.97],[0.55,6.91],[0.52,6.84],[0.63,6.73],[0.63,6.62],[0.73,6.57],[0.75,6.44],[0.89,6.33],[0.98,6.32],[1.08,6.17],[1.19,6.14],[1.05,5.99],[0.95,5.79],[0.72,5.76],[0.67,5.76],[0.72,5.8],[0.57,5.97],[0.39,6],[0.32,5.94],[0.32,6.05],[0.09,6.15],[0.09,6.26],[0.18,6.31],[0.22,6.41],[0.17,6.52],[0.11,6.53],[0.22,6.71],[0.14,6.83],[0.21,6.95],[0.24,7.34],[0.13,7.41],[0.01,7.73],[-0.08,7.77],[-0.17,7.99],[-0.39,8.14],[-0.34,8.21],[-0.2,8.21],[-0.07,8.34],[0.1,8.24],[0.2,8.25],[0.25,8.36],[0.1,8.39],[0.1,8.52],[0.17,8.59],[0.19,8.76],[0.37,8.76],[0.44,8.61],[0.62,8.49],[0.71,8.32],[0.57,8.2],[0.6,7.89]]]}},{"type":"Feature","properties":{"id":"GHA-BA","nome":"Brong Ahafo","pais":"GHA","tipo":"Region","lat":8.17,"lng":-1.43},"geometry":{"type":"Polygon","coordinates":[[[-2.57,8.16],[-2.51,8.21],[-2.6,8.79],[-2.39,8.58],[-2.28,8.3],[-2.09,8.15],[-1.96,8.17],[-1.87,8.26],[-1.76,8.25],[-1.77,8.33],[-1.9,8.38],[-1.86,8.62],[-1.54,8.67],[-1.47,8.76],[-1.37,8.76],[-1.17,8.65],[-1.14,8.56],[-1.27,8.36],[-1.09,7.98],[-1.01,8.02],[-1.02,8.14],[-0.81,8.32],[-0.7,8.32],[-0.48,8.15],[-0.32,8.11],[-0.17,7.99],[-0.08,7.77],[0.01,7.73],[0.13,7.41],[0.24,7.34],[0.22,7.17],[-0.21,7.19],[-0.28,7.3],[-0.58,7.39],[-0.7,7.54],[-0.79,7.49],[-1.03,7.54],[-1.09,7.48],[-1.25,7.46],[-1.38,7.62],[-1.53,7.48],[-1.52,7.41],[-1.65,7.34],[-1.82,7.39],[-1.85,7.47],[-2.11,7.46],[-2.14,7.35],[-1.85,7.23],[-1.87,7.16],[-2.04,7.05],[-2.23,7.07],[-2.31,6.99],[-2.39,6.85],[-2.24,6.83],[-2.31,6.7],[-2.41,6.68],[-2.38,6.59],[-2.43,6.39],[-2.51,6.41],[-2.65,6.59],[-2.83,6.65],[-2.89,6.91],[-3.05,6.94],[-3.1,7.05],[-2.97,7.21],[-2.94,7.58],[-2.79,7.94],[-2.61,8.04],[-2.62,8.15],[-2.57,8.16]]]}},{"type":"Feature","properties":{"id":"GHA-WP","nome":"Western","pais":"GHA","tipo":"Region","lat":5.7,"lng":-2.34},"geometry":{"type":"Polygon","coordinates":[[[-3.17,6.25],[-3.26,6.63],[-3.21,6.72],[-3.24,6.81],[-3.1,7.05],[-3.05,6.94],[-2.89,6.91],[-2.83,6.65],[-2.65,6.59],[-2.52,6.41],[-2.4,6.36],[-2.33,6.51],[-2.22,6.49],[-2.23,6.38],[-2.07,6.3],[-2.17,6.22],[-2.16,6.15],[-1.84,5.89],[-1.79,5.77],[-1.82,5.62],[-1.61,5.58],[-1.61,5.45],[-1.42,5.26],[-1.55,5.18],[-1.57,5.02],[-1.97,4.76],[-2.09,4.74],[-2.36,4.92],[-3.12,5.09],[-2.96,5.08],[-2.77,5.16],[-2.79,5.35],[-2.73,5.37],[-2.79,5.61],[-2.95,5.61],[-2.96,5.71],[-3.03,5.7],[-3.02,5.85],[-3.17,6.25]]]}},{"type":"Feature","properties":{"id":"GHA-UW","nome":"Upper West","pais":"GHA","tipo":"Region","lat":10.4,"lng":-2.14},"geometry":{"type":"Polygon","coordinates":[[[-1.56,11.03],[-1.42,11.02],[-1.45,10.85],[-1.57,10.72],[-1.56,10.61],[-1.42,10.46],[-1.37,10.47],[-1.36,10.4],[-1.49,10.43],[-1.61,10.29],[-1.65,10.17],[-1.56,10.08],[-1.69,10.01],[-1.7,9.88],[-1.76,9.83],[-2.5,9.78],[-2.62,9.67],[-2.75,9.66],[-2.8,9.72],[-2.73,9.82],[-2.8,10.17],[-2.75,10.26],[-2.84,10.32],[-2.77,10.42],[-2.86,10.47],[-2.93,10.63],[-2.82,10.91],[-2.84,11],[-1.56,11.03]]]}},{"type":"Feature","properties":{"id":"GHA-CP","nome":"Central","pais":"GHA","tipo":"Region","lat":5.49,"lng":-1.27},"geometry":{"type":"Polygon","coordinates":[[[-0.36,5.5],[-0.8,5.21],[-1,5.22],[-1.57,5.02],[-1.55,5.18],[-1.42,5.26],[-1.61,5.45],[-1.61,5.58],[-1.82,5.62],[-1.82,5.87],[-2.15,6.14],[-2.17,6.22],[-2.02,6.3],[-2.01,6.12],[-1.91,6.01],[-1.82,6.03],[-1.68,5.92],[-1.52,5.92],[-1.48,5.85],[-1.24,5.92],[-1.12,5.78],[-0.51,5.73],[-0.36,5.5]]]}},{"type":"Feature","properties":{"id":"GHA-AA","nome":"Greater Accra","pais":"GHA","tipo":"Region","lat":5.84,"lng":0.11},"geometry":{"type":"Polygon","coordinates":[[[0.67,5.76],[0.3,5.77],[-0.07,5.58],[-0.36,5.5],[-0.51,5.74],[-0.44,5.79],[-0.36,5.74],[-0.18,5.77],[-0.04,5.98],[0.11,5.99],[0.23,5.87],[0.4,6],[0.58,5.97],[0.72,5.8],[0.67,5.76]]]}},{"type":"Feature","properties":{"id":"GHA-AH","nome":"Ashanti","pais":"GHA","tipo":"Region","lat":6.75,"lng":-1.33},"geometry":{"type":"Polygon","coordinates":[[[-0.21,7.19],[-0.44,7.07],[-0.6,7.06],[-0.79,6.8],[-0.95,6.74],[-0.89,6.61],[-1.19,6.21],[-1.25,5.89],[-1.37,5.92],[-1.48,5.85],[-1.52,5.92],[-1.68,5.92],[-1.82,6.03],[-1.91,6.01],[-2.01,6.13],[-2.01,6.29],[-2.23,6.38],[-2.22,6.49],[-2.33,6.51],[-2.37,6.38],[-2.43,6.36],[-2.44,6.45],[-2.38,6.55],[-2.41,6.68],[-2.31,6.7],[-2.24,6.84],[-2.39,6.85],[-2.31,6.99],[-2.23,7.07],[-2.04,7.05],[-1.86,7.18],[-1.86,7.23],[-2.14,7.35],[-2.11,7.46],[-1.85,7.47],[-1.82,7.39],[-1.65,7.34],[-1.52,7.41],[-1.53,7.48],[-1.38,7.62],[-1.25,7.46],[-1.09,7.48],[-1.03,7.54],[-0.79,7.49],[-0.7,7.54],[-0.58,7.39],[-0.28,7.3],[-0.21,7.19]]]}},{"type":"Feature","properties":{"id":"GHA-EP","nome":"Eastern","pais":"GHA","tipo":"Region","lat":6.43,"lng":-0.46},"geometry":{"type":"Polygon","coordinates":[[[-1.24,5.97],[-1.11,6.35],[-0.89,6.61],[-0.95,6.74],[-0.79,6.8],[-0.6,7.06],[-0.44,7.07],[-0.21,7.19],[0.22,7.17],[0.21,6.95],[0.14,6.83],[0.22,6.71],[0.11,6.53],[0.17,6.52],[0.22,6.41],[0.18,6.31],[0.09,6.26],[0.09,6.17],[0.32,6.05],[0.32,5.94],[0.26,5.88],[0.08,5.99],[-0.04,5.98],[-0.18,5.77],[-0.36,5.74],[-0.44,5.79],[-0.5,5.78],[-0.51,5.73],[-0.77,5.73],[-1.12,5.78],[-1.24,5.97]]]}}]}