{"type":"FeatureCollection","features":[{"type":"Feature","properties":{"id":"GIN-FA","nome":"Faranah","pais":"GIN","tipo":"Prefecture","lat":9.99,"lng":-10.88},"geometry":{"type":"Polygon","coordinates":[[[-10.8,9.39],[-11.19,9.97],[-11.45,10],[-11.38,10.4],[-10.88,10.66],[-10.73,10.6],[-10.6,10.66],[-10.44,10.51],[-10.3,10.53],[-10.22,10.51],[-10.2,10.44],[-10.14,10.53],[-10.14,10.4],[-10.23,10.32],[-10.21,10.18],[-10.35,10],[-10.32,9.89],[-10.42,9.73],[-10.39,9.29],[-10.5,9.11],[-10.59,9.05],[-10.75,9.08],[-10.68,9.31],[-10.8,9.39]]]}},{"type":"Feature","properties":{"id":"GIN-KD","nome":"Kindia","pais":"GIN","tipo":"Prefecture","lat":10.06,"lng":-12.73},"geometry":{"type":"Polygon","coordinates":[[[-12.11,9.88],[-12.25,9.93],[-12.43,9.9],[-12.51,9.86],[-12.52,9.73],[-12.6,9.65],[-12.87,9.7],[-13.09,9.56],[-13.11,9.65],[-13.23,9.75],[-13.22,9.94],[-13.28,10],[-13.16,10.11],[-13.13,10.4],[-12.81,10.52],[-12.71,10.47],[-12.5,10.62],[-12.38,10.47],[-12.41,10.27],[-12.24,10.27],[-12.13,10.1],[-12.11,9.88]]]}},{"type":"Feature","properties":{"id":"GIN-MM","nome":"Mamou","pais":"GIN","tipo":"Prefecture","lat":10.34,"lng":-11.89},"geometry":{"type":"Polygon","coordinates":[[[-11.59,9.99],[-11.91,9.99],[-11.92,9.92],[-12.11,9.88],[-12.13,10.1],[-12.24,10.27],[-12.41,10.28],[-12.42,10.49],[-12.2,10.59],[-12.03,10.76],[-11.82,10.8],[-11.78,10.9],[-11.81,11],[-11.66,11.03],[-11.47,11.25],[-11.31,11.33],[-11.25,11.18],[-11.6,10.97],[-11.55,10.8],[-11.59,9.99]]]}},{"type":"Feature","properties":{"id":"GIN-DB","nome":"Dabola","pais":"GIN","tipo":"Prefecture","lat":10.78,"lng":-11.2},"geometry":{"type":"Polygon","coordinates":[[[-11.45,10],[-11.59,9.99],[-11.61,10.07],[-11.55,10.74],[-11.6,10.97],[-11.42,11.06],[-11.19,11.03],[-11.08,10.94],[-10.7,11.11],[-10.9,10.84],[-10.6,10.66],[-10.73,10.6],[-10.88,10.66],[-11.38,10.4],[-11.45,10]]]}},{"type":"Feature","properties":{"id":"GIN-FO","nome":"Forécariah","pais":"GIN","tipo":"Prefecture","lat":9.39,"lng":-13.06},"geometry":{"type":"Polygon","coordinates":[[[-12.6,9.65],[-12.72,9.39],[-12.84,9.28],[-12.96,9.27],[-12.96,9.18],[-13.12,9.04],[-13.32,9.06],[-13.24,9.17],[-13.16,9.19],[-13.26,9.2],[-13.23,9.27],[-13.28,9.17],[-13.32,9.18],[-13.3,9.36],[-13.41,9.29],[-13.4,9.44],[-13.5,9.43],[-13.52,9.48],[-13.49,9.57],[-13.32,9.64],[-13.13,9.56],[-12.87,9.7],[-12.6,9.65]]]}},{"type":"Feature","properties":{"id":"GIN-GU","nome":"Guéckédou","pais":"GIN","tipo":"Prefecture","lat":8.7,"lng":-10.22},"geometry":{"type":"Polygon","coordinates":[[[-10.59,9.04],[-10.48,9.19],[-10.44,9.07],[-10.2,8.87],[-9.98,8.94],[-9.77,8.9],[-9.91,8.75],[-9.87,8.5],[-10.06,8.42],[-10.08,8.5],[-10.15,8.52],[-10.23,8.48],[-10.37,8.49],[-10.52,8.33],[-10.69,8.32],[-10.72,8.27],[-10.63,8.53],[-10.48,8.67],[-10.6,8.82],[-10.59,9.04]]]}},{"type":"Feature","properties":{"id":"GIN-K","nome":"Kankan","pais":"GIN","tipo":"Prefecture","lat":10.13,"lng":-9.13},"geometry":{"type":"Polygon","coordinates":[[[-8.15,9.95],[-8.16,9.55],[-8.07,9.4],[-8.27,9.34],[-8.48,9.38],[-8.52,9.58],[-8.88,9.74],[-9.02,9.73],[-9.18,9.64],[-9.22,9.43],[-9.55,9.46],[-9.63,9.54],[-9.83,9.55],[-9.96,9.67],[-9.85,9.7],[-9.7,9.9],[-9.72,10.2],[-9.67,10.44],[-9.37,10.75],[-8.96,10.67],[-8.95,10.5],[-8.75,10.39],[-8.67,10.23],[-8.43,10.18],[-8.34,10],[-8.15,9.95]]]}},{"type":"Feature","properties":{"id":"GIN-MD","nome":"Mandiana","pais":"GIN","tipo":"Prefecture","lat":10.72,"lng":-8.67},"geometry":{"type":"Polygon","coordinates":[[[-7.99,10.16],[-8.15,9.95],[-8.34,10],[-8.43,10.18],[-8.67,10.23],[-8.75,10.39],[-8.9,10.45],[-8.96,10.67],[-9.37,10.75],[-9.31,10.9],[-8.92,11.13],[-8.85,11.43],[-8.73,11.65],[-8.66,11.5],[-8.55,11.49],[-8.37,11.32],[-8.49,11.28],[-8.7,10.96],[-8.56,10.97],[-8.51,11.05],[-8.33,11.02],[-8.3,10.54],[-8.23,10.42],[-8.14,10.43],[-8.12,10.36],[-8,10.33],[-7.99,10.16]]]}},{"type":"Feature","properties":{"id":"GIN-BE","nome":"Beyla","pais":"GIN","tipo":"Prefecture","lat":8.81,"lng":-8.41},"geometry":{"type":"Polygon","coordinates":[[[-8.07,9.4],[-7.87,9.41],[-7.93,9.18],[-7.75,9.08],[-7.93,9],[-7.97,8.81],[-7.8,8.75],[-7.7,8.62],[-7.66,8.37],[-7.77,8.39],[-7.82,8.48],[-7.87,8.42],[-7.97,8.5],[-8.25,8.45],[-8.27,8.25],[-8.09,8.16],[-8,8.18],[-8.02,8.1],[-7.96,8.02],[-8.07,8.02],[-8.28,8.2],[-8.54,8.27],[-8.59,8.35],[-8.91,8.3],[-8.86,8.46],[-8.97,8.75],[-8.97,8.96],[-8.73,9.07],[-8.52,9.37],[-8.32,9.34],[-8.07,9.4]]]}},{"type":"Feature","properties":{"id":"GIN-LO","nome":"Lola","pais":"GIN","tipo":"Prefecture","lat":7.86,"lng":-8.33},"geometry":{"type":"Polygon","coordinates":[[[-8.07,8.02],[-8.13,7.88],[-8.1,7.79],[-8.23,7.54],[-8.41,7.61],[-8.49,7.56],[-8.55,7.6],[-8.57,7.69],[-8.51,7.76],[-8.55,7.93],[-8.43,8.22],[-8.28,8.2],[-8.07,8.02]]]}},{"type":"Feature","properties":{"id":"GIN-KN","nome":"Koundara","pais":"GIN","tipo":"Prefecture","lat":12.35,"lng":-13.18},"geometry":{"type":"Polygon","coordinates":[[[-13.36,12.65],[-13.08,12.64],[-13.07,12.48],[-12.98,12.47],[-12.91,12.54],[-12.58,12.36],[-12.79,12.25],[-12.87,12.1],[-13.02,12.02],[-13.26,12.03],[-13.34,12.1],[-13.38,12.3],[-13.67,12.23],[-13.7,12.29],[-13.66,12.46],[-13.73,12.67],[-13.36,12.65]]]}},{"type":"Feature","properties":{"id":"GIN-ML","nome":"Mali","pais":"GIN","tipo":"Prefecture","lat":12.02,"lng":-12.12},"geometry":{"type":"Polygon","coordinates":[[[-11.52,12.43],[-11.39,12.38],[-11.45,12.37],[-11.51,12.19],[-11.47,12.06],[-11.63,11.73],[-11.96,11.65],[-12.2,11.73],[-12.81,11.72],[-12.78,11.9],[-12.86,11.92],[-12.78,12.26],[-12.51,12.39],[-12.36,12.31],[-12.1,12.41],[-11.76,12.38],[-11.52,12.43]]]}},{"type":"Feature","properties":{"id":"GIN-MC","nome":"Macenta","pais":"GIN","tipo":"Prefecture","lat":8.55,"lng":-9.32},"geometry":{"type":"Polygon","coordinates":[[[-9.72,8.44],[-9.77,8.56],[-9.87,8.5],[-9.92,8.69],[-9.77,8.9],[-9.52,8.87],[-9.36,8.99],[-9.34,9.09],[-9.29,9.08],[-9.24,8.92],[-8.97,8.96],[-8.87,8.4],[-9.01,8.11],[-9.33,7.75],[-9.44,7.87],[-9.42,8.03],[-9.47,8.03],[-9.48,8.16],[-9.53,8.19],[-9.5,8.34],[-9.6,8.41],[-9.68,8.39],[-9.65,8.44],[-9.68,8.49],[-9.72,8.44]]]}},{"type":"Feature","properties":{"id":"GIN-YO","nome":"Yomou","pais":"GIN","tipo":"Prefecture","lat":7.62,"lng":-9.08},"geometry":{"type":"Polygon","coordinates":[[[-9.49,7.37],[-9.35,7.62],[-9.37,7.76],[-9.07,8.05],[-8.88,7.67],[-8.73,7.62],[-8.73,7.51],[-8.91,7.25],[-8.96,7.29],[-9.13,7.19],[-9.23,7.38],[-9.35,7.42],[-9.41,7.38],[-9.44,7.42],[-9.49,7.37]]]}},{"type":"Feature","properties":{"id":"GIN-NZ","nome":"Nzérékoré","pais":"GIN","tipo":"Prefecture","lat":8.05,"lng":-8.74},"geometry":{"type":"Polygon","coordinates":[[[-8.57,7.69],[-8.69,7.69],[-8.73,7.62],[-8.88,7.67],[-9.07,8.05],[-8.91,8.3],[-8.65,8.36],[-8.43,8.22],[-8.55,7.93],[-8.51,7.76],[-8.57,7.69]]]}},{"type":"Feature","properties":{"id":"GIN-GA","nome":"Gaoual","pais":"GIN","tipo":"Prefecture","lat":11.75,"lng":-13.39},"geometry":{"type":"Polygon","coordinates":[[[-13.81,12.26],[-13.7,12.29],[-13.67,12.23],[-13.4,12.31],[-13.33,12.09],[-13.21,12.02],[-13.02,12.02],[-12.83,12.15],[-12.86,11.91],[-12.78,11.9],[-12.81,11.7],[-12.7,11.57],[-12.93,11.39],[-12.99,11.26],[-12.97,11.17],[-13.23,11.13],[-13.26,11.33],[-13.4,11.36],[-13.81,11.29],[-13.91,11.38],[-13.93,11.49],[-14.05,11.53],[-14.02,11.64],[-13.89,11.68],[-13.87,11.74],[-13.82,11.69],[-13.72,11.72],[-13.72,12],[-13.97,12.15],[-13.94,12.22],[-13.81,12.26]]]}},{"type":"Feature","properties":{"id":"GIN-BK","nome":"Boke","pais":"GIN","tipo":"Prefecture","lat":11.17,"lng":-14.31},"geometry":{"type":"Polygon","coordinates":[[[-14.29,11.67],[-14.02,11.64],[-14.05,11.53],[-13.93,11.49],[-13.91,11.38],[-13.81,11.29],[-13.84,11.27],[-13.76,11.16],[-13.77,11.08],[-13.86,10.89],[-13.99,10.86],[-14.21,10.62],[-14.41,10.59],[-14.65,10.48],[-14.62,10.69],[-14.5,10.89],[-14.7,10.64],[-14.65,10.81],[-14.76,10.7],[-14.8,10.77],[-14.74,10.87],[-14.81,10.82],[-14.82,10.91],[-14.69,11.06],[-14.84,10.97],[-14.92,11.03],[-14.91,10.96],[-14.96,10.98],[-14.91,10.93],[-14.98,10.87],[-14.96,10.77],[-15.08,10.88],[-14.71,11.5],[-14.52,11.51],[-14.29,11.67]]]}},{"type":"Feature","properties":{"id":"GIN-SI","nome":"Siguiri","pais":"GIN","tipo":"Prefecture","lat":11.57,"lng":-9.39},"geometry":{"type":"Polygon","coordinates":[[[-9.33,12.5],[-8.98,12.37],[-8.99,12.22],[-8.91,12.17],[-8.92,12.05],[-8.82,12.01],[-8.8,11.93],[-8.85,11.66],[-8.73,11.65],[-8.98,11.08],[-9.34,10.87],[-9.69,10.87],[-9.83,11.04],[-9.87,11.3],[-10.03,11.38],[-10.07,11.64],[-10.21,11.81],[-9.89,12.06],[-9.72,12.03],[-9.63,12.17],[-9.36,12.25],[-9.31,12.36],[-9.41,12.46],[-9.33,12.5]]]}},{"type":"Feature","properties":{"id":"GIN-KB","nome":"Koubia","pais":"GIN","tipo":"Prefecture","lat":11.62,"lng":-11.71},"geometry":{"type":"Polygon","coordinates":[[[-11.47,12.13],[-11.35,12.04],[-11.35,11.67],[-11.52,11.62],[-11.62,11.51],[-12.06,11.29],[-12.32,11.73],[-11.96,11.65],[-11.63,11.73],[-11.47,12.13]]]}},{"type":"Feature","properties":{"id":"GIN-TO","nome":"Tougué","pais":"GIN","tipo":"Prefecture","lat":11.45,"lng":-11.47},"geometry":{"type":"Polygon","coordinates":[[[-11.35,12.04],[-11.27,12],[-11.18,12.02],[-11.12,11.89],[-11.14,11.66],[-11.22,11.55],[-11.14,11.47],[-11.36,11.27],[-11.47,11.25],[-11.66,11.03],[-11.89,11.01],[-12,11.32],[-11.62,11.51],[-11.52,11.62],[-11.35,11.67],[-11.35,12.04]]]}},{"type":"Feature","properties":{"id":"GIN-DI","nome":"Dinguiraye","pais":"GIN","tipo":"Prefecture","lat":11.56,"lng":-10.67},"geometry":{"type":"Polygon","coordinates":[[[-10.95,12.22],[-10.8,12.1],[-10.71,11.89],[-10.56,12],[-10.51,12.12],[-10.27,12.22],[-9.89,12.06],[-10.21,11.81],[-10.07,11.64],[-10.03,11.38],[-10.14,11.37],[-10.32,11.47],[-10.39,11.44],[-10.34,11.27],[-10.37,11.18],[-10.7,11.23],[-10.7,11.11],[-11.08,10.94],[-11.19,11.03],[-11.42,11.06],[-11.25,11.18],[-11.31,11.33],[-11.13,11.48],[-11.22,11.54],[-11.12,11.79],[-11.18,12.02],[-11.05,12.2],[-10.95,12.22]]]}},{"type":"Feature","properties":{"id":"GIN-BF","nome":"Boffa","pais":"GIN","tipo":"Prefecture","lat":10.4,"lng":-14.08},"geometry":{"type":"Polygon","coordinates":[[[-13.69,9.95],[-13.75,9.86],[-13.83,9.86],[-14.06,10.03],[-14.05,10.08],[-13.99,10.08],[-14.07,10.12],[-14,10.2],[-14.13,10.05],[-14.18,10.09],[-14.14,10.18],[-14.22,10.11],[-14.24,10.18],[-14.45,10.21],[-14.55,10.5],[-14.14,10.67],[-13.99,10.65],[-13.8,10.74],[-13.61,10.71],[-13.62,10.55],[-13.81,10.4],[-13.91,10.12],[-13.69,9.95]]]}},{"type":"Feature","properties":{"id":"GIN-DU","nome":"Dubréka","pais":"GIN","tipo":"Prefecture","lat":10.11,"lng":-13.47},"geometry":{"type":"Polygon","coordinates":[[[-13.67,9.57],[-13.56,9.79],[-13.65,9.84],[-13.66,9.75],[-13.75,9.77],[-13.69,9.95],[-13.91,10.12],[-13.82,10.3],[-13.48,10.24],[-13.29,10.38],[-13.13,10.4],[-13.16,10.11],[-13.47,9.9],[-13.52,9.52],[-13.67,9.57]]]}},{"type":"Feature","properties":{"id":"GIN-C","nome":"Conakry","pais":"GIN","tipo":"Administrative Zone","lat":9.54,"lng":-13.68},"geometry":{"type":"Polygon","coordinates":[[[-13.64,9.54],[-13.73,9.51],[-13.67,9.57],[-13.64,9.54]]]}},{"type":"Feature","properties":{"id":"GIN-CO","nome":"Coyah","pais":"GIN","tipo":"Prefecture","lat":9.79,"lng":-13.35},"geometry":{"type":"Polygon","coordinates":[[[-13.49,9.57],[-13.52,9.52],[-13.47,9.9],[-13.39,9.99],[-13.28,10],[-13.22,9.94],[-13.23,9.75],[-13.11,9.65],[-13.09,9.56],[-13.21,9.56],[-13.32,9.64],[-13.49,9.57]]]}},{"type":"Feature","properties":{"id":"GIN-KS","nome":"Kissidougou","pais":"GIN","tipo":"Prefecture","lat":9.26,"lng":-9.89},"geometry":{"type":"Polygon","coordinates":[[[-9.96,9.67],[-9.83,9.55],[-9.63,9.54],[-9.55,9.46],[-9.22,9.43],[-9.24,9.25],[-9.32,9.2],[-9.42,8.93],[-9.57,8.86],[-9.98,8.94],[-10.2,8.87],[-10.44,9.08],[-10.48,9.19],[-10.38,9.39],[-10.42,9.61],[-10.27,9.6],[-10.13,9.71],[-9.96,9.67]]]}},{"type":"Feature","properties":{"id":"GIN-KE","nome":"Kérouané","pais":"GIN","tipo":"Prefecture","lat":9.33,"lng":-8.91},"geometry":{"type":"Polygon","coordinates":[[[-9.34,9.09],[-9.32,9.2],[-9.24,9.25],[-9.18,9.64],[-9.02,9.73],[-8.67,9.67],[-8.47,9.52],[-8.48,9.38],[-8.73,9.07],[-9.15,8.91],[-9.24,8.92],[-9.29,9.08],[-9.34,9.09]]]}},{"type":"Feature","properties":{"id":"GIN-TE","nome":"Télimélé","pais":"GIN","tipo":"Prefecture","lat":10.92,"lng":-13.31},"geometry":{"type":"Polygon","coordinates":[[[-12.97,11.17],[-12.87,10.99],[-12.96,10.81],[-12.92,10.72],[-12.96,10.58],[-12.9,10.47],[-13.21,10.4],[-13.21,10.6],[-13.4,10.7],[-13.8,10.74],[-13.99,10.65],[-14.14,10.67],[-13.99,10.86],[-13.86,10.89],[-13.76,11.12],[-13.84,11.27],[-13.79,11.31],[-13.4,11.36],[-13.26,11.33],[-13.23,11.13],[-12.97,11.17]]]}},{"type":"Feature","properties":{"id":"GIN-LE","nome":"Lélouma","pais":"GIN","tipo":"Prefecture","lat":11.47,"lng":-12.63},"geometry":{"type":"Polygon","coordinates":[[[-12.87,10.99],[-12.99,11.26],[-12.93,11.39],[-12.7,11.57],[-12.81,11.72],[-12.5,11.73],[-12.46,11.51],[-12.53,11.3],[-12.65,11.31],[-12.81,11],[-12.87,10.99]]]}},{"type":"Feature","properties":{"id":"GIN-DL","nome":"Dalaba","pais":"GIN","tipo":"Prefecture","lat":10.83,"lng":-12.21},"geometry":{"type":"Polygon","coordinates":[[[-12.01,11.29],[-11.9,11.16],[-11.9,11.02],[-11.79,10.97],[-11.82,10.8],[-12.03,10.76],[-12.2,10.59],[-12.42,10.49],[-12.5,10.62],[-12.65,10.53],[-12.62,10.73],[-12.44,10.84],[-12.34,10.99],[-12.13,11.03],[-12.18,11.13],[-12.12,11.29],[-12.01,11.29]]]}},{"type":"Feature","properties":{"id":"GIN-LA","nome":"Labé","pais":"GIN","tipo":"Prefecture","lat":11.52,"lng":-12.34},"geometry":{"type":"Polygon","coordinates":[[[-12.06,11.29],[-12.24,11.27],[-12.25,11.2],[-12.37,11.16],[-12.48,11.17],[-12.53,11.3],[-12.46,11.51],[-12.5,11.73],[-12.32,11.73],[-12.06,11.29]]]}},{"type":"Feature","properties":{"id":"GIN-PI","nome":"Pita","pais":"GIN","tipo":"Prefecture","lat":10.93,"lng":-12.62},"geometry":{"type":"Polygon","coordinates":[[[-12.25,11.2],[-12.24,11.27],[-12.12,11.29],[-12.18,11.13],[-12.13,11.03],[-12.34,10.99],[-12.44,10.84],[-12.62,10.73],[-12.7,10.48],[-12.81,10.52],[-12.9,10.47],[-12.96,10.59],[-12.92,10.72],[-12.95,10.88],[-12.81,11],[-12.73,11.24],[-12.63,11.32],[-12.54,11.32],[-12.46,11.16],[-12.25,11.2]]]}},{"type":"Feature","properties":{"id":"GIN-KO","nome":"Kouroussa","pais":"GIN","tipo":"Prefecture","lat":10.72,"lng":-10.02},"geometry":{"type":"Polygon","coordinates":[[[-9.96,9.67],[-10.13,9.71],[-10.27,9.6],[-10.42,9.61],[-10.41,9.74],[-10.32,9.89],[-10.35,10],[-10.21,10.18],[-10.23,10.32],[-10.14,10.4],[-10.13,10.52],[-10.2,10.44],[-10.22,10.51],[-10.3,10.53],[-10.44,10.51],[-10.65,10.72],[-10.9,10.84],[-10.71,11.06],[-10.7,11.23],[-10.55,11.17],[-10.34,11.21],[-10.4,11.4],[-10.32,11.47],[-9.87,11.3],[-9.83,11.04],[-9.69,10.87],[-9.34,10.87],[-9.37,10.75],[-9.67,10.44],[-9.72,10.2],[-9.7,9.9],[-9.85,9.7],[-9.96,9.67]]]}},{"type":"Feature","properties":{"id":"GIN-FR","nome":"Fria","pais":"GIN","tipo":"Prefecture","lat":10.47,"lng":-13.5},"geometry":{"type":"Polygon","coordinates":[[[-13.61,10.71],[-13.4,10.7],[-13.21,10.6],[-13.21,10.4],[-13.48,10.24],[-13.82,10.3],[-13.81,10.4],[-13.62,10.55],[-13.61,10.71]]]}}]}