{"type":"FeatureCollection","features":[{"type":"Feature","properties":{"id":"GMB-M","nome":"Central River","pais":"GMB","tipo":"Division","lat":13.64,"lng":-14.98},"geometry":{"type":"Polygon","coordinates":[[[-15.1,13.82],[-14.88,13.78],[-14.74,13.62],[-14.54,13.64],[-14.46,13.52],[-14.52,13.45],[-14.49,13.4],[-14.55,13.32],[-14.7,13.35],[-15.14,13.59],[-15.3,13.5],[-15.37,13.63],[-15.5,13.64],[-15.39,13.77],[-15.27,13.74],[-15.1,13.82]]]}},{"type":"Feature","properties":{"id":"GMB-N","nome":"North Bank","pais":"GMB","tipo":"Division","lat":13.52,"lng":-15.98},"geometry":{"type":"Polygon","coordinates":[[[-15.52,13.58],[-15.5,13.64],[-15.38,13.63],[-15.3,13.48],[-15.56,13.53],[-15.77,13.47],[-16.14,13.45],[-16.39,13.34],[-16.52,13.36],[-16.56,13.59],[-15.52,13.58]]]}},{"type":"Feature","properties":{"id":"GMB-U","nome":"Upper River","pais":"GMB","tipo":"Division","lat":13.38,"lng":-14.19},"geometry":{"type":"Polygon","coordinates":[[[-14.46,13.52],[-14.35,13.45],[-13.97,13.58],[-13.84,13.48],[-13.82,13.38],[-14.2,13.23],[-14.37,13.24],[-14.55,13.32],[-14.46,13.52]]]}},{"type":"Feature","properties":{"id":"GMB-L","nome":"Lower River","pais":"GMB","tipo":"Division","lat":13.41,"lng":-15.7},"geometry":{"type":"Polygon","coordinates":[[[-15.18,13.56],[-15.28,13.38],[-15.81,13.34],[-15.82,13.25],[-16.2,13.26],[-16.23,13.33],[-16.16,13.43],[-15.62,13.45],[-15.56,13.51],[-15.34,13.44],[-15.18,13.56]]]}},{"type":"Feature","properties":{"id":"GMB-W","nome":"West Coast","pais":"GMB","tipo":"Division","lat":13.22,"lng":-16.31},"geometry":{"type":"Polygon","coordinates":[[[-15.82,13.25],[-15.83,13.16],[-16.67,13.16],[-16.75,13.07],[-16.83,13.34],[-16.76,13.4],[-16.7,13.34],[-16.6,13.39],[-16.42,13.21],[-16.38,13.22],[-16.44,13.28],[-16.26,13.32],[-16.21,13.25],[-16.14,13.29],[-15.82,13.25]]]}},{"type":"Feature","properties":{"id":"GMB-B","nome":"Banjul","pais":"GMB","tipo":"Independent City","lat":13.41,"lng":-16.68},"geometry":{"type":"Polygon","coordinates":[[[-16.76,13.4],[-16.68,13.5],[-16.59,13.44],[-16.66,13.33],[-16.76,13.4]]]}}]}