{"type":"FeatureCollection","features":[{"type":"Feature","properties":{"id":"GNB-GA","nome":"Gabú","pais":"GNB","tipo":"Region","lat":12.16,"lng":-14.11},"geometry":{"type":"Polygon","coordinates":[[[-13.7,12.29],[-13.84,12.28],[-13.97,12.15],[-13.72,12],[-13.73,11.71],[-13.82,11.69],[-13.87,11.74],[-13.89,11.68],[-14.02,11.64],[-14.29,11.67],[-14.43,11.56],[-14.51,11.64],[-14.47,11.93],[-14.53,12.1],[-14.43,12.17],[-14.47,12.31],[-14.56,12.39],[-14.46,12.46],[-14.53,12.53],[-14.38,12.51],[-14.41,12.63],[-14.34,12.68],[-13.73,12.67],[-13.66,12.46],[-13.7,12.29]]]}},{"type":"Feature","properties":{"id":"GNB-TO","nome":"Tombali","pais":"GNB","tipo":"Region","lat":11.29,"lng":-14.93},"geometry":{"type":"Polygon","coordinates":[[[-14.43,11.56],[-14.71,11.5],[-14.96,11.04],[-15.09,10.93],[-15.05,10.99],[-15.11,10.98],[-15.1,11.06],[-15,11.14],[-15,11.22],[-15.23,10.99],[-15.27,11.04],[-15.21,11.08],[-15.21,11.23],[-15.23,11.12],[-15.41,11.19],[-15.39,11.37],[-15.2,11.47],[-15.1,11.41],[-14.96,11.44],[-14.83,11.7],[-14.73,11.6],[-14.51,11.64],[-14.43,11.56]]]}},{"type":"Feature","properties":{"id":"GNB-BA","nome":"Bafatá","pais":"GNB","tipo":"Region","lat":12.14,"lng":-14.71},"geometry":{"type":"Polygon","coordinates":[[[-14.87,12.68],[-14.34,12.68],[-14.41,12.63],[-14.39,12.5],[-14.53,12.53],[-14.46,12.46],[-14.56,12.39],[-14.47,12.31],[-14.43,12.17],[-14.53,12.1],[-14.47,11.93],[-14.51,11.64],[-14.73,11.6],[-14.86,11.7],[-14.84,11.74],[-15.07,11.85],[-15.02,11.95],[-14.95,11.97],[-15.07,12.17],[-14.92,12.19],[-14.96,12.43],[-14.85,12.48],[-14.9,12.54],[-14.87,12.68]]]}},{"type":"Feature","properties":{"id":"GNB-OI","nome":"Oio","pais":"GNB","tipo":"Region","lat":12.28,"lng":-15.3},"geometry":{"type":"Polygon","coordinates":[[[-15.15,12.68],[-14.86,12.66],[-14.9,12.54],[-14.85,12.48],[-14.96,12.43],[-14.92,12.19],[-15.07,12.17],[-14.95,11.97],[-15.08,11.99],[-15.22,11.91],[-15.4,11.97],[-15.55,11.9],[-15.67,12.03],[-15.65,12.17],[-15.75,12.28],[-15.42,12.41],[-15.42,12.56],[-15.15,12.68]]]}},{"type":"Feature","properties":{"id":"GNB-CA","nome":"Cacheu","pais":"GNB","tipo":"Region","lat":12.19,"lng":-16.06},"geometry":{"type":"Polygon","coordinates":[[[-15.71,12.43],[-15.42,12.56],[-15.4,12.47],[-15.45,12.38],[-15.52,12.4],[-15.75,12.28],[-15.65,12.17],[-15.67,12.03],[-15.74,11.99],[-15.86,12.03],[-15.97,11.93],[-16.12,11.89],[-16.32,12],[-16.36,12.1],[-16.06,12.35],[-16.31,12.21],[-16.32,12.28],[-16.35,12.2],[-16.46,12.17],[-16.73,12.33],[-16.41,12.36],[-16.22,12.46],[-15.71,12.43]]]}},{"type":"Feature","properties":{"id":"GNB-BM","nome":"Biombo","pais":"GNB","tipo":"Region","lat":11.81,"lng":-15.78},"geometry":{"type":"Polygon","coordinates":[[[-15.68,11.8],[-15.83,11.75],[-15.79,11.86],[-15.73,11.86],[-15.8,11.89],[-15.85,11.78],[-15.88,11.82],[-15.97,11.75],[-15.86,11.98],[-15.72,11.97],[-15.67,12.03],[-15.62,11.97],[-15.68,11.8]]]}},{"type":"Feature","properties":{"id":"GNB-BS","nome":"Bissau","pais":"GNB","tipo":"Autonomous Sector","lat":11.89,"lng":-15.61},"geometry":{"type":"Polygon","coordinates":[[[-15.55,11.9],[-15.68,11.8],[-15.62,11.97],[-15.55,11.9]]]}},{"type":"Feature","properties":{"id":"GNB-QU","nome":"Quinara","pais":"GNB","tipo":"Region","lat":11.56,"lng":-15.19},"geometry":{"type":"Polygon","coordinates":[[[-15.43,11.68],[-15.48,11.65],[-15.55,11.72],[-15.44,11.89],[-15.19,11.87],[-15.09,11.94],[-15.07,11.8],[-14.96,11.75],[-14.9,11.79],[-14.83,11.7],[-14.96,11.44],[-15.1,11.41],[-15.2,11.47],[-15.34,11.38],[-15.34,11.47],[-15.49,11.33],[-15.47,11.49],[-15.4,11.49],[-15.35,11.56],[-15.29,11.54],[-15.34,11.58],[-15.29,11.6],[-15.24,11.58],[-15.28,11.62],[-15.21,11.57],[-15.19,11.64],[-15.12,11.62],[-15.12,11.55],[-15.01,11.61],[-15.08,11.6],[-15.11,11.69],[-15.17,11.66],[-15.13,11.71],[-15.23,11.66],[-15.19,11.72],[-15.22,11.76],[-15.26,11.68],[-15.27,11.75],[-15.32,11.71],[-15.28,11.67],[-15.32,11.63],[-15.34,11.68],[-15.43,11.68]]]}},{"type":"Feature","properties":{"id":"GNB-BL","nome":"Bolama","pais":"GNB","tipo":"Region","lat":11.52,"lng":-15.96},"geometry":{"type":"Polygon","coordinates":[[[-16.05,11.12],[-16.06,11.05],[-16.13,11.03],[-16.25,11.1],[-16.1,11.21],[-16.05,11.12]]]}}]}