{"type":"FeatureCollection","features":[{"type":"Feature","properties":{"id":"GNQ-LI","nome":"Litoral","pais":"GNQ","tipo":"Province","lat":1.31,"lng":9.8},"geometry":{"type":"Polygon","coordinates":[[[9.8,2.34],[9.87,2.21],[10.19,2.17],[10.2,2.11],[10.1,1.8],[9.92,1.58],[10.11,1.49],[10.15,1.27],[10.28,1.14],[10.03,1.06],[9.94,0.92],[9.8,1],[9.85,1.07],[9.7,1.1],[9.72,1.13],[9.58,1.04],[9.54,1.13],[9.41,1.11],[9.35,1.18],[9.59,1.57],[9.74,1.6],[9.67,1.58],[9.61,1.64],[9.81,1.93],[9.76,2.1],[9.8,2.34]]]}},{"type":"Feature","properties":{"id":"GNQ-KN","nome":"Kié-Ntem","pais":"GNQ","tipo":"Province","lat":2.05,"lng":10.87},"geometry":{"type":"Polygon","coordinates":[[[10.41,2.17],[11.32,2.17],[11.33,1.73],[11,1.74],[10.94,1.97],[10.86,1.93],[10.67,2],[10.44,1.92],[10.41,2.17]]]}},{"type":"Feature","properties":{"id":"GNQ-CS","nome":"Centro Sur","pais":"GNQ","tipo":"Province","lat":1.46,"lng":10.45},"geometry":{"type":"Polygon","coordinates":[[[10.19,2.17],[10.41,2.17],[10.43,1.93],[10.62,1.81],[10.57,1.59],[10.98,1.57],[10.78,1.31],[10.92,1.17],[10.96,1],[10,1],[10.06,1.07],[10.28,1.14],[10.15,1.27],[10.11,1.49],[9.92,1.58],[10.1,1.8],[10.19,2.17]]]}},{"type":"Feature","properties":{"id":"GNQ-WN","nome":"Wele-Nzás","pais":"GNQ","tipo":"Province","lat":1.34,"lng":10.93},"geometry":{"type":"Polygon","coordinates":[[[11.33,1.73],[11.34,1],[10.96,1],[10.92,1.17],[10.78,1.31],[10.98,1.57],[10.57,1.59],[10.62,1.81],[10.52,1.91],[10.67,2],[10.86,1.93],[10.94,1.97],[11,1.74],[11.33,1.73]]]}},{"type":"Feature","properties":{"id":"GNQ-BN","nome":"Bioko Norte","pais":"GNQ","tipo":"Province","lat":3.67,"lng":8.8},"geometry":{"type":"Polygon","coordinates":[[[8.63,3.63],[8.74,3.77],[8.91,3.76],[8.96,3.68],[8.86,3.52],[8.63,3.63]]]}},{"type":"Feature","properties":{"id":"GNQ-BS","nome":"Bioko Sur","pais":"GNQ","tipo":"Province","lat":3.43,"lng":8.64},"geometry":{"type":"Polygon","coordinates":[[[8.86,3.52],[8.69,3.2],[8.45,3.27],[8.44,3.42],[8.58,3.46],[8.63,3.63],[8.86,3.52]]]}}]}