{"type":"FeatureCollection","features":[{"type":"Feature","properties":{"id":"GRC-C","nome":"Dytiki Makedonia","pais":"GRC","tipo":"Region","lat":40.38,"lng":21.46},"geometry":{"type":"Polygon","coordinates":[[[20.91,40.46],[21.04,40.64],[20.94,40.77],[20.97,40.85],[21.4,40.91],[21.58,40.87],[21.76,40.92],[21.81,40.85],[21.69,40.81],[21.77,40.73],[21.75,40.67],[21.88,40.65],[21.87,40.51],[22.07,40.41],[22.17,40.28],[21.95,39.99],[21.85,39.93],[21.88,39.83],[21.47,39.86],[21.3,39.8],[21.22,39.85],[21.08,39.83],[21.01,39.94],[21.04,40.01],[20.93,40.09],[20.92,40.22],[20.84,40.33],[20.74,40.31],[20.77,40.42],[20.91,40.46]]]}},{"type":"Feature","properties":{"id":"GRC-D","nome":"Ipeiros","pais":"GRC","tipo":"Region","lat":39.64,"lng":20.69},"geometry":{"type":"Polygon","coordinates":[[[20.55,40.07],[20.65,40.09],[20.71,40.29],[20.86,40.31],[20.95,40.18],[20.96,40.03],[21.04,40.01],[21.01,39.94],[21.08,39.83],[21.29,39.82],[21.2,39.77],[21.22,39.67],[21.11,39.66],[21.18,39.42],[21.39,39.28],[21.33,39.2],[21.36,39.15],[21.09,39.09],[21.06,39.01],[20.9,39.08],[20.84,39.04],[20.81,39.11],[20.74,39.02],[20.83,38.96],[20.74,38.95],[20.69,39.07],[20.48,39.23],[20.48,39.28],[20.29,39.33],[20.22,39.44],[20.27,39.45],[20.22,39.49],[20.26,39.51],[20.13,39.53],[20.18,39.62],[20,39.69],[20.25,39.66],[20.3,39.73],[20.28,39.8],[20.4,39.82],[20.3,39.99],[20.55,40.07]]]}},{"type":"Feature","properties":{"id":"GRC-B","nome":"Kentriki Makedonia","pais":"GRC","tipo":"Region","lat":40.88,"lng":22.85},"geometry":{"type":"Polygon","coordinates":[[[22.83,41.34],[23.12,41.31],[23.27,41.4],[23.62,41.38],[23.82,41.13],[24.12,41],[24.11,40.91],[24.02,40.85],[23.75,40.76],[23.69,40.7],[23.91,40.54],[23.82,40.51],[23.87,40.41],[24.01,40.38],[24,40.32],[23.85,40.37],[23.69,40.31],[23.78,40.2],[23.99,40.12],[23.99,39.95],[23.83,40.01],[23.68,40.22],[23.44,40.28],[23.34,40.23],[23.36,40.15],[23.75,39.93],[23.36,39.96],[23.3,40.24],[22.89,40.39],[22.82,40.5],[22.98,40.55],[22.91,40.64],[22.58,40.47],[22.66,40.37],[22.55,40.17],[22.57,40.05],[22.71,39.94],[22.5,39.93],[22.35,40.05],[22.33,40.14],[22.2,40.09],[22.18,40.16],[22.1,40.15],[22.17,40.28],[22.07,40.41],[21.87,40.51],[21.88,40.65],[21.75,40.67],[21.77,40.73],[21.69,40.81],[21.81,40.85],[21.76,40.92],[21.91,41.1],[22.05,41.15],[22.45,41.11],[22.64,41.18],[22.7,41.14],[22.75,41.32],[22.83,41.34]]]}},{"type":"Feature","properties":{"id":"GRC-A","nome":"Anatoliki Makedonia kai Thraki","pais":"GRC","tipo":"Region","lat":41.1,"lng":25.21},"geometry":{"type":"MultiPolygon","coordinates":[[[[26.21,41.75],[26.6,41.61],[26.64,41.38],[26.32,41.25],[26.36,40.96],[26.08,40.74],[26.01,40.8],[26.05,40.83],[25.54,40.87],[25.18,40.94],[25.14,41.01],[25.04,41.01],[24.8,40.85],[24.63,40.86],[24.57,40.95],[24.42,40.95],[24.31,40.88],[24.34,40.83],[24.11,40.73],[23.99,40.73],[23.85,40.78],[24.09,40.9],[24.12,41],[23.82,41.13],[23.62,41.35],[23.89,41.46],[24.05,41.46],[24.08,41.54],[24.51,41.56],[24.58,41.44],[24.77,41.35],[24.89,41.4],[25.24,41.24],[25.55,41.32],[25.96,41.31],[26.12,41.36],[26.18,41.43],[26.05,41.69],[26.21,41.75]]],[[[24.79,40.74],[24.78,40.61],[24.64,40.57],[24.52,40.64],[24.64,40.8],[24.79,40.74]]]]}},{"type":"Feature","properties":{"id":"GRC-69","nome":"Ayion Oros","pais":"GRC","tipo":"Autonomous Monastic State","lat":40.29,"lng":24.19},"geometry":{"type":"Polygon","coordinates":[[[24,40.39],[24.01,40.45],[24.39,40.15],[24.3,40.13],[24.17,40.28],[24,40.32],[24,40.39]]]}},{"type":"Feature","properties":{"id":"GRC-E","nome":"Thessalia","pais":"GRC","tipo":"Region","lat":39.53,"lng":22.19},"geometry":{"type":"Polygon","coordinates":[[[22.71,39.94],[22.85,39.79],[22.94,39.58],[23.1,39.5],[23.34,39.19],[23.2,39.1],[23.05,39.1],[23.22,39.18],[23.13,39.3],[22.94,39.36],[22.94,39.3],[22.84,39.29],[22.82,39.23],[23,39.07],[22.96,39.01],[23.07,39.04],[23,38.96],[22.52,39.03],[22.49,39.12],[22.24,39.24],[22.12,39.1],[21.93,39.03],[21.83,39.13],[21.7,39.11],[21.64,39.24],[21.36,39.15],[21.33,39.2],[21.39,39.28],[21.18,39.42],[21.11,39.66],[21.22,39.67],[21.2,39.76],[21.24,39.8],[21.47,39.86],[21.88,39.83],[21.85,39.93],[22.09,40.17],[22.18,40.16],[22.2,40.09],[22.33,40.14],[22.35,40.05],[22.5,39.93],[22.71,39.94]]]}},{"type":"Feature","properties":{"id":"GRC-H","nome":"Stereá Elláda","pais":"GRC","tipo":"Region","lat":38.64,"lng":22.61},"geometry":{"type":"MultiPolygon","coordinates":[[[[23,38.96],[22.79,38.88],[22.62,38.91],[22.53,38.86],[23.04,38.75],[23.1,38.64],[23.19,38.69],[23.31,38.65],[23.33,38.6],[23.29,38.56],[23.38,38.54],[23.33,38.5],[23.57,38.5],[23.67,38.36],[23.77,38.34],[23.64,38.29],[23.59,38.14],[23.47,38.15],[23.35,38.26],[23.26,38.17],[23.17,38.18],[23.21,38.16],[23.11,38.21],[22.91,38.19],[22.9,38.24],[22.76,38.25],[22.8,38.28],[22.65,38.39],[22.56,38.29],[22.4,38.45],[22.38,38.34],[22.19,38.32],[21.99,38.41],[21.86,38.38],[21.88,38.45],[21.98,38.51],[22,38.74],[21.81,38.73],[21.75,38.67],[21.56,38.73],[21.53,38.79],[21.61,38.85],[21.37,39],[21.36,39.15],[21.64,39.24],[21.7,39.11],[21.83,39.13],[21.93,39.03],[22.12,39.1],[22.24,39.24],[22.49,39.12],[22.52,39.03],[23,38.96]]],[[[24.68,38.81],[24.57,38.76],[24.56,38.85],[24.44,38.88],[24.46,38.97],[24.56,38.94],[24.68,38.81]]],[[[24.59,38.16],[24.57,37.99],[24.48,37.96],[24.43,38.02],[24.37,37.97],[24.29,38.09],[24.2,38.09],[24.19,38.22],[24.13,38.22],[24.15,38.28],[24.11,38.26],[24.12,38.31],[24.03,38.33],[24.07,38.35],[24.04,38.4],[23.65,38.41],[23.59,38.45],[23.61,38.56],[23.2,38.83],[22.97,38.89],[22.98,38.85],[22.83,38.85],[23.3,39.04],[23.59,38.77],[24.16,38.65],[24.13,38.6],[24.23,38.52],[24.19,38.41],[24.25,38.23],[24.34,38.16],[24.59,38.16]]]]}},{"type":"Feature","properties":{"id":"GRC-A1","nome":"Attiki","pais":"GRC","tipo":"Region","lat":38.06,"lng":23.8},"geometry":{"type":"MultiPolygon","coordinates":[[[[23.77,38.34],[24.07,38.2],[24.06,38.13],[23.99,38.12],[24.05,37.91],[24.01,37.89],[24.09,37.79],[24.03,37.65],[23.95,37.68],[23.87,37.81],[23.78,37.8],[23.7,37.94],[23.56,37.97],[23.58,38.05],[23.16,37.94],[23.08,38.06],[23.22,38.1],[23.17,38.18],[23.26,38.17],[23.35,38.26],[23.55,38.12],[23.64,38.29],[23.77,38.34]]],[[[23.19,37.61],[23.34,37.54],[23.31,37.62],[23.4,37.64],[23.4,37.51],[23.53,37.44],[23.44,37.41],[23.18,37.51],[23.19,37.61]]],[[[23.01,36.31],[23.1,36.24],[22.99,36.14],[22.91,36.21],[22.9,36.34],[22.94,36.39],[23.01,36.31]]]]}},{"type":"Feature","properties":{"id":"GRC-J","nome":"Peloponnisos","pais":"GRC","tipo":"Region","lat":37.33,"lng":22.35},"geometry":{"type":"Polygon","coordinates":[[[23.16,37.94],[23,37.88],[23.18,37.81],[23.12,37.74],[23.18,37.72],[23.16,37.52],[23.44,37.41],[23.26,37.4],[23.23,37.37],[23.28,37.35],[23.17,37.3],[23.07,37.36],[23.13,37.45],[23,37.46],[22.92,37.54],[22.85,37.51],[22.78,37.6],[22.72,37.54],[23.11,36.78],[23.03,36.73],[23.04,36.65],[23.2,36.43],[22.97,36.52],[22.88,36.65],[22.81,36.67],[22.79,36.79],[22.69,36.81],[22.58,36.78],[22.55,36.65],[22.48,36.61],[22.49,36.39],[22.35,36.51],[22.39,36.71],[22.22,36.9],[22.14,36.92],[22.15,37.02],[21.94,36.99],[21.92,36.86],[21.97,36.79],[21.88,36.73],[21.82,36.81],[21.71,36.82],[21.71,36.94],[21.58,37.08],[21.57,37.19],[21.68,37.28],[21.68,37.38],[21.83,37.37],[21.98,37.49],[21.79,37.58],[21.77,37.78],[21.83,37.85],[22.01,37.78],[22.23,37.84],[22.23,37.95],[22.34,38.01],[22.36,38.16],[22.68,38.07],[22.87,37.94],[22.98,37.98],[22.88,38.05],[23.08,38.06],[23.16,37.94]]]}},{"type":"Feature","properties":{"id":"GRC-G","nome":"Dytiki Ellada","pais":"GRC","tipo":"Region","lat":38.03,"lng":21.73},"geometry":{"type":"MultiPolygon","coordinates":[[[[21.68,37.38],[21.55,37.56],[21.4,37.66],[21.31,37.64],[21.28,37.79],[21.11,37.84],[21.13,37.95],[21.33,38.02],[21.28,38.02],[21.37,38.22],[21.62,38.15],[21.85,38.34],[22.36,38.16],[22.34,38.01],[22.23,37.95],[22.23,37.84],[22.01,37.78],[21.83,37.85],[21.77,37.78],[21.79,37.58],[21.98,37.49],[21.83,37.37],[21.68,37.38]]],[[[21.85,38.39],[21.52,38.3],[21.43,38.33],[21.49,38.31],[21.49,38.36],[21.38,38.4],[21.32,38.5],[21.34,38.4],[21.16,38.3],[21.09,38.34],[21.14,38.4],[21.09,38.41],[21.1,38.53],[21.03,38.51],[20.99,38.66],[20.91,38.69],[20.86,38.8],[20.77,38.76],[20.73,38.8],[20.81,38.87],[20.76,38.94],[20.98,38.95],[21.09,38.86],[21.1,38.91],[21.17,38.87],[21.16,39],[21.07,39.08],[21.36,39.15],[21.37,39],[21.61,38.85],[21.53,38.79],[21.56,38.73],[21.75,38.67],[21.81,38.73],[22,38.74],[21.98,38.51],[21.85,38.39]]]]}},{"type":"Feature","properties":{"id":"GRC-M","nome":"Kriti","pais":"GRC","tipo":"Region","lat":35.19,"lng":25.07},"geometry":{"type":"Polygon","coordinates":[[[26.32,35.32],[26.27,35.26],[26.32,35.2],[26.28,35.1],[26.15,35],[25.98,35.04],[25.02,34.93],[24.74,34.93],[24.74,35.08],[24.4,35.19],[23.68,35.23],[23.52,35.29],[23.58,35.58],[23.6,35.61],[23.62,35.52],[23.72,35.51],[23.74,35.69],[23.82,35.53],[24.03,35.52],[24.08,35.59],[24.18,35.59],[24.18,35.51],[24.07,35.5],[24.25,35.48],[24.27,35.37],[24.34,35.35],[24.72,35.43],[24.97,35.42],[25.08,35.34],[25.38,35.34],[25.45,35.29],[25.77,35.34],[25.71,35.18],[25.8,35.12],[26.06,35.23],[26.18,35.21],[26.32,35.32]]]}},{"type":"Feature","properties":{"id":"GRC-L","nome":"Notio Aigaio","pais":"GRC","tipo":"Region","lat":37.05,"lng":25.49},"geometry":{"type":"MultiPolygon","coordinates":[[[[27.21,35.52],[27.23,35.47],[27.14,35.4],[27.07,35.59],[27.16,35.8],[27.22,35.83],[27.16,35.63],[27.21,35.52]]],[[[28.24,36.43],[28.06,36.12],[28.09,36.06],[27.99,36.06],[27.83,35.91],[27.73,35.92],[27.76,36.08],[27.68,36.16],[27.9,36.34],[28.24,36.43]]],[[[27.28,36.91],[27.36,36.86],[26.99,36.75],[26.97,36.68],[26.92,36.72],[27.06,36.84],[27.28,36.91]]],[[[25.53,37.2],[25.59,37.14],[25.58,37.02],[25.45,36.92],[25.34,37.08],[25.53,37.2]]],[[[24.99,37.77],[24.96,37.69],[24.72,37.88],[24.69,37.97],[24.78,38],[24.85,37.91],[24.95,37.91],[24.99,37.77]]]]}},{"type":"Feature","properties":{"id":"GRC-K","nome":"Voreio Aigaio","pais":"GRC","tipo":"Region","lat":39.95,"lng":25.23},"geometry":{"type":"MultiPolygon","coordinates":[[[[26.36,37.69],[26.23,37.57],[25.98,37.52],[26.07,37.64],[26.36,37.69]]],[[[27.05,37.73],[26.8,37.64],[26.71,37.71],[26.6,37.68],[26.58,37.74],[26.81,37.81],[26.97,37.75],[26.95,37.79],[27.07,37.77],[27.05,37.73]]],[[[26.16,38.54],[26.12,38.49],[26.16,38.3],[26.11,38.22],[26.01,38.16],[25.89,38.22],[25.88,38.28],[25.96,38.3],[25.99,38.38],[25.84,38.52],[25.85,38.58],[26.02,38.6],[26.16,38.54]]],[[[26.61,39.05],[26.54,39.02],[26.49,39.11],[26.44,39.1],[26.55,38.99],[26.17,39.02],[26.09,39.08],[26.28,39.2],[26.19,39.2],[26.06,39.09],[25.89,39.14],[25.84,39.23],[25.92,39.3],[26.16,39.32],[26.16,39.38],[26.36,39.38],[26.42,39.33],[26.38,39.28],[26.61,39.05]]],[[[25.45,40.04],[25.35,39.91],[25.35,39.79],[25.24,39.86],[25.25,39.92],[25.18,39.85],[25.21,39.8],[25.14,39.82],[25.16,39.86],[25.05,39.84],[25.03,40],[25.23,40.01],[25.29,39.95],[25.45,40.04]]]]}},{"type":"Feature","properties":{"id":"GRC-F","nome":"Ionioi Nisoi","pais":"GRC","tipo":"Region","lat":38.24,"lng":20.56},"geometry":{"type":"MultiPolygon","coordinates":[[[[20.9,37.79],[21,37.7],[20.89,37.73],[20.82,37.65],[20.62,37.86],[20.71,37.93],[20.9,37.79]]],[[[20.73,38.06],[20.51,38.11],[20.45,38.28],[20.43,38.18],[20.35,38.18],[20.4,38.36],[20.48,38.31],[20.53,38.34],[20.54,38.47],[20.63,38.26],[20.68,38.28],[20.8,38.13],[20.79,38.07],[20.73,38.06]]],[[[20.59,38.62],[20.54,38.57],[20.6,38.78],[20.69,38.85],[20.72,38.63],[20.65,38.58],[20.59,38.62]]],[[[20.09,39.43],[20.11,39.36],[19.91,39.43],[19.63,39.75],[19.85,39.82],[19.95,39.79],[19.84,39.65],[19.93,39.63],[19.94,39.47],[20.09,39.43]]]]}}]}