{"type":"FeatureCollection","features":[{"type":"Feature","properties":{"id":"GRD-03","nome":"Saint George","pais":"GRD","tipo":"Parish","lat":12.07,"lng":-61.72},"geometry":{"type":"Polygon","coordinates":[[[-61.68,12.03],[-61.79,12.01],[-61.75,12.11],[-61.69,12.11],[-61.68,12.03]]]}},{"type":"Feature","properties":{"id":"GRD-01","nome":"Saint Andrew","pais":"GRD","tipo":"Parish","lat":12.12,"lng":-61.63},"geometry":{"type":"Polygon","coordinates":[[[-61.6,12.18],[-61.61,12.08],[-61.68,12.08],[-61.66,12.18],[-61.6,12.18]]]}},{"type":"Feature","properties":{"id":"GRD-06","nome":"Saint Patrick","pais":"GRD","tipo":"Parish","lat":12.21,"lng":-61.63},"geometry":{"type":"Polygon","coordinates":[[[-61.68,12.22],[-61.63,12.24],[-61.6,12.18],[-61.68,12.22]]]}},{"type":"Feature","properties":{"id":"GRD-05","nome":"Saint Mark","pais":"GRD","tipo":"Parish","lat":12.19,"lng":-61.67},"geometry":{"type":"Polygon","coordinates":[[[-61.72,12.18],[-61.68,12.22],[-61.66,12.18],[-61.72,12.18]]]}},{"type":"Feature","properties":{"id":"GRD-04","nome":"Saint John","pais":"GRD","tipo":"Parish","lat":12.14,"lng":-61.71},"geometry":{"type":"Polygon","coordinates":[[[-61.75,12.11],[-61.72,12.18],[-61.66,12.16],[-61.75,12.11]]]}},{"type":"Feature","properties":{"id":"GRD-10","nome":"Carriacou and Petite Martinique","pais":"GRD","tipo":"Dependency","lat":12.47,"lng":-61.45},"geometry":{"type":"Polygon","coordinates":[[[-61.43,12.45],[-61.5,12.44],[-61.43,12.53],[-61.43,12.45]]]}}]}