{"type":"FeatureCollection","features":[{"type":"Feature","properties":{"id":"GRL-SM","nome":"Kommuneqarfik Sermersooq","pais":"GRL","tipo":"Estado","lat":64.06,"lng":-44.04},"geometry":{"type":"MultiPolygon","coordinates":[[[[-27.91,71.12],[-27.62,70.95],[-28.4,70.98],[-27.92,70.87],[-28.15,70.65],[-28.34,70.63],[-28.24,70.6],[-28.31,70.56],[-29.23,70.44],[-29.11,70.39],[-28.28,70.51],[-28.35,70.43],[-28.23,70.37],[-26.74,70.48],[-26.53,70.47],[-26.32,70.38],[-26.7,70.29],[-26.97,70.33],[-27.82,70.1],[-28.25,70.15],[-28.59,70.09],[-28.51,70.04],[-28.1,70.07],[-27.97,70.01],[-27.55,70.06],[-27.47,69.96],[-27.31,69.98],[-27.19,70.09],[-27.19,70.17],[-26.88,70.26],[-26.33,70.2],[-25.31,70.41],[-25.2,70.4],[-25.4,70.36],[-25.27,70.36],[-25.35,70.31],[-25.32,70.28],[-25,70.37],[-24.89,70.3],[-24.82,70.32],[-23.86,70.13],[-22.08,70.13],[-22.38,69.97],[-22.47,70.01],[-22.58,69.94],[-22.93,69.93],[-22.77,69.89],[-22.81,69.88],[-23.04,69.94],[-23.09,69.92],[-23.05,69.87],[-23.28,69.86],[-22.91,69.81],[-23,69.77],[-23.33,69.86],[-23.39,69.85],[-23.24,69.75],[-23.93,69.76],[-23.7,69.72],[-23.58,69.63],[-23.73,69.61],[-23.62,69.59],[-23.81,69.51],[-24,69.59],[-24.07,69.56],[-24.35,69.6],[-24.11,69.54],[-24.07,69.49],[-24.16,69.48],[-24.09,69.43],[-24.37,69.45],[-24.35,69.42],[-24.45,69.36],[-24.74,69.43],[-24.75,69.4],[-24.61,69.32],[-24.77,69.3],[-24.62,69.28],[-24.68,69.24],[-25.19,69.28],[-25.28,69.24],[-25.02,69.23],[-24.99,69.17],[-25.12,69.15],[-25.04,69.13],[-25.08,69.11],[-25.33,69.13],[-25.21,69.06],[-25.29,69.02],[-25.66,69.09],[-25.55,69.03],[-25.66,69.01],[-25.45,68.97],[-25.7,68.96],[-25.58,68.91],[-25.79,68.89],[-25.94,68.79],[-26.26,68.79],[-26.25,68.73],[-26.33,68.68],[-26.64,68.65],[-26.74,68.71],[-27.05,68.58],[-27.34,68.6],[-27.24,68.54],[-27.58,68.58],[-27.76,68.52],[-27.6,68.5],[-27.78,68.47],[-27.98,68.57],[-28.02,68.56],[-28.01,68.46],[-28.36,68.5],[-28.25,68.44],[-28.51,68.45],[-28.63,68.36],[-28.82,68.38],[-28.85,68.33],[-29.17,68.4],[-29.2,68.37],[-29.1,68.31],[-29.19,68.26],[-29.28,68.32],[-29.36,68.25],[-29.47,68.25],[-29.38,68.2],[-29.77,68.31],[-29.85,68.42],[-30.07,68.32],[-29.99,68.25],[-30.3,68.26],[-30.12,68.22],[-30.01,68.13],[-30.06,68.11],[-30.34,68.1],[-30.4,68.14],[-30.4,68.22],[-30.82,68.26],[-30.49,68.18],[-30.42,68.07],[-31.02,68.04],[-31.45,68.13],[-31.34,68.15],[-31.4,68.16],[-31.5,68.13],[-31.41,68.09],[-31.58,68.08],[-31.7,68.1],[-31.68,68.18],[-31.75,68.21],[-31.55,68.25],[-31.99,68.26],[-32.16,68.4],[-32.13,68.47],[-32.31,68.44],[-32.37,68.58],[-32.49,68.62],[-32.5,68.58],[-32.4,68.54],[-32.57,68.51],[-32.5,68.43],[-32.21,68.35],[-32.07,68.19],[-32.45,68.21],[-32.05,68.16],[-32,68.05],[-32.15,68.05],[-32.04,67.93],[-32.18,67.92],[-32.14,67.85],[-32.54,67.87],[-32.52,67.83],[-32.93,67.69],[-33.2,67.69],[-33.06,67.63],[-33.21,67.55],[-33.37,67.55],[-33.31,67.51],[-33.35,67.49],[-33.27,67.48],[-33.35,67.43],[-33.27,67.4],[-33.36,67.36],[-33.6,67.37],[-33.42,67.34],[-33.48,67.32],[-33.37,67.25],[-33.67,67.22],[-33.52,67.2],[-33.54,67.08],[-33.65,67.1],[-33.88,67.02],[-33.75,66.99],[-33.98,66.99],[-33.86,66.95],[-34,66.95],[-33.95,66.93],[-34.02,66.83],[-33.93,66.77],[-33.99,66.75],[-34.09,66.81],[-34.05,66.75],[-34.17,66.71],[-34.15,66.67],[-34.27,66.58],[-34.26,66.67],[-34.37,66.6],[-34.42,66.75],[-34.53,66.64],[-34.41,66.54],[-34.7,66.42],[-34.62,66.42],[-34.65,66.37],[-34.72,66.41],[-34.72,66.34],[-34.94,66.34],[-34.91,66.32],[-34.97,66.29],[-35.13,66.34],[-35.11,66.42],[-35.24,66.32],[-35.04,66.26],[-35.22,66.24],[-35.45,66.33],[-35.59,66.29],[-35.8,66.41],[-35.74,66.44],[-35.83,66.44],[-35.88,66.42],[-35.68,66.33],[-35.74,66.27],[-35.55,66.25],[-35.7,66.21],[-35.62,66.21],[-35.59,66.11],[-35.75,66.2],[-35.71,66.12],[-35.94,66.1],[-35.72,66.09],[-35.91,66.09],[-35.94,66.06],[-35.87,66.06],[-35.92,66.04],[-35.89,66.02],[-36.09,65.93],[-36.22,65.94],[-36.2,65.98],[-36.26,65.95],[-36.26,66.01],[-36.35,65.99],[-36.33,65.91],[-36.39,65.95],[-36.36,66.09],[-36.55,66.08],[-36.48,66.05],[-36.52,65.99],[-36.91,65.93],[-36.83,65.92],[-37.01,65.84],[-37.1,65.94],[-37.03,66.05],[-37.08,66.06],[-37.09,65.99],[-37.17,66.01],[-37.12,65.9],[-37.24,65.91],[-37.09,65.86],[-37.11,65.82],[-37.27,65.83],[-37.18,65.77],[-37.68,65.95],[-37.85,65.88],[-37.73,65.98],[-37.8,66.05],[-37.55,66.11],[-37.55,66.17],[-37.19,66.34],[-37.62,66.33],[-37.8,66.38],[-37.85,66.44],[-37.87,66.38],[-38.13,66.38],[-38.14,66.34],[-37.69,66.26],[-37.77,66.22],[-38,66.24],[-37.85,66.2],[-37.99,66.11],[-38.11,66.11],[-37.96,66.08],[-38.03,65.93],[-38.18,65.97],[-38.15,65.91],[-38.27,65.91],[-38.39,66.01],[-38.48,66.02],[-38.43,65.9],[-38.11,65.81],[-38.19,65.77],[-38.18,65.69],[-38.26,65.71],[-38.22,65.65],[-38.42,65.67],[-38.49,65.59],[-38.5,65.65],[-38.43,65.68],[-38.54,65.71],[-38.56,65.63],[-38.75,65.69],[-38.78,65.66],[-38.63,65.63],[-38.6,65.58],[-38.83,65.62],[-39.07,65.56],[-39.14,65.67],[-39.34,65.75],[-39.37,65.72],[-39.21,65.58],[-39.31,65.61],[-39.33,65.55],[-39.34,65.63],[-39.45,65.55],[-39.55,65.62],[-39.51,65.66],[-39.66,65.69],[-39.71,65.67],[-39.64,65.62],[-39.76,65.64],[-39.75,65.6],[-39.83,65.58],[-39.72,65.56],[-39.81,65.56],[-39.81,65.51],[-40.05,65.58],[-40.12,65.55],[-40.04,65.49],[-40.22,65.51],[-39.79,65.41],[-39.95,65.36],[-39.88,65.27],[-39.76,65.25],[-39.92,65.25],[-39.93,65.2],[-40.03,65.19],[-39.94,65.15],[-40.12,65.17],[-39.94,65.1],[-40.14,65.09],[-40.16,65.02],[-40.28,65],[-40.38,65.08],[-40.37,65.04],[-40.43,65.04],[-40.6,65.15],[-40.71,65.03],[-40.76,65.08],[-41.12,65.12],[-40.98,64.98],[-41.15,64.95],[-41.05,64.88],[-40.88,64.86],[-40.99,64.83],[-40.6,64.68],[-40.56,64.51],[-40.64,64.47],[-40.4,64.42],[-40.36,64.36],[-40.53,64.33],[-40.62,64.39],[-40.8,64.39],[-41.08,64.31],[-41.35,64.35],[-41.52,64.33],[-41.57,64.27],[-40.98,64.08],[-40.92,64.16],[-40.56,64.11],[-40.55,64.06],[-40.65,64.01],[-40.6,63.98],[-40.84,63.95],[-40.62,63.92],[-40.56,63.84],[-40.62,63.79],[-40.51,63.73],[-40.7,63.68],[-41,63.7],[-41.35,63.78],[-41.46,63.86],[-41.62,63.79],[-40.88,63.66],[-40.85,63.57],[-40.73,63.59],[-40.77,63.5],[-41.01,63.57],[-40.99,63.52],[-41.14,63.53],[-41,63.47],[-41.04,63.45],[-41.29,63.56],[-41.17,63.45],[-41,63.41],[-41.12,63.39],[-41.41,63.57],[-41.24,63.4],[-41.49,63.53],[-41.5,63.49],[-41.58,63.49],[-41.12,63.31],[-41.53,63.43],[-41.72,63.55],[-41.9,63.47],[-41.86,63.4],[-41.68,63.35],[-41.81,63.34],[-41.76,63.3],[-41.64,63.32],[-41.49,63.24],[-41.43,63.13],[-41.55,63.1],[-42.02,63.25],[-41.53,63.03],[-41.97,63.07],[-42.14,63.21],[-42.14,63.13],[-42.21,63.11],[-42.01,63.03],[-41.62,63],[-41.64,62.93],[-41.77,62.94],[-41.76,62.88],[-41.82,62.88],[-41.75,62.84],[-42.01,62.88],[-42.02,62.8],[-42.32,62.82],[-42.35,62.86],[-42.26,62.88],[-42.36,62.89],[-42.31,62.95],[-42.46,62.86],[-42.6,62.87],[-42.42,62.83],[-42.48,62.78],[-42.58,62.83],[-42.49,62.7],[-42.6,62.77],[-42.56,62.71],[-42.65,62.68],[-42.71,62.78],[-42.71,62.69],[-43.13,62.77],[-44,62.75],[-47.7,61.03],[-48.16,60.96],[-48.4,60.99],[-47.84,61.04],[-47.93,61.09],[-47.77,61.19],[-48.09,61.09],[-48.12,61.11],[-48.05,61.18],[-48.14,61.13],[-48.22,61.19],[-48.11,61.24],[-48.13,61.28],[-47.91,61.33],[-48.15,61.32],[-48.29,61.18],[-48.22,61.14],[-48.41,61.13],[-48.44,61.16],[-48.3,61.18],[-48.3,61.23],[-48.48,61.18],[-48.54,61.2],[-48.51,61.24],[-48.57,61.21],[-48.5,61.27],[-48.64,61.24],[-48.4,61.3],[-48.51,61.3],[-48.34,61.38],[-48.67,61.4],[-48.65,61.44],[-48.97,61.36],[-48.94,61.4],[-49.07,61.4],[-48.23,61.55],[-48.48,61.53],[-48.34,61.57],[-48.35,61.61],[-48.99,61.46],[-49.11,61.5],[-49.04,61.54],[-49.3,61.56],[-49.24,61.61],[-48.59,61.64],[-49.06,61.62],[-49.07,61.7],[-48.88,61.73],[-48.87,61.79],[-49.15,61.73],[-49.11,61.83],[-48.89,61.95],[-48.75,61.96],[-48.78,61.99],[-48.95,61.98],[-49.17,61.86],[-49.22,61.72],[-49.35,61.77],[-49.18,61.9],[-49.43,61.82],[-49.39,61.92],[-49.33,61.93],[-49.41,61.94],[-48.84,62.07],[-49.02,62.09],[-48.98,62.14],[-49.08,62.08],[-49,62.2],[-49.1,62.18],[-49.17,62.02],[-49.44,61.99],[-49.35,62.01],[-49.42,62.03],[-49.39,62.07],[-49.64,61.99],[-49.69,62.02],[-49.54,62.03],[-49.62,62.06],[-49.46,62.09],[-49.7,62.12],[-49.33,62.08],[-49.43,62.12],[-49.3,62.14],[-49.29,62.18],[-49.37,62.17],[-49.35,62.21],[-49.47,62.15],[-49.68,62.16],[-49.58,62.23],[-49.29,62.27],[-49.57,62.25],[-49.56,62.31],[-49.61,62.25],[-49.89,62.25],[-49.79,62.3],[-49.89,62.29],[-49.91,62.36],[-50.01,62.32],[-50.32,62.51],[-50.21,62.68],[-49.87,62.9],[-50.13,62.78],[-50.2,62.81],[-50.18,62.77],[-50.27,62.71],[-50.32,62.74],[-50.24,62.85],[-50.14,62.94],[-49.7,63.06],[-50.18,62.96],[-50.39,62.79],[-50.36,62.83],[-50.4,62.86],[-50.33,62.93],[-50.15,63.02],[-50.25,63.04],[-50.28,62.98],[-50.47,62.95],[-50.61,62.98],[-50.49,63.01],[-50.61,63.04],[-50.61,63.1],[-50.4,63.19],[-50.06,63.23],[-50.35,63.24],[-50.49,63.18],[-50.59,63.23],[-50.91,63.14],[-50.92,63.19],[-50.78,63.25],[-51,63.16],[-51.05,63.21],[-50.96,63.25],[-51.07,63.25],[-51,63.29],[-51.1,63.33],[-50.28,63.4],[-51.05,63.37],[-51.09,63.38],[-51,63.47],[-51.14,63.38],[-51.17,63.38],[-51.14,63.43],[-51.22,63.44],[-50.74,63.55],[-51.09,63.53],[-51.14,63.61],[-51.06,63.65],[-50.57,63.61],[-50.5,63.67],[-50.89,63.63],[-51.08,63.66],[-51.19,63.63],[-51.13,63.51],[-51.42,63.54],[-51.31,63.63],[-51.54,63.69],[-51.35,63.73],[-51.55,63.71],[-51.53,63.76],[-51.21,63.82],[-50.92,63.94],[-51.46,63.82],[-51.37,63.89],[-51.44,63.96],[-51.36,63.97],[-51.66,64.01],[-51.33,64.01],[-51.39,64.05],[-50.88,64.1],[-50.65,64.17],[-50.43,64.14],[-50.21,64.21],[-50.11,64.19],[-50.07,64.1],[-50.05,64.2],[-50.16,64.24],[-50.55,64.18],[-50.36,64.36],[-50.81,64.18],[-51.44,64.08],[-51.65,64.13],[-51.52,64.17],[-51.35,64.14],[-51.53,64.2],[-51.67,64.15],[-51.77,64.19],[-50.95,64.22],[-50.85,64.26],[-51.05,64.28],[-50.89,64.41],[-50.58,64.38],[-50.7,64.45],[-50.34,64.39],[-50.18,64.45],[-50.62,64.47],[-50.65,64.49],[-50.44,64.56],[-50.64,64.52],[-50.69,64.55],[-50.63,64.59],[-50.92,64.6],[-50.45,64.67],[-50.66,64.69],[-50.48,64.71],[-50.28,64.65],[-50.15,64.49],[-49.59,64.34],[-49.68,64.42],[-50.06,64.53],[-50.12,64.64],[-50,64.7],[-50.22,64.73],[-50,64.86],[-50.2,64.83],[-50.3,64.75],[-50.56,64.77],[-50.68,64.91],[-50.7,65.01],[-50.78,65.02],[-50.84,65.13],[-50.18,65.35],[-44,65.37],[-44,71],[-28.82,71],[-27.91,71.12]]],[[[-26.18,71.49],[-25.73,71.47],[-25.44,71.38],[-25.42,71.28],[-25.51,71.22],[-25.78,71.26],[-25.58,71.19],[-26,71.06],[-26.83,70.94],[-27.51,70.94],[-27.77,71.14],[-26.33,71.35],[-26.18,71.49]]],[[[-22.52,71.91],[-23.14,71.66],[-23.01,71.64],[-22.42,71.8],[-22.65,71.67],[-22.6,71.57],[-22.6,71.61],[-22.39,71.63],[-22.21,71.76],[-22.14,71.72],[-21.89,71.74],[-22.22,71.63],[-22.1,71.61],[-22.15,71.59],[-22.51,71.55],[-22.54,71.47],[-22.45,71.34],[-22.48,71.26],[-22.36,71.27],[-22.31,71.42],[-22.13,71.49],[-21.94,71.46],[-21.89,71.52],[-21.76,71.51],[-21.87,71.45],[-21.67,71.4],[-21.86,71.35],[-21.61,71.33],[-21.96,71.27],[-21.74,71.25],[-21.66,71.19],[-21.71,71.14],[-21.85,71.2],[-21.72,71.12],[-22.33,71.06],[-21.67,71.07],[-21.68,71.02],[-21.99,70.97],[-21.57,70.96],[-21.76,70.87],[-21.7,70.84],[-21.74,70.8],[-21.93,70.81],[-21.64,70.8],[-21.79,70.74],[-21.55,70.71],[-21.76,70.71],[-21.58,70.67],[-21.77,70.59],[-21.48,70.54],[-21.54,70.5],[-21.94,70.39],[-22,70.41],[-21.94,70.47],[-22.02,70.5],[-22.38,70.45],[-22.47,70.67],[-22.43,70.85],[-22.48,70.86],[-22.65,70.72],[-22.57,70.57],[-22.63,70.45],[-23.35,70.44],[-24.07,70.69],[-24.21,70.86],[-24.2,71.01],[-24.57,71.22],[-24.57,71.26],[-24.67,71.27],[-24.64,71.36],[-25.1,71.3],[-25.39,71.45],[-24.87,71.39],[-24.73,71.4],[-24.76,71.47],[-24.58,71.43],[-24.53,71.59],[-24.63,71.63],[-24.48,71.62],[-24.53,71.71],[-24.34,71.85],[-22.89,71.94],[-22.52,71.91]]],[[[-50.83,64.99],[-50.72,64.99],[-50.7,64.9],[-50.77,64.87],[-50.67,64.85],[-50.71,64.79],[-50.64,64.76],[-50.73,64.77],[-51.15,64.62],[-51.22,64.62],[-51.04,64.78],[-51.25,64.76],[-51.42,64.61],[-51.46,64.51],[-51.71,64.37],[-51.66,64.31],[-51.86,64.22],[-52.14,64.22],[-52.12,64.31],[-52.16,64.33],[-52.11,64.39],[-52.19,64.47],[-52.04,64.5],[-52.14,64.55],[-51.73,64.63],[-51.45,64.83],[-51.46,64.88],[-51.05,64.9],[-50.83,64.99]]],[[[-50.81,64.53],[-51.16,64.25],[-51.34,64.25],[-51.16,64.3],[-51.21,64.34],[-51.14,64.38],[-51.18,64.4],[-51.09,64.44],[-51.03,64.55],[-50.81,64.53]]],[[[-51.3,64.38],[-51.52,64.39],[-51.34,64.45],[-51.26,64.56],[-51.09,64.57],[-51.3,64.38]]],[[[-42.04,62.77],[-41.86,62.74],[-42.21,62.73],[-42.03,62.73],[-42.04,62.68],[-42.27,62.73],[-42.39,62.69],[-42.45,62.75],[-42.35,62.81],[-41.99,62.77],[-42.04,62.77]]],[[[-41.15,63.28],[-41.1,63.22],[-41.24,63.29],[-41.22,63.22],[-41.34,63.28],[-41.41,63.23],[-41.86,63.47],[-41.68,63.5],[-41.43,63.4],[-41.45,63.35],[-41.26,63.35],[-41.15,63.28]]],[[[-40.14,64.49],[-40.2,64.43],[-40.49,64.49],[-40.6,64.72],[-40.87,64.9],[-40.72,64.93],[-40.5,64.83],[-40.53,64.81],[-40.44,64.74],[-40.55,64.71],[-40.38,64.62],[-40.48,64.63],[-40.48,64.58],[-40.14,64.49]]],[[[-36.94,65.68],[-36.91,65.65],[-37,65.59],[-37.22,65.69],[-37.08,65.73],[-36.94,65.68]]],[[[-37.45,65.79],[-37.5,65.81],[-37.42,65.73],[-37.5,65.72],[-37.31,65.68],[-37.6,65.6],[-37.6,65.64],[-37.71,65.65],[-37.63,65.6],[-37.74,65.57],[-37.91,65.59],[-37.99,65.7],[-37.95,65.8],[-37.69,65.91],[-37.27,65.76],[-37.45,65.79]]],[[[-23.44,69.74],[-23.3,69.74],[-23.22,69.67],[-23.48,69.66],[-23.59,69.72],[-23.44,69.74]]],[[[-27.72,70.74],[-27.76,70.86],[-27.72,70.89],[-27.24,70.89],[-27.72,70.74]]],[[[-25.32,70.75],[-25.3,70.66],[-25.83,70.6],[-26,70.54],[-26.24,70.59],[-26.58,70.52],[-28.14,70.46],[-28,70.52],[-28.06,70.58],[-27.96,70.63],[-27.65,70.66],[-27.15,70.88],[-26.31,70.94],[-25.7,71.09],[-25.68,71.02],[-25.73,70.99],[-25.4,70.91],[-25.42,70.85],[-25.34,70.81],[-25.48,70.77],[-25.32,70.75]]]]}},{"type":"Feature","properties":{"id":"GRL-UO","nome":"Nationalparken","pais":"GRL","tipo":"Estado","lat":77.06,"lng":-33.46},"geometry":{"type":"MultiPolygon","coordinates":[[[[-27.77,71.14],[-28.82,71],[-44,71],[-44,78],[-57.16,80.04],[-60.28,80.61],[-61.85,81.13],[-61.55,81.07],[-60.89,81.17],[-61.31,81.37],[-60.79,81.51],[-61.02,81.55],[-61.43,81.77],[-60.07,81.95],[-58.84,81.86],[-58.67,81.77],[-58.76,81.74],[-58.68,81.68],[-57.64,81.59],[-57.18,81.48],[-57.28,81.46],[-57.19,81.42],[-56.45,81.34],[-57.07,81.44],[-57.2,81.53],[-57.75,81.65],[-58.14,81.67],[-58.47,81.83],[-58.49,81.88],[-59.47,82],[-58.31,82.13],[-56.47,82.24],[-56.26,82.17],[-55.96,82.27],[-55.27,82.25],[-55.23,82.24],[-55.32,82.2],[-55.11,82.16],[-55.26,82.28],[-55.6,82.28],[-54.44,82.37],[-54.09,82.32],[-53.56,82.12],[-53.62,82.03],[-53.51,81.91],[-53.59,81.81],[-53.82,81.7],[-53.78,81.67],[-53.81,81.59],[-53.47,81.51],[-53.65,81.54],[-53.46,81.56],[-53.54,81.67],[-52.93,81.87],[-53.02,82.01],[-52.96,82.04],[-51.39,81.9],[-50.29,81.72],[-50.2,81.65],[-49.92,81.61],[-49.61,81.65],[-51.07,81.93],[-49.83,81.87],[-49.44,81.93],[-50.58,82.15],[-50.73,82.21],[-50.81,82.34],[-51.11,82.51],[-49.01,82.45],[-48.74,82.36],[-47.61,82.23],[-47.56,82.17],[-46.01,82.04],[-45.95,81.98],[-46.05,81.95],[-45.16,81.79],[-44.66,81.75],[-44.17,81.84],[-44.73,81.94],[-44.46,81.97],[-44.51,81.98],[-44.93,82],[-44.94,82.04],[-44.4,82.11],[-44.79,82.19],[-44.56,82.29],[-44.23,82.32],[-42.3,82.22],[-43.84,82.34],[-43.88,82.37],[-43.73,82.41],[-44.43,82.5],[-45.77,82.77],[-42.05,82.76],[-42.17,82.71],[-41.86,82.66],[-41.8,82.61],[-41.87,82.55],[-41.61,82.48],[-41.56,82.53],[-41.67,82.59],[-41.63,82.65],[-41.9,82.73],[-41.58,82.75],[-40.63,82.58],[-40.23,82.57],[-40.01,82.49],[-40.08,82.43],[-39.93,82.37],[-39.77,82.38],[-39.88,82.47],[-39.76,82.5],[-40.01,82.56],[-39.87,82.62],[-39.95,82.69],[-40.98,82.77],[-44.71,82.86],[-45.06,82.91],[-44.86,82.87],[-45.97,82.84],[-46.89,82.96],[-45.98,82.92],[-46.7,83],[-45.97,83.1],[-45.12,82.99],[-45.11,82.94],[-44.73,82.97],[-43.36,82.92],[-45.12,83.04],[-45.52,83.12],[-45.13,83.17],[-44.72,83.1],[-44.67,83.14],[-44.75,83.15],[-44.65,83.18],[-42.85,83.1],[-44,83.2],[-42.89,83.21],[-43.32,83.24],[-42.67,83.28],[-41.71,83.17],[-41.93,83.09],[-41.67,83.14],[-40.69,82.99],[-39.44,82.96],[-39.01,82.9],[-38.96,82.84],[-38.62,82.75],[-38.48,82.83],[-38.74,82.83],[-38.82,82.92],[-39.15,82.98],[-37.27,83.01],[-38.8,83.06],[-36.88,83.15],[-38.68,83.21],[-38.86,83.26],[-38.7,83.32],[-38.83,83.35],[-38.74,83.39],[-38.87,83.43],[-37.81,83.36],[-37.74,83.37],[-38.06,83.43],[-37.92,83.46],[-37.96,83.48],[-37.92,83.5],[-37.59,83.51],[-36.45,83.36],[-36.4,83.37],[-36.7,83.41],[-36.48,83.43],[-36.54,83.45],[-36.9,83.5],[-36.74,83.54],[-35.24,83.54],[-34.7,83.61],[-34.52,83.54],[-34.36,83.6],[-33.83,83.46],[-33.74,83.49],[-34.09,83.57],[-32.49,83.63],[-32.21,83.61],[-32.3,83.57],[-30.65,83.6],[-29.27,83.53],[-29.15,83.48],[-28.63,83.52],[-28.51,83.49],[-28.93,83.48],[-28.56,83.42],[-28.15,83.43],[-28.45,83.46],[-28.38,83.47],[-25.65,83.3],[-26.08,83.21],[-30.74,83.14],[-32.16,83.06],[-33.44,83.16],[-33.48,83.15],[-32.48,83.04],[-35.62,82.91],[-35.3,82.89],[-35.55,82.77],[-35.47,82.75],[-35.37,82.75],[-35.42,82.78],[-35.26,82.82],[-35.29,82.85],[-34.95,82.9],[-34.02,82.92],[-33.82,82.87],[-33.82,82.82],[-33.93,82.8],[-33.88,82.79],[-33.69,82.83],[-33.74,82.91],[-33.6,82.95],[-31.83,82.99],[-31.67,82.93],[-31.39,83.02],[-30.1,83.13],[-28.14,83.05],[-26.62,83.07],[-25.22,83.17],[-24.84,83.11],[-24.98,83.08],[-24.75,83],[-25.09,82.91],[-25.15,82.85],[-25.9,82.78],[-25.58,82.77],[-23.93,82.92],[-23.84,82.89],[-24.03,82.87],[-23.88,82.8],[-24.03,82.76],[-23.38,82.85],[-22.84,82.76],[-22.57,82.8],[-21.32,82.62],[-21.4,82.56],[-22.31,82.43],[-22.2,82.39],[-22.44,82.34],[-23.89,82.28],[-29.85,82.14],[-31.58,82.22],[-31.63,82.21],[-30.29,82.17],[-29.91,82.1],[-32.56,81.88],[-32.81,81.79],[-32.67,81.68],[-32.15,81.68],[-32.11,81.74],[-31.68,81.83],[-29.79,81.95],[-29.57,81.94],[-29.55,81.89],[-29.04,82],[-27.76,82.06],[-24.62,81.99],[-24.7,81.92],[-24.62,81.84],[-24.71,81.78],[-26.72,81.53],[-26.48,81.51],[-26.51,81.46],[-26.39,81.43],[-25.62,81.56],[-24.43,81.63],[-23.77,81.75],[-23.4,81.72],[-23.31,81.79],[-23.36,81.87],[-23.27,81.92],[-23.31,81.97],[-23.2,82.02],[-21.39,82.08],[-21.06,81.91],[-21.09,81.84],[-21.03,81.74],[-21.26,81.52],[-21.81,81.31],[-22.09,81.27],[-22.1,81.22],[-22.26,81.2],[-22.27,81.15],[-22.56,81.12],[-23.27,80.9],[-23.23,80.82],[-23.5,80.75],[-23.47,80.71],[-23.85,80.64],[-23.9,80.6],[-23.86,80.58],[-23.09,80.73],[-23.1,80.78],[-22.91,80.82],[-22.97,80.88],[-22.75,80.93],[-21.96,81.02],[-21.9,81.08],[-21.36,81.2],[-20.95,81.24],[-20.72,81.3],[-20.69,81.36],[-19.85,81.54],[-20.05,81.59],[-19.71,81.7],[-19.64,81.69],[-19.63,81.63],[-18.98,81.61],[-19.28,81.54],[-19.33,81.46],[-19.5,81.38],[-19.46,81.37],[-18.52,81.51],[-17.86,81.4],[-17.82,81.41],[-17.85,81.47],[-17.55,81.39],[-17.15,81.41],[-17.22,81.48],[-16.81,81.54],[-17.02,81.58],[-16.46,81.63],[-16.54,81.68],[-16.49,81.75],[-15.29,81.84],[-13.92,81.81],[-12.57,81.7],[-12.03,81.64],[-11.68,81.5],[-11.38,81.48],[-11.64,81.39],[-12.17,81.33],[-12.54,81.19],[-13.2,81.09],[-13.35,81.02],[-14.55,80.99],[-14.13,80.89],[-14.29,80.78],[-15.32,80.71],[-15.42,80.65],[-17.06,80.66],[-17.24,80.72],[-17.46,80.72],[-17.46,80.64],[-18.32,80.56],[-19.47,80.67],[-20.22,80.57],[-20.85,80.56],[-20.38,80.54],[-20.35,80.46],[-19.49,80.63],[-18.06,80.49],[-17.31,80.51],[-16.9,80.58],[-16.45,80.48],[-15.76,80.42],[-16.27,80.29],[-16.38,80.33],[-16.4,80.3],[-16.33,80.26],[-16.45,80.22],[-17.87,80.16],[-19.47,80.26],[-19.78,80.15],[-20.17,80.1],[-19.97,80.08],[-20.23,80.02],[-20.08,79.99],[-20.42,79.84],[-20.1,79.82],[-19.97,79.68],[-19.49,79.77],[-19.21,79.71],[-19.39,79.62],[-19.35,79.55],[-19.57,79.39],[-19.47,79.31],[-19.6,79.18],[-19.32,79.29],[-19.28,79.39],[-19.24,79.27],[-18.88,79.23],[-19,79.21],[-18.96,79.15],[-19.17,79.17],[-19.23,79.1],[-19.55,79.11],[-19.88,79.03],[-19.91,78.99],[-19.77,78.9],[-19.88,78.84],[-20.44,78.86],[-20.65,78.83],[-20.57,78.78],[-20.97,78.78],[-20.84,78.72],[-21.21,78.63],[-20.85,78.59],[-21.05,78.5],[-21.3,78.3],[-21.24,78.18],[-21.37,78.14],[-21.32,78.08],[-21.63,78],[-21.56,77.9],[-21.81,77.85],[-21.79,77.81],[-21.97,77.68],[-21.45,77.66],[-21.6,77.55],[-21.56,77.55],[-21.29,77.67],[-21.41,77.71],[-21.37,77.78],[-20.94,77.97],[-19.13,77.68],[-18.98,77.62],[-19.36,77.53],[-20.09,77.7],[-20.82,77.65],[-20.28,77.53],[-20.47,77.52],[-20.47,77.47],[-20.93,77.52],[-20.17,77.4],[-20.5,77.36],[-19.73,77.34],[-19.27,77.19],[-19.06,77.19],[-19.11,77.22],[-19.08,77.32],[-18.54,77.28],[-18.32,77.21],[-18.26,77.1],[-18.27,76.92],[-18.51,76.74],[-18.63,76.78],[-18.63,76.7],[-19.06,76.84],[-20.51,76.95],[-20.79,76.87],[-21.73,76.89],[-20.78,76.84],[-21.29,76.81],[-21.19,76.78],[-21.67,76.68],[-21.62,76.65],[-22.2,76.86],[-22.47,76.84],[-22.31,76.75],[-22.74,76.7],[-22.49,76.65],[-22.51,76.6],[-22.32,76.52],[-22.29,76.53],[-22.34,76.59],[-22.15,76.65],[-21.81,76.59],[-22.09,76.55],[-21.67,76.53],[-22.04,76.47],[-21.7,76.47],[-22.15,76.44],[-22.44,76.5],[-22.35,76.47],[-22.5,76.45],[-22.19,76.41],[-21.59,76.44],[-21.57,76.38],[-21.7,76.26],[-21.65,76.24],[-21.12,76.28],[-20.56,76.15],[-20.66,76.12],[-20.42,76.14],[-21.09,76.29],[-21.02,76.32],[-20.49,76.22],[-19.94,76.26],[-19.67,76.14],[-19.72,76.06],[-20,76.06],[-20.27,75.99],[-21.65,75.97],[-21.92,76.05],[-21.98,75.99],[-19.93,75.93],[-19.35,75.73],[-19.55,75.74],[-19.61,75.68],[-19.4,75.56],[-19.34,75.41],[-19.4,75.25],[-19.59,75.14],[-20,75.19],[-20.05,75.23],[-19.95,75.28],[-20.14,75.34],[-20.71,75.3],[-21.67,75.59],[-22.26,75.67],[-21.41,75.46],[-22.51,75.54],[-21.43,75.43],[-21.31,75.36],[-20.56,75.2],[-20.52,75.14],[-21.18,75.12],[-21.76,74.99],[-21.93,75.08],[-22.41,75.15],[-21.94,75.05],[-22.02,75.02],[-21.77,74.96],[-21.12,75.09],[-20.68,75.07],[-20.63,75.06],[-20.71,74.98],[-20.68,74.9],[-20.76,74.84],[-20.61,74.73],[-20.79,74.67],[-21.12,74.67],[-20.15,74.68],[-19.72,74.59],[-19.4,74.69],[-19.27,74.65],[-19.29,74.58],[-19.39,74.56],[-18.97,74.48],[-19.37,74.27],[-19.63,74.24],[-20.2,74.28],[-20.24,74.38],[-20.37,74.45],[-21.63,74.45],[-22.08,74.6],[-21.77,74.42],[-22.05,74.32],[-22.47,74.31],[-22.07,74.29],[-22.06,74.23],[-22.34,74.16],[-22.21,74.17],[-22.18,74.11],[-22.49,74.08],[-21.99,74],[-22,73.94],[-21.81,73.85],[-21.85,73.77],[-21.83,73.65],[-21.7,73.7],[-21.76,73.87],[-21.92,73.98],[-21.78,74.05],[-20.69,73.89],[-20.28,73.88],[-20.25,73.84],[-20.3,73.79],[-20.52,73.73],[-20.46,73.64],[-20.52,73.56],[-20.38,73.52],[-20.54,73.45],[-21.54,73.49],[-21.62,73.46],[-21.57,73.4],[-22.31,73.25],[-23.45,73.44],[-23.97,73.59],[-24.03,73.7],[-23.52,73.71],[-22.66,73.55],[-22.18,73.63],[-22.8,73.57],[-23.55,73.74],[-23.86,73.74],[-24.06,73.82],[-24.34,73.78],[-24.47,73.66],[-24.38,73.56],[-24.46,73.54],[-24.94,73.61],[-25,73.72],[-25.43,73.82],[-25.52,73.92],[-25.69,73.96],[-25.74,73.93],[-25.55,73.81],[-25.09,73.7],[-25.11,73.64],[-25.06,73.6],[-24.68,73.52],[-25.29,73.47],[-25.5,73.4],[-25.42,73.4],[-25.45,73.35],[-25.97,73.24],[-26.15,73.24],[-26.41,73.34],[-26.83,73.34],[-27.26,73.5],[-27.43,73.46],[-27.13,73.35],[-26.4,73.24],[-26.58,73.22],[-26.71,73.13],[-27.09,73.19],[-27.73,73.13],[-27.4,73.11],[-27.36,73],[-27.53,72.94],[-27.48,72.93],[-27.33,72.97],[-27.31,73.1],[-27.26,73.13],[-26.65,73.1],[-26.44,73.2],[-26,73.2],[-25.05,73.08],[-24.98,73.03],[-25.14,72.94],[-25.74,72.9],[-26.08,72.78],[-26.78,72.87],[-27.39,72.85],[-27.15,72.8],[-26.7,72.83],[-26.4,72.77],[-26.78,72.72],[-26.72,72.7],[-26.31,72.73],[-26.47,72.58],[-26.18,72.73],[-25.88,72.74],[-25.52,72.84],[-24.72,72.69],[-24.72,72.59],[-24.6,72.55],[-25.13,72.44],[-25.91,72.42],[-25.29,72.39],[-25.5,72.23],[-25.46,72.16],[-25.53,72.13],[-25.4,72.15],[-25.38,72.26],[-25.18,72.37],[-24.83,72.44],[-24.55,72.42],[-24.34,72.33],[-23.71,72.22],[-23.82,72.11],[-23.62,72.16],[-23.09,72.06],[-23.2,72.02],[-23.14,72],[-22.52,71.91],[-22.89,71.94],[-24.34,71.85],[-24.53,71.71],[-24.48,71.62],[-24.63,71.63],[-24.53,71.59],[-24.55,71.44],[-24.66,71.42],[-24.76,71.47],[-24.73,71.4],[-24.87,71.39],[-25.44,71.45],[-25.86,71.57],[-26.28,71.57],[-26.4,71.64],[-26.5,71.56],[-26.79,71.55],[-27.93,72.01],[-28.21,72],[-28.59,72.13],[-28.71,72.09],[-28.36,72.01],[-28.49,71.96],[-28.46,71.94],[-27.86,71.91],[-27.8,71.87],[-28.03,71.88],[-27.33,71.72],[-27.41,71.64],[-28.49,71.57],[-27.65,71.61],[-27.12,71.57],[-27.33,71.52],[-27.22,71.48],[-27.03,71.53],[-26.18,71.49],[-26.33,71.35],[-27.77,71.14]]],[[[-53.27,82.17],[-53.35,82.2],[-53.34,82.26],[-53.24,82.3],[-52.79,82.32],[-52.55,82.28],[-52.6,82.27],[-52.47,82.2],[-51.19,82],[-52.11,82],[-53.19,82.11],[-53.27,82.17]]],[[[-44.53,82.41],[-44.43,82.36],[-45.07,82.22],[-44.73,82.1],[-45.04,82.06],[-45.42,82.18],[-46.88,82.36],[-47.18,82.51],[-47.75,82.63],[-46.32,82.68],[-45.21,82.55],[-44.53,82.41]]],[[[-47.85,82.78],[-48.33,82.79],[-48.41,82.85],[-48.29,82.9],[-47.44,82.81],[-47.85,82.78]]],[[[-39.44,83.11],[-39.29,83.09],[-39.67,83],[-40.36,83.08],[-40.55,83.16],[-39.44,83.11]]],[[[-40.1,83.06],[-39.86,82.98],[-40.7,83.03],[-41.49,83.17],[-40.86,83.17],[-40.49,83.08],[-40.1,83.06]]],[[[-38.83,83.17],[-38.64,83.12],[-40.67,83.3],[-40.4,83.34],[-40.54,83.36],[-40.49,83.37],[-38.83,83.17]]],[[[-21.95,72.43],[-22.01,72.39],[-22.26,72.45],[-22.76,72.44],[-22.73,72.38],[-22.33,72.31],[-22.3,72.26],[-22.05,72.27],[-22.2,72.21],[-22.13,72.16],[-22.2,72.13],[-22.52,72.13],[-22.6,72.16],[-22.5,72.21],[-22.68,72.17],[-23.07,72.31],[-23.95,72.47],[-24.06,72.45],[-24.03,72.52],[-24.37,72.6],[-24.49,72.83],[-23.93,72.88],[-23.14,72.84],[-22.72,72.63],[-22.48,72.63],[-22.15,72.53],[-22.2,72.48],[-21.99,72.5],[-21.95,72.43]]],[[[-24.8,72.92],[-24.88,72.87],[-24.9,72.78],[-25.32,72.85],[-24.8,72.92]]],[[[-21.93,72.74],[-21.87,72.71],[-22.65,72.7],[-22.72,72.72],[-22.61,72.74],[-22.82,72.82],[-23.16,72.88],[-24.53,72.9],[-24.59,72.95],[-24.54,72.99],[-23.24,73.08],[-21.97,72.94],[-21.89,72.9],[-22.19,72.81],[-21.93,72.74]]],[[[-24.52,73.05],[-25.43,73.12],[-25.71,73.19],[-25.31,73.32],[-25.24,73.41],[-24.46,73.43],[-23.21,73.23],[-25.01,73.31],[-22.89,73.16],[-22.98,73.11],[-24.52,73.05]]],[[[-20.35,74.25],[-20.13,74.19],[-21.27,74.09],[-21.99,74.25],[-21.84,74.35],[-21.25,74.46],[-20.53,74.41],[-20.35,74.25]]],[[[-18.74,74.63],[-18.74,74.57],[-18.82,74.55],[-19.17,74.55],[-19.22,74.59],[-18.9,74.68],[-18.74,74.63]]],[[[-19.81,74.89],[-19.73,74.87],[-20.14,74.7],[-20.68,74.82],[-20.55,74.91],[-20.6,75],[-20.34,75.05],[-19.96,75],[-20.18,74.9],[-19.81,74.89]]],[[[-17.32,75.14],[-17.4,75.08],[-17.36,75.03],[-17.62,74.94],[-17.61,75],[-17.88,75.04],[-18.89,75],[-18.93,75.08],[-18.83,75.16],[-18.89,75.19],[-18.84,75.26],[-18.95,75.33],[-18.54,75.38],[-18.32,75.3],[-18.16,75.32],[-18.05,75.42],[-17.8,75.31],[-18.21,75.22],[-18.02,75.23],[-18.02,75.16],[-17.81,75.09],[-17.6,75.1],[-17.59,75.15],[-17.32,75.14]]],[[[-18.55,76.05],[-18.55,75.94],[-18.65,75.9],[-18.64,75.98],[-19.11,76.47],[-19.1,76.58],[-18.76,76.59],[-18.98,76.62],[-19.07,76.73],[-18.95,76.76],[-18.67,76.66],[-18.71,76.38],[-18.61,76.23],[-18.65,76.16],[-18.55,76.05]]],[[[-18.01,77.64],[-18.27,77.66],[-17.89,77.87],[-17.7,77.88],[-17.62,77.81],[-17.81,77.66],[-18.01,77.64]]],[[[-19.32,77.88],[-19.24,77.83],[-20.49,77.96],[-20,78],[-19.75,77.89],[-19.32,77.88]]],[[[-19.17,78],[-19.11,78.06],[-19.32,78.14],[-19.15,78.11],[-18.86,78.14],[-18.93,78.09],[-18.89,78.04],[-19.11,77.93],[-19.2,77.93],[-19.17,78]]],[[[-20.38,78.14],[-20.81,78.17],[-20.47,78.25],[-20.35,78.18],[-20.38,78.14]]],[[[-19.45,78.2],[-19.65,78.26],[-19.65,78.35],[-19.47,78.31],[-19.35,78.21],[-19.45,78.2]]],[[[-18.92,78.44],[-18.91,78.34],[-19.06,78.31],[-18.89,78.21],[-19.27,78.23],[-19.29,78.37],[-18.94,78.48],[-18.92,78.44]]],[[[-19.12,78.71],[-19.4,78.71],[-19.61,78.77],[-19.05,78.92],[-19.17,78.9],[-19.02,78.87],[-19.21,78.79],[-19.04,78.78],[-19.28,78.77],[-19.02,78.75],[-19.12,78.71]]],[[[-17.53,79.03],[-17.96,78.96],[-17.9,78.97],[-17.96,79.01],[-17.92,79.06],[-17.61,79.19],[-17.41,79.12],[-17.45,79.05],[-17.53,79.03]]],[[[-18.76,79.97],[-17.74,80.09],[-17.26,80],[-17.84,79.74],[-18.17,79.69],[-18.49,79.69],[-19.41,79.85],[-18.92,79.93],[-19,80.01],[-18.83,80.03],[-18.76,79.97]]],[[[-19.52,80.03],[-19.7,80.06],[-19.59,80.16],[-19.35,80.21],[-18.7,80.13],[-19.52,80.03]]],[[[-17.73,81.6],[-18.28,81.72],[-17.79,81.75],[-17.34,81.61],[-17.73,81.6]]],[[[-19.46,81.95],[-19.63,82.01],[-19.66,82.09],[-19.26,82.09],[-18.63,81.82],[-19.05,81.83],[-19.46,81.95]]]]}},{"type":"Feature","properties":{"id":"GRL-QA","nome":"Qaasuitsup Kommunia","pais":"GRL","tipo":"Estado","lat":74.56,"lng":-49.33},"geometry":{"type":"MultiPolygon","coordinates":[[[[-67.99,76.6],[-68.1,76.66],[-67.99,76.68],[-68.08,76.71],[-69.24,76.68],[-70.1,76.8],[-69.54,77.01],[-69.76,77.01],[-70.52,76.79],[-70.99,76.9],[-70.68,76.94],[-71.1,76.93],[-71.38,77.02],[-71.19,77.14],[-70.7,77.15],[-70.9,77.19],[-69.73,77.24],[-66.36,77.12],[-66.45,77.14],[-66.17,77.2],[-66.64,77.15],[-69.1,77.27],[-68.37,77.38],[-67.44,77.38],[-66.77,77.36],[-66.23,77.25],[-66.5,77.31],[-66.66,77.42],[-66.13,77.43],[-66.05,77.49],[-66.23,77.55],[-66.16,77.57],[-66.3,77.58],[-66.24,77.6],[-66.28,77.62],[-66.72,77.68],[-66.66,77.72],[-67.14,77.67],[-67.25,77.57],[-67.59,77.52],[-68.36,77.5],[-68.37,77.57],[-68.73,77.67],[-68.81,77.66],[-68.61,77.56],[-68.61,77.52],[-69.22,77.45],[-70.29,77.58],[-69.52,77.69],[-69.51,77.76],[-70.07,77.67],[-70.68,77.68],[-70.21,77.83],[-69.97,77.84],[-70.41,77.86],[-70.68,77.78],[-71.31,77.77],[-71.44,77.8],[-71.21,77.87],[-71.52,77.86],[-71.63,77.86],[-71.62,77.93],[-71.91,77.89],[-72.24,77.94],[-72.35,78.01],[-72.3,78.06],[-73.06,78.16],[-72.73,78.19],[-72.82,78.23],[-72.66,78.29],[-72.46,78.29],[-72.85,78.32],[-72.6,78.4],[-72.67,78.44],[-72.59,78.47],[-72.64,78.5],[-72.59,78.52],[-71.94,78.56],[-71.55,78.64],[-70.8,78.6],[-70.8,78.68],[-70.75,78.7],[-69.99,78.75],[-70.02,78.78],[-69.91,78.8],[-69.36,78.8],[-69.15,78.88],[-68.78,78.84],[-69.17,78.93],[-69.03,78.98],[-68.04,79.08],[-67.76,79.04],[-67.67,79.06],[-67.75,79.08],[-67.71,79.09],[-67.48,79.11],[-67.51,79.14],[-66.12,79.1],[-65.79,79.14],[-65.91,79.15],[-65.43,79.33],[-65.15,79.38],[-65.05,79.46],[-64.83,79.53],[-64.84,79.61],[-65.01,79.66],[-64.91,79.71],[-65.03,79.75],[-64.94,79.78],[-65.13,79.85],[-65,79.86],[-65.05,79.9],[-64.95,79.96],[-65.04,80.02],[-63.78,80.15],[-64.16,80.16],[-64.22,80.26],[-64.47,80.11],[-64.93,80.07],[-65.31,80.1],[-65.86,80.01],[-66.43,80.12],[-67.05,80.06],[-67.12,80.13],[-67.08,80.15],[-67.51,80.21],[-67.44,80.24],[-67.52,80.27],[-67.45,80.31],[-67.49,80.32],[-66.79,80.46],[-66.7,80.52],[-66.79,80.53],[-66.76,80.55],[-66.14,80.61],[-66.05,80.67],[-65.53,80.66],[-65.71,80.7],[-65.08,80.79],[-64.98,80.85],[-65.02,80.89],[-64.71,80.94],[-64.79,80.99],[-63.93,81.06],[-63.66,81.15],[-63.51,81.13],[-63.31,80.95],[-62.78,80.76],[-62.74,80.78],[-63.18,80.95],[-63.37,81.16],[-62.98,81.23],[-62.2,81.2],[-61.85,81.13],[-60.28,80.61],[-57.16,80.04],[-44,78],[-44,67.55],[-50.55,67.51],[-50.87,67.6],[-50.28,67.74],[-49.94,67.7],[-50.29,67.75],[-51.01,67.63],[-50.9,67.66],[-51.32,67.71],[-50.26,67.84],[-50.78,67.91],[-50.89,67.86],[-50.65,67.85],[-51.17,67.76],[-51.37,67.89],[-50.98,67.89],[-51.04,67.98],[-51.57,67.93],[-51.33,67.82],[-51.47,67.73],[-51.6,67.75],[-51.77,67.7],[-51.85,67.74],[-51.63,67.78],[-52.23,67.77],[-52.34,67.82],[-51.61,67.98],[-53,67.76],[-53.33,67.6],[-53.68,67.5],[-53.75,67.6],[-53.56,67.65],[-53.7,67.65],[-53.54,67.72],[-53.69,67.81],[-53.48,67.86],[-53.51,67.81],[-53.28,67.81],[-53.25,67.82],[-53.49,67.88],[-53.18,67.84],[-53.29,67.86],[-53.05,67.89],[-53.31,67.91],[-53.19,67.93],[-53.25,67.96],[-52.89,67.98],[-53.26,68.02],[-53.04,68.06],[-52.62,67.95],[-52.21,67.93],[-52.06,67.98],[-52.75,67.99],[-53.16,68.13],[-53.08,68.16],[-53.11,68.18],[-53.28,68.13],[-53.27,68.17],[-53.46,68.15],[-53.31,68.19],[-53.11,68.2],[-52.45,68.07],[-52.39,68.08],[-52.8,68.18],[-52.55,68.19],[-51.93,68.05],[-51.22,68.07],[-50.57,67.91],[-50.15,67.95],[-50.56,67.97],[-50.55,68],[-51.05,68.09],[-50.94,68.13],[-51.1,68.11],[-51.44,68.2],[-50.96,68.19],[-51.38,68.26],[-51.16,68.29],[-51.12,68.35],[-51.17,68.41],[-50.77,68.5],[-50.85,68.51],[-51.23,68.42],[-51.65,68.41],[-51.31,68.37],[-51.22,68.3],[-52.45,68.18],[-52.5,68.19],[-52.44,68.23],[-52.56,68.26],[-52.51,68.29],[-52.8,68.28],[-52.63,68.24],[-52.71,68.22],[-52.94,68.26],[-52.59,68.35],[-53.34,68.27],[-53.39,68.33],[-53.09,68.32],[-52.39,68.51],[-52.62,68.53],[-51.88,68.59],[-51.81,68.58],[-51.96,68.54],[-51.15,68.56],[-51.04,68.58],[-51.01,68.64],[-51.07,68.7],[-50.86,68.62],[-50.89,68.65],[-50.81,68.68],[-50.93,68.67],[-50.99,68.74],[-50.65,68.83],[-50.79,68.84],[-51.11,68.74],[-51.29,68.75],[-51.18,68.81],[-51.22,68.85],[-50.96,68.93],[-51.19,68.89],[-51.09,68.95],[-51.14,69.04],[-51.08,69.05],[-51.12,69.1],[-51.08,69.13],[-50.75,69.12],[-50.99,69.04],[-50.63,69.07],[-50.53,69.03],[-50.52,68.95],[-50.38,68.91],[-50.32,68.92],[-50.49,69.01],[-50.35,69],[-50.3,69.07],[-50.25,69.04],[-50.3,68.99],[-50.22,68.96],[-50.17,69.03],[-50.22,69.07],[-50.69,69.13],[-50.3,69.12],[-50.14,69.18],[-50.17,69.23],[-50.47,69.21],[-50.47,69.3],[-50.37,69.34],[-50.6,69.28],[-50.54,69.26],[-50.59,69.22],[-50.91,69.17],[-51.12,69.21],[-50.87,69.28],[-50.99,69.33],[-50.83,69.35],[-50.89,69.39],[-50.87,69.46],[-50.69,69.49],[-50.48,69.45],[-50.52,69.49],[-50.2,69.52],[-50.88,69.51],[-50.8,69.56],[-50.85,69.63],[-50.78,69.65],[-50.41,69.61],[-50.44,69.65],[-50.79,69.67],[-50.8,69.72],[-50.59,69.79],[-50.19,69.76],[-50.32,69.83],[-50.33,69.89],[-50.59,69.93],[-50.56,69.97],[-50.3,69.99],[-50.21,70.02],[-50.24,70.04],[-50.47,70.06],[-50.94,69.96],[-51.26,69.96],[-51.09,70.04],[-50.86,70.02],[-51.22,70.07],[-51.44,69.97],[-51.57,69.98],[-51.55,70.03],[-52.32,70.05],[-52.61,70.22],[-53.23,70.35],[-54.02,70.41],[-54.33,70.57],[-54.63,70.65],[-54.56,70.73],[-54.16,70.83],[-53.43,70.75],[-52.79,70.76],[-51.55,70.43],[-50.66,70.33],[-50.53,70.36],[-50.68,70.4],[-50.5,70.5],[-50.53,70.54],[-50.77,70.42],[-50.99,70.42],[-51.09,70.47],[-50.94,70.47],[-51.35,70.57],[-51.19,70.63],[-50.89,70.51],[-50.91,70.57],[-50.74,70.54],[-50.97,70.64],[-50.62,70.62],[-50.65,70.65],[-51.1,70.66],[-51.08,70.76],[-51.21,70.69],[-51.45,70.73],[-51.25,70.81],[-50.82,70.72],[-50.63,70.74],[-50.91,70.82],[-50.85,70.87],[-51.12,70.84],[-51.96,71.02],[-51.83,71.07],[-51.21,70.96],[-51,70.97],[-50.92,71.02],[-51.48,71.07],[-51.29,71.08],[-51.4,71.11],[-51.22,71.15],[-52.24,71.13],[-51.9,71.25],[-51.53,71.27],[-51.69,71.35],[-51.64,71.37],[-52.42,71.15],[-52.56,71.18],[-52.26,71.27],[-52.26,71.37],[-51.88,71.44],[-51.42,71.44],[-51.36,71.49],[-51.68,71.51],[-52.43,71.37],[-52.99,71.42],[-52.7,71.53],[-51.78,71.6],[-51.66,71.73],[-52.17,71.61],[-52.57,71.64],[-52.58,71.7],[-53.27,71.71],[-52.9,71.84],[-52.85,71.87],[-52.91,71.91],[-52.68,72.01],[-53.02,71.93],[-52.98,71.85],[-53.36,71.78],[-53.32,71.86],[-53.41,71.96],[-53.4,72.04],[-53.7,72.13],[-53.85,72.33],[-53.55,72.36],[-53.87,72.36],[-53.96,72.33],[-53.84,72.25],[-53.84,72.16],[-53.57,72.04],[-53.4,71.85],[-53.64,71.75],[-53.92,71.74],[-53.77,71.72],[-53.72,71.67],[-53.77,71.64],[-54.1,71.71],[-54.05,71.67],[-54.1,71.63],[-53.85,71.55],[-53.91,71.45],[-54.63,71.35],[-54.82,71.36],[-55.24,71.5],[-55.12,71.39],[-55.51,71.45],[-55.68,71.63],[-55.57,71.64],[-55.9,71.68],[-55.46,71.8],[-55.26,71.78],[-55.37,71.83],[-55.33,71.88],[-54.85,71.91],[-54.56,72.03],[-54.38,72.22],[-54.53,72.18],[-54.64,72.02],[-54.92,71.93],[-55.27,71.93],[-55.61,71.99],[-55.28,72.07],[-55.41,72.09],[-54.88,72.25],[-54.95,72.28],[-54.9,72.33],[-54.95,72.36],[-54.68,72.37],[-54.97,72.41],[-54.88,72.43],[-55.22,72.36],[-55.29,72.37],[-55.25,72.4],[-55.32,72.47],[-55.34,72.41],[-55.48,72.4],[-55.65,72.45],[-55.46,72.53],[-54.89,72.47],[-54.29,72.48],[-54.7,72.5],[-54.8,72.55],[-55.01,72.52],[-54.91,72.61],[-54.64,72.62],[-54.88,72.68],[-54.59,72.7],[-54.75,72.74],[-54.53,72.78],[-54.92,72.79],[-54.6,72.83],[-54.85,72.97],[-54.78,73],[-55.03,73],[-55.02,73.07],[-55.17,73.01],[-55.7,73.07],[-55.66,73.12],[-55.47,73.11],[-55.34,73.18],[-55.43,73.2],[-55.14,73.19],[-55.21,73.24],[-55.46,73.27],[-55.25,73.39],[-55.09,73.37],[-55.52,73.47],[-55.67,73.59],[-55.77,73.58],[-55.77,73.63],[-56.07,73.65],[-55.84,73.68],[-56.04,73.69],[-55.91,73.72],[-55.96,73.77],[-55.61,73.72],[-55.75,73.72],[-55.95,73.86],[-55.64,73.88],[-56.08,73.96],[-56.12,74.01],[-55.97,74.03],[-56.41,74.07],[-56.2,74.12],[-56.32,74.12],[-56.17,74.19],[-56.12,74.28],[-56.56,74.16],[-57.31,74.1],[-57.09,74.14],[-57.16,74.18],[-56.7,74.2],[-56.3,74.31],[-56.58,74.29],[-56.53,74.32],[-56.71,74.35],[-56.13,74.39],[-56.8,74.45],[-56.14,74.49],[-56.26,74.51],[-56.22,74.56],[-56.6,74.61],[-56.47,74.65],[-56.7,74.64],[-56.88,74.71],[-56.99,74.67],[-57.08,74.71],[-57.05,74.75],[-57.16,74.74],[-57.13,74.77],[-57.19,74.77],[-57.11,74.8],[-56.99,74.77],[-56.8,74.81],[-56.99,74.85],[-57.06,74.92],[-57.29,74.91],[-57.69,75.02],[-58.14,75.05],[-58.08,75.09],[-58.13,75.11],[-57.92,75.16],[-58.24,75.21],[-58.44,75.31],[-58.3,75.33],[-58.36,75.36],[-58.25,75.4],[-58.7,75.35],[-58.21,75.44],[-58.19,75.53],[-58.43,75.57],[-58.31,75.64],[-58.59,75.68],[-58.41,75.72],[-59.04,75.7],[-59.1,75.78],[-59.28,75.77],[-59.22,75.8],[-59.3,75.81],[-59.14,75.84],[-59.27,75.88],[-59.77,75.8],[-59.8,75.84],[-59.59,75.92],[-59.76,75.97],[-59.99,75.93],[-59.99,75.97],[-60.14,75.99],[-60.09,76.01],[-60.12,76.03],[-60.5,76.07],[-60.75,76],[-60.83,76.03],[-60.82,76.08],[-60.91,76.08],[-60.83,76.14],[-60.92,76.17],[-62.17,76.22],[-62.15,76.26],[-62.27,76.29],[-62.38,76.24],[-62.74,76.26],[-62.78,76.24],[-62.73,76.21],[-62.79,76.2],[-62.85,76.3],[-63.37,76.38],[-63.5,76.37],[-63.73,76.18],[-64.03,76.14],[-64.19,76.21],[-64.22,76.29],[-64.17,76.32],[-64.43,76.35],[-64.38,76.26],[-64.69,76.25],[-64.57,76.18],[-64.68,76.16],[-64.59,76.14],[-65.02,76.18],[-64.99,76.11],[-65.34,76.18],[-65.3,76.08],[-65.35,76.03],[-65.89,76.1],[-65.69,76.2],[-65.77,76.21],[-65.55,76.24],[-65.74,76.28],[-66.21,76.28],[-66.22,76.23],[-66.41,76.15],[-66.37,76.11],[-66.41,76.09],[-66.76,76.18],[-66.67,76.22],[-66.93,76.27],[-67.1,76.26],[-67.16,76.23],[-67.11,76.2],[-67.31,76.16],[-67.06,76.14],[-67.03,76.06],[-66.45,75.92],[-66.49,75.91],[-68.43,76.08],[-68.57,76.12],[-68.44,76.14],[-68.47,76.16],[-68.79,76.17],[-68.75,76.18],[-69.64,76.38],[-69.58,76.44],[-69.08,76.5],[-68.55,76.3],[-68.19,76.3],[-68.19,76.52],[-67.64,76.52],[-67.64,76.6],[-67.99,76.6]]],[[[-53.1,68.45],[-52.97,68.44],[-53.05,68.48],[-52.99,68.5],[-52.85,68.42],[-53.09,68.36],[-53.23,68.43],[-53.1,68.45]]],[[[-51.96,68.64],[-51.81,68.63],[-52.11,68.56],[-52.42,68.59],[-52.18,68.65],[-52.03,68.63],[-52.11,68.6],[-52.07,68.58],[-51.96,68.64]]],[[[-52.35,68.64],[-53.12,68.57],[-53.03,68.64],[-52.65,68.72],[-52.13,68.71],[-52.35,68.64]]],[[[-51.22,69.91],[-50.8,69.9],[-50.66,69.84],[-50.96,69.73],[-50.95,69.56],[-51.17,69.51],[-51.38,69.71],[-51,69.89],[-51.36,69.85],[-51.18,69.91],[-51.22,69.91]]],[[[-52.9,69.35],[-53.55,69.24],[-53.84,69.27],[-54.27,69.4],[-54.22,69.45],[-53.4,69.44],[-53.58,69.48],[-53.47,69.57],[-53.35,69.59],[-53.56,69.57],[-53.66,69.49],[-53.82,69.46],[-53.86,69.47],[-53.73,69.52],[-54,69.5],[-53.88,69.56],[-53.93,69.6],[-54.13,69.55],[-54.74,69.59],[-54.99,69.7],[-54.68,69.76],[-54.39,69.68],[-54.91,69.82],[-54.93,69.87],[-54.79,69.88],[-54.86,69.94],[-54.77,69.97],[-54.22,69.92],[-54.83,70.09],[-54.84,70.17],[-54.76,70.25],[-54.33,70.32],[-53.27,70.2],[-52.73,69.93],[-52,69.81],[-51.91,69.74],[-52.03,69.67],[-51.84,69.64],[-52.14,69.48],[-52.9,69.35]]],[[[-51.82,70.94],[-51.57,70.88],[-51.67,70.85],[-52.16,70.89],[-52.06,70.98],[-51.82,70.94]]],[[[-53.9,71.08],[-53.98,71.15],[-53.61,71.32],[-53.38,71.14],[-53.51,71.04],[-53.9,71.08]]],[[[-52.48,71.26],[-52.66,71.17],[-52.96,71.15],[-53.12,71.21],[-53.18,71.33],[-52.97,71.39],[-52.41,71.35],[-52.33,71.3],[-52.48,71.26]]],[[[-53.29,71.54],[-53.44,71.56],[-53.48,71.66],[-52.76,71.66],[-53.11,71.54],[-53.29,71.54]]],[[[-55.69,71.92],[-55.41,71.89],[-55.56,71.82],[-55.81,71.88],[-55.69,71.92]]],[[[-55.05,72.32],[-55.38,72.17],[-55.68,72.19],[-55.43,72.27],[-55.62,72.3],[-55.42,72.29],[-55.01,72.38],[-55.05,72.32]]],[[[-55.8,72.69],[-55.9,72.72],[-55.94,72.7],[-55.9,72.66],[-56.06,72.66],[-56.23,72.71],[-55.64,72.78],[-55.8,72.69]]],[[[-55.74,72.61],[-55.85,72.61],[-55.64,72.69],[-55.61,72.76],[-55.11,72.81],[-55.2,72.85],[-54.97,72.81],[-55.28,72.69],[-55.37,72.59],[-55.43,72.62],[-55.54,72.56],[-55.59,72.59],[-55.48,72.61],[-55.65,72.65],[-55.74,72.61]]],[[[-55.61,73.04],[-55.07,72.96],[-55.3,72.92],[-55.36,73],[-55.5,72.95],[-55.69,73],[-55.61,73.04]]],[[[-56.13,73.83],[-56.32,73.79],[-56.34,73.84],[-56.66,73.82],[-56.66,73.88],[-56.77,73.88],[-56.62,73.92],[-55.95,73.83],[-56.13,73.83]]],[[[-56.52,74.49],[-57.56,74.5],[-56.71,74.56],[-56.47,74.51],[-56.52,74.49]]],[[[-71.58,77.39],[-71.34,77.38],[-71.7,77.32],[-72.13,77.32],[-72.1,77.34],[-72.58,77.41],[-72.23,77.46],[-71.58,77.39]]],[[[-70.36,77.42],[-70.06,77.4],[-71.08,77.38],[-71.3,77.45],[-70.9,77.47],[-70.36,77.42]]]]}},{"type":"Feature","properties":{"id":"GRL-UO2","nome":"Pituffik","pais":"GRL","tipo":"Estado","lat":76.44,"lng":-68.36},"geometry":{"type":"Polygon","coordinates":[[[-69.08,76.5],[-68.73,76.59],[-67.64,76.6],[-67.64,76.52],[-68.19,76.52],[-68.19,76.3],[-68.55,76.3],[-69.08,76.5]]]}},{"type":"Feature","properties":{"id":"GRL-QE","nome":"Qeqqata Kommunia","pais":"GRL","tipo":"Estado","lat":66.55,"lng":-47.38},"geometry":{"type":"MultiPolygon","coordinates":[[[[-52.02,64.59],[-52.14,64.58],[-52.16,64.63],[-52.05,64.63],[-52.12,64.65],[-52.13,64.71],[-51.98,64.74],[-51.87,64.82],[-51.53,64.87],[-51.24,65.02],[-51.42,65.01],[-51.39,64.99],[-51.7,64.89],[-51.65,64.97],[-51.55,64.99],[-51.69,65.03],[-51.84,64.91],[-51.76,64.86],[-51.84,64.89],[-51.94,64.82],[-52.11,64.8],[-51.94,64.88],[-52.06,64.92],[-52.04,64.88],[-52.18,64.8],[-52.22,64.82],[-52.16,64.86],[-52.22,64.91],[-52.01,64.98],[-52.16,65],[-52.27,65.1],[-52.1,65.12],[-52.2,65.18],[-52,65.32],[-52.28,65.2],[-52.31,65.22],[-52.2,65.32],[-52.32,65.29],[-52.33,65.34],[-52.44,65.21],[-52.53,65.19],[-52.44,65.28],[-52.55,65.34],[-51.72,65.59],[-51.9,65.62],[-51.49,65.74],[-50.98,65.77],[-50.74,65.68],[-50.53,65.69],[-50.77,65.7],[-50.66,65.73],[-50.94,65.78],[-51.44,65.77],[-51.99,65.67],[-51.93,65.56],[-52.49,65.39],[-52.55,65.43],[-52.44,65.52],[-52.61,65.49],[-52.47,65.67],[-52.7,65.5],[-52.8,65.55],[-52.66,65.62],[-52.78,65.61],[-52.55,65.68],[-52.77,65.64],[-52.64,65.71],[-52.69,65.72],[-52.69,65.81],[-52.82,65.67],[-53.24,65.69],[-52.88,65.81],[-53.26,65.75],[-52.69,65.94],[-52.3,65.84],[-52.22,65.88],[-52.26,65.9],[-52.24,65.94],[-51.98,66],[-51.74,65.93],[-51.86,66.02],[-51.73,66.08],[-52.21,65.99],[-52.3,65.91],[-52.53,65.91],[-52.59,65.96],[-52.52,65.99],[-52.58,66.01],[-52.71,65.96],[-52.8,65.99],[-52.78,65.95],[-53.18,65.86],[-53.23,65.87],[-53.14,65.89],[-53.27,65.92],[-52.87,66.02],[-53.36,65.93],[-53.47,65.98],[-53.11,66.02],[-53.46,66.04],[-52.74,66.26],[-52.7,66.32],[-52.36,66.44],[-51.98,66.49],[-52.03,66.54],[-51.87,66.64],[-51.45,66.71],[-51.52,66.74],[-51.28,66.84],[-51.1,66.84],[-51.15,66.86],[-51.12,66.88],[-50.89,66.83],[-50.33,66.84],[-50.78,66.85],[-51.01,66.91],[-50.96,66.94],[-50.68,67.01],[-50,66.98],[-50.63,67.02],[-50.28,67.07],[-50.32,67.08],[-51.17,66.93],[-51.97,66.66],[-52.14,66.52],[-52.72,66.35],[-53.01,66.2],[-53.35,66.11],[-53.65,66.12],[-53.49,66.15],[-53.66,66.14],[-53.53,66.23],[-53.12,66.29],[-53.63,66.25],[-53.7,66.36],[-53.5,66.47],[-53.64,66.42],[-53.59,66.48],[-53.62,66.51],[-52.42,66.54],[-53.23,66.55],[-53.41,66.57],[-53.33,66.62],[-53.49,66.61],[-53.46,66.64],[-53.26,66.7],[-52.58,66.71],[-53.2,66.75],[-52.65,66.8],[-52.86,66.82],[-53.11,66.77],[-53,66.86],[-52.23,66.84],[-52.46,66.88],[-52.29,66.9],[-52.5,66.92],[-52.45,66.98],[-52.8,66.89],[-53.65,66.91],[-53.83,66.98],[-53.22,66.99],[-53.63,67],[-53.83,67.06],[-53.4,67.11],[-53.96,67.08],[-53.84,67.18],[-52.19,67.37],[-51.55,67.33],[-51.18,67.12],[-50.35,67.19],[-50.52,67.23],[-51.18,67.15],[-51.52,67.35],[-51.11,67.43],[-51.97,67.36],[-52.15,67.41],[-53.11,67.28],[-53.23,67.3],[-53.19,67.34],[-53.81,67.21],[-53.77,67.23],[-53.88,67.26],[-53.81,67.42],[-52.91,67.69],[-53.11,67.66],[-53.05,67.7],[-52.6,67.72],[-52.53,67.74],[-52.83,67.74],[-52.55,67.77],[-52.06,67.72],[-51.86,67.64],[-51.35,67.68],[-50.69,67.49],[-50.2,67.47],[-49.41,67.55],[-44,67.55],[-44,65.37],[-50.1,65.36],[-50.88,65.15],[-50.98,65.22],[-50.85,64.97],[-51.05,64.9],[-51.46,64.88],[-51.45,64.83],[-51.73,64.63],[-52.02,64.59]]],[[[-52.94,65.66],[-52.85,65.62],[-53.04,65.54],[-53.23,65.6],[-52.94,65.66]]]]}},{"type":"Feature","properties":{"id":"GRL-KU","nome":"Kommune Kujalleq","pais":"GRL","tipo":"Estado","lat":61.55,"lng":-44.3},"geometry":{"type":"MultiPolygon","coordinates":[[[[-43.15,62.76],[-43.12,62.7],[-42.73,62.64],[-42.68,62.59],[-42.61,62.63],[-42.38,62.57],[-42.35,62.47],[-42.56,62.54],[-42.48,62.48],[-42.56,62.48],[-42.16,62.39],[-42.34,62.38],[-42.97,62.52],[-42.98,62.48],[-42.76,62.43],[-42.61,62.34],[-42.26,62.31],[-42.33,62.27],[-42.26,62.23],[-42.31,62.1],[-42.52,62.04],[-42.42,62.01],[-42.55,61.95],[-42.33,62.02],[-42.12,62.01],[-42.21,61.92],[-42.42,61.92],[-42.19,61.87],[-42.34,61.76],[-42.59,61.74],[-42.77,61.82],[-42.87,61.77],[-42.77,61.79],[-42.59,61.7],[-42.25,61.71],[-42.39,61.68],[-42.33,61.62],[-42.45,61.64],[-42.38,61.61],[-42.47,61.62],[-42.44,61.56],[-43.08,61.6],[-42.93,61.53],[-42.53,61.53],[-42.51,61.44],[-42.43,61.44],[-42.42,61.4],[-42.69,61.31],[-42.63,61.29],[-43.25,61.34],[-42.78,61.28],[-42.91,61.25],[-42.66,61.26],[-42.58,61.2],[-43.18,61.21],[-42.63,61.1],[-43.61,61.13],[-42.71,61.06],[-42.77,61.04],[-42.66,61],[-42.81,61.01],[-42.8,60.95],[-42.73,60.93],[-43.03,60.88],[-43.48,60.94],[-42.8,60.8],[-43.53,60.84],[-42.77,60.73],[-42.93,60.65],[-43.28,60.68],[-43.24,60.66],[-42.91,60.62],[-42.75,60.69],[-42.83,60.61],[-43.14,60.61],[-42.83,60.58],[-43.14,60.55],[-43.04,60.51],[-43.3,60.56],[-43.14,60.48],[-43.23,60.47],[-43.54,60.54],[-43.69,60.72],[-43.62,60.56],[-44.08,60.59],[-44.17,60.65],[-44.2,60.6],[-43.85,60.54],[-43.8,60.44],[-43.73,60.53],[-43.32,60.45],[-43.59,60.31],[-43.18,60.4],[-43.21,60.39],[-43.17,60.36],[-43.36,60.38],[-43.1,60.31],[-43.18,60.28],[-43.1,60.24],[-43.33,60.22],[-43.12,60.2],[-43.17,60.19],[-43.11,60.16],[-43.21,60.14],[-43.12,60.13],[-43.09,60.1],[-43.13,60.08],[-43.59,60.14],[-43.62,60.19],[-43.66,60.15],[-44.17,60.17],[-43.99,60.31],[-44.1,60.39],[-44.1,60.28],[-44.16,60.25],[-44.27,60.33],[-44.22,60.23],[-44.32,60.24],[-44.26,60.19],[-44.46,60.15],[-44.59,59.99],[-44.67,60.02],[-44.67,60.11],[-44.71,60.01],[-44.8,60.02],[-44.89,60.11],[-44.84,60.15],[-44.93,60.1],[-44.84,60.02],[-44.97,60.04],[-44.95,60.07],[-45.02,60.11],[-45.17,60.09],[-45.08,60.16],[-44.76,60.2],[-44.84,60.22],[-44.53,60.45],[-44.47,60.57],[-44.88,60.22],[-45.17,60.13],[-45.19,60.21],[-44.93,60.33],[-44.84,60.48],[-44.95,60.47],[-44.63,60.74],[-44.8,60.68],[-45,60.49],[-45.21,60.44],[-45.28,60.46],[-45.26,60.5],[-45.06,60.66],[-45.5,60.49],[-45.12,60.73],[-45.31,60.68],[-45.35,60.73],[-45.37,60.65],[-45.51,60.58],[-45.58,60.47],[-45.59,60.54],[-45.67,60.53],[-45.6,60.59],[-45.73,60.59],[-45.62,60.65],[-45.79,60.62],[-45.8,60.55],[-45.88,60.52],[-45.98,60.58],[-45.58,60.7],[-45.86,60.7],[-45.26,60.91],[-45.36,60.93],[-45.33,60.98],[-45.4,61.01],[-45.39,60.96],[-45.71,60.77],[-45.87,60.76],[-45.76,60.83],[-45.87,60.85],[-45.98,60.82],[-46.02,60.73],[-46.21,60.75],[-45.85,60.9],[-46.17,60.83],[-45.89,60.93],[-45.51,60.98],[-45.26,61.1],[-45.2,61.19],[-45.36,61.09],[-45.51,61.25],[-45.48,61.11],[-45.62,61.02],[-46.07,60.94],[-46.09,60.98],[-45.7,61.07],[-45.78,61.1],[-45.62,61.14],[-45.77,61.15],[-45.87,61.22],[-45.71,61.33],[-45.82,61.33],[-45.94,61.23],[-46.11,61.25],[-45.84,61.15],[-45.95,61.14],[-45.91,61.09],[-46.03,61.05],[-46.3,61.07],[-46.12,61.02],[-46.16,61],[-46.24,60.98],[-46.27,61.05],[-46.41,61.09],[-46.38,61.05],[-46.46,61.05],[-46.41,61.01],[-46.58,61.01],[-46.54,60.95],[-46.65,60.99],[-46.58,60.91],[-46.89,60.94],[-46.71,60.89],[-46.86,60.8],[-46.98,60.82],[-46.85,60.88],[-47.04,60.84],[-46.91,60.93],[-47.08,60.94],[-47.03,60.97],[-47.25,60.9],[-47.3,60.96],[-47.86,60.87],[-47.32,60.86],[-47.44,60.83],[-47.93,60.84],[-47.94,60.88],[-48.24,60.82],[-47.74,60.98],[-47.69,61.01],[-47.88,61.01],[-47.6,61.07],[-44,62.75],[-43.15,62.76]]],[[[-44.35,59.98],[-44.43,59.96],[-44.38,60.08],[-44.49,60.01],[-44.44,60.14],[-44.29,60.13],[-44.2,60.05],[-44.32,59.98],[-44.34,60.03],[-44.35,59.98]]],[[[-45.15,60.38],[-45.18,60.27],[-45.41,60.19],[-45.35,60.39],[-45.15,60.38]]],[[[-46.55,60.8],[-46.85,60.77],[-46.2,60.95],[-46.16,60.91],[-46.55,60.8]]],[[[-43.71,59.9],[-43.64,59.85],[-43.79,59.82],[-43.79,59.89],[-43.9,59.79],[-43.92,59.9],[-44.01,59.82],[-44.12,59.83],[-43.96,59.98],[-43.71,59.9]]],[[[-44.01,59.99],[-44.15,59.9],[-44.15,59.99],[-44.19,59.9],[-44.4,59.91],[-44.2,60.03],[-44.01,59.99]]],[[[-43.17,60.07],[-43.14,60.03],[-43.22,59.99],[-43.58,60.08],[-43.48,60.04],[-43.59,59.92],[-43.67,60],[-43.72,59.95],[-43.92,60],[-43.72,60.06],[-43.94,60.05],[-44.13,60.14],[-44.07,60.18],[-43.17,60.07]]],[[[-47.72,60.76],[-47.65,60.76],[-47.9,60.68],[-47.89,60.73],[-48.07,60.7],[-48.24,60.8],[-47.97,60.84],[-47.76,60.81],[-47.83,60.75],[-47.72,60.76]]]]}}]}