{"type":"FeatureCollection","features":[{"type":"Feature","properties":{"id":"GTM-JU","nome":"Jutiapa","pais":"GTM","tipo":"Department","lat":14.24,"lng":-89.89},"geometry":{"type":"Polygon","coordinates":[[[-89.75,14.04],[-89.88,14.04],[-90.02,13.94],[-90.11,13.84],[-90.1,13.73],[-90.24,13.79],[-90.29,14.01],[-90.16,13.98],[-90.05,14.1],[-90.06,14.17],[-90.19,14.25],[-90.16,14.34],[-90.08,14.35],[-90.05,14.43],[-89.94,14.47],[-89.89,14.44],[-89.82,14.52],[-89.65,14.57],[-89.5,14.5],[-89.5,14.42],[-89.58,14.4],[-89.6,14.33],[-89.52,14.23],[-89.69,14.17],[-89.75,14.04]]]}},{"type":"Feature","properties":{"id":"GTM-CQ","nome":"Chiquimula","pais":"GTM","tipo":"Department","lat":14.67,"lng":-89.44},"geometry":{"type":"Polygon","coordinates":[[[-89.36,14.42],[-89.5,14.42],[-89.51,14.52],[-89.7,14.58],[-89.67,14.76],[-89.74,14.78],[-89.67,14.9],[-89.52,14.86],[-89.2,14.94],[-89.23,14.85],[-89.14,14.71],[-89.16,14.58],[-89.25,14.57],[-89.36,14.42]]]}},{"type":"Feature","properties":{"id":"GTM-PE","nome":"Petén","pais":"GTM","tipo":"Department","lat":16.89,"lng":-90.03},"geometry":{"type":"Polygon","coordinates":[[[-89.15,17.32],[-89.24,15.91],[-89.51,15.84],[-89.52,15.9],[-89.86,15.91],[-89.97,16.01],[-90.45,16.08],[-90.46,16.26],[-90.39,16.42],[-90.63,16.48],[-90.63,16.59],[-90.8,16.81],[-91.05,16.91],[-91.28,17.18],[-91.44,17.24],[-90.99,17.25],[-90.96,17.82],[-89.16,17.81],[-89.15,17.32]]]}},{"type":"Feature","properties":{"id":"GTM-SM","nome":"San Marcos","pais":"GTM","tipo":"Department","lat":15.03,"lng":-91.93},"geometry":{"type":"Polygon","coordinates":[[[-92.25,14.55],[-92.16,14.68],[-92.15,15],[-92.07,15.07],[-92.21,15.25],[-92.11,15.45],[-92.04,15.28],[-91.86,15.36],[-91.72,15.35],[-91.62,15.22],[-91.7,15.12],[-91.68,14.99],[-91.8,14.78],[-92.13,14.64],[-92.05,14.62],[-92.02,14.53],[-92.16,14.49],[-92.25,14.55]]]}},{"type":"Feature","properties":{"id":"GTM-HU","nome":"Huehuetenango","pais":"GTM","tipo":"Department","lat":15.64,"lng":-91.55},"geometry":{"type":"Polygon","coordinates":[[[-92.11,15.45],[-91.74,16.06],[-90.99,16.07],[-91.33,15.52],[-91.28,15.42],[-91.18,15.39],[-91.18,15.29],[-91.45,15.23],[-91.52,15.16],[-91.72,15.35],[-91.86,15.36],[-92.04,15.28],[-92.11,15.45]]]}},{"type":"Feature","properties":{"id":"GTM-QC","nome":"Quiché","pais":"GTM","tipo":"Department","lat":15.5,"lng":-90.88},"geometry":{"type":"Polygon","coordinates":[[[-90.99,16.07],[-90.44,16.07],[-90.47,16.01],[-90.63,16.05],[-90.76,15.97],[-90.73,15.87],[-90.82,15.75],[-90.78,15.68],[-90.65,15.65],[-90.6,15.53],[-90.7,15.39],[-90.48,15.31],[-90.54,15.21],[-90.87,15.26],[-90.87,15.15],[-90.66,14.9],[-90.98,14.94],[-91.12,14.81],[-91.32,15.22],[-91.3,15.28],[-91.18,15.29],[-91.18,15.39],[-91.26,15.4],[-91.33,15.52],[-90.99,16.07]]]}},{"type":"Feature","properties":{"id":"GTM-AV","nome":"Alta Verapaz","pais":"GTM","tipo":"Department","lat":15.65,"lng":-90.11},"geometry":{"type":"Polygon","coordinates":[[[-90.45,16.08],[-89.97,16.01],[-89.85,15.91],[-89.4,15.86],[-89.66,15.56],[-89.59,15.48],[-89.65,15.31],[-89.61,15.18],[-89.97,15.16],[-89.92,15.25],[-89.95,15.29],[-90.25,15.3],[-90.31,15.21],[-90.5,15.26],[-90.49,15.34],[-90.7,15.39],[-90.6,15.53],[-90.65,15.65],[-90.78,15.68],[-90.82,15.75],[-90.73,15.87],[-90.76,15.97],[-90.63,16.05],[-90.47,16.01],[-90.45,16.08]]]}},{"type":"Feature","properties":{"id":"GTM-IZ","nome":"Izabal","pais":"GTM","tipo":"Department","lat":15.52,"lng":-88.94},"geometry":{"type":"Polygon","coordinates":[[[-88.22,15.73],[-88.97,15.14],[-89.15,15.07],[-89.21,15.3],[-89.56,15.18],[-89.63,15.22],[-89.64,15.42],[-89.59,15.48],[-89.66,15.56],[-89.36,15.91],[-88.79,15.86],[-88.61,15.7],[-88.56,15.85],[-88.49,15.85],[-88.61,15.97],[-88.22,15.73]]]}},{"type":"Feature","properties":{"id":"GTM-ZA","nome":"Zacapa","pais":"GTM","tipo":"Department","lat":15.03,"lng":-89.51},"geometry":{"type":"Polygon","coordinates":[[[-89.15,15.07],[-89.19,14.91],[-89.21,14.95],[-89.43,14.92],[-89.52,14.86],[-89.67,14.9],[-89.74,14.78],[-89.79,14.79],[-89.84,14.86],[-89.76,14.93],[-89.85,15.02],[-89.8,15.04],[-89.88,15.16],[-89.56,15.18],[-89.22,15.3],[-89.17,15.27],[-89.15,15.07]]]}},{"type":"Feature","properties":{"id":"GTM-RE","nome":"Retalhuleu","pais":"GTM","tipo":"Department","lat":14.4,"lng":-91.84},"geometry":{"type":"Polygon","coordinates":[[[-91.66,14.12],[-92.16,14.49],[-91.86,14.52],[-91.69,14.74],[-91.67,14.66],[-91.51,14.71],[-91.61,14.54],[-91.66,14.12]]]}},{"type":"Feature","properties":{"id":"GTM-SU","nome":"Suchitepéquez","pais":"GTM","tipo":"Department","lat":14.52,"lng":-91.38},"geometry":{"type":"Polygon","coordinates":[[[-91.55,14.06],[-91.67,14.17],[-91.6,14.34],[-91.61,14.54],[-91.47,14.74],[-91.46,14.62],[-91.3,14.64],[-91.25,14.56],[-91.11,14.53],[-91.1,14.47],[-91.17,14.27],[-91.35,14.29],[-91.37,14.38],[-91.41,14.36],[-91.55,14.06]]]}},{"type":"Feature","properties":{"id":"GTM-ES","nome":"Escuintla","pais":"GTM","tipo":"Department","lat":14.17,"lng":-91.02},"geometry":{"type":"Polygon","coordinates":[[[-90.63,13.92],[-91.17,13.93],[-91.55,14.06],[-91.38,14.38],[-91.35,14.29],[-91.17,14.27],[-91.11,14.43],[-90.98,14.38],[-90.89,14.49],[-90.82,14.4],[-90.65,14.47],[-90.59,14.4],[-90.59,14.21],[-90.52,14.2],[-90.63,14.06],[-90.63,13.92]]]}},{"type":"Feature","properties":{"id":"GTM-SR","nome":"Santa Rosa","pais":"GTM","tipo":"Department","lat":14.17,"lng":-90.34},"geometry":{"type":"Polygon","coordinates":[[[-90.24,13.79],[-90.63,13.92],[-90.63,14.06],[-90.52,14.2],[-90.58,14.24],[-90.44,14.33],[-90.39,14.5],[-90.13,14.52],[-90.05,14.43],[-90.19,14.25],[-90.06,14.17],[-90.05,14.1],[-90.16,13.98],[-90.29,14.01],[-90.24,13.79]]]}},{"type":"Feature","properties":{"id":"GTM-CM","nome":"Chimaltenango","pais":"GTM","tipo":"Department","lat":14.73,"lng":-90.89},"geometry":{"type":"Polygon","coordinates":[[[-90.77,14.78],[-90.77,14.67],[-90.97,14.39],[-91.11,14.43],[-91.09,14.83],[-91.02,14.92],[-90.66,14.9],[-90.77,14.78]]]}},{"type":"Feature","properties":{"id":"GTM-SA","nome":"Sacatepéquez","pais":"GTM","tipo":"Department","lat":14.61,"lng":-90.75},"geometry":{"type":"Polygon","coordinates":[[[-90.89,14.49],[-90.77,14.67],[-90.77,14.78],[-90.69,14.75],[-90.62,14.65],[-90.65,14.47],[-90.82,14.4],[-90.89,14.49]]]}},{"type":"Feature","properties":{"id":"GTM-GU","nome":"Guatemala","pais":"GTM","tipo":"Department","lat":14.6,"lng":-90.49},"geometry":{"type":"Polygon","coordinates":[[[-90.71,14.75],[-90.77,14.78],[-90.66,14.9],[-90.41,14.92],[-90.34,14.75],[-90.21,14.67],[-90.29,14.51],[-90.39,14.5],[-90.44,14.33],[-90.56,14.26],[-90.65,14.47],[-90.62,14.65],[-90.71,14.75]]]}},{"type":"Feature","properties":{"id":"GTM-JA","nome":"Jalapa","pais":"GTM","tipo":"Department","lat":14.63,"lng":-89.97},"geometry":{"type":"Polygon","coordinates":[[[-90.29,14.51],[-90.18,14.71],[-90.07,14.72],[-89.87,14.87],[-89.79,14.79],[-89.67,14.77],[-89.68,14.54],[-89.82,14.52],[-89.89,14.44],[-90.29,14.51]]]}},{"type":"Feature","properties":{"id":"GTM-PR","nome":"El Progreso","pais":"GTM","tipo":"Department","lat":14.9,"lng":-90.09},"geometry":{"type":"Polygon","coordinates":[[[-90.4,14.85],[-90.4,14.9],[-90.3,14.89],[-90.28,14.95],[-89.97,15.16],[-89.88,15.16],[-89.8,15.04],[-89.85,15.02],[-89.76,14.93],[-90.21,14.67],[-90.34,14.75],[-90.35,14.85],[-90.4,14.85]]]}},{"type":"Feature","properties":{"id":"GTM-SO","nome":"Sololá","pais":"GTM","tipo":"Department","lat":14.74,"lng":-91.27},"geometry":{"type":"Polygon","coordinates":[[[-91.09,14.83],[-91.11,14.53],[-91.25,14.56],[-91.31,14.64],[-91.48,14.63],[-91.47,14.74],[-91.38,14.86],[-91.24,14.86],[-91.18,14.91],[-91.13,14.81],[-91.09,14.83]]]}},{"type":"Feature","properties":{"id":"GTM-QZ","nome":"Quezaltenango","pais":"GTM","tipo":"Department","lat":14.73,"lng":-91.78},"geometry":{"type":"Polygon","coordinates":[[[-91.43,14.82],[-91.51,14.71],[-91.67,14.66],[-91.68,14.74],[-91.76,14.7],[-91.86,14.52],[-92.02,14.53],[-92.05,14.62],[-92.14,14.64],[-92.06,14.71],[-91.83,14.74],[-91.68,14.98],[-91.71,15.09],[-91.62,15.22],[-91.52,15.16],[-91.59,15.09],[-91.54,14.93],[-91.43,14.82]]]}},{"type":"Feature","properties":{"id":"GTM-BV","nome":"Baja Verapaz","pais":"GTM","tipo":"Department","lat":15.08,"lng":-90.39},"geometry":{"type":"Polygon","coordinates":[[[-90.4,14.9],[-90.66,14.9],[-90.87,15.15],[-90.87,15.26],[-90.57,15.21],[-90.4,15.26],[-90.31,15.21],[-90.25,15.3],[-89.92,15.27],[-89.97,15.16],[-90.28,14.95],[-90.3,14.89],[-90.4,14.9]]]}},{"type":"Feature","properties":{"id":"GTM-TO","nome":"Totonicapán","pais":"GTM","tipo":"Department","lat":15.05,"lng":-91.39},"geometry":{"type":"Polygon","coordinates":[[[-91.51,14.91],[-91.59,15.13],[-91.32,15.26],[-91.23,15.1],[-91.27,15.04],[-91.18,14.91],[-91.43,14.82],[-91.51,14.91]]]}}]}