{"type":"FeatureCollection","features":[{"type":"Feature","properties":{"id":"GUY-MA","nome":"Mahaica-Berbice","pais":"GUY","tipo":"Region","lat":2.57,"lng":-57.49},"geometry":{"type":"Polygon","coordinates":[[[-57.31,3.39],[-57.29,3.14],[-57.23,3.14],[-57.23,2.97],[-57.18,2.94],[-57.2,2.85],[-57.09,2.77],[-57,2.51],[-56.95,2.52],[-56.93,2.39],[-56.71,2.03],[-56.48,1.94],[-56.81,1.87],[-57.01,1.92],[-57.1,2.02],[-57.24,1.95],[-57.32,1.98],[-57.56,1.71],[-57.99,1.66],[-58.01,1.54],[-58.07,1.51],[-58.32,1.6],[-58.39,1.49],[-58.5,1.45],[-58.27,1.9],[-58.03,2.51],[-58.03,2.74],[-57.93,2.89],[-58.1,3.2],[-58.15,3.53],[-58.29,3.77],[-58.44,4.27],[-58.28,4.63],[-58.07,4.65],[-58,4.87],[-57.7,5.35],[-57.61,5.76],[-57.71,6.01],[-57.62,6.02],[-57.63,6.17],[-57.52,6.21],[-57.49,6.34],[-57.29,6.23],[-57.17,6.09],[-57.16,5.64],[-57.34,5.32],[-57.18,5.18],[-57.23,5.14],[-57.29,5.17],[-57.29,5.02],[-57.69,5.01],[-57.85,4.92],[-57.93,4.8],[-57.84,4.65],[-57.95,4.3],[-58.07,4.15],[-58.03,3.99],[-57.88,3.81],[-57.83,3.66],[-57.64,3.52],[-57.65,3.39],[-57.48,3.34],[-57.31,3.39]]]}},{"type":"Feature","properties":{"id":"GUY-PM","nome":"Pomeroon-Supenaam","pais":"GUY","tipo":"Region","lat":6.18,"lng":-59.98},"geometry":{"type":"Polygon","coordinates":[[[-60.18,5.23],[-60.21,5.27],[-60.45,5.17],[-60.74,5.2],[-61.38,5.91],[-61.27,6.11],[-61.12,6.19],[-61.14,6.44],[-61.21,6.56],[-61.17,6.67],[-61.13,6.72],[-60.93,6.73],[-60.91,6.82],[-60.72,6.76],[-60.38,6.94],[-60.29,7.09],[-60.34,7.16],[-60.09,7.07],[-59.83,7.19],[-59.47,6.99],[-59.34,6.95],[-59.27,7.02],[-59.15,6.98],[-59.17,6.87],[-58.99,6.86],[-58.94,6.77],[-58.85,6.77],[-58.82,6.54],[-58.62,6.49],[-58.69,6.38],[-58.6,6.42],[-58.57,5.94],[-58.68,5.46],[-58.84,5.42],[-59,5.53],[-59.09,5.51],[-59.23,5.71],[-59.36,5.59],[-59.55,5.58],[-59.58,5.39],[-59.92,5.37],[-60.09,5.16],[-60.13,5.24],[-60.18,5.23]]]}},{"type":"Feature","properties":{"id":"GUY-PT","nome":"Potaro-Siparuni","pais":"GUY","tipo":"Region","lat":4.93,"lng":-59.22},"geometry":{"type":"Polygon","coordinates":[[[-60.11,4.5],[-60.16,4.57],[-60.04,4.71],[-59.98,5.06],[-60.09,5.16],[-59.94,5.36],[-59.58,5.39],[-59.55,5.58],[-59.36,5.59],[-59.22,5.71],[-59.1,5.52],[-59,5.53],[-58.84,5.42],[-58.88,5.33],[-58.82,5.23],[-58.84,4.97],[-58.78,4.75],[-58.57,4.62],[-58.28,4.63],[-58.44,4.25],[-58.6,4.27],[-58.89,4],[-58.95,4.02],[-59.06,4.18],[-59.25,4.15],[-59.46,4.19],[-59.47,4.5],[-59.64,4.37],[-59.87,4.48],[-60.11,4.5]]]}},{"type":"Feature","properties":{"id":"GUY-UD","nome":"Upper Demerara-Berbice","pais":"GUY","tipo":"Region","lat":2.67,"lng":-58.96},"geometry":{"type":"Polygon","coordinates":[[[-59.59,3.97],[-59.65,4.13],[-59.73,4.18],[-59.74,4.29],[-59.49,4.51],[-59.44,4.42],[-59.46,4.19],[-59.25,4.15],[-59.06,4.18],[-58.94,4],[-58.87,4.01],[-58.56,4.29],[-58.44,4.25],[-58.36,4.14],[-58.3,3.79],[-58.15,3.53],[-58.11,3.23],[-57.93,2.89],[-58.03,2.74],[-58.03,2.51],[-58.27,1.9],[-58.49,1.54],[-58.52,1.27],[-58.7,1.28],[-58.77,1.2],[-58.87,1.2],[-58.97,1.31],[-59.26,1.39],[-59.53,1.7],[-59.68,1.76],[-59.65,1.84],[-59.76,1.86],[-59.74,2.26],[-59.91,2.38],[-59.99,2.86],[-59.97,3.04],[-59.82,3.36],[-59.86,3.58],[-59.6,3.8],[-59.53,3.94],[-59.59,3.97]]]}},{"type":"Feature","properties":{"id":"GUY-BA","nome":"Barima-Waini","pais":"GUY","tipo":"Region","lat":7.74,"lng":-59.75},"geometry":{"type":"Polygon","coordinates":[[[-60.07,8.03],[-59.99,8.17],[-59.82,8.27],[-60.02,8.56],[-59.84,8.37],[-59.43,8.13],[-59.78,8.41],[-59.17,8.06],[-58.83,7.74],[-58.78,7.67],[-58.83,7.6],[-59.1,7.41],[-59.07,7.34],[-59.17,7.11],[-59.15,6.98],[-59.27,7.02],[-59.34,6.95],[-59.47,6.99],[-59.83,7.19],[-60.09,7.07],[-60.45,7.19],[-60.55,7.13],[-60.63,7.19],[-60.6,7.33],[-60.72,7.55],[-60.6,7.63],[-60.53,7.81],[-60.37,7.82],[-60.23,7.96],[-60.07,8.03]]]}},{"type":"Feature","properties":{"id":"GUY-DE","nome":"Demerara-Mahaica","pais":"GUY","tipo":"Region","lat":6.54,"lng":-58.38},"geometry":{"type":"MultiPolygon","coordinates":[[[[-58.52,6.98],[-58.6,6.81],[-58.62,6.49],[-58.82,6.54],[-58.83,6.71],[-58.52,6.98]]],[[[-58.58,6.46],[-58.57,6.64],[-58.43,6.86],[-58.31,6.89],[-58.17,6.82],[-58.18,6.67],[-58.3,6.47],[-58.27,6.11],[-58.36,6.13],[-58.4,6.27],[-58.58,6.46]]]]}},{"type":"Feature","properties":{"id":"GUY-CU","nome":"Cuyuni-Mazaruni","pais":"GUY","tipo":"Region","lat":7.17,"lng":-58.82},"geometry":{"type":"Polygon","coordinates":[[[-58.78,7.67],[-58.47,7.35],[-58.47,7.12],[-58.5,6.99],[-58.83,6.71],[-58.85,6.77],[-58.94,6.77],[-58.96,6.85],[-59.17,6.87],[-59.18,7.1],[-59.07,7.33],[-59.1,7.42],[-58.78,7.67]]]}},{"type":"Feature","properties":{"id":"GUY-UT","nome":"Upper Takutu-Upper Essequibo","pais":"GUY","tipo":"Region","lat":5.36,"lng":-58.25},"geometry":{"type":"Polygon","coordinates":[[[-58.6,6.42],[-58.56,6.45],[-58.4,6.27],[-58.36,6.13],[-58.18,6.12],[-58.13,6.08],[-58.11,5.97],[-57.84,5.84],[-57.68,5.88],[-57.61,5.77],[-57.7,5.35],[-58.08,4.64],[-58.57,4.62],[-58.79,4.77],[-58.84,4.97],[-58.82,5.23],[-58.88,5.33],[-58.86,5.41],[-58.69,5.44],[-58.62,5.58],[-58.57,5.94],[-58.6,6.42]]]}},{"type":"Feature","properties":{"id":"GUY-EB","nome":"East Berbice-Corentyne","pais":"GUY","tipo":"Region","lat":6.56,"lng":-58.09},"geometry":{"type":"Polygon","coordinates":[[[-58.17,6.82],[-58.07,6.82],[-57.96,6.75],[-57.88,6.54],[-58.08,6.34],[-58.13,6.08],[-58.27,6.11],[-58.31,6.36],[-58.3,6.48],[-58.18,6.67],[-58.17,6.82]]]}},{"type":"Feature","properties":{"id":"GUY-ES","nome":"Essequibo Islands-West Demerara","pais":"GUY","tipo":"Region","lat":6.24,"lng":-57.83},"geometry":{"type":"Polygon","coordinates":[[[-57.91,6.71],[-57.6,6.43],[-57.52,6.27],[-57.53,6.2],[-57.63,6.17],[-57.62,6.02],[-57.71,6.01],[-57.68,5.88],[-57.84,5.84],[-58.13,5.99],[-58.13,6.2],[-58.08,6.34],[-57.88,6.54],[-57.91,6.71]]]}}]}