{"type":"FeatureCollection","features":[{"type":"Feature","properties":{"id":"HKG-X16~","nome":"North","pais":"HKG","tipo":"Estado","lat":22.51,"lng":114.15},"geometry":{"type":"Polygon","coordinates":[[[114.17,22.56],[114.33,22.51],[114.1,22.47],[114.08,22.53],[114.17,22.56]]]}},{"type":"Feature","properties":{"id":"HKG-X04~","nome":"Southern","pais":"HKG","tipo":"Estado","lat":22.24,"lng":114.2},"geometry":{"type":"Polygon","coordinates":[[[114.25,22.25],[114.21,22.19],[114.11,22.27],[114.25,22.25]]]}},{"type":"Feature","properties":{"id":"HKG-X11~","nome":"Sha Tin","pais":"HKG","tipo":"Estado","lat":22.38,"lng":114.2},"geometry":{"type":"Polygon","coordinates":[[[114.21,22.42],[114.25,22.4],[114.16,22.34],[114.21,22.42]]]}},{"type":"Feature","properties":{"id":"HKG-X10~","nome":"Sai Kung","pais":"HKG","tipo":"Estado","lat":22.35,"lng":114.25},"geometry":{"type":"Polygon","coordinates":[[[114.37,22.45],[114.39,22.37],[114.36,22.33],[114.28,22.39],[114.3,22.26],[114.26,22.32],[114.24,22.29],[114.25,22.4],[114.37,22.45]]]}},{"type":"Feature","properties":{"id":"HKG-X06~","nome":"Kowloon City","pais":"HKG","tipo":"Estado","lat":22.33,"lng":114.19},"geometry":{"type":"Polygon","coordinates":[[[114.21,22.31],[114.18,22.29],[114.17,22.34],[114.21,22.31]]]}},{"type":"Feature","properties":{"id":"HKG-X14~","nome":"Tuen Mun","pais":"HKG","tipo":"Estado","lat":22.38,"lng":113.99},"geometry":{"type":"Polygon","coordinates":[[[114.02,22.35],[113.9,22.41],[114.04,22.4],[114.02,22.35]]]}},{"type":"Feature","properties":{"id":"HKG-X15~","nome":"Yuen Long","pais":"HKG","tipo":"Estado","lat":22.44,"lng":114.06},"geometry":{"type":"Polygon","coordinates":[[[113.94,22.43],[114.09,22.52],[114.14,22.47],[114.14,22.41],[114.04,22.38],[113.94,22.43]]]}}]}