{"type":"FeatureCollection","features":[{"type":"Feature","properties":{"id":"HND-OC","nome":"Ocotepeque","pais":"HND","tipo":"Department","lat":14.52,"lng":-89.04},"geometry":{"type":"Polygon","coordinates":[[[-89.35,14.41],[-89.36,14.48],[-89.16,14.58],[-89.15,14.71],[-89.09,14.73],[-89.03,14.72],[-88.89,14.52],[-88.72,14.53],[-88.75,14.43],[-88.88,14.41],[-88.97,14.31],[-88.97,14.21],[-89.11,14.4],[-89.15,14.35],[-89.35,14.41]]]}},{"type":"Feature","properties":{"id":"HND-LE","nome":"Lempira","pais":"HND","tipo":"Department","lat":14.44,"lng":-88.65},"geometry":{"type":"Polygon","coordinates":[[[-88.96,14.19],[-88.97,14.31],[-88.88,14.41],[-88.81,14.39],[-88.82,14.43],[-88.74,14.44],[-88.72,14.53],[-88.79,14.71],[-88.66,14.72],[-88.64,14.93],[-88.56,14.93],[-88.49,14.81],[-88.43,14.85],[-88.36,14.82],[-88.39,14.77],[-88.32,14.72],[-88.32,14.57],[-88.36,14.49],[-88.5,14.45],[-88.42,14.35],[-88.42,14.25],[-88.33,14.22],[-88.34,14.08],[-88.5,13.97],[-88.69,14.01],[-88.75,14.11],[-88.84,14.1],[-88.88,14.18],[-88.96,14.19]]]}},{"type":"Feature","properties":{"id":"HND-IN","nome":"Intibucá","pais":"HND","tipo":"Department","lat":14.4,"lng":-88.18},"geometry":{"type":"Polygon","coordinates":[[[-88.5,13.97],[-88.32,14.11],[-88.33,14.22],[-88.42,14.25],[-88.42,14.35],[-88.5,14.45],[-88.36,14.49],[-88.34,14.65],[-88.07,14.66],[-87.97,14.61],[-87.85,14.43],[-87.95,14.39],[-88.01,14.25],[-88.23,14.08],[-88.24,13.94],[-88.5,13.85],[-88.5,13.97]]]}},{"type":"Feature","properties":{"id":"HND-LP","nome":"La Paz","pais":"HND","tipo":"Department","lat":14.14,"lng":-87.91},"geometry":{"type":"Polygon","coordinates":[[[-88.18,13.99],[-88.23,14.08],[-88.01,14.25],[-87.95,14.39],[-87.85,14.43],[-87.65,14.37],[-87.64,14.27],[-87.83,14.23],[-87.69,14.05],[-87.62,14.09],[-87.6,13.94],[-87.65,13.83],[-87.82,13.92],[-88.02,13.87],[-88.1,13.99],[-88.18,13.99]]]}},{"type":"Feature","properties":{"id":"HND-VA","nome":"Valle","pais":"HND","tipo":"Department","lat":13.58,"lng":-87.6},"geometry":{"type":"Polygon","coordinates":[[[-87.77,13.51],[-87.7,13.81],[-87.75,13.85],[-87.69,13.85],[-87.64,13.75],[-87.43,13.64],[-87.35,13.43],[-87.55,13.36],[-87.62,13.37],[-87.62,13.47],[-87.72,13.36],[-87.82,13.41],[-87.72,13.46],[-87.77,13.51]]]}},{"type":"Feature","properties":{"id":"HND-OL","nome":"Olancho","pais":"HND","tipo":"Department","lat":14.81,"lng":-85.99},"geometry":{"type":"Polygon","coordinates":[[[-85,14.74],[-85.05,14.66],[-85.03,14.59],[-85.15,14.56],[-85.21,14.41],[-85.17,14.32],[-85.32,14.28],[-85.56,14.04],[-85.65,14.18],[-85.76,14.2],[-85.91,14.13],[-86.03,14.26],[-86.14,14.27],[-86.19,14.34],[-86.43,14.29],[-86.71,14.42],[-86.74,14.58],[-86.89,14.76],[-86.91,14.94],[-86.99,15.02],[-86.89,15.08],[-86.82,15.29],[-86.69,15.27],[-86.51,15.39],[-86.39,15.33],[-86.23,15.41],[-86.03,15.39],[-85.88,15.53],[-85.71,15.58],[-85.4,15.41],[-85.25,15.24],[-85,15.07],[-85,14.74]]]}},{"type":"Feature","properties":{"id":"HND-GD","nome":"Gracias a Dios","pais":"HND","tipo":"Department","lat":15.12,"lng":-84.37},"geometry":{"type":"Polygon","coordinates":[[[-84.98,14.75],[-85,15.99],[-84.68,15.88],[-84.66,15.77],[-84.45,15.8],[-84.64,15.86],[-84.29,15.81],[-83.73,15.4],[-84,15.54],[-84.1,15.55],[-84.09,15.48],[-84.13,15.55],[-84.21,15.55],[-84.19,15.48],[-84.13,15.53],[-84.1,15.38],[-83.93,15.31],[-83.94,15.26],[-83.82,15.27],[-84.03,15.41],[-83.81,15.32],[-83.76,15.2],[-83.62,15.3],[-83.53,15.28],[-83.53,15.21],[-83.59,15.24],[-83.62,15.18],[-83.48,15.22],[-83.7,15.4],[-83.41,15.27],[-83.28,15.07],[-83.13,15],[-83.51,15.01],[-83.62,14.87],[-83.69,14.89],[-83.71,14.84],[-83.92,14.8],[-83.92,14.76],[-84.11,14.79],[-84.1,14.74],[-84.17,14.71],[-84.26,14.76],[-84.27,14.68],[-84.36,14.72],[-84.48,14.62],[-84.7,14.67],[-84.82,14.83],[-84.98,14.75]]]}},{"type":"Feature","properties":{"id":"HND-EP","nome":"El Paraíso","pais":"HND","tipo":"Department","lat":14.04,"lng":-86.56},"geometry":{"type":"Polygon","coordinates":[[[-85.56,14.04],[-85.73,13.96],[-85.74,13.82],[-85.93,13.91],[-86.03,14],[-86.02,14.06],[-86.12,14.03],[-86.34,13.76],[-86.73,13.77],[-86.81,13.68],[-86.93,13.66],[-87.08,13.51],[-87.22,13.63],[-87.21,13.67],[-87.13,13.66],[-87.12,13.81],[-87.01,13.8],[-86.99,13.96],[-86.91,14.04],[-86.98,14.13],[-86.91,14.14],[-86.82,14.34],[-86.71,14.42],[-86.43,14.29],[-86.19,14.34],[-86.14,14.27],[-86.03,14.26],[-85.91,14.13],[-85.76,14.2],[-85.65,14.18],[-85.56,14.04]]]}},{"type":"Feature","properties":{"id":"HND-CH","nome":"Choluteca","pais":"HND","tipo":"Department","lat":13.26,"lng":-87.11},"geometry":{"type":"Polygon","coordinates":[[[-86.73,13.27],[-86.83,13.29],[-86.91,13.24],[-86.92,13.09],[-87.04,12.98],[-87.31,12.98],[-87.27,13.03],[-87.35,13.07],[-87.3,13.1],[-87.42,13.11],[-87.51,13.29],[-87.35,13.43],[-87.45,13.76],[-87.21,13.67],[-87.18,13.57],[-87.08,13.51],[-86.93,13.66],[-86.77,13.71],[-86.73,13.27]]]}},{"type":"Feature","properties":{"id":"HND-CR","nome":"Cortés","pais":"HND","tipo":"Department","lat":15.53,"lng":-88.04},"geometry":{"type":"Polygon","coordinates":[[[-88.24,15.69],[-88.22,15.73],[-88.12,15.7],[-87.93,15.82],[-87.95,15.87],[-87.73,15.92],[-87.79,15.8],[-87.76,15.74],[-87.82,15.69],[-87.76,15.61],[-87.85,15.45],[-87.82,15.42],[-87.94,15.24],[-87.92,15.19],[-87.74,15.11],[-87.74,14.98],[-87.96,14.8],[-88.05,14.93],[-88.02,15.06],[-88.11,15.13],[-88.06,15.21],[-88.13,15.37],[-88.26,15.5],[-88.47,15.52],[-88.24,15.69]]]}},{"type":"Feature","properties":{"id":"HND-SB","nome":"Santa Bárbara","pais":"HND","tipo":"Department","lat":15.05,"lng":-88.33},"geometry":{"type":"Polygon","coordinates":[[[-88.76,15.3],[-88.47,15.52],[-88.24,15.49],[-88.06,15.21],[-88.11,15.11],[-88.02,15.06],[-88.06,14.95],[-88,14.9],[-87.99,14.79],[-88.07,14.74],[-88.07,14.66],[-88.34,14.65],[-88.36,14.82],[-88.43,14.85],[-88.49,14.81],[-88.56,14.93],[-88.69,14.93],[-88.65,15.16],[-88.76,15.3]]]}},{"type":"Feature","properties":{"id":"HND-CP","nome":"Copán","pais":"HND","tipo":"Department","lat":14.89,"lng":-88.94},"geometry":{"type":"Polygon","coordinates":[[[-89.15,15.07],[-88.76,15.3],[-88.72,15.25],[-88.64,15.09],[-88.7,14.95],[-88.64,14.9],[-88.66,14.72],[-88.79,14.71],[-88.73,14.55],[-88.85,14.5],[-89.03,14.72],[-89.16,14.73],[-89.23,14.85],[-89.15,15.07]]]}},{"type":"Feature","properties":{"id":"HND-CL","nome":"Colón","pais":"HND","tipo":"Department","lat":15.78,"lng":-85.72},"geometry":{"type":"Polygon","coordinates":[[[-86.44,15.79],[-86.35,15.77],[-86.17,15.89],[-85.97,15.91],[-85.9,15.98],[-86.01,16.03],[-85.7,15.98],[-85.49,15.87],[-85.25,15.88],[-85,15.99],[-85,15.07],[-85.25,15.24],[-85.4,15.41],[-85.69,15.58],[-85.88,15.53],[-86.03,15.39],[-86.17,15.38],[-86.23,15.41],[-86.24,15.52],[-86.42,15.58],[-86.36,15.67],[-86.44,15.79]]]}},{"type":"Feature","properties":{"id":"HND-AT","nome":"Atlántida","pais":"HND","tipo":"Department","lat":15.63,"lng":-87.08},"geometry":{"type":"Polygon","coordinates":[[[-87.73,15.92],[-87.63,15.89],[-87.59,15.94],[-87.62,15.89],[-87.48,15.79],[-87.35,15.85],[-86.92,15.76],[-86.47,15.8],[-86.36,15.63],[-86.42,15.58],[-86.99,15.55],[-87.18,15.43],[-87.38,15.44],[-87.46,15.54],[-87.63,15.51],[-87.7,15.66],[-87.79,15.72],[-87.73,15.92]]]}},{"type":"Feature","properties":{"id":"HND-CM","nome":"Comayagua","pais":"HND","tipo":"Department","lat":14.66,"lng":-87.68},"geometry":{"type":"Polygon","coordinates":[[[-88.07,14.66],[-88.07,14.74],[-87.99,14.84],[-87.96,14.8],[-87.76,14.95],[-87.74,15.02],[-87.54,15.06],[-87.44,14.91],[-87.28,14.92],[-87.21,14.86],[-87.25,14.84],[-87.27,14.7],[-87.47,14.52],[-87.38,14.4],[-87.46,14.33],[-87.43,14.23],[-87.69,14.05],[-87.83,14.23],[-87.64,14.27],[-87.65,14.37],[-87.83,14.4],[-87.97,14.61],[-88.07,14.66]]]}},{"type":"Feature","properties":{"id":"HND-YO","nome":"Yoro","pais":"HND","tipo":"Department","lat":15.23,"lng":-87.21},"geometry":{"type":"Polygon","coordinates":[[[-87.79,15.72],[-87.7,15.66],[-87.63,15.51],[-87.46,15.54],[-87.38,15.44],[-87.18,15.43],[-86.99,15.55],[-86.64,15.6],[-86.24,15.52],[-86.23,15.41],[-86.37,15.33],[-86.51,15.39],[-86.69,15.27],[-86.82,15.29],[-86.92,15.05],[-87.17,15.03],[-87.25,14.9],[-87.44,14.91],[-87.54,15.05],[-87.74,15.02],[-87.77,15.14],[-87.92,15.19],[-87.93,15.3],[-87.82,15.41],[-87.85,15.45],[-87.76,15.61],[-87.82,15.67],[-87.79,15.72]]]}},{"type":"Feature","properties":{"id":"HND-FM","nome":"Francisco Morazán","pais":"HND","tipo":"Department","lat":14.35,"lng":-87.18},"geometry":{"type":"Polygon","coordinates":[[[-87.32,14.67],[-87.27,14.7],[-87.18,15.01],[-86.99,15.02],[-86.91,14.94],[-86.89,14.76],[-86.74,14.58],[-86.71,14.44],[-86.9,14.23],[-86.91,14.14],[-86.98,14.13],[-86.92,14],[-86.99,13.96],[-87.03,13.78],[-87.13,13.8],[-87.13,13.66],[-87.36,13.69],[-87.42,13.76],[-87.47,13.67],[-87.65,13.76],[-87.61,14.11],[-87.43,14.22],[-87.46,14.33],[-87.38,14.4],[-87.47,14.52],[-87.32,14.67]]]}}]}