{"type":"FeatureCollection","features":[{"type":"Feature","properties":{"id":"HRV-20","nome":"Medimurska","pais":"HRV","tipo":"County","lat":46.4,"lng":16.55},"geometry":{"type":"Polygon","coordinates":[[[16.52,46.5],[16.84,46.38],[16.84,46.33],[16.81,46.28],[16.36,46.32],[16.23,46.48],[16.34,46.55],[16.52,46.5]]]}},{"type":"Feature","properties":{"id":"HRV-10","nome":"Viroviticko-Podravska","pais":"HRV","tipo":"County","lat":45.73,"lng":17.61},"geometry":{"type":"Polygon","coordinates":[[[17.31,45.98],[17.59,45.94],[17.66,45.84],[17.91,45.79],[18.08,45.63],[17.88,45.47],[17.43,45.57],[17.49,45.69],[17.39,45.7],[17.13,45.89],[17.2,45.97],[17.31,45.98]]]}},{"type":"Feature","properties":{"id":"HRV-06","nome":"Koprivničko-Križevačka","pais":"HRV","tipo":"County","lat":46.19,"lng":16.83},"geometry":{"type":"Polygon","coordinates":[[[16.88,46.31],[17.05,46.15],[17.21,46.12],[17.31,45.98],[17.19,45.97],[17.14,45.87],[17,45.93],[16.86,46.08],[16.74,46.05],[16.69,45.92],[16.36,46.02],[16.35,46.12],[16.73,46.23],[16.75,46.31],[16.81,46.28],[16.86,46.36],[16.88,46.31]]]}},{"type":"Feature","properties":{"id":"HRV-14","nome":"Osjecko-Baranjska","pais":"HRV","tipo":"County","lat":45.49,"lng":18.51},"geometry":{"type":"Polygon","coordinates":[[[18.82,45.91],[18.9,45.93],[18.84,45.82],[18.97,45.67],[18.9,45.57],[19.11,45.51],[19.01,45.5],[18.99,45.44],[18.86,45.48],[18.66,45.4],[18.63,45.32],[18.51,45.29],[18.55,45.19],[18.08,45.27],[18.08,45.35],[18.16,45.41],[18.44,45.48],[18.39,45.52],[18.23,45.51],[18.21,45.6],[18.02,45.67],[17.91,45.79],[18.4,45.74],[18.66,45.91],[18.82,45.91]]]}},{"type":"Feature","properties":{"id":"HRV-18","nome":"Istarska","pais":"HRV","tipo":"County","lat":45.12,"lng":13.87},"geometry":{"type":"Polygon","coordinates":[[[13.64,45.46],[13.89,45.42],[13.97,45.51],[14.2,45.4],[14.23,45.15],[14.14,45.06],[14.15,44.98],[14.07,44.95],[14.04,45.04],[14.08,44.98],[13.97,44.9],[14,44.81],[13.89,44.83],[13.9,44.77],[13.79,44.88],[13.84,44.89],[13.77,44.96],[13.62,45.07],[13.61,45.12],[13.73,45.13],[13.6,45.14],[13.61,45.32],[13.54,45.35],[13.5,45.5],[13.64,45.46]]]}},{"type":"Feature","properties":{"id":"HRV-19","nome":"Dubrovacko-Neretvanska","pais":"HRV","tipo":"County","lat":42.76,"lng":16.87},"geometry":{"type":"MultiPolygon","coordinates":[[[[18.44,42.56],[18.5,42.42],[17.89,42.79],[17.72,42.83],[17.75,42.77],[17.21,42.98],[17.05,43],[17,43.05],[17.24,43.02],[17.74,42.84],[17.65,42.89],[17.81,42.91],[17.86,42.82],[18.44,42.56]]],[[[17.45,43.15],[17.59,43.08],[17.66,42.97],[17.53,42.95],[17.47,43],[17.5,43.03],[17.43,43.02],[17.35,43.14],[17.45,43.15]]],[[[17.13,42.97],[17.2,42.92],[16.85,42.9],[16.66,42.93],[16.71,42.97],[16.63,42.98],[17.13,42.97]]]]}},{"type":"Feature","properties":{"id":"HRV-03","nome":"Sisacko-Moslavacka","pais":"HRV","tipo":"County","lat":45.47,"lng":16.42},"geometry":{"type":"Polygon","coordinates":[[[16.95,45.24],[16.92,45.28],[16.79,45.18],[16.53,45.22],[16.32,45],[16.01,45.22],[15.63,45.24],[15.66,45.42],[15.82,45.4],[15.85,45.55],[15.94,45.47],[16.11,45.5],[16.05,45.6],[16.26,45.6],[16.29,45.73],[16.43,45.82],[16.51,45.72],[16.79,45.61],[16.87,45.53],[16.84,45.49],[17.19,45.33],[17.08,45.23],[17.12,45.17],[16.95,45.24]]]}},{"type":"Feature","properties":{"id":"HRV-12","nome":"Brodsko-Posavska","pais":"HRV","tipo":"County","lat":45.15,"lng":17.81},"geometry":{"type":"Polygon","coordinates":[[[17.19,45.15],[17.08,45.22],[17.2,45.29],[17.18,45.35],[17.39,45.39],[17.7,45.26],[17.73,45.19],[17.92,45.29],[18.49,45.21],[18.54,45.19],[18.5,45.14],[18.54,45.06],[18.24,45.16],[18.15,45.1],[18,45.15],[17.84,45.06],[17.68,45.16],[17.48,45.11],[17.27,45.19],[17.19,45.15]]]}},{"type":"Feature","properties":{"id":"HRV-04","nome":"Karlovacka","pais":"HRV","tipo":"County","lat":45.34,"lng":15.41},"geometry":{"type":"Polygon","coordinates":[[[15.8,45.2],[15.73,44.93],[15.55,44.95],[15.57,44.88],[15.19,45.13],[15.01,45.12],[14.97,45.27],[15.03,45.33],[15.12,45.29],[15.23,45.44],[15.36,45.48],[15.27,45.6],[15.42,45.7],[15.57,45.6],[15.75,45.6],[15.81,45.52],[15.82,45.4],[15.66,45.42],[15.63,45.24],[15.8,45.2]]]}},{"type":"Feature","properties":{"id":"HRV-13","nome":"Zadarska","pais":"HRV","tipo":"County","lat":44.2,"lng":15.75},"geometry":{"type":"Polygon","coordinates":[[[15.73,44.93],[15.77,44.85],[15.73,44.77],[16.03,44.62],[16.01,44.54],[16.12,44.52],[16.22,44.21],[16.53,43.97],[16.19,43.92],[16.14,44.03],[15.91,43.91],[15.78,43.94],[15.74,43.87],[15.55,43.88],[15.14,44.2],[15.14,44.28],[15.3,44.25],[15.26,44.33],[15.53,44.26],[15.29,44.36],[15.34,44.41],[15.55,44.33],[15.62,44.39],[15.59,44.46],[15.65,44.49],[15.47,44.75],[15.6,44.79],[15.53,44.83],[15.55,44.95],[15.73,44.93]]]}},{"type":"Feature","properties":{"id":"HRV-16","nome":"Vukovarsko-Srijemska","pais":"HRV","tipo":"County","lat":45.15,"lng":18.95},"geometry":{"type":"Polygon","coordinates":[[[18.65,45.06],[18.51,45.11],[18.57,45.23],[18.51,45.29],[18.85,45.48],[19.02,45.43],[18.98,45.37],[19.1,45.3],[19.41,45.2],[19.23,45.16],[19.12,45.2],[19.14,45.15],[19.04,45.14],[19.13,44.95],[18.99,44.91],[19,44.86],[18.82,44.89],[18.79,45.01],[18.65,45.06]]]}},{"type":"Feature","properties":{"id":"HRV-17","nome":"Splitsko-Dalmatinska","pais":"HRV","tipo":"County","lat":43.53,"lng":16.79},"geometry":{"type":"MultiPolygon","coordinates":[[[[16.53,43.97],[17.03,43.55],[17.27,43.46],[17.29,43.3],[17.45,43.15],[17.35,43.16],[17.41,43.1],[17.37,43.08],[16.88,43.41],[16.39,43.51],[16.46,43.55],[16.01,43.5],[16.08,43.55],[16.05,43.6],[16.16,43.68],[16.35,43.72],[16.35,43.77],[16.43,43.82],[16.35,43.93],[16.53,43.97]]],[[[16.5,43.28],[16.41,43.33],[16.45,43.35],[16.43,43.39],[16.89,43.31],[16.81,43.27],[16.5,43.28]]]]}},{"type":"Feature","properties":{"id":"HRV-05","nome":"Varaždinska","pais":"HRV","tipo":"County","lat":46.19,"lng":16.33},"geometry":{"type":"Polygon","coordinates":[[[16.09,46.37],[16.77,46.28],[16.7,46.21],[16.35,46.12],[16.36,46.02],[16.29,46.01],[16.25,46.19],[15.88,46.24],[16.09,46.37]]]}},{"type":"Feature","properties":{"id":"HRV-02","nome":"Krapinsko-Zagorska","pais":"HRV","tipo":"County","lat":46.09,"lng":15.92},"geometry":{"type":"Polygon","coordinates":[[[15.8,46.25],[16.03,46.18],[16.2,46.21],[16.25,46.19],[16.26,46.06],[15.97,45.91],[15.82,45.98],[15.68,45.97],[15.7,46.04],[15.59,46.14],[15.64,46.21],[15.8,46.25]]]}},{"type":"Feature","properties":{"id":"HRV-01","nome":"Zagrebacka","pais":"HRV","tipo":"County","lat":45.72,"lng":15.59},"geometry":{"type":"Polygon","coordinates":[[[15.55,45.82],[15.68,45.84],[15.68,45.97],[15.92,45.96],[15.77,45.85],[15.85,45.81],[15.77,45.7],[15.92,45.62],[15.97,45.72],[16.19,45.79],[16.23,45.85],[16.14,45.97],[16.2,46],[16.19,46.06],[16.69,45.92],[16.7,45.87],[16.59,45.78],[16.38,45.81],[16.37,45.75],[16.29,45.73],[16.28,45.61],[16.05,45.6],[16.11,45.51],[15.98,45.47],[15.86,45.55],[15.78,45.52],[15.75,45.6],[15.57,45.6],[15.43,45.69],[15.25,45.71],[15.55,45.82]]]}},{"type":"Feature","properties":{"id":"HRV-08","nome":"Primorsko-Goranska","pais":"HRV","tipo":"County","lat":45.37,"lng":14.69},"geometry":{"type":"MultiPolygon","coordinates":[[[[15.18,45.43],[15.23,45.41],[15.18,45.33],[15.12,45.29],[15.03,45.33],[14.97,45.27],[15.02,45.08],[14.88,45.04],[14.57,45.29],[14.35,45.35],[14.21,45.16],[14.2,45.4],[14.12,45.46],[14.41,45.49],[14.58,45.67],[14.67,45.53],[14.8,45.47],[14.92,45.51],[15.18,45.43]]],[[[14.51,44.66],[14.51,44.62],[14.43,44.66],[14.29,44.91],[14.41,44.96],[14.28,45.11],[14.31,45.17],[14.47,44.97],[14.45,44.8],[14.51,44.66]]],[[[14.72,44.94],[14.63,44.98],[14.62,45.05],[14.51,45.03],[14.43,45.09],[14.53,45.13],[14.55,45.25],[14.81,44.98],[14.72,44.94]]]]}},{"type":"Feature","properties":{"id":"HRV-15","nome":"Šibensko-Kninska","pais":"HRV","tipo":"County","lat":43.79,"lng":16.04},"geometry":{"type":"Polygon","coordinates":[[[16.01,43.5],[15.92,43.57],[15.95,43.69],[15.71,43.76],[15.55,43.88],[15.74,43.87],[15.78,43.94],[15.91,43.91],[16.14,44.03],[16.17,43.93],[16.34,43.94],[16.43,43.82],[16.34,43.71],[16.06,43.62],[16.08,43.55],[16.01,43.5]]]}},{"type":"Feature","properties":{"id":"HRV-09","nome":"Licko-Senjska","pais":"HRV","tipo":"County","lat":44.75,"lng":15.2},"geometry":{"type":"MultiPolygon","coordinates":[[[[15.29,44.36],[14.88,44.72],[14.92,44.96],[14.89,45.06],[15.02,45.07],[15.01,45.12],[15.19,45.13],[15.57,44.88],[15.53,44.83],[15.6,44.8],[15.47,44.74],[15.65,44.49],[15.59,44.46],[15.62,44.39],[15.55,44.33],[15.34,44.41],[15.29,44.36]]],[[[14.88,44.56],[14.73,44.7],[15.04,44.53],[15.08,44.48],[14.91,44.55],[15.05,44.44],[15.1,44.42],[15.04,44.48],[15.25,44.34],[15.17,44.37],[15.22,44.31],[15.13,44.31],[15.12,44.39],[14.9,44.49],[14.88,44.56]]]]}},{"type":"Feature","properties":{"id":"HRV-07","nome":"Bjelovarsko-bilogorska","pais":"HRV","tipo":"County","lat":45.72,"lng":16.99},"geometry":{"type":"Polygon","coordinates":[[[16.84,46.08],[17,45.93],[17.39,45.7],[17.49,45.69],[17.42,45.52],[17.03,45.5],[16.94,45.55],[16.91,45.47],[16.84,45.49],[16.87,45.53],[16.79,45.61],[16.5,45.72],[16.52,45.79],[16.69,45.84],[16.72,46.02],[16.84,46.08]]]}},{"type":"Feature","properties":{"id":"HRV-21","nome":"Grad Zagreb","pais":"HRV","tipo":"City","lat":45.83,"lng":16},"geometry":{"type":"Polygon","coordinates":[[[15.97,45.91],[16.14,45.97],[16.23,45.85],[16.19,45.79],[15.97,45.72],[15.92,45.62],[15.77,45.7],[15.85,45.81],[15.77,45.85],[15.82,45.91],[15.97,45.91]]]}},{"type":"Feature","properties":{"id":"HRV-122","nome":"Brodsko-Posavska","pais":"HRV","tipo":"County","lat":45.39,"lng":17.68},"geometry":{"type":"Polygon","coordinates":[[[17.88,45.47],[18.08,45.63],[18.21,45.6],[18.23,45.51],[18.39,45.52],[18.44,45.48],[18.16,45.41],[18.08,45.35],[18.08,45.27],[17.9,45.29],[17.75,45.19],[17.7,45.26],[17.39,45.39],[17.14,45.34],[16.93,45.48],[16.94,45.55],[17.03,45.5],[17.4,45.51],[17.43,45.57],[17.52,45.58],[17.88,45.47]]]}}]}