{"type":"FeatureCollection","features":[{"type":"Feature","properties":{"id":"HTI-NE","nome":"Nord-Est","pais":"HTI","tipo":"Department","lat":19.49,"lng":-71.91},"geometry":{"type":"Polygon","coordinates":[[[-71.76,19.71],[-71.7,19.41],[-71.78,19.33],[-71.75,19.28],[-71.89,19.28],[-72.08,19.45],[-72.11,19.62],[-72.05,19.71],[-71.86,19.72],[-71.9,19.67],[-71.82,19.66],[-71.84,19.71],[-71.76,19.71]]]}},{"type":"Feature","properties":{"id":"HTI-CE","nome":"Centre","pais":"HTI","tipo":"Department","lat":19.03,"lng":-72},"geometry":{"type":"Polygon","coordinates":[[[-71.75,19.28],[-71.64,19.21],[-71.66,19.12],[-71.87,18.96],[-71.73,18.88],[-71.76,18.7],[-71.95,18.74],[-72.11,18.71],[-72.37,18.87],[-72.25,18.88],[-72.25,19.24],[-72.2,19.3],[-72.12,19.26],[-71.98,19.34],[-71.75,19.28]]]}},{"type":"Feature","properties":{"id":"HTI-OU","nome":"Ouest","pais":"HTI","tipo":"Department","lat":18.55,"lng":-72.24},"geometry":{"type":"MultiPolygon","coordinates":[[[[-71.79,18.68],[-71.84,18.62],[-72.01,18.6],[-71.91,18.43],[-71.72,18.29],[-72.49,18.4],[-72.86,18.26],[-72.97,18.28],[-73.06,18.38],[-73.06,18.46],[-72.99,18.47],[-72.72,18.44],[-72.6,18.56],[-72.35,18.53],[-72.33,18.68],[-72.55,18.79],[-72.71,18.94],[-72.68,18.97],[-72.49,18.96],[-72.18,18.73],[-71.95,18.74],[-71.79,18.68]]],[[[-73.26,18.88],[-73.3,18.94],[-73.2,18.97],[-72.85,18.83],[-72.81,18.72],[-73.04,18.76],[-73.26,18.88]]]]}},{"type":"Feature","properties":{"id":"HTI-SE","nome":"Sud-Est","pais":"HTI","tipo":"Department","lat":18.29,"lng":-72.37},"geometry":{"type":"Polygon","coordinates":[[[-71.72,18.29],[-71.78,18.04],[-71.89,18.16],[-72.07,18.24],[-72.55,18.22],[-72.56,18.17],[-72.89,18.14],[-73.01,18.18],[-73.01,18.24],[-73,18.32],[-72.77,18.27],[-72.49,18.4],[-71.72,18.29]]]}},{"type":"Feature","properties":{"id":"HTI-SD","nome":"Sud","pais":"HTI","tipo":"Department","lat":18.29,"lng":-73.79},"geometry":{"type":"Polygon","coordinates":[[[-73.01,18.18],[-73.38,18.26],[-73.66,18.21],[-73.65,18.26],[-73.83,18.14],[-73.79,18.03],[-73.87,18.03],[-74.18,18.29],[-74.35,18.29],[-74.45,18.36],[-74.09,18.4],[-73.91,18.36],[-73.89,18.41],[-73.6,18.43],[-73.51,18.33],[-73.12,18.36],[-73.01,18.18]]]}},{"type":"Feature","properties":{"id":"HTI-GA","nome":"Grand'Anse","pais":"HTI","tipo":"Department","lat":18.51,"lng":-74.13},"geometry":{"type":"Polygon","coordinates":[[[-74.45,18.36],[-74.49,18.43],[-74.43,18.61],[-74.34,18.65],[-74.2,18.67],[-73.74,18.54],[-73.78,18.42],[-73.91,18.36],[-74.09,18.4],[-74.45,18.36]]]}},{"type":"Feature","properties":{"id":"HTI-NO","nome":"Nord-Ouest","pais":"HTI","tipo":"Department","lat":19.83,"lng":-73.02},"geometry":{"type":"Polygon","coordinates":[[[-73.12,19.63],[-73.41,19.64],[-73.47,19.72],[-73.37,19.81],[-73.4,19.83],[-73.17,19.94],[-72.97,19.9],[-72.78,19.94],[-72.57,19.88],[-72.83,19.73],[-73.07,19.73],[-73.12,19.63]]]}},{"type":"Feature","properties":{"id":"HTI-ND","nome":"Nord","pais":"HTI","tipo":"Department","lat":19.64,"lng":-72.33},"geometry":{"type":"Polygon","coordinates":[[[-72.57,19.88],[-72.39,19.81],[-72.33,19.72],[-72.22,19.79],[-72.06,19.72],[-72.11,19.57],[-72.08,19.45],[-71.98,19.34],[-72.14,19.26],[-72.33,19.57],[-72.45,19.53],[-72.51,19.57],[-72.68,19.81],[-72.57,19.88]]]}},{"type":"Feature","properties":{"id":"HTI-AR","nome":"L'Artibonite","pais":"HTI","tipo":"Department","lat":19.31,"lng":-72.51},"geometry":{"type":"Polygon","coordinates":[[[-72.71,18.94],[-72.82,19.08],[-72.71,19.12],[-72.8,19.23],[-72.71,19.29],[-72.77,19.39],[-72.68,19.41],[-73.12,19.63],[-73.07,19.73],[-72.83,19.73],[-72.68,19.81],[-72.51,19.57],[-72.45,19.53],[-72.33,19.57],[-72.23,19.41],[-72.25,18.88],[-72.37,18.87],[-72.49,18.96],[-72.71,18.94]]]}},{"type":"Feature","properties":{"id":"HTI-NI","nome":"Nippes","pais":"HTI","tipo":"Department","lat":18.43,"lng":-73.39},"geometry":{"type":"Polygon","coordinates":[[[-73.74,18.54],[-73.62,18.59],[-73.59,18.56],[-73.71,18.55],[-73.65,18.5],[-73.06,18.46],[-73.01,18.22],[-73.14,18.36],[-73.51,18.33],[-73.6,18.43],[-73.78,18.42],[-73.74,18.54]]]}}]}