{"type":"FeatureCollection","features":[{"type":"Feature","properties":{"id":"HUN-SZ","nome":"Szabolcs-Szatmár-Bereg","pais":"HUN","tipo":"County","lat":47.95,"lng":22.18},"geometry":{"type":"Polygon","coordinates":[[[22.88,47.95],[22.64,47.77],[22.45,47.79],[22.27,47.72],[22.15,47.58],[22.1,47.68],[22.05,47.64],[21.93,47.75],[21.84,47.68],[21.65,47.74],[21.54,47.81],[21.55,47.94],[21.27,47.91],[21.11,47.96],[21.24,48.05],[21.41,48.03],[21.48,48.18],[21.69,48.17],[21.93,48.24],[22.2,48.42],[22.27,48.4],[22.26,48.36],[22.36,48.24],[22.48,48.24],[22.61,48.1],[22.83,48.07],[22.88,47.95]],[[21.85,47.99],[21.66,48.03],[21.62,47.87],[21.84,47.84],[21.9,47.91],[21.9,47.99],[21.85,47.99]]]}},{"type":"Feature","properties":{"id":"HUN-BE","nome":"Békés","pais":"HUN","tipo":"County","lat":46.59,"lng":20.84},"geometry":{"type":"Polygon","coordinates":[[[21.42,46.66],[21.3,46.6],[21.25,46.48],[21.28,46.42],[21.18,46.38],[21.14,46.28],[21.03,46.23],[20.79,46.26],[20.73,46.38],[20.58,46.41],[20.62,46.54],[20.58,46.57],[20.59,46.75],[20.41,46.84],[20.46,46.89],[20.71,46.92],[20.74,47.08],[20.99,47.24],[21.27,47.15],[21.35,46.95],[21.67,46.99],[21.5,46.81],[21.5,46.7],[21.42,46.66]],[[21.17,46.67],[21.21,46.7],[21.16,46.82],[21.06,46.85],[20.98,46.77],[21,46.67],[21.17,46.67]]]}},{"type":"Feature","properties":{"id":"HUN-HB","nome":"Hajdú-Bihar","pais":"HUN","tipo":"County","lat":47.29,"lng":21.37},"geometry":{"type":"Polygon","coordinates":[[[22.15,47.58],[22.01,47.52],[22,47.39],[21.86,47.3],[21.76,47.11],[21.39,46.94],[21.29,47.02],[21.27,47.15],[20.99,47.24],[21.03,47.35],[20.98,47.57],[20.82,47.68],[21.03,47.78],[21.11,47.96],[21.27,47.91],[21.51,47.95],[21.56,47.92],[21.54,47.81],[21.65,47.74],[21.84,47.68],[21.93,47.75],[22.05,47.64],[22.1,47.68],[22.15,47.58]],[[21.55,47.67],[21.54,47.73],[21.48,47.69],[21.42,47.5],[21.49,47.5],[21.58,47.39],[21.84,47.47],[21.86,47.57],[21.79,47.64],[21.68,47.59],[21.61,47.71],[21.55,47.67]]]}},{"type":"Feature","properties":{"id":"HUN-CS","nome":"Csongrád","pais":"HUN","tipo":"County","lat":46.6,"lng":20.14},"geometry":{"type":"MultiPolygon","coordinates":[[[[20.79,46.26],[20.66,46.14],[20.47,46.17],[20.24,46.11],[20.11,46.15],[20.14,46.2],[20.23,46.16],[20.2,46.22],[20.27,46.26],[20.47,46.25],[20.6,46.38],[20.73,46.38],[20.79,46.26]]],[[[19.79,46.13],[19.65,46.25],[19.67,46.35],[19.85,46.38],[19.88,46.44],[19.82,46.56],[19.98,46.59],[20.01,46.77],[20.42,46.8],[20.59,46.75],[20.58,46.57],[20.62,46.54],[20.59,46.45],[20.46,46.53],[20.3,46.52],[20.24,46.41],[20.2,46.47],[20.22,46.32],[20.15,46.36],[20.01,46.32],[20.08,46.23],[20.06,46.15],[19.79,46.13]]]]}},{"type":"Feature","properties":{"id":"HUN-GS","nome":"Gyor-Moson-Sopron","pais":"HUN","tipo":"County","lat":47.72,"lng":17.17},"geometry":{"type":"Polygon","coordinates":[[[16.9,47.68],[17.08,47.71],[17,47.86],[17.18,48.02],[17.34,48],[17.68,47.79],[17.88,47.75],[17.93,47.55],[17.88,47.45],[17.82,47.49],[17.2,47.4],[17.15,47.44],[17.06,47.4],[17.05,47.45],[16.73,47.4],[16.63,47.45],[16.69,47.54],[16.63,47.62],[16.56,47.63],[16.68,47.64],[16.72,47.7],[16.9,47.68]],[[17.73,47.73],[17.58,47.71],[17.5,47.63],[17.59,47.59],[17.8,47.65],[17.77,47.73],[17.73,47.73]]]}},{"type":"Feature","properties":{"id":"HUN-SN","nome":"Sopron","pais":"HUN","tipo":"Urban county","lat":47.69,"lng":16.6},"geometry":{"type":"Polygon","coordinates":[[[16.57,47.75],[16.7,47.72],[16.68,47.64],[16.41,47.66],[16.57,47.75]]]}},{"type":"Feature","properties":{"id":"HUN-VA","nome":"Vas","pais":"HUN","tipo":"County","lat":47.17,"lng":16.81},"geometry":{"type":"Polygon","coordinates":[[[16.48,47.39],[16.63,47.45],[16.73,47.4],[17.05,47.45],[17.06,47.4],[17.15,47.44],[17.3,47.33],[17.2,47.25],[17.22,47.07],[16.61,46.92],[16.41,46.79],[16.37,46.7],[16.3,46.78],[16.33,46.84],[16.09,46.86],[16.27,47],[16.49,47],[16.42,47.02],[16.49,47.05],[16.45,47.08],[16.51,47.14],[16.41,47.2],[16.47,47.28],[16.43,47.4],[16.48,47.39]],[[16.66,47.29],[16.53,47.28],[16.6,47.15],[16.68,47.16],[16.66,47.29]]]}},{"type":"Feature","properties":{"id":"HUN-BK","nome":"Bács-Kiskun","pais":"HUN","tipo":"County","lat":46.61,"lng":19.47},"geometry":{"type":"Polygon","coordinates":[[[19.71,46.16],[19.53,46.16],[19.26,45.98],[19.09,46.02],[18.98,45.92],[18.8,45.92],[18.85,46.01],[18.8,46.15],[18.91,46.25],[18.92,46.5],[18.86,46.61],[19,46.71],[18.93,46.84],[18.99,47.07],[19.27,47.15],[19.33,47.12],[19.32,47.02],[19.46,47.12],[19.53,47.12],[19.65,47.01],[19.56,46.97],[19.69,46.79],[19.75,46.9],[19.88,46.98],[19.98,46.96],[20.08,47.02],[20.15,46.98],[20.11,46.95],[20.14,46.91],[20.01,46.85],[20.06,46.8],[19.97,46.73],[19.98,46.59],[19.82,46.56],[19.88,46.44],[19.85,46.38],[19.67,46.35],[19.65,46.25],[19.71,46.16]]]}},{"type":"Feature","properties":{"id":"HUN-SD","nome":"Szeged","pais":"HUN","tipo":"Urban county","lat":46.27,"lng":20.14},"geometry":{"type":"Polygon","coordinates":[[[20.11,46.15],[20.06,46.15],[20.08,46.23],[20.01,46.32],[20.15,46.36],[20.27,46.24],[20.2,46.22],[20.23,46.16],[20.14,46.2],[20.11,46.15]]]}},{"type":"Feature","properties":{"id":"HUN-ZA","nome":"Zala","pais":"HUN","tipo":"County","lat":46.67,"lng":16.8},"geometry":{"type":"Polygon","coordinates":[[[16.58,46.47],[16.37,46.64],[16.41,46.79],[16.65,46.93],[16.95,46.98],[17.01,47.03],[17.15,47.02],[17.14,46.68],[17.22,46.66],[17.18,46.44],[17.07,46.42],[16.95,46.56],[16.92,46.4],[17.07,46.36],[16.94,46.3],[16.58,46.47]],[[16.81,46.78],[16.91,46.8],[16.85,46.91],[16.77,46.9],[16.81,46.78]]]}},{"type":"Feature","properties":{"id":"HUN-SO","nome":"Somogy","pais":"HUN","tipo":"County","lat":46.36,"lng":17.55},"geometry":{"type":"Polygon","coordinates":[[[17.33,45.97],[17.21,46.12],[17.05,46.15],[16.88,46.31],[17.05,46.32],[17.04,46.42],[17.18,46.44],[17.22,46.66],[17.3,46.73],[18.07,46.97],[18.18,46.95],[18.22,46.79],[18.13,46.74],[18.04,46.52],[18.1,46.37],[17.72,46.2],[17.62,46.06],[17.71,45.86],[17.55,45.95],[17.33,45.97]],[[17.78,46.44],[17.71,46.36],[17.74,46.25],[17.88,46.33],[17.84,46.45],[17.78,46.44]]]}},{"type":"Feature","properties":{"id":"HUN-BA","nome":"Baranya","pais":"HUN","tipo":"County","lat":45.96,"lng":17.96},"geometry":{"type":"Polygon","coordinates":[[[17.86,45.77],[17.66,45.85],[17.71,45.89],[17.62,46.06],[17.72,46.2],[18.19,46.4],[18.33,46.41],[18.41,46.23],[18.58,46.24],[18.84,46.05],[18.82,45.91],[18.66,45.91],[18.41,45.74],[17.86,45.77]],[[18.36,46.06],[18.32,46.17],[18.2,46.16],[18.13,46.08],[18.24,45.98],[18.36,46.06]]]}},{"type":"Feature","properties":{"id":"HUN-BZ","nome":"Borsod-Abaúj-Zemplén","pais":"HUN","tipo":"County","lat":48.21,"lng":21.1},"geometry":{"type":"Polygon","coordinates":[[[20.8,48.57],[21.11,48.49],[21.44,48.56],[21.76,48.33],[22.16,48.4],[21.93,48.24],[21.69,48.17],[21.46,48.17],[21.41,48.03],[21.14,48.01],[21.03,47.78],[20.89,47.68],[20.74,47.68],[20.61,47.7],[20.42,47.97],[20.58,48.08],[20.87,48.02],[20.9,48.06],[20.83,48.19],[20.71,48.22],[20.47,48.11],[20.42,48.15],[20.26,48.09],[20.04,48.18],[20.32,48.28],[20.48,48.53],[20.8,48.57]]]}},{"type":"Feature","properties":{"id":"HUN-NO","nome":"Nógrád","pais":"HUN","tipo":"County","lat":47.97,"lng":19.51},"geometry":{"type":"Polygon","coordinates":[[[19.91,48.12],[20.04,48.18],[20.1,48.14],[19.99,48.09],[20.03,48.01],[19.93,47.93],[19.46,47.71],[19.42,47.82],[19.08,47.86],[18.94,47.95],[18.97,47.98],[18.93,48.05],[19.43,48.09],[19.51,48.2],[19.62,48.23],[19.77,48.19],[19.71,48.05],[19.79,48.04],[19.91,48.12]]]}},{"type":"Feature","properties":{"id":"HUN-ST","nome":"Salgótarján","pais":"HUN","tipo":"Urban county","lat":48.11,"lng":19.79},"geometry":{"type":"Polygon","coordinates":[[[19.77,48.16],[19.91,48.12],[19.79,48.04],[19.71,48.05],[19.77,48.16]]]}},{"type":"Feature","properties":{"id":"HUN-KE","nome":"Komárom-Esztergom","pais":"HUN","tipo":"County","lat":47.67,"lng":18.22},"geometry":{"type":"Polygon","coordinates":[[[18.66,47.78],[18.82,47.83],[18.93,47.73],[18.85,47.72],[18.86,47.67],[18.76,47.66],[18.68,47.56],[18.52,47.56],[18.4,47.62],[18.37,47.56],[18.46,47.51],[18.36,47.42],[18.19,47.46],[18.1,47.36],[17.99,47.34],[17.88,47.4],[17.93,47.55],[17.88,47.75],[18.66,47.78]]]}},{"type":"Feature","properties":{"id":"HUN-PE","nome":"Pest","pais":"HUN","tipo":"County","lat":47.43,"lng":19.44},"geometry":{"type":"Polygon","coordinates":[[[18.81,47.83],[18.75,47.87],[18.74,47.97],[18.93,48.05],[18.96,47.92],[19.42,47.82],[19.46,47.71],[19.62,47.72],[19.68,47.54],[20,47.33],[20.08,47.2],[20.05,47.1],[20.2,47.01],[19.77,46.95],[19.53,47.12],[19.46,47.12],[19.32,47.02],[19.33,47.12],[19.27,47.15],[18.97,47.03],[18.88,47.15],[18.95,47.37],[19.14,47.36],[19.33,47.49],[19.04,47.6],[18.93,47.57],[18.96,47.4],[18.84,47.45],[18.86,47.39],[18.82,47.36],[18.68,47.56],[18.76,47.66],[18.86,47.67],[18.85,47.72],[18.93,47.73],[18.81,47.83]]]}},{"type":"Feature","properties":{"id":"HUN-JN","nome":"Jász-Nagykun-Szolnok","pais":"HUN","tipo":"County","lat":47.21,"lng":20.52},"geometry":{"type":"Polygon","coordinates":[[[20.77,47.67],[20.98,47.57],[21.03,47.35],[20.99,47.24],[20.74,47.08],[20.69,46.92],[20.46,46.89],[20.42,46.8],[20.32,46.76],[20,46.81],[20.2,47.01],[20.08,47.06],[20.06,47.15],[20.27,47.1],[20.29,47.22],[20.13,47.34],[20.02,47.25],[20,47.33],[19.68,47.54],[19.67,47.6],[20,47.66],[20.02,47.58],[20.2,47.61],[20.4,47.43],[20.77,47.67]]]}},{"type":"Feature","properties":{"id":"HUN-FE","nome":"Fejér","pais":"HUN","tipo":"County","lat":46.99,"lng":18.65},"geometry":{"type":"Polygon","coordinates":[[[18.18,46.95],[18.23,47.13],[18.09,47.28],[18.13,47.44],[18.36,47.42],[18.52,47.56],[18.68,47.56],[18.92,47.29],[18.88,47.15],[18.97,47.02],[18.84,46.98],[18.83,46.92],[18.93,46.85],[18.74,46.73],[18.66,46.7],[18.56,46.78],[18.48,46.75],[18.22,46.79],[18.18,46.95]],[[18.5,47.28],[18.46,47.31],[18.33,47.2],[18.43,47.07],[18.58,47.15],[18.56,47.26],[18.5,47.28]]]}},{"type":"Feature","properties":{"id":"HUN-VE","nome":"Veszprém","pais":"HUN","tipo":"County","lat":47.14,"lng":17.66},"geometry":{"type":"Polygon","coordinates":[[[18.1,47.36],[18.11,47.25],[18.23,47.13],[18.18,46.95],[18.07,46.97],[17.3,46.73],[17.22,46.66],[17.14,46.68],[17.15,47.01],[17.1,47.05],[17.22,47.07],[17.2,47.25],[17.3,47.33],[17.2,47.4],[17.82,47.49],[17.97,47.35],[18.1,47.36]],[[18.01,47.06],[17.93,47.23],[17.83,47.19],[17.88,47.02],[18.01,47.06]]]}},{"type":"Feature","properties":{"id":"HUN-TO","nome":"Tolna","pais":"HUN","tipo":"County","lat":46.51,"lng":18.52},"geometry":{"type":"Polygon","coordinates":[[[18.66,46.7],[18.93,46.85],[19,46.72],[18.86,46.61],[18.92,46.5],[18.91,46.25],[18.82,46.22],[18.81,46.11],[18.68,46.13],[18.58,46.24],[18.41,46.23],[18.33,46.41],[18.1,46.37],[18.05,46.47],[18.16,46.78],[18.33,46.8],[18.48,46.75],[18.56,46.78],[18.66,46.7]],[[18.77,46.36],[18.72,46.41],[18.61,46.34],[18.7,46.3],[18.74,46.34],[18.89,46.33],[18.77,46.36]]]}},{"type":"Feature","properties":{"id":"HUN-SK","nome":"Szolnok","pais":"HUN","tipo":"Urban county","lat":47.21,"lng":20.17},"geometry":{"type":"Polygon","coordinates":[[[20.06,47.15],[20.08,47.2],[20.02,47.25],[20.13,47.34],[20.26,47.25],[20.25,47.19],[20.3,47.15],[20.22,47.1],[20.06,47.15]]]}},{"type":"Feature","properties":{"id":"HUN-BU","nome":"Budapest","pais":"HUN","tipo":"Capital City","lat":47.48,"lng":19.13},"geometry":{"type":"Polygon","coordinates":[[[19.09,47.61],[19.33,47.49],[19.14,47.36],[18.95,47.37],[18.93,47.57],[19.09,47.61]]]}},{"type":"Feature","properties":{"id":"HUN-ED","nome":"Érd","pais":"HUN","tipo":"Urban county","lat":47.37,"lng":18.89},"geometry":{"type":"Polygon","coordinates":[[[18.96,47.4],[18.9,47.3],[18.82,47.36],[18.86,47.39],[18.84,47.45],[18.96,47.4]]]}},{"type":"Feature","properties":{"id":"HUN-HE","nome":"Heves","pais":"HUN","tipo":"County","lat":47.86,"lng":20.18},"geometry":{"type":"Polygon","coordinates":[[[20.77,47.67],[20.4,47.43],[20.2,47.61],[20.02,47.58],[20,47.66],[19.67,47.6],[19.58,47.74],[19.76,47.88],[19.96,47.95],[20.03,48.01],[19.99,48.09],[20.12,48.15],[20.35,48.1],[20.42,48.15],[20.49,48.05],[20.42,47.97],[20.39,48.04],[20.3,48],[20.33,47.81],[20.45,47.88],[20.61,47.7],[20.77,47.67]]]}},{"type":"Feature","properties":{"id":"HUN-EG","nome":"Eger","pais":"HUN","tipo":"Urban county","lat":47.93,"lng":20.38},"geometry":{"type":"Polygon","coordinates":[[[20.42,47.97],[20.47,47.9],[20.33,47.81],[20.3,48],[20.39,48.04],[20.42,47.97]]]}},{"type":"Feature","properties":{"id":"HUN-MI","nome":"Miskolc","pais":"HUN","tipo":"Urban county","lat":48.12,"lng":20.73},"geometry":{"type":"Polygon","coordinates":[[[20.49,48.05],[20.51,48.14],[20.71,48.22],[20.83,48.19],[20.9,48.04],[20.78,48],[20.64,48.08],[20.49,48.05]]]}},{"type":"Feature","properties":{"id":"HUN-HV","nome":"Hódmezôvásárhely","pais":"HUN","tipo":"Urban county","lat":46.38,"lng":20.39},"geometry":{"type":"Polygon","coordinates":[[[20.59,46.45],[20.62,46.41],[20.47,46.25],[20.22,46.28],[20.2,46.47],[20.24,46.41],[20.3,46.52],[20.46,46.53],[20.59,46.45]]]}},{"type":"Feature","properties":{"id":"HUN-DU","nome":"Dunaújváros","pais":"HUN","tipo":"Urban county","lat":46.95,"lng":18.9},"geometry":{"type":"Polygon","coordinates":[[[18.96,46.99],[18.93,46.85],[18.84,46.89],[18.84,46.98],[18.96,46.99]]]}},{"type":"Feature","properties":{"id":"HUN-KM","nome":"Kecskemét","pais":"HUN","tipo":"Urban county","lat":46.93,"lng":19.67},"geometry":{"type":"Polygon","coordinates":[[[19.65,47.01],[19.82,46.95],[19.69,46.79],[19.56,46.97],[19.65,47.01]]]}},{"type":"Feature","properties":{"id":"HUN-TB","nome":"Tatabánya","pais":"HUN","tipo":"Urban county","lat":47.57,"lng":18.45},"geometry":{"type":"Polygon","coordinates":[[[18.52,47.56],[18.46,47.51],[18.37,47.6],[18.49,47.61],[18.52,47.56]]]}},{"type":"Feature","properties":{"id":"HUN-GY","nome":"Gyôr","pais":"HUN","tipo":"Urban county","lat":47.66,"lng":17.67},"geometry":{"type":"Polygon","coordinates":[[[17.68,47.74],[17.77,47.73],[17.8,47.65],[17.59,47.59],[17.5,47.63],[17.68,47.74]]]}},{"type":"Feature","properties":{"id":"HUN-SH","nome":"Szombathely","pais":"HUN","tipo":"Urban county","lat":47.23,"lng":16.63},"geometry":{"type":"Polygon","coordinates":[[[16.63,47.29],[16.7,47.24],[16.68,47.16],[16.6,47.15],[16.53,47.27],[16.63,47.29]]]}},{"type":"Feature","properties":{"id":"HUN-ZE","nome":"Zalaegerszeg","pais":"HUN","tipo":"Urban county","lat":46.85,"lng":16.84},"geometry":{"type":"Polygon","coordinates":[[[16.85,46.91],[16.91,46.8],[16.81,46.78],[16.77,46.9],[16.85,46.91]]]}},{"type":"Feature","properties":{"id":"HUN-NK","nome":"Nagykanizsa","pais":"HUN","tipo":"Urban county","lat":46.45,"lng":16.99},"geometry":{"type":"Polygon","coordinates":[[[16.99,46.56],[17.07,46.42],[17.02,46.38],[16.92,46.4],[16.92,46.52],[16.99,46.56]]]}},{"type":"Feature","properties":{"id":"HUN-VM","nome":"Veszprém","pais":"HUN","tipo":"Urban county","lat":47.12,"lng":17.91},"geometry":{"type":"Polygon","coordinates":[[[17.93,47.23],[18.01,47.06],[17.93,47.01],[17.82,47.1],[17.83,47.17],[17.93,47.23]]]}},{"type":"Feature","properties":{"id":"HUN-KV","nome":"Kaposvár","pais":"HUN","tipo":"Urban county","lat":46.36,"lng":17.8},"geometry":{"type":"Polygon","coordinates":[[[17.75,46.45],[17.84,46.45],[17.87,46.38],[17.81,46.25],[17.74,46.25],[17.71,46.36],[17.75,46.45]]]}},{"type":"Feature","properties":{"id":"HUN-PS","nome":"Pécs","pais":"HUN","tipo":"Urban county","lat":46.07,"lng":18.23},"geometry":{"type":"Polygon","coordinates":[[[18.32,46.17],[18.36,46.06],[18.24,45.98],[18.13,46.04],[18.16,46.14],[18.32,46.17]]]}},{"type":"Feature","properties":{"id":"HUN-SS","nome":"Szekszárd","pais":"HUN","tipo":"Urban county","lat":46.36,"lng":18.7},"geometry":{"type":"Polygon","coordinates":[[[18.74,46.42],[18.89,46.33],[18.62,46.33],[18.74,46.42]]]}},{"type":"Feature","properties":{"id":"HUN-SF","nome":"Székesfehérvár","pais":"HUN","tipo":"Urban county","lat":47.2,"lng":18.46},"geometry":{"type":"Polygon","coordinates":[[[18.46,47.31],[18.56,47.26],[18.58,47.15],[18.43,47.07],[18.33,47.2],[18.46,47.31]]]}},{"type":"Feature","properties":{"id":"HUN-BC","nome":"Békéscsaba","pais":"HUN","tipo":"Urban county","lat":46.75,"lng":21.1},"geometry":{"type":"Polygon","coordinates":[[[21.06,46.85],[21.2,46.78],[21.17,46.67],[21,46.67],[20.98,46.77],[21.06,46.85]]]}},{"type":"Feature","properties":{"id":"HUN-DE","nome":"Debrecen","pais":"HUN","tipo":"Urban county","lat":47.53,"lng":21.62},"geometry":{"type":"Polygon","coordinates":[[[21.54,47.73],[21.53,47.68],[21.61,47.71],[21.68,47.59],[21.79,47.64],[21.83,47.61],[21.84,47.47],[21.58,47.39],[21.49,47.5],[21.42,47.5],[21.48,47.69],[21.54,47.73]]]}},{"type":"Feature","properties":{"id":"HUN-NY","nome":"Nyíregyháza","pais":"HUN","tipo":"Urban county","lat":47.94,"lng":21.76},"geometry":{"type":"Polygon","coordinates":[[[21.77,48.04],[21.9,47.99],[21.84,47.84],[21.62,47.87],[21.66,48.03],[21.77,48.04]]]}}]}