{"type":"FeatureCollection","features":[{"type":"Feature","properties":{"id":"IRL-DL","nome":"Donegal","pais":"IRL","tipo":"County","lat":54.89,"lng":-8.03},"geometry":{"type":"Polygon","coordinates":[[[-7.25,55.07],[-7.41,55],[-7.54,54.74],[-7.93,54.7],[-7.85,54.63],[-7.71,54.62],[-7.85,54.54],[-8.25,54.46],[-8.3,54.48],[-8.21,54.5],[-8.27,54.52],[-8.13,54.65],[-8.46,54.56],[-8.39,54.62],[-8.79,54.66],[-8.66,54.76],[-8.41,54.76],[-8.56,54.82],[-8.49,54.85],[-8.33,54.83],[-8.38,54.86],[-8.34,54.9],[-8.45,54.92],[-8.37,54.95],[-8.46,55],[-8.35,55.06],[-8.32,55.03],[-8.28,55.16],[-8.14,55.16],[-8.16,55.12],[-7.98,55.22],[-8,55.17],[-7.91,55.19],[-7.86,55.14],[-7.87,55.21],[-7.8,55.26],[-7.82,55.19],[-7.72,55.17],[-7.7,55.1],[-7.7,55.21],[-7.79,55.22],[-7.64,55.27],[-7.53,55.12],[-7.64,55.05],[-7.56,55.04],[-7.68,54.95],[-7.46,55.06],[-7.46,55.14],[-7.55,55.22],[-7.52,55.29],[-7.26,55.28],[-7.38,55.39],[-6.94,55.24],[-7.25,55.07]]]}},{"type":"Feature","properties":{"id":"IRL-LM","nome":"Leitrim","pais":"IRL","tipo":"County","lat":54.05,"lng":-7.99},"geometry":{"type":"Polygon","coordinates":[[[-8.17,54.46],[-7.94,54.3],[-8.05,54.24],[-8.04,54.19],[-7.59,54.02],[-7.6,53.93],[-7.86,53.81],[-7.92,53.81],[-8.02,53.94],[-8.09,53.92],[-8.05,54.09],[-8.31,54.17],[-8.39,54.34],[-8.35,54.41],[-8.41,54.42],[-8.38,54.47],[-8.17,54.46]]]}},{"type":"Feature","properties":{"id":"IRL-CN","nome":"Cavan","pais":"IRL","tipo":"County","lat":53.96,"lng":-7.27},"geometry":{"type":"Polygon","coordinates":[[[-7.94,54.3],[-7.88,54.29],[-7.86,54.21],[-7.61,54.14],[-7.01,54.1],[-6.75,53.91],[-6.96,53.87],[-6.91,53.81],[-6.97,53.78],[-7.39,53.78],[-7.57,53.86],[-7.59,54.02],[-8.04,54.19],[-8.05,54.24],[-7.94,54.3]]]}},{"type":"Feature","properties":{"id":"IRL-MN","nome":"Monaghan","pais":"IRL","tipo":"Administrative County","lat":54.21,"lng":-6.94},"geometry":{"type":"Polygon","coordinates":[[[-7.02,54.41],[-6.88,54.34],[-6.88,54.28],[-6.79,54.2],[-6.64,54.17],[-6.67,54.07],[-6.55,53.98],[-6.75,53.91],[-7.01,54.1],[-7.32,54.11],[-7.33,54.15],[-7.28,54.13],[-7.25,54.2],[-7.15,54.22],[-7.19,54.33],[-7.02,54.41]]]}},{"type":"Feature","properties":{"id":"IRL-LH","nome":"Louth","pais":"IRL","tipo":"County","lat":53.93,"lng":-6.49},"geometry":{"type":"Polygon","coordinates":[[[-6.35,54.11],[-6.11,54.01],[-6.16,53.97],[-6.36,54.02],[-6.37,53.9],[-6.24,53.87],[-6.22,53.8],[-6.25,53.73],[-6.45,53.72],[-6.45,53.76],[-6.68,53.91],[-6.55,53.98],[-6.6,54.05],[-6.38,54.06],[-6.35,54.11]]]}},{"type":"Feature","properties":{"id":"IRL-D","nome":"Dublin","pais":"IRL","tipo":"County","lat":53.37,"lng":-6.26},"geometry":{"type":"Polygon","coordinates":[[[-6.15,53.39],[-6.22,53.36],[-6.18,53.32],[-6.38,53.34],[-6.28,53.41],[-6.15,53.39]]]}},{"type":"Feature","properties":{"id":"IRL-D2","nome":"Dún Laoghaire–Rathdown","pais":"IRL","tipo":"County","lat":53.26,"lng":-6.19},"geometry":{"type":"Polygon","coordinates":[[[-6.18,53.32],[-6.1,53.29],[-6.09,53.2],[-6.29,53.22],[-6.27,53.31],[-6.18,53.32]]]}},{"type":"Feature","properties":{"id":"IRL-WW","nome":"Wicklow","pais":"IRL","tipo":"County","lat":52.99,"lng":-6.39},"geometry":{"type":"Polygon","coordinates":[[[-6.09,53.2],[-6.03,53.11],[-6.05,53.01],[-5.99,52.96],[-6.15,52.74],[-6.37,52.79],[-6.54,52.68],[-6.69,52.77],[-6.66,52.83],[-6.57,52.81],[-6.5,52.87],[-6.73,52.92],[-6.78,52.98],[-6.72,53.06],[-6.47,53.22],[-6.33,53.18],[-6.09,53.2]]]}},{"type":"Feature","properties":{"id":"IRL-WX","nome":"Wexford","pais":"IRL","tipo":"County","lat":52.44,"lng":-6.59},"geometry":{"type":"Polygon","coordinates":[[[-6.15,52.74],[-6.22,52.67],[-6.21,52.55],[-6.37,52.34],[-6.5,52.36],[-6.41,52.29],[-6.37,52.32],[-6.32,52.24],[-6.36,52.19],[-6.81,52.21],[-6.76,52.26],[-6.95,52.13],[-6.9,52.17],[-7.02,52.29],[-6.77,52.62],[-6.61,52.71],[-6.49,52.69],[-6.37,52.79],[-6.15,52.74]]]}},{"type":"Feature","properties":{"id":"IRL-KK","nome":"Kilkenny","pais":"IRL","tipo":"County","lat":52.58,"lng":-7.29},"geometry":{"type":"Polygon","coordinates":[[[-6.99,52.28],[-7.22,52.25],[-7.36,52.34],[-7.46,52.47],[-7.42,52.51],[-7.47,52.62],[-7.67,52.78],[-7.14,52.87],[-7.05,52.79],[-7.09,52.73],[-6.98,52.67],[-6.92,52.57],[-6.99,52.28]]]}},{"type":"Feature","properties":{"id":"IRL-WD","nome":"Waterford","pais":"IRL","tipo":"County","lat":52.2,"lng":-7.59},"geometry":{"type":"Polygon","coordinates":[[[-6.99,52.27],[-6.96,52.18],[-7.02,52.14],[-7.11,52.13],[-7.11,52.17],[-7.6,52.1],[-7.63,52.06],[-7.55,52.05],[-7.59,51.99],[-7.72,51.94],[-7.91,51.98],[-8.06,52.13],[-8.15,52.15],[-7.98,52.24],[-7.75,52.23],[-7.77,52.34],[-7.36,52.34],[-7.1,52.21],[-6.99,52.27]]]}},{"type":"Feature","properties":{"id":"IRL-CO","nome":"Cork","pais":"IRL","tipo":"County","lat":51.94,"lng":-8.84},"geometry":{"type":"Polygon","coordinates":[[[-7.85,51.98],[-7.92,51.91],[-7.89,51.88],[-8.13,51.8],[-8.25,51.81],[-8.18,51.86],[-8.19,51.9],[-8.49,51.92],[-8.54,51.87],[-8.35,51.87],[-8.3,51.76],[-8.48,51.68],[-8.56,51.71],[-8.5,51.69],[-8.53,51.61],[-8.76,51.64],[-8.69,51.63],[-8.7,51.58],[-8.85,51.6],[-8.93,51.54],[-9.12,51.56],[-9.22,51.49],[-9.38,51.47],[-9.32,51.54],[-9.4,51.5],[-9.44,51.56],[-9.82,51.45],[-9.83,51.49],[-9.55,51.61],[-9.85,51.55],[-9.46,51.68],[-9.44,51.72],[-9.56,51.76],[-9.55,51.72],[-9.63,51.69],[-10.16,51.59],[-9.95,51.75],[-9.86,51.75],[-9.78,51.69],[-9.32,51.84],[-9.3,51.94],[-9.13,51.98],[-9.21,52.02],[-9.18,52.08],[-9.27,52.23],[-9.13,52.33],[-8.97,52.29],[-8.69,52.38],[-8.52,52.28],[-8.33,52.32],[-8.2,52.29],[-8.1,52.22],[-8.15,52.14],[-7.85,51.98]]]}},{"type":"Feature","properties":{"id":"IRL-CO2","nome":"Cork","pais":"IRL","tipo":"City","lat":51.89,"lng":-8.47},"geometry":{"type":"Polygon","coordinates":[[[-8.39,51.89],[-8.41,51.85],[-8.54,51.87],[-8.49,51.92],[-8.39,51.89]]]}},{"type":"Feature","properties":{"id":"IRL-KY","nome":"Kerry","pais":"IRL","tipo":"County","lat":52.12,"lng":-9.55},"geometry":{"type":"Polygon","coordinates":[[[-9.86,51.75],[-9.58,51.88],[-10.14,51.74],[-10.22,51.78],[-10.18,51.81],[-10.23,51.85],[-10.34,51.79],[-10.4,51.88],[-10.25,51.91],[-10.31,51.95],[-10.27,51.99],[-9.76,52.15],[-10.44,52.1],[-10.46,52.18],[-10.37,52.18],[-10.37,52.23],[-10.17,52.29],[-10.17,52.23],[-10.1,52.24],[-10.06,52.31],[-9.95,52.24],[-9.74,52.25],[-9.87,52.27],[-9.83,52.38],[-9.95,52.41],[-9.63,52.47],[-9.68,52.49],[-9.65,52.57],[-9.36,52.58],[-9.3,52.51],[-9.33,52.35],[-9.21,52.28],[-9.27,52.23],[-9.18,52.08],[-9.21,52.03],[-9.12,51.99],[-9.29,51.94],[-9.28,51.88],[-9.45,51.79],[-9.81,51.69],[-9.86,51.75]]]}},{"type":"Feature","properties":{"id":"IRL-LK","nome":"Limerick","pais":"IRL","tipo":"County","lat":52.52,"lng":-8.76},"geometry":{"type":"Polygon","coordinates":[[[-9.36,52.58],[-8.75,52.67],[-8.59,52.62],[-8.48,52.76],[-8.45,52.69],[-8.19,52.67],[-8.23,52.52],[-8.39,52.45],[-8.24,52.41],[-8.16,52.31],[-8.5,52.28],[-8.67,52.37],[-8.79,52.38],[-8.97,52.29],[-9.12,52.33],[-9.22,52.29],[-9.33,52.35],[-9.3,52.51],[-9.36,52.58]]]}},{"type":"Feature","properties":{"id":"IRL-CE","nome":"Clare","pais":"IRL","tipo":"County","lat":52.89,"lng":-9.11},"geometry":{"type":"Polygon","coordinates":[[[-8.75,52.67],[-8.96,52.69],[-8.94,52.78],[-9.15,52.62],[-9.29,52.59],[-9.33,52.6],[-9.28,52.64],[-9.43,52.61],[-9.58,52.67],[-9.55,52.64],[-9.71,52.58],[-9.94,52.56],[-9.5,52.75],[-9.35,52.93],[-9.48,52.94],[-9.25,53.15],[-9.16,53.11],[-9.07,53.12],[-9.13,53.16],[-9,53.15],[-9.02,53.11],[-8.89,53.06],[-8.86,52.97],[-8.6,53.03],[-8.28,52.97],[-8.4,52.9],[-8.51,52.71],[-8.75,52.67]]]}},{"type":"Feature","properties":{"id":"IRL-G","nome":"Galway","pais":"IRL","tipo":"County","lat":53.4,"lng":-8.62},"geometry":{"type":"Polygon","coordinates":[[[-9,53.15],[-9.05,53.17],[-8.94,53.15],[-8.89,53.22],[-9.05,53.22],[-8.91,53.26],[-8.92,53.3],[-9.04,53.33],[-9.12,53.26],[-9.47,53.23],[-9.57,53.29],[-9.61,53.24],[-9.62,53.32],[-9.56,53.34],[-9.6,53.36],[-9.55,53.39],[-9.63,53.33],[-9.65,53.39],[-9.74,53.31],[-9.89,53.32],[-9.8,53.42],[-9.96,53.38],[-10.18,53.41],[-10.01,53.48],[-10.2,53.54],[-10,53.55],[-10.05,53.6],[-10.01,53.6],[-9.56,53.61],[-9.19,53.48],[-8.97,53.65],[-8.47,53.71],[-8.28,53.57],[-8.18,53.3],[-7.97,53.22],[-8.35,52.97],[-8.6,53.03],[-8.86,52.97],[-8.89,53.06],[-9.02,53.11],[-9,53.15]]]}},{"type":"Feature","properties":{"id":"IRL-G2","nome":"Galway","pais":"IRL","tipo":"City","lat":53.3,"lng":-9.03},"geometry":{"type":"Polygon","coordinates":[[[-8.94,53.26],[-9.12,53.26],[-9.04,53.33],[-8.92,53.3],[-8.94,53.26]]]}},{"type":"Feature","properties":{"id":"IRL-MO","nome":"Mayo","pais":"IRL","tipo":"County","lat":53.9,"lng":-9.23},"geometry":{"type":"Polygon","coordinates":[[[-9.7,53.6],[-9.91,53.65],[-9.91,53.76],[-9.57,53.8],[-9.62,53.82],[-9.57,53.9],[-9.94,53.88],[-9.92,53.95],[-9.79,53.95],[-9.9,54.03],[-9.83,54.11],[-9.95,54.07],[-9.99,54.1],[-9.91,54.12],[-9.99,54.21],[-10.09,54.16],[-10.07,54.09],[-10.13,54.11],[-10.06,54.22],[-10.12,54.24],[-10.01,54.3],[-9.88,54.26],[-9.98,54.24],[-9.91,54.2],[-9.84,54.28],[-9.77,54.26],[-9.84,54.33],[-9.32,54.32],[-9.22,54.28],[-9.14,54.15],[-8.95,54.14],[-8.92,54.11],[-9,54.03],[-8.82,53.97],[-8.59,54.01],[-8.58,53.96],[-8.68,53.96],[-8.63,53.88],[-8.73,53.82],[-8.71,53.72],[-8.97,53.64],[-9.13,53.48],[-9.56,53.61],[-9.7,53.6]]]}},{"type":"Feature","properties":{"id":"IRL-SO","nome":"Sligo","pais":"IRL","tipo":"County","lat":54.13,"lng":-8.49},"geometry":{"type":"Polygon","coordinates":[[[-9.13,54.17],[-9.02,54.29],[-8.68,54.27],[-8.51,54.21],[-8.62,54.26],[-8.47,54.28],[-8.57,54.31],[-8.52,54.33],[-8.67,54.35],[-8.47,54.48],[-8.35,54.41],[-8.39,54.35],[-8.34,54.2],[-8.16,54.1],[-8.39,54],[-8.34,53.92],[-8.45,53.91],[-8.65,54.03],[-8.82,53.97],[-9,54.03],[-8.92,54.12],[-9.13,54.17]]]}},{"type":"Feature","properties":{"id":"IRL-MH","nome":"Meath","pais":"IRL","tipo":"County","lat":53.63,"lng":-6.71},"geometry":{"type":"Polygon","coordinates":[[[-6.25,53.73],[-6.2,53.63],[-6.41,53.57],[-6.33,53.49],[-6.46,53.39],[-6.96,53.45],[-7.07,53.38],[-7.18,53.43],[-7.06,53.47],[-6.95,53.65],[-7.16,53.69],[-7.34,53.8],[-6.97,53.78],[-6.91,53.81],[-6.96,53.87],[-6.73,53.92],[-6.45,53.76],[-6.45,53.72],[-6.25,53.73]]]}},{"type":"Feature","properties":{"id":"IRL-D3","nome":"Fingal","pais":"IRL","tipo":"County","lat":53.49,"lng":-6.28},"geometry":{"type":"Polygon","coordinates":[[[-6.2,53.63],[-6.07,53.54],[-6.19,53.46],[-6.06,53.37],[-6.22,53.42],[-6.35,53.36],[-6.47,53.37],[-6.33,53.49],[-6.41,53.57],[-6.2,53.63]]]}},{"type":"Feature","properties":{"id":"IRL-KE","nome":"Kildare","pais":"IRL","tipo":"County","lat":53.14,"lng":-6.8},"geometry":{"type":"Polygon","coordinates":[[[-6.73,52.92],[-6.88,52.86],[-7.08,53],[-7.06,53.16],[-7.14,53.18],[-7.01,53.21],[-7.06,53.22],[-6.99,53.31],[-7.07,53.37],[-7.05,53.4],[-6.92,53.45],[-6.46,53.39],[-6.53,53.28],[-6.47,53.22],[-6.78,52.99],[-6.73,52.92]]]}},{"type":"Feature","properties":{"id":"IRL-CW","nome":"Carlow","pais":"IRL","tipo":"County","lat":52.72,"lng":-6.79},"geometry":{"type":"Polygon","coordinates":[[[-6.84,52.86],[-6.73,52.92],[-6.5,52.87],[-6.57,52.81],[-6.66,52.83],[-6.69,52.77],[-6.61,52.71],[-6.65,52.66],[-6.77,52.62],[-6.86,52.47],[-6.92,52.47],[-6.98,52.67],[-7.09,52.73],[-6.94,52.83],[-6.93,52.88],[-6.84,52.86]]]}},{"type":"Feature","properties":{"id":"IRL-LS","nome":"Laoighis","pais":"IRL","tipo":"County","lat":53.01,"lng":-7.33},"geometry":{"type":"Polygon","coordinates":[[[-6.93,52.88],[-6.94,52.83],[-7.05,52.79],[-7.18,52.89],[-7.45,52.79],[-7.56,52.82],[-7.67,52.78],[-7.71,52.85],[-7.66,52.93],[-7.73,52.96],[-7.59,53.09],[-7.63,53.16],[-7.37,53.21],[-7.28,53.13],[-7.07,53.16],[-7.08,53],[-6.93,52.88]]]}},{"type":"Feature","properties":{"id":"IRL-D4","nome":"South Dublin","pais":"IRL","tipo":"County","lat":53.28,"lng":-6.4},"geometry":{"type":"Polygon","coordinates":[[[-6.47,53.22],[-6.53,53.28],[-6.47,53.37],[-6.36,53.37],[-6.37,53.33],[-6.26,53.29],[-6.33,53.18],[-6.47,53.22]]]}},{"type":"Feature","properties":{"id":"IRL-OY","nome":"Offaly","pais":"IRL","tipo":"County","lat":53.26,"lng":-7.53},"geometry":{"type":"Polygon","coordinates":[[[-7.07,53.38],[-6.99,53.31],[-7.06,53.23],[-7.03,53.19],[-7.26,53.13],[-7.37,53.21],[-7.63,53.16],[-7.59,53.09],[-7.73,52.96],[-7.81,52.97],[-7.97,52.85],[-8.03,52.9],[-7.92,53.08],[-8.08,53.17],[-7.98,53.21],[-8.05,53.28],[-7.94,53.37],[-7.76,53.35],[-7.62,53.41],[-7.44,53.32],[-7.18,53.43],[-7.07,53.38]]]}},{"type":"Feature","properties":{"id":"IRL-WH","nome":"Westmeath","pais":"IRL","tipo":"County","lat":53.53,"lng":-7.46},"geometry":{"type":"Polygon","coordinates":[[[-7.34,53.8],[-7.16,53.69],[-6.95,53.65],[-7.06,53.47],[-7.43,53.33],[-7.53,53.33],[-7.62,53.41],[-7.76,53.35],[-7.94,53.37],[-7.96,53.52],[-7.66,53.54],[-7.56,53.62],[-7.6,53.66],[-7.34,53.8]]]}},{"type":"Feature","properties":{"id":"IRL-LD","nome":"Longford","pais":"IRL","tipo":"County","lat":53.72,"lng":-7.7},"geometry":{"type":"Polygon","coordinates":[[[-7.39,53.78],[-7.38,53.73],[-7.6,53.66],[-7.56,53.62],[-7.66,53.54],[-7.96,53.52],[-8.03,53.62],[-7.89,53.77],[-7.92,53.81],[-7.79,53.82],[-7.64,53.94],[-7.39,53.78]]]}},{"type":"Feature","properties":{"id":"IRL-RN","nome":"Roscommon","pais":"IRL","tipo":"County","lat":53.77,"lng":-8.21},"geometry":{"type":"Polygon","coordinates":[[[-7.94,53.37],[-8.05,53.28],[-8.16,53.29],[-8.24,53.37],[-8.28,53.57],[-8.46,53.71],[-8.82,53.67],[-8.69,53.74],[-8.73,53.82],[-8.63,53.88],[-8.68,53.96],[-8.34,53.92],[-8.38,54],[-8.13,54.11],[-8.05,54.09],[-8.09,53.92],[-8.02,53.94],[-7.88,53.78],[-8.03,53.62],[-7.94,53.37]]]}},{"type":"Feature","properties":{"id":"IRL-TA","nome":"North Tipperary","pais":"IRL","tipo":"County","lat":52.76,"lng":-7.98},"geometry":{"type":"Polygon","coordinates":[[[-7.73,52.96],[-7.66,52.93],[-7.71,52.85],[-7.63,52.73],[-7.64,52.65],[-7.93,52.52],[-8.1,52.68],[-8.44,52.69],[-8.48,52.76],[-8.4,52.9],[-8.33,52.91],[-8.26,53.04],[-8.08,53.17],[-7.92,53.08],[-7.97,52.94],[-8.04,52.93],[-7.98,52.85],[-7.81,52.97],[-7.73,52.96]]]}},{"type":"Feature","properties":{"id":"IRL-TA2","nome":"South Tipperary","pais":"IRL","tipo":"County","lat":52.45,"lng":-7.83},"geometry":{"type":"Polygon","coordinates":[[[-7.36,52.34],[-7.77,52.34],[-7.76,52.22],[-8.1,52.21],[-8.18,52.28],[-8.17,52.37],[-8.39,52.46],[-8.23,52.52],[-8.19,52.67],[-8.1,52.68],[-7.93,52.52],[-7.7,52.6],[-7.63,52.73],[-7.47,52.62],[-7.42,52.51],[-7.46,52.47],[-7.36,52.34]]]}},{"type":"Feature","properties":{"id":"IRL-WD2","nome":"Waterford","pais":"IRL","tipo":"City","lat":52.23,"lng":-7.08},"geometry":{"type":"Polygon","coordinates":[[[-7.15,52.27],[-7,52.22],[-7.1,52.21],[-7.15,52.27]]]}},{"type":"Feature","properties":{"id":"IRL-LK2","nome":"Limerick","pais":"IRL","tipo":"City","lat":52.65,"lng":-8.6},"geometry":{"type":"Polygon","coordinates":[[[-8.62,52.68],[-8.56,52.64],[-8.65,52.63],[-8.62,52.68]]]}}]}