{"type":"FeatureCollection","features":[{"type":"Feature","properties":{"id":"IRQ-DA","nome":"Dihok","pais":"IRQ","tipo":"Province","lat":37.09,"lng":43.23},"geometry":{"type":"Polygon","coordinates":[[[42.78,37.38],[42.94,37.32],[43.11,37.37],[43.48,37.24],[43.81,37.2],[44.04,37.32],[44.1,37.21],[43.83,37.01],[43.65,37.05],[43.64,36.98],[43.73,36.94],[43.65,36.83],[43.32,36.93],[43.19,36.78],[42.84,36.69],[42.5,36.85],[42.51,36.97],[42.41,37],[42.36,37.11],[42.56,37.15],[42.78,37.38]]]}},{"type":"Feature","properties":{"id":"IRQ-AR","nome":"Arbil","pais":"IRQ","tipo":"Province","lat":36.24,"lng":44.18},"geometry":{"type":"Polygon","coordinates":[[[44.07,37.31],[44.24,37.24],[44.25,37.17],[44.18,37.09],[44.24,36.98],[44.61,37.18],[44.75,37.16],[44.77,37.08],[44.89,37.02],[44.82,36.81],[45.04,36.69],[45.01,36.51],[44.63,36.44],[44.54,36.35],[44.7,36.21],[44.63,36.13],[44.98,35.9],[44.83,35.85],[44.61,35.91],[44.54,35.85],[44.17,35.84],[44.09,35.78],[43.91,35.85],[43.76,35.71],[43.8,35.65],[43.73,35.54],[43.41,35.43],[43.36,35.46],[43.38,35.59],[43.32,35.69],[43.39,35.93],[43.34,35.99],[43.49,36.05],[43.85,36.51],[44.02,36.62],[44.14,36.6],[44.3,36.73],[43.83,37.01],[44.1,37.21],[44.07,37.31]]]}},{"type":"Feature","properties":{"id":"IRQ-BA","nome":"Al-Basrah","pais":"IRQ","tipo":"Province","lat":30.68,"lng":47.56},"geometry":{"type":"Polygon","coordinates":[[[47.95,29.99],[47.67,30.1],[47.36,30.09],[47.14,30],[46.85,29.44],[46.56,29.12],[46.74,30.09],[46.57,30.51],[46.9,30.59],[47.09,30.57],[47.13,31.13],[47.18,31.23],[47.39,31.28],[47.68,31.24],[47.67,30.99],[48.01,30.99],[48.01,30.46],[48.13,30.45],[48.2,30.32],[48.31,30.31],[48.41,30.2],[48.38,30.15],[48.45,30],[48.56,29.95],[48.41,29.94],[48.12,30.04],[47.97,30],[47.93,30.11],[47.95,29.99]]]}},{"type":"Feature","properties":{"id":"IRQ-MU","nome":"Al-Muthannia","pais":"IRQ","tipo":"Province","lat":30.44,"lng":45.28},"geometry":{"type":"Polygon","coordinates":[[[46.56,29.12],[46.36,29.06],[44.72,29.19],[43.82,29.81],[44.06,30.17],[44.27,30.68],[44.63,31.01],[44.73,31.41],[44.98,31.26],[45.11,31.6],[45.02,31.68],[45.29,31.73],[45.79,31.65],[45.81,31.46],[45.72,31.36],[45.81,31.34],[45.74,31.19],[45.79,31.12],[45.73,31.07],[45.72,30.84],[46.37,30.73],[46.52,30.52],[46.57,30.51],[46.74,30.09],[46.56,29.12]]]}},{"type":"Feature","properties":{"id":"IRQ-SU","nome":"As-Sulaymaniyah","pais":"IRQ","tipo":"Province","lat":35.33,"lng":45.43},"geometry":{"type":"Polygon","coordinates":[[[45.01,36.52],[45.08,36.41],[45.24,36.4],[45.34,35.98],[45.54,35.99],[45.75,35.81],[46.06,35.86],[46.16,35.8],[46.33,35.8],[46.24,35.72],[46.02,35.69],[46,35.57],[45.96,35.58],[45.98,35.47],[46.12,35.32],[46.1,35.23],[46.17,35.22],[46.14,35.1],[45.91,35.09],[45.84,34.89],[45.78,35.01],[45.82,35.02],[45.71,35.11],[45.45,34.67],[45.22,34.51],[45.17,34.8],[44.97,34.87],[44.96,34.96],[44.87,35.03],[44.68,35.04],[44.56,35.13],[44.69,35.19],[44.8,35.46],[44.75,35.53],[44.79,35.69],[44.63,35.89],[44.83,35.85],[44.98,35.9],[44.63,36.13],[44.7,36.21],[44.54,36.37],[44.63,36.44],[44.96,36.47],[45.01,36.52]]]}},{"type":"Feature","properties":{"id":"IRQ-DI","nome":"Diyala","pais":"IRQ","tipo":"Province","lat":33.99,"lng":45.1},"geometry":{"type":"Polygon","coordinates":[[[45.8,34.9],[45.63,34.72],[45.7,34.55],[45.5,34.59],[45.5,34.49],[45.42,34.44],[45.46,34.34],[45.56,34.29],[45.54,34.14],[45.38,33.97],[45.49,33.94],[45.73,33.58],[45.89,33.63],[45.93,33.55],[45.85,33.49],[45.96,33.5],[45.92,33.42],[45.72,33.32],[45.48,33.07],[44.83,33.17],[44.7,33.02],[44.61,33.08],[44.54,33.01],[44.53,33.4],[44.35,33.43],[44.27,33.38],[44.24,33.43],[44.4,33.6],[44.39,33.78],[44.45,33.94],[44.29,34.01],[44.35,34.16],[44.51,34.26],[44.51,34.56],[44.63,34.52],[44.72,34.69],[44.97,34.87],[45.19,34.78],[45.22,34.51],[45.45,34.67],[45.71,35.11],[45.82,35.02],[45.78,35.01],[45.8,34.9]]]}},{"type":"Feature","properties":{"id":"IRQ-WA","nome":"Wasit","pais":"IRQ","tipo":"Province","lat":32.61,"lng":45.56},"geometry":{"type":"Polygon","coordinates":[[[45.96,33.5],[46.16,33.24],[46.17,33.17],[46.03,33.11],[46.12,33.06],[46.1,32.95],[46.38,32.93],[46.6,32.82],[46.48,32.6],[46.43,32.25],[46.6,32.13],[46.58,31.98],[46.06,32],[45.73,31.95],[45.69,32.07],[45.54,32.11],[45.38,32.26],[45.39,32.34],[45.07,32.48],[44.95,32.72],[44.54,32.84],[44.52,33],[44.61,33.08],[44.7,33.02],[44.83,33.17],[45.49,33.07],[45.96,33.5]]]}},{"type":"Feature","properties":{"id":"IRQ-MA","nome":"Maysan","pais":"IRQ","tipo":"Province","lat":31.81,"lng":47.07},"geometry":{"type":"Polygon","coordinates":[[[46.6,32.82],[47.09,32.47],[47.34,32.46],[47.5,32.23],[47.49,32.15],[47.83,31.81],[47.68,31.41],[47.68,31.24],[47.35,31.28],[47.18,31.23],[47.13,31.13],[46.85,31.14],[46.74,31.21],[46.72,31.33],[46.61,31.4],[46.6,31.54],[46.43,31.69],[46.31,31.94],[46.35,31.96],[46.32,32.01],[46.58,31.98],[46.6,32.13],[46.43,32.25],[46.48,32.6],[46.6,32.82]]]}},{"type":"Feature","properties":{"id":"IRQ-AN","nome":"Al-Anbar","pais":"IRQ","tipo":"Province","lat":33.23,"lng":41.53},"geometry":{"type":"Polygon","coordinates":[[[40.03,31.99],[39.15,32.12],[39.29,32.24],[39.24,32.35],[39.03,32.33],[38.98,32.47],[39.06,32.5],[38.77,33.37],[40.69,34.33],[40.97,34.4],[41.2,34.79],[41.19,35.16],[41.98,34.96],[42.49,34.97],[42.54,34.6],[42.78,34.44],[42.93,34.5],[43.01,34.18],[43.13,34],[43.43,33.77],[44,33.66],[44.13,33.49],[44.1,33.47],[44.28,33.38],[44.22,33.28],[44.29,33.19],[44.24,33.14],[43.82,33.2],[44.02,33.09],[44.14,32.88],[44.13,32.78],[43.76,32.82],[43.47,32.63],[43.21,32.57],[43.8,32.08],[43.79,32.03],[43.44,31.88],[43.25,31.65],[43.05,31.06],[42.78,30.55],[42.08,31.08],[40.42,31.92],[40.03,31.99]]]}},{"type":"Feature","properties":{"id":"IRQ-NA","nome":"An-Najaf","pais":"IRQ","tipo":"Province","lat":30.93,"lng":43.76},"geometry":{"type":"Polygon","coordinates":[[[43.82,29.81],[42.78,30.55],[43.05,31.06],[43.24,31.63],[43.41,31.85],[43.79,32.03],[43.69,32.17],[44.3,32.3],[44.32,32.34],[44.31,32.23],[44.37,32.14],[44.5,32.22],[44.63,32.16],[44.58,32.1],[44.61,32.06],[44.5,31.95],[44.54,31.64],[44.43,31.59],[44.52,31.49],[44.73,31.41],[44.63,31.01],[44.27,30.68],[44.06,30.17],[43.82,29.81]]]}},{"type":"Feature","properties":{"id":"IRQ-NI","nome":"Ninawa","pais":"IRQ","tipo":"Province","lat":35.92,"lng":42.75},"geometry":{"type":"Polygon","coordinates":[[[41.27,35.99],[41.27,36.33],[41.39,36.52],[41.82,36.6],[42.38,37.06],[42.45,36.97],[42.51,36.97],[42.5,36.85],[42.84,36.69],[43.19,36.78],[43.32,36.93],[43.65,36.83],[43.73,36.94],[43.64,36.98],[43.66,37.05],[43.93,36.98],[44.3,36.74],[44.14,36.6],[44.02,36.62],[43.85,36.51],[43.49,36.05],[43.35,36],[43.39,35.93],[43.32,35.69],[42.88,35.48],[43.02,35.1],[42.52,35.07],[42.49,34.97],[42.27,34.95],[41.98,34.96],[41.19,35.16],[41.26,35.49],[41.36,35.66],[41.35,35.83],[41.27,35.99]]]}},{"type":"Feature","properties":{"id":"IRQ-SD","nome":"Sala ad-Din","pais":"IRQ","tipo":"Province","lat":34.34,"lng":43.73},"geometry":{"type":"Polygon","coordinates":[[[44.56,35.13],[44.66,35.04],[44.95,34.98],[44.97,34.87],[44.72,34.69],[44.63,34.52],[44.51,34.56],[44.51,34.26],[44.35,34.16],[44.29,34.01],[44.45,33.94],[44.39,33.78],[44.4,33.6],[44.24,33.43],[44.1,33.47],[44.13,33.49],[44,33.66],[43.48,33.75],[43.29,33.87],[43.06,34.08],[42.93,34.5],[42.81,34.44],[42.73,34.46],[42.54,34.6],[42.5,34.74],[42.52,35.07],[43.04,35.1],[42.88,35.48],[43.33,35.72],[43.37,35.46],[43.31,35.43],[43.27,35.47],[43.27,35.42],[43.36,35.35],[43.35,35.28],[43.42,35.27],[43.41,35.19],[44.29,34.7],[44.53,35.02],[44.51,35.08],[44.56,35.13]]]}},{"type":"Feature","properties":{"id":"IRQ-TS","nome":"At-Ta'mim","pais":"IRQ","tipo":"Province","lat":35.33,"lng":44.04},"geometry":{"type":"Polygon","coordinates":[[[44.63,35.89],[44.79,35.69],[44.75,35.53],[44.8,35.46],[44.69,35.19],[44.53,35.11],[44.53,35.02],[44.4,34.9],[44.31,34.7],[43.49,35.11],[43.39,35.21],[43.42,35.27],[43.35,35.28],[43.36,35.35],[43.27,35.41],[43.27,35.47],[43.44,35.43],[43.73,35.54],[43.8,35.65],[43.76,35.71],[43.91,35.85],[44.09,35.78],[44.17,35.84],[44.63,35.89]]]}},{"type":"Feature","properties":{"id":"IRQ-BG","nome":"Baghdad","pais":"IRQ","tipo":"Province","lat":33.31,"lng":44.38},"geometry":{"type":"Polygon","coordinates":[[[44.5,33.18],[44.29,33.19],[44.23,33.3],[44.35,33.43],[44.53,33.41],[44.5,33.18]]]}},{"type":"Feature","properties":{"id":"IRQ-BB","nome":"Babil","pais":"IRQ","tipo":"Province","lat":32.68,"lng":44.51},"geometry":{"type":"Polygon","coordinates":[[[44.3,33.19],[44.5,33.18],[44.55,32.83],[44.94,32.72],[45.05,32.5],[45.19,32.45],[45.2,32.39],[44.82,32.23],[44.75,32.12],[44.5,32.22],[44.37,32.14],[44.22,32.57],[44.26,32.75],[44.13,32.78],[44.14,32.88],[44.02,33.09],[43.82,33.2],[44.22,33.13],[44.3,33.19]]]}},{"type":"Feature","properties":{"id":"IRQ-QA","nome":"Al-Qādisiyyah","pais":"IRQ","tipo":"Province","lat":31.61,"lng":45.11},"geometry":{"type":"Polygon","coordinates":[[[45.18,32.4],[45.39,32.34],[45.38,32.26],[45.54,32.11],[45.69,32.07],[45.79,31.65],[45.29,31.73],[45.02,31.68],[45.11,31.6],[44.98,31.26],[44.52,31.49],[44.43,31.59],[44.54,31.64],[44.5,31.95],[44.61,32.06],[44.58,32.1],[44.63,32.16],[44.75,32.12],[44.82,32.23],[45.18,32.4]]]}},{"type":"Feature","properties":{"id":"IRQ-DQ","nome":"Dhi-Qar","pais":"IRQ","tipo":"Province","lat":31.19,"lng":46.42},"geometry":{"type":"Polygon","coordinates":[[[45.79,31.65],[45.73,31.95],[46.32,32.01],[46.43,31.69],[46.6,31.54],[46.61,31.4],[46.73,31.32],[46.75,31.2],[46.85,31.14],[47.13,31.13],[47.09,30.57],[46.9,30.59],[46.53,30.51],[46.37,30.73],[45.72,30.84],[45.73,31.07],[45.79,31.12],[45.74,31.19],[45.81,31.34],[45.72,31.36],[45.81,31.46],[45.79,31.65]]]}},{"type":"Feature","properties":{"id":"IRQ-KA","nome":"Karbala'","pais":"IRQ","tipo":"Province","lat":32.5,"lng":43.77},"geometry":{"type":"Polygon","coordinates":[[[44.13,32.78],[44.26,32.74],[44.22,32.57],[44.3,32.45],[44.3,32.3],[43.69,32.17],[43.22,32.54],[43.76,32.82],[44.13,32.78]]]}}]}