{"type":"FeatureCollection","features":[{"type":"Feature","properties":{"id":"ISL-7","nome":"Austurland","pais":"ISL","tipo":"Region","lat":65.44,"lng":-15.22},"geometry":{"type":"Polygon","coordinates":[[[-14.61,65.99],[-14.65,65.89],[-14.89,65.76],[-14.79,65.8],[-14.84,65.74],[-14.81,65.73],[-14.33,65.78],[-14.4,65.72],[-14.27,65.67],[-14.56,65.5],[-14.32,65.65],[-14.19,65.63],[-14.25,65.67],[-13.87,65.62],[-13.79,65.52],[-13.69,65.56],[-13.61,65.51],[-13.67,65.38],[-13.84,65.36],[-13.73,65.33],[-14.01,65.28],[-13.69,65.31],[-13.57,65.26],[-14.03,65.2],[-13.63,65.2],[-13.75,65.14],[-13.63,65.1],[-13.52,65.17],[-13.51,65.07],[-13.65,64.99],[-14.03,65.08],[-13.99,65.06],[-14.23,65.04],[-13.92,65.01],[-13.7,64.93],[-14.05,64.93],[-13.77,64.85],[-13.97,64.84],[-13.84,64.8],[-14.01,64.8],[-14.05,64.78],[-13.99,64.74],[-14.05,64.72],[-14.31,64.7],[-14.51,64.8],[-14.27,64.65],[-14.49,64.66],[-14.41,64.61],[-14.58,64.59],[-14.49,64.55],[-14.35,64.61],[-14.47,64.53],[-14.54,64.41],[-14.75,64.38],[-14.57,64.42],[-14.71,64.43],[-14.95,64.32],[-14.88,64.28],[-15.23,64.27],[-15.21,64.3],[-15.32,64.3],[-15.47,64.4],[-15.36,64.34],[-15.4,64.27],[-15.99,64.14],[-16.47,63.9],[-16.78,63.86],[-16.75,63.85],[-16.8,63.8],[-16.89,63.87],[-16.92,63.81],[-16.93,63.87],[-16.97,63.79],[-16.97,63.92],[-17.03,63.85],[-17.01,63.8],[-17.39,63.77],[-17.34,64.04],[-16.69,64.64],[-16.63,64.74],[-16.68,64.82],[-16.62,64.92],[-16.2,65.05],[-16.2,65.21],[-16.03,65.33],[-16.18,65.43],[-16.04,65.57],[-15.69,65.55],[-15.68,65.74],[-15.45,65.77],[-15.1,65.92],[-14.61,65.99]]]}},{"type":"Feature","properties":{"id":"ISL-8","nome":"Suðurland","pais":"ISL","tipo":"Region","lat":64.02,"lng":-18.53},"geometry":{"type":"Polygon","coordinates":[[[-17.39,63.77],[-17.56,63.75],[-17.55,63.79],[-17.72,63.71],[-17.62,63.75],[-17.82,63.75],[-17.97,63.68],[-17.8,63.67],[-17.97,63.62],[-17.86,63.61],[-17.96,63.52],[-18.2,63.47],[-18.23,63.49],[-18.12,63.53],[-18.32,63.55],[-18.27,63.47],[-18.18,63.46],[-18.73,63.4],[-19.29,63.44],[-19.74,63.55],[-20.19,63.54],[-20.55,63.71],[-20.5,63.76],[-20.31,63.73],[-20.44,63.79],[-20.41,63.84],[-20.58,63.71],[-20.77,63.77],[-20.61,63.77],[-20.72,63.78],[-20.69,63.86],[-20.82,63.78],[-21.19,63.89],[-21.19,63.93],[-21.04,63.95],[-21.24,63.95],[-21.3,63.92],[-21.21,63.88],[-21.37,63.85],[-21.93,63.85],[-21.61,64],[-21.42,64.16],[-21.39,64.26],[-20.81,64.52],[-20.04,64.7],[-19.98,64.8],[-19.67,64.75],[-18.43,64.88],[-16.88,64.47],[-17.34,64.04],[-17.39,63.77]]]}},{"type":"Feature","properties":{"id":"ISL-2","nome":"Suðurnes","pais":"ISL","tipo":"Independent Town","lat":63.94,"lng":-22.12},"geometry":{"type":"Polygon","coordinates":[[[-21.93,63.85],[-22.34,63.86],[-22.68,63.81],[-22.73,63.89],[-22.63,63.95],[-22.74,63.99],[-22.69,64.09],[-22.52,63.98],[-22.12,64.04],[-21.65,64],[-21.93,63.85]]]}},{"type":"Feature","properties":{"id":"ISL-0","nome":"Reykjavík","pais":"ISL","tipo":"Region","lat":64.08,"lng":-21.86},"geometry":{"type":"Polygon","coordinates":[[[-22.12,64.04],[-21.96,64.08],[-22.05,64.1],[-22.01,64.12],[-21.92,64.11],[-22.05,64.16],[-21.8,64.14],[-21.82,64.17],[-21.7,64.19],[-21.93,64.23],[-21.89,64.27],[-21.62,64.26],[-21.66,64.08],[-21.93,64],[-22.12,64.04]]]}},{"type":"Feature","properties":{"id":"ISL-1","nome":"Höfuðborgarsvæði","pais":"ISL","tipo":"Region","lat":64.23,"lng":-21.54},"geometry":{"type":"Polygon","coordinates":[[[-21.88,64.27],[-21.63,64.38],[-21.14,64.38],[-21.4,64.25],[-21.42,64.16],[-21.61,64],[-21.93,64],[-21.66,64.08],[-21.61,64.19],[-21.62,64.26],[-21.88,64.27]]]}},{"type":"Feature","properties":{"id":"ISL-3","nome":"Vesturland","pais":"ISL","tipo":"Region","lat":64.82,"lng":-21.36},"geometry":{"type":"Polygon","coordinates":[[[-21.43,64.38],[-21.63,64.4],[-21.96,64.3],[-22.1,64.32],[-21.86,64.39],[-22.05,64.41],[-21.98,64.5],[-21.78,64.54],[-21.82,64.56],[-21.7,64.61],[-21.5,64.57],[-21.68,64.62],[-21.51,64.65],[-21.7,64.63],[-21.66,64.67],[-22.01,64.53],[-22.04,64.57],[-22.09,64.48],[-22.16,64.46],[-22.26,64.49],[-22.24,64.58],[-22.34,64.56],[-22.35,64.62],[-22.44,64.67],[-22.37,64.64],[-22.19,64.74],[-22.4,64.68],[-22.32,64.75],[-22.44,64.77],[-22.41,64.82],[-22.66,64.77],[-23.56,64.82],[-23.67,64.74],[-23.83,64.73],[-23.95,64.76],[-24.06,64.89],[-23.85,64.93],[-23.64,64.9],[-23.4,64.97],[-23.26,64.93],[-23.24,65],[-23.17,65.02],[-23.09,65.01],[-23.16,64.95],[-23.11,64.92],[-23.02,65.01],[-22.94,64.99],[-22.72,65.08],[-22.75,65.03],[-22.58,64.98],[-22.63,65.01],[-22.55,65.05],[-21.83,65.04],[-21.73,65.19],[-22.03,65.11],[-22.56,65.17],[-22.46,65.18],[-22.55,65.19],[-22.43,65.27],[-21.61,65.5],[-21.65,65.38],[-21.48,65.37],[-21.28,65.23],[-21.26,65.07],[-21.11,64.99],[-20.73,64.91],[-20.41,64.95],[-19.79,64.92],[-20.04,64.7],[-20.79,64.53],[-21.15,64.36],[-21.43,64.38]]]}},{"type":"Feature","properties":{"id":"ISL-4","nome":"Vestfirðir","pais":"ISL","tipo":"Region","lat":65.71,"lng":-22.16},"geometry":{"type":"Polygon","coordinates":[[[-21.7,65.45],[-21.98,65.44],[-21.94,65.47],[-21.99,65.51],[-22.06,65.48],[-22.11,65.53],[-22.25,65.43],[-22.39,65.49],[-22.11,65.6],[-22.48,65.51],[-22.55,65.63],[-22.55,65.56],[-22.66,65.53],[-22.71,65.57],[-22.68,65.62],[-22.76,65.63],[-22.73,65.5],[-22.89,65.54],[-22.8,65.6],[-22.91,65.57],[-22.95,65.61],[-22.99,65.55],[-23.18,65.58],[-23.23,65.49],[-23.41,65.51],[-23.9,65.4],[-23.98,65.42],[-23.99,65.47],[-24.54,65.51],[-24.3,65.64],[-23.81,65.54],[-24.09,65.65],[-23.81,65.61],[-24.08,65.71],[-24.14,65.79],[-24.09,65.8],[-23.63,65.71],[-23.56,65.61],[-23.29,65.68],[-23.54,65.72],[-23.19,65.78],[-23.73,65.77],[-23.87,65.88],[-23.8,65.93],[-23.21,65.84],[-23.58,65.91],[-23.81,66.01],[-23.75,66.08],[-23.37,65.99],[-23.67,66.12],[-23.4,66.1],[-23.6,66.14],[-23.46,66.2],[-23.15,66.15],[-23.11,66.08],[-23.03,66.11],[-22.98,66.03],[-23.06,65.97],[-22.93,66.05],[-22.84,66.02],[-22.94,65.95],[-22.82,66],[-22.82,65.91],[-22.76,66.05],[-22.68,66.06],[-22.58,65.97],[-22.65,65.83],[-22.52,65.98],[-22.42,65.93],[-22.47,65.84],[-22.43,65.85],[-22.36,65.92],[-22.48,66.03],[-22.38,66.1],[-22.87,66.16],[-22.98,66.23],[-22.55,66.22],[-22.37,66.28],[-22.56,66.28],[-22.49,66.32],[-22.71,66.3],[-22.61,66.37],[-22.94,66.3],[-23.19,66.36],[-23.05,66.36],[-23.02,66.39],[-23.1,66.44],[-22.86,66.43],[-22.95,66.47],[-22.43,66.43],[-22.46,66.47],[-22.2,66.34],[-22.22,66.27],[-21.98,66.27],[-21.92,66.24],[-21.99,66.21],[-21.75,66.19],[-21.72,66.08],[-21.64,66.07],[-21.67,66.02],[-21.62,66.04],[-21.64,66.08],[-21.55,66.1],[-21.53,66.03],[-21.33,66.01],[-21.61,65.96],[-21.3,65.94],[-21.33,65.88],[-21.28,65.86],[-21.33,65.81],[-21.48,65.77],[-21.33,65.74],[-21.58,65.69],[-21.78,65.77],[-21.67,65.73],[-21.63,65.65],[-21.4,65.62],[-21.48,65.56],[-21.32,65.6],[-21.32,65.52],[-21.48,65.45],[-21.32,65.48],[-21.2,65.43],[-21.19,65.31],[-20.98,64.97],[-21.26,65.07],[-21.28,65.23],[-21.48,65.37],[-21.65,65.38],[-21.61,65.5],[-21.7,65.45]]]}},{"type":"Feature","properties":{"id":"ISL-5","nome":"Norðurland vestra","pais":"ISL","tipo":"Region","lat":65.15,"lng":-19.7},"geometry":{"type":"Polygon","coordinates":[[[-21.08,65.17],[-21.1,65.45],[-20.92,65.34],[-20.99,65.51],[-20.92,65.6],[-20.68,65.69],[-20.62,65.67],[-20.65,65.56],[-20.59,65.58],[-20.48,65.49],[-20.43,65.55],[-20.53,65.58],[-20.41,65.6],[-20.39,65.53],[-20.38,65.6],[-20.27,65.67],[-20.31,65.69],[-20.27,65.77],[-20.45,66.03],[-20.43,66.08],[-20.09,66.13],[-19.88,65.91],[-19.71,65.87],[-19.63,65.75],[-19.46,65.73],[-19.4,65.84],[-19.51,65.96],[-19.41,66.01],[-19.45,66.06],[-19.14,66.1],[-19.06,66.07],[-19.11,66.11],[-19.08,66.16],[-18.85,66.02],[-18.91,65.96],[-18.87,65.91],[-18.99,65.85],[-18.8,65.7],[-18.92,65.59],[-18.72,65.52],[-18.78,65.43],[-18.7,65.37],[-18.38,65.22],[-18.35,65.07],[-18.43,64.88],[-19.7,64.75],[-19.98,64.8],[-19.81,64.94],[-20.73,64.91],[-20.98,64.96],[-21.08,65.17]]]}},{"type":"Feature","properties":{"id":"ISL-6","nome":"Norðurland eystra","pais":"ISL","tipo":"Region","lat":65.38,"lng":-17.18},"geometry":{"type":"Polygon","coordinates":[[[-19.08,66.16],[-18.9,66.16],[-18.85,66.21],[-18.78,66.19],[-18.8,66.14],[-18.63,66.14],[-18.66,66.09],[-18.54,66.08],[-18.54,65.97],[-18.35,65.95],[-18.22,65.87],[-18.18,65.73],[-18.06,65.65],[-18.11,65.73],[-18.07,65.83],[-18.3,66.02],[-18.3,66.18],[-17.91,66.15],[-17.55,65.91],[-17.58,65.97],[-17.5,65.99],[-17.61,65.99],[-17.41,65.96],[-17.35,66.1],[-17.15,66.22],[-16.99,66.2],[-16.92,66.11],[-16.76,66.15],[-16.6,66.1],[-16.69,66.17],[-16.53,66.2],[-16.62,66.17],[-16.43,66.14],[-16.49,66.19],[-16.42,66.29],[-16.52,66.37],[-16.54,66.51],[-16.31,66.48],[-16.02,66.54],[-15.89,66.49],[-15.94,66.42],[-15.71,66.4],[-15.68,66.34],[-15.78,66.29],[-15.7,66.23],[-15.53,66.23],[-15.38,66.15],[-15.33,66.26],[-15.11,66.28],[-14.93,66.39],[-14.56,66.38],[-14.99,66.29],[-14.95,66.19],[-15.18,66.11],[-15.07,66.1],[-15.08,66.05],[-14.7,66.07],[-14.61,65.99],[-15.1,65.92],[-15.45,65.77],[-15.68,65.74],[-15.69,65.55],[-16.04,65.57],[-16.18,65.43],[-16.03,65.33],[-16.2,65.21],[-16.2,65.05],[-16.62,64.92],[-16.68,64.82],[-16.63,64.74],[-16.66,64.67],[-16.88,64.47],[-18.43,64.88],[-18.35,65.05],[-18.38,65.21],[-18.78,65.43],[-18.73,65.52],[-18.92,65.59],[-18.8,65.7],[-18.99,65.85],[-18.87,65.91],[-18.91,65.96],[-18.85,66.02],[-19.08,66.16]]]}}]}