{"type":"FeatureCollection","features":[{"type":"Feature","properties":{"id":"ISR-D","nome":"HaDarom","pais":"ISR","tipo":"District","lat":30.94,"lng":34.84},"geometry":{"type":"Polygon","coordinates":[[[34.25,31.21],[34.35,31.29],[34.37,31.39],[34.56,31.54],[34.48,31.58],[34.68,31.88],[34.67,31.79],[34.83,31.79],[34.87,31.66],[34.95,31.61],[34.87,31.4],[34.9,31.35],[35.16,31.36],[35.46,31.49],[35.4,31.26],[35.44,31.1],[35.14,30.43],[35.15,30.12],[34.91,29.49],[34.25,31.21]]]}},{"type":"Feature","properties":{"id":"ISR-Z","nome":"HaZafon","pais":"ISR","tipo":"District","lat":32.82,"lng":35.42},"geometry":{"type":"Polygon","coordinates":[[[35.56,32.38],[35.41,32.41],[35.36,32.51],[35.17,32.57],[35.12,32.53],[35.05,32.55],[35.02,32.61],[35.15,32.78],[35.07,32.92],[35.09,33.07],[35.48,33.09],[35.55,33.28],[35.6,33.24],[35.82,33.41],[35.77,33.27],[35.89,32.94],[35.76,32.74],[35.56,32.64],[35.56,32.38]]]}},{"type":"Feature","properties":{"id":"ISR-HA","nome":"Haifa","pais":"ISR","tipo":"District","lat":32.55,"lng":34.97},"geometry":{"type":"Polygon","coordinates":[[[35.21,32.54],[35.06,32.46],[35.03,32.38],[34.87,32.41],[34.96,32.83],[35.03,32.83],[35.08,32.89],[35.14,32.83],[35.13,32.71],[35.02,32.61],[35.08,32.53],[35.21,32.54]]]}},{"type":"Feature","properties":{"id":"ISR-M","nome":"HaMerkaz","pais":"ISR","tipo":"District","lat":31.91,"lng":34.85},"geometry":{"type":"Polygon","coordinates":[[[35.03,32.38],[34.96,32.19],[35.03,31.86],[34.79,31.77],[34.74,31.81],[34.67,31.79],[34.73,32.01],[34.88,32.03],[34.86,32.17],[34.8,32.19],[34.87,32.41],[35.03,32.38]]]}},{"type":"Feature","properties":{"id":"ISR-JM","nome":"Jerusalem","pais":"ISR","tipo":"District","lat":31.74,"lng":35.02},"geometry":{"type":"Polygon","coordinates":[[[35.19,31.81],[35.22,31.88],[35.26,31.83],[35.24,31.71],[35.13,31.73],[34.95,31.61],[34.87,31.66],[34.83,31.79],[34.97,31.85],[35.19,31.81]]]}},{"type":"Feature","properties":{"id":"ISR-TA","nome":"Tel Aviv","pais":"ISR","tipo":"District","lat":32.1,"lng":34.81},"geometry":{"type":"Polygon","coordinates":[[[34.73,32.01],[34.8,32.19],[34.86,32.17],[34.88,32.03],[34.73,32.01]]]}}]}