{"type":"FeatureCollection","features":[{"type":"Feature","properties":{"id":"ITA-AO","nome":"Aoste","pais":"ITA","tipo":"Province","lat":45.71,"lng":7.35},"geometry":{"type":"Polygon","coordinates":[[[7.02,45.93],[7.15,45.88],[7.54,45.98],[7.85,45.94],[7.92,45.65],[7.75,45.56],[7.54,45.59],[7.08,45.47],[6.98,45.51],[6.96,45.64],[6.82,45.7],[6.78,45.78],[7.02,45.93]]]}},{"type":"Feature","properties":{"id":"ITA-VB","nome":"Verbano-Cusio-Ossola","pais":"ITA","tipo":"Province","lat":46.07,"lng":8.34},"geometry":{"type":"Polygon","coordinates":[[[7.85,45.94],[8.11,46.13],[8.08,46.26],[8.34,46.44],[8.44,46.43],[8.44,46.24],[8.6,46.12],[8.73,46.11],[8.72,46.02],[8.59,45.91],[8.6,45.83],[8.46,45.87],[8.35,45.77],[8.21,45.95],[7.96,45.9],[7.85,45.94]]]}},{"type":"Feature","properties":{"id":"ITA-VA","nome":"Varese","pais":"ITA","tipo":"Province","lat":45.79,"lng":8.76},"geometry":{"type":"Polygon","coordinates":[[[8.73,46.11],[8.83,46.07],[8.77,45.98],[8.91,45.88],[8.9,45.78],[8.95,45.73],[8.91,45.67],[9.06,45.66],[9.06,45.59],[8.93,45.62],[8.71,45.56],[8.57,45.8],[8.59,45.91],[8.73,46.02],[8.73,46.11]]]}},{"type":"Feature","properties":{"id":"ITA-CO","nome":"Como","pais":"ITA","tipo":"Province","lat":45.94,"lng":9.16},"geometry":{"type":"Polygon","coordinates":[[[8.91,45.83],[9,45.82],[9.06,45.88],[8.98,45.96],[9,46.03],[9.18,46.2],[9.44,46.21],[9.42,46.16],[9.3,46.12],[9.26,45.95],[9.33,45.86],[9.19,45.66],[8.93,45.65],[8.91,45.83]]]}},{"type":"Feature","properties":{"id":"ITA-SO","nome":"Sondrio","pais":"ITA","tipo":"Province","lat":46.2,"lng":9.81},"geometry":{"type":"Polygon","coordinates":[[[9.22,46.23],[9.28,46.33],[9.25,46.46],[9.33,46.5],[9.43,46.5],[9.44,46.38],[9.54,46.3],[9.92,46.37],[10.04,46.22],[10.12,46.23],[10.16,46.26],[10.09,46.34],[10.14,46.4],[10.03,46.45],[10.03,46.53],[10.19,46.63],[10.31,46.55],[10.45,46.55],[10.64,46.41],[10.18,46.17],[10.17,46.06],[10.1,46.09],[9.53,46.01],[9.41,46.1],[9.44,46.21],[9.22,46.23]]]}},{"type":"Feature","properties":{"id":"ITA-BZ","nome":"Bozen","pais":"ITA","tipo":"Province","lat":46.71,"lng":11.44},"geometry":{"type":"Polygon","coordinates":[[[10.45,46.55],[10.46,46.62],[10.37,46.67],[10.45,46.86],[11,46.77],[11.17,46.96],[11.47,47.01],[11.73,46.97],[12.18,47.09],[12.2,47.05],[12.11,46.99],[12.13,46.91],[12.27,46.87],[12.27,46.79],[12.47,46.68],[12.21,46.59],[12.09,46.67],[12.02,46.54],[11.68,46.51],[11.58,46.37],[11.22,46.22],[11.15,46.27],[11.2,46.5],[11.09,46.52],[11.05,46.45],[11,46.48],[10.84,46.43],[10.76,46.48],[10.62,46.45],[10.45,46.55]]]}},{"type":"Feature","properties":{"id":"ITA-IM","nome":"Imperia","pais":"ITA","tipo":"Province","lat":44.01,"lng":7.82},"geometry":{"type":"Polygon","coordinates":[[[7.5,43.79],[7.48,43.87],[7.76,44.14],[8,44.12],[8.04,44.07],[8,44],[8.13,43.94],[7.74,43.8],[7.5,43.79]]]}},{"type":"Feature","properties":{"id":"ITA-CN","nome":"Cuneo","pais":"ITA","tipo":"Province","lat":44.49,"lng":7.63},"geometry":{"type":"Polygon","coordinates":[[[7.69,44.09],[7.66,44.18],[7.34,44.12],[6.98,44.24],[6.87,44.36],[6.92,44.44],[6.84,44.53],[6.98,44.69],[7.33,44.79],[7.5,44.76],[7.62,44.84],[7.96,44.86],[8.13,44.81],[8.09,44.76],[8.15,44.71],[8.19,44.75],[8.27,44.71],[8.2,44.63],[8.25,44.53],[8.21,44.42],[8.07,44.31],[8.07,44.17],[8,44.16],[7.99,44.11],[7.76,44.14],[7.69,44.09]]]}},{"type":"Feature","properties":{"id":"ITA-TO","nome":"Turin","pais":"ITA","tipo":"Province","lat":45.16,"lng":7.47},"geometry":{"type":"Polygon","coordinates":[[[7.04,44.71],[7,44.83],[6.75,44.91],[6.72,45.01],[6.6,45.1],[7.06,45.22],[7.16,45.4],[7.08,45.47],[7.14,45.51],[7.22,45.48],[7.54,45.59],[7.88,45.6],[7.88,45.53],[8.03,45.45],[8.02,45.35],[7.96,45.33],[8.05,45.19],[8.15,45.17],[8.08,45.1],[8.03,45.13],[7.89,45.09],[7.94,45.04],[7.89,44.91],[7.94,44.85],[7.61,44.83],[7.5,44.76],[7.33,44.79],[7.04,44.71]]]}},{"type":"Feature","properties":{"id":"ITA-RN","nome":"Rimini","pais":"ITA","tipo":"Province","lat":44,"lng":12.56},"geometry":{"type":"Polygon","coordinates":[[[12.49,43.97],[12.4,43.95],[12.42,43.88],[12.35,43.87],[12.29,43.77],[12.1,43.76],[12.16,43.93],[12.33,43.96],[12.39,44.03],[12.37,44.06],[12.46,44.09],[12.46,44.17],[12.75,43.97],[12.67,43.84],[12.55,43.88],[12.49,43.97]]]}},{"type":"Feature","properties":{"id":"ITA-PU","nome":"Pesaro e Urbino","pais":"ITA","tipo":"Province","lat":43.7,"lng":12.64},"geometry":{"type":"Polygon","coordinates":[[[12.48,43.92],[12.67,43.84],[12.75,43.97],[12.8,43.97],[13.18,43.75],[13.07,43.72],[12.76,43.46],[12.61,43.43],[12.49,43.52],[12.31,43.55],[12.36,43.62],[12.29,43.59],[12.19,43.64],[12.3,43.73],[12.33,43.69],[12.36,43.72],[12.28,43.79],[12.48,43.92]]]}},{"type":"Feature","properties":{"id":"ITA-BL","nome":"Belluno","pais":"ITA","tipo":"Province","lat":46.32,"lng":12.14},"geometry":{"type":"Polygon","coordinates":[[[12.47,46.68],[12.75,46.64],[12.76,46.57],[12.65,46.5],[12.67,46.46],[12.53,46.45],[12.34,46.27],[12.46,46.21],[12.5,46.1],[12.42,46.04],[12.33,46.08],[11.97,45.96],[11.93,45.88],[11.78,45.89],[11.68,45.98],[11.7,46.1],[11.97,46.19],[11.8,46.35],[11.9,46.45],[11.83,46.5],[12.02,46.54],[12.09,46.67],[12.21,46.59],[12.47,46.68]]]}},{"type":"Feature","properties":{"id":"ITA-UD","nome":"Udine","pais":"ITA","tipo":"Province","lat":46.08,"lng":13.2},"geometry":{"type":"Polygon","coordinates":[[[12.75,46.64],[13.7,46.52],[13.68,46.45],[13.37,46.29],[13.41,46.21],[13.65,46.16],[13.48,46.04],[13.41,45.92],[13.42,45.72],[13.12,45.77],[13.08,45.7],[13.15,45.7],[13.1,45.65],[12.91,45.94],[12.97,46.33],[12.64,46.34],[12.5,46.4],[12.76,46.54],[12.75,46.64]]]}},{"type":"Feature","properties":{"id":"ITA-GO","nome":"Gorizia","pais":"ITA","tipo":"Province","lat":45.86,"lng":13.49},"geometry":{"type":"Polygon","coordinates":[[[13.46,46.01],[13.62,45.97],[13.58,45.79],[13.52,45.76],[13.55,45.74],[13.4,45.68],[13.41,45.92],[13.46,46.01]]]}},{"type":"Feature","properties":{"id":"ITA-TS","nome":"Trieste","pais":"ITA","tipo":"Province","lat":45.69,"lng":13.78},"geometry":{"type":"Polygon","coordinates":[[[13.59,45.81],[13.78,45.74],[13.89,45.62],[13.71,45.59],[13.81,45.61],[13.59,45.81]]]}},{"type":"Feature","properties":{"id":"ITA-VE","nome":"Venezia","pais":"ITA","tipo":"Province","lat":45.46,"lng":12.16},"geometry":{"type":"MultiPolygon","coordinates":[[[[13.1,45.65],[12.42,45.44],[12.58,45.55],[12.4,45.54],[12.42,45.5],[12.27,45.46],[12.22,45.32],[12.15,45.29],[12.04,45.32],[11.98,45.4],[12.04,45.57],[12.11,45.6],[12.26,45.53],[12.42,45.57],[12.5,45.68],[12.66,45.7],[12.67,45.8],[12.79,45.86],[12.99,45.83],[13.1,45.65]]],[[[12.2,45.27],[12.25,45.2],[12.31,45.23],[12.28,45.13],[12.15,45.06],[11.96,45.14],[11.99,45.19],[12.15,45.19],[12.2,45.27]]]]}},{"type":"Feature","properties":{"id":"ITA-PD","nome":"Padova","pais":"ITA","tipo":"Province","lat":45.36,"lng":11.84},"geometry":{"type":"Polygon","coordinates":[[[12.15,45.29],[12.2,45.25],[12.15,45.19],[11.75,45.1],[11.42,45.13],[11.4,45.23],[11.62,45.25],[11.62,45.39],[11.74,45.48],[11.74,45.55],[11.66,45.54],[11.64,45.61],[11.72,45.68],[11.85,45.68],[11.95,45.61],[12.07,45.64],[12.09,45.6],[12.03,45.57],[11.98,45.4],[12.04,45.32],[12.15,45.29]]]}},{"type":"Feature","properties":{"id":"ITA-RO","nome":"Rovigo","pais":"ITA","tipo":"Province","lat":45.05,"lng":11.87},"geometry":{"type":"Polygon","coordinates":[[[12.32,45.16],[12.3,45.09],[12.37,45.01],[12.37,45.07],[12.53,44.97],[12.44,44.82],[12.41,44.89],[12.4,44.79],[12.29,44.86],[12.29,44.94],[11.87,44.99],[11.62,44.9],[11.43,44.94],[11.19,45.09],[11.39,45.05],[11.45,45.09],[11.42,45.13],[11.75,45.1],[12.03,45.15],[12.15,45.06],[12.32,45.16]]]}},{"type":"Feature","properties":{"id":"ITA-FE","nome":"Ferrara","pais":"ITA","tipo":"Province","lat":44.77,"lng":11.93},"geometry":{"type":"Polygon","coordinates":[[[12.39,44.79],[12.27,44.83],[12.27,44.63],[12.21,44.57],[12.05,44.55],[12,44.6],[11.79,44.55],[11.77,44.65],[11.67,44.64],[11.47,44.75],[11.38,44.78],[11.26,44.71],[11.27,44.78],[11.37,44.84],[11.23,44.91],[11.3,44.96],[11.62,44.9],[11.8,44.98],[11.99,44.99],[12.29,44.94],[12.29,44.86],[12.39,44.79]]]}},{"type":"Feature","properties":{"id":"ITA-RA","nome":"Ravenna","pais":"ITA","tipo":"Province","lat":44.42,"lng":12.09},"geometry":{"type":"Polygon","coordinates":[[[12.27,44.63],[12.39,44.23],[12.35,44.2],[12.03,44.33],[11.89,44.17],[11.76,44.2],[11.64,44.12],[11.53,44.16],[11.82,44.4],[11.74,44.51],[11.79,44.55],[12,44.6],[12.05,44.55],[12.18,44.56],[12.27,44.63]]]}},{"type":"Feature","properties":{"id":"ITA-FC","nome":"Forlì-Cesena","pais":"ITA","tipo":"Province","lat":44.06,"lng":12.08},"geometry":{"type":"Polygon","coordinates":[[[12.39,44.23],[12.46,44.17],[12.46,44.09],[12.37,44.06],[12.39,44.03],[12.33,43.96],[12.16,43.93],[12.1,43.76],[11.81,43.82],[11.65,43.99],[11.76,44.19],[11.89,44.17],[12.03,44.33],[12.22,44.21],[12.39,44.23]]]}},{"type":"Feature","properties":{"id":"ITA-AN","nome":"Ancona","pais":"ITA","tipo":"Province","lat":43.54,"lng":13.11},"geometry":{"type":"Polygon","coordinates":[[[13.18,43.75],[13.4,43.64],[13.52,43.63],[13.65,43.48],[13.61,43.42],[13.09,43.43],[12.85,43.21],[12.75,43.38],[12.76,43.46],[13.07,43.72],[13.18,43.75]]]}},{"type":"Feature","properties":{"id":"ITA-MC","nome":"Macerata","pais":"ITA","tipo":"Province","lat":43.19,"lng":13.22},"geometry":{"type":"Polygon","coordinates":[[[13.65,43.48],[13.74,43.29],[13.6,43.27],[13.59,43.21],[13.45,43.15],[13.44,43.02],[13.37,43.05],[13.22,42.96],[13.22,42.85],[13.15,42.82],[13.04,42.92],[12.97,42.89],[12.91,42.97],[12.85,43.21],[13.08,43.42],[13.61,43.42],[13.65,43.48]]]}},{"type":"Feature","properties":{"id":"ITA-FM","nome":"Fermo","pais":"ITA","tipo":"Province","lat":43.12,"lng":13.63},"geometry":{"type":"Polygon","coordinates":[[[13.74,43.29],[13.85,43.07],[13.42,42.97],[13.39,42.89],[13.24,42.89],[13.22,42.95],[13.34,43.04],[13.46,43.03],[13.45,43.15],[13.59,43.21],[13.6,43.27],[13.74,43.29]]]}},{"type":"Feature","properties":{"id":"ITA-AP","nome":"Ascoli Piceno","pais":"ITA","tipo":"Province","lat":42.91,"lng":13.59},"geometry":{"type":"Polygon","coordinates":[[[13.85,43.07],[13.91,42.9],[13.54,42.81],[13.41,42.7],[13.19,42.73],[13.29,42.92],[13.39,42.89],[13.42,42.97],[13.85,43.07]]]}},{"type":"Feature","properties":{"id":"ITA-TE","nome":"Teramo","pais":"ITA","tipo":"Province","lat":42.67,"lng":13.73},"geometry":{"type":"Polygon","coordinates":[[[13.91,42.9],[14.15,42.53],[13.83,42.5],[13.77,42.42],[13.53,42.44],[13.42,42.53],[13.34,42.69],[13.43,42.7],[13.54,42.81],[13.91,42.9]]]}},{"type":"Feature","properties":{"id":"ITA-PE","nome":"Pescara","pais":"ITA","tipo":"Province","lat":42.31,"lng":13.89},"geometry":{"type":"Polygon","coordinates":[[[14.15,42.53],[14.26,42.45],[14.08,42.33],[14.11,42.1],[14,42.08],[13.89,42.16],[13.8,42.15],[13.84,42.27],[13.77,42.42],[13.81,42.48],[14.15,42.53]]]}},{"type":"Feature","properties":{"id":"ITA-CH","nome":"Chieti","pais":"ITA","tipo":"Province","lat":42.1,"lng":14.4},"geometry":{"type":"Polygon","coordinates":[[[14.26,42.45],[14.71,42.18],[14.76,42.08],[14.47,41.77],[14.38,41.87],[14.12,41.89],[14.08,41.94],[14.13,42.23],[14.08,42.33],[14.26,42.45]]]}},{"type":"Feature","properties":{"id":"ITA-CB","nome":"Campobasso","pais":"ITA","tipo":"Province","lat":41.64,"lng":14.74},"geometry":{"type":"Polygon","coordinates":[[[14.76,42.08],[15.14,41.93],[15.1,41.76],[15.16,41.7],[14.94,41.62],[14.94,41.53],[15,41.48],[14.93,41.45],[14.59,41.37],[14.38,41.44],[14.5,41.59],[14.42,41.64],[14.52,41.71],[14.49,41.78],[14.76,42.08]]]}},{"type":"Feature","properties":{"id":"ITA-FG","nome":"Foggia","pais":"ITA","tipo":"Province","lat":41.55,"lng":15.51},"geometry":{"type":"Polygon","coordinates":[[[15.14,41.93],[16.03,41.94],[16.18,41.89],[16.18,41.78],[15.9,41.61],[15.9,41.54],[15.97,41.45],[15.94,41.43],[16.03,41.37],[15.98,41.35],[16.02,41.24],[15.77,41.1],[15.58,41.1],[15.56,41.06],[15.2,41.15],[15.26,41.25],[15.08,41.33],[15.1,41.43],[14.93,41.53],[14.94,41.63],[15.16,41.7],[15.1,41.76],[15.14,41.93]]]}},{"type":"Feature","properties":{"id":"ITA-BT","nome":"Barletta-Andria Trani","pais":"ITA","tipo":"Province","lat":41.16,"lng":16.14},"geometry":{"type":"Polygon","coordinates":[[[15.97,41.45],[16.54,41.22],[16.5,41.15],[16.41,41.19],[16.34,41.16],[16.2,40.91],[15.99,40.95],[16.03,41.02],[15.86,41.14],[16.02,41.24],[15.98,41.35],[16.03,41.37],[15.94,41.43],[15.97,41.45]]]}},{"type":"Feature","properties":{"id":"ITA-BA","nome":"Bari","pais":"ITA","tipo":"Province","lat":40.93,"lng":16.77},"geometry":{"type":"Polygon","coordinates":[[[16.54,41.24],[17.28,40.98],[17.39,40.89],[17.32,40.82],[17.39,40.76],[17.21,40.76],[17.12,40.71],[17,40.76],[16.82,40.69],[16.51,40.76],[16.4,40.71],[16.2,40.91],[16.34,41.16],[16.41,41.19],[16.5,41.15],[16.54,41.24]]]}},{"type":"Feature","properties":{"id":"ITA-BR","nome":"Brindisi","pais":"ITA","tipo":"Province","lat":40.62,"lng":17.71},"geometry":{"type":"Polygon","coordinates":[[[17.39,40.89],[18.01,40.65],[18.1,40.52],[17.8,40.38],[17.63,40.46],[17.55,40.44],[17.35,40.74],[17.4,40.79],[17.32,40.82],[17.39,40.89]]]}},{"type":"Feature","properties":{"id":"ITA-LE","nome":"Lecce","pais":"ITA","tipo":"Province","lat":40.17,"lng":18.21},"geometry":{"type":"Polygon","coordinates":[[[18.1,40.52],[18.3,40.4],[18.52,40.14],[18.37,39.8],[18.07,39.91],[17.91,40.26],[17.76,40.29],[17.82,40.4],[18.1,40.52]]]}},{"type":"Feature","properties":{"id":"ITA-TA","nome":"Taranto","pais":"ITA","tipo":"Province","lat":40.61,"lng":17.11},"geometry":{"type":"Polygon","coordinates":[[[17.76,40.29],[17.49,40.31],[17.2,40.42],[17.32,40.5],[17.05,40.52],[16.86,40.39],[16.73,40.48],[16.7,40.7],[16.92,40.7],[17,40.76],[17.12,40.71],[17.21,40.76],[17.35,40.75],[17.46,40.61],[17.49,40.48],[17.8,40.38],[17.76,40.29]]]}},{"type":"Feature","properties":{"id":"ITA-MT","nome":"Matera","pais":"ITA","tipo":"Province","lat":40.45,"lng":16.49},"geometry":{"type":"Polygon","coordinates":[[[16.86,40.39],[16.68,40.15],[16.43,40.14],[16.4,40.06],[16.36,40.12],[16.37,40.31],[16.18,40.28],[16.11,40.4],[16.12,40.58],[16.06,40.66],[16.15,40.7],[16.12,40.8],[16.25,40.84],[16.42,40.7],[16.51,40.76],[16.69,40.74],[16.73,40.48],[16.86,40.39]]]}},{"type":"Feature","properties":{"id":"ITA-CS","nome":"Cosenza","pais":"ITA","tipo":"Province","lat":39.56,"lng":16.31},"geometry":{"type":"Polygon","coordinates":[[[16.64,40.12],[16.6,40.05],[16.63,39.97],[16.49,39.81],[16.52,39.69],[17.02,39.48],[16.88,39.35],[16.72,39.35],[16.76,39.2],[16.51,39.16],[16.47,39.05],[16.31,39.11],[16.1,39.05],[16.03,39.35],[15.87,39.56],[15.75,39.92],[15.84,40],[15.95,40.01],[16.07,39.91],[16.26,39.94],[16.35,39.9],[16.42,40.13],[16.64,40.12]]]}},{"type":"Feature","properties":{"id":"ITA-KR","nome":"Crotene","pais":"ITA","tipo":"Province","lat":39.16,"lng":16.95},"geometry":{"type":"Polygon","coordinates":[[[17.02,39.48],[17.16,39.41],[17.12,39.09],[17.21,39.03],[17.1,38.9],[16.89,38.93],[16.87,39.02],[16.68,39.09],[16.61,39.19],[16.76,39.2],[16.72,39.35],[16.88,39.35],[17.02,39.48]]]}},{"type":"Feature","properties":{"id":"ITA-CZ","nome":"Catanzaro","pais":"ITA","tipo":"Province","lat":38.88,"lng":16.47},"geometry":{"type":"Polygon","coordinates":[[[16.89,38.93],[16.57,38.79],[16.53,38.7],[16.57,38.47],[16.54,38.47],[16.43,38.51],[16.44,38.57],[16.33,38.66],[16.37,38.78],[16.21,38.81],[16.21,38.92],[16.1,39.05],[16.31,39.11],[16.47,39.05],[16.49,39.15],[16.61,39.19],[16.68,39.09],[16.87,39.02],[16.89,38.93]]]}},{"type":"Feature","properties":{"id":"ITA-RC","nome":"Reggio Calabria","pais":"ITA","tipo":"Province","lat":38.24,"lng":16.02},"geometry":{"type":"Polygon","coordinates":[[[16.57,38.47],[16.17,38.14],[16.08,37.94],[15.76,37.93],[15.65,37.99],[15.63,38.22],[15.81,38.3],[15.91,38.51],[16.08,38.55],[16.37,38.43],[16.38,38.57],[16.57,38.47]]]}},{"type":"Feature","properties":{"id":"ITA-VV","nome":"Vibo Valentia","pais":"ITA","tipo":"Province","lat":38.64,"lng":16.19},"geometry":{"type":"Polygon","coordinates":[[[15.91,38.51],[15.84,38.66],[16.14,38.72],[16.28,38.83],[16.37,38.78],[16.33,38.66],[16.44,38.57],[16.35,38.53],[16.38,38.43],[16.08,38.55],[15.91,38.51]]]}},{"type":"Feature","properties":{"id":"ITA-PZ","nome":"Potenza","pais":"ITA","tipo":"Province","lat":40.33,"lng":15.94},"geometry":{"type":"Polygon","coordinates":[[[15.75,39.92],[15.65,40.08],[15.79,40.26],[15.54,40.48],[15.45,40.61],[15.49,40.66],[15.39,40.72],[15.34,40.82],[15.37,40.9],[15.54,40.93],[15.58,41.1],[15.86,41.14],[16.03,41.02],[15.98,40.95],[16.18,40.92],[16.25,40.84],[16.12,40.8],[16.15,40.7],[16.05,40.63],[16.12,40.58],[16.11,40.4],[16.18,40.28],[16.37,40.31],[16.36,40.12],[16.4,40.06],[16.35,39.9],[16.26,39.94],[16.07,39.91],[15.95,40.01],[15.84,40],[15.75,39.92]]]}},{"type":"Feature","properties":{"id":"ITA-SA","nome":"Salerno","pais":"ITA","tipo":"Province","lat":40.44,"lng":15.22},"geometry":{"type":"Polygon","coordinates":[[[15.65,40.05],[15.53,40.08],[15.36,40],[15.13,40.17],[14.91,40.24],[14.93,40.33],[15,40.37],[14.89,40.57],[14.75,40.68],[14.47,40.62],[14.58,40.69],[14.52,40.77],[14.58,40.85],[14.71,40.85],[15.17,40.71],[15.32,40.84],[15.39,40.71],[15.49,40.66],[15.45,40.61],[15.54,40.48],[15.79,40.26],[15.65,40.05]]]}},{"type":"Feature","properties":{"id":"ITA-NA","nome":"Napoli","pais":"ITA","tipo":"Province","lat":40.88,"lng":14.42},"geometry":{"type":"Polygon","coordinates":[[[14.47,40.62],[14.34,40.57],[14.34,40.62],[14.47,40.73],[14.29,40.84],[14.05,40.79],[14.01,40.94],[14.57,41.01],[14.58,40.94],[14.67,40.9],[14.58,40.9],[14.58,40.8],[14.51,40.76],[14.58,40.69],[14.47,40.62]]]}},{"type":"Feature","properties":{"id":"ITA-CE","nome":"Caserta","pais":"ITA","tipo":"Province","lat":41.22,"lng":14.14},"geometry":{"type":"Polygon","coordinates":[[[14.01,40.94],[13.74,41.24],[13.87,41.3],[13.86,41.43],[13.96,41.47],[14.1,41.39],[14.12,41.5],[14.22,41.49],[14.51,41.39],[14.44,41.35],[14.49,41.31],[14.42,41.24],[14.45,41.17],[14.36,41.15],[14.53,41],[14.01,40.94]]]}},{"type":"Feature","properties":{"id":"ITA-LT","nome":"Latina","pais":"ITA","tipo":"Province","lat":41.38,"lng":13.09},"geometry":{"type":"Polygon","coordinates":[[[13.74,41.24],[13.59,41.25],[13.54,41.21],[13.29,41.3],[13.04,41.23],[12.92,41.38],[12.77,41.42],[12.57,41.64],[12.64,41.66],[12.75,41.57],[12.85,41.7],[12.93,41.71],[13.02,41.58],[13.1,41.55],[13.19,41.59],[13.3,41.41],[13.42,41.4],[13.45,41.46],[13.63,41.32],[13.87,41.34],[13.74,41.24]]]}},{"type":"Feature","properties":{"id":"ITA-RM","nome":"Roma","pais":"ITA","tipo":"Province","lat":41.97,"lng":12.73},"geometry":{"type":"Polygon","coordinates":[[[12.77,41.42],[12.64,41.45],[12.45,41.63],[12.22,41.75],[12.15,41.9],[11.93,42.03],[11.83,42.03],[11.74,42.16],[11.83,42.15],[11.91,42.23],[12.03,42.15],[12.33,42.15],[12.38,42.23],[12.42,42.18],[12.52,42.3],[12.58,42.29],[12.67,42.15],[12.78,42.19],[12.87,42.1],[13.03,42.12],[13.03,42.03],[13.3,41.95],[13.18,41.85],[13.01,41.81],[13.16,41.64],[13.18,41.58],[13.1,41.55],[12.92,41.71],[12.75,41.57],[12.64,41.66],[12.57,41.64],[12.77,41.42]]]}},{"type":"Feature","properties":{"id":"ITA-VT","nome":"Viterbo","pais":"ITA","tipo":"Province","lat":42.43,"lng":11.97},"geometry":{"type":"Polygon","coordinates":[[[11.74,42.16],[11.66,42.28],[11.45,42.37],[11.6,42.45],[11.59,42.57],[11.79,42.65],[11.81,42.74],[11.75,42.81],[11.89,42.85],[11.97,42.76],[11.95,42.69],[12.24,42.65],[12.28,42.51],[12.45,42.42],[12.52,42.3],[12.48,42.22],[12.42,42.18],[12.38,42.23],[12.33,42.15],[12.03,42.15],[11.91,42.23],[11.83,42.15],[11.74,42.16]]]}},{"type":"Feature","properties":{"id":"ITA-GR","nome":"Grosseto","pais":"ITA","tipo":"Province","lat":42.82,"lng":11.2},"geometry":{"type":"Polygon","coordinates":[[[11.45,42.37],[11.09,42.4],[11.18,42.46],[11.16,42.56],[10.94,42.74],[10.73,42.8],[10.78,42.89],[10.71,42.94],[10.79,43.01],[10.72,43.08],[10.74,43.15],[11.04,43.19],[11.09,43.08],[11.36,43.08],[11.4,42.97],[11.58,42.97],[11.64,42.8],[11.78,42.78],[11.79,42.65],[11.59,42.57],[11.6,42.45],[11.45,42.37]]]}},{"type":"Feature","properties":{"id":"ITA-LI","nome":"Livorno","pais":"ITA","tipo":"Province","lat":43.06,"lng":10.62},"geometry":{"type":"MultiPolygon","coordinates":[[[[10.71,42.94],[10.5,42.94],[10.53,43.25],[10.29,43.58],[10.49,43.63],[10.5,43.39],[10.59,43.29],[10.7,43.3],[10.64,43.17],[10.79,43.06],[10.71,42.94]]],[[[10.44,42.85],[10.39,42.76],[10.42,42.71],[10.34,42.76],[10.11,42.76],[10.13,42.81],[10.44,42.85]]]]}},{"type":"Feature","properties":{"id":"ITA-PI","nome":"Pisa","pais":"ITA","tipo":"Province","lat":43.55,"lng":10.68},"geometry":{"type":"Polygon","coordinates":[[[10.29,43.58],[10.26,43.82],[10.42,43.82],[10.48,43.76],[10.68,43.8],[10.79,43.72],[10.87,43.73],[10.91,43.65],[10.82,43.61],[10.84,43.53],[11,43.4],[10.95,43.32],[10.99,43.24],[10.94,43.24],[10.91,43.16],[10.72,43.11],[10.64,43.18],[10.7,43.3],[10.59,43.29],[10.5,43.39],[10.49,43.63],[10.29,43.58]]]}},{"type":"Feature","properties":{"id":"ITA-LU","nome":"Lucca","pais":"ITA","tipo":"Province","lat":43.99,"lng":10.45},"geometry":{"type":"Polygon","coordinates":[[[10.26,43.82],[10.14,43.98],[10.23,44.08],[10.19,44.21],[10.25,44.27],[10.36,44.27],[10.72,44.08],[10.65,43.88],[10.72,43.84],[10.71,43.79],[10.48,43.76],[10.42,43.82],[10.26,43.82]]]}},{"type":"Feature","properties":{"id":"ITA-MS","nome":"Massa-Carrara","pais":"ITA","tipo":"Province","lat":44.23,"lng":10.03},"geometry":{"type":"Polygon","coordinates":[[[10.14,43.98],[9.69,44.37],[9.87,44.48],[10.2,44.31],[10.25,44.27],[10.19,44.21],[10.23,44.08],[10.14,43.98]]]}},{"type":"Feature","properties":{"id":"ITA-SP","nome":"La Spezia","pais":"ITA","tipo":"Province","lat":44.21,"lng":9.69},"geometry":{"type":"Polygon","coordinates":[[[10.03,44.05],[9.84,44.11],[9.83,44.04],[9.51,44.22],[9.57,44.25],[9.48,44.41],[9.65,44.41],[9.85,44.25],[9.86,44.19],[10.05,44.1],[10.03,44.05]]]}},{"type":"Feature","properties":{"id":"ITA-GE","nome":"Genova","pais":"ITA","tipo":"Province","lat":44.47,"lng":9.15},"geometry":{"type":"Polygon","coordinates":[[[9.51,44.22],[9.23,44.35],[9.21,44.31],[9.1,44.37],[8.76,44.43],[8.62,44.39],[8.59,44.42],[8.67,44.46],[8.56,44.52],[8.63,44.59],[8.72,44.58],[8.77,44.5],[8.9,44.57],[8.88,44.63],[8.92,44.68],[9.13,44.58],[9.41,44.6],[9.49,44.55],[9.44,44.42],[9.56,44.28],[9.51,44.22]]]}},{"type":"Feature","properties":{"id":"ITA-SV","nome":"Savona","pais":"ITA","tipo":"Province","lat":44.29,"lng":8.29},"geometry":{"type":"Polygon","coordinates":[[[8.63,44.38],[8.26,44.13],[8.17,43.96],[8,44],[8.04,44.07],[7.98,44.15],[8.08,44.19],[8.07,44.31],[8.21,44.42],[8.24,44.53],[8.35,44.48],[8.65,44.49],[8.67,44.46],[8.59,44.42],[8.63,44.38]]]}},{"type":"Feature","properties":{"id":"ITA-TP","nome":"Trapani","pais":"ITA","tipo":"Province","lat":37.85,"lng":12.7},"geometry":{"type":"Polygon","coordinates":[[[12.89,37.57],[12.66,37.57],[12.51,37.67],[12.43,37.8],[12.49,38.02],[12.7,38.11],[12.73,38.19],[12.83,38.07],[12.98,38.04],[13.05,37.95],[12.94,37.9],[12.95,37.83],[13.09,37.81],[13.09,37.77],[12.91,37.69],[12.89,37.57]]]}},{"type":"Feature","properties":{"id":"ITA-ME","nome":"Messina","pais":"ITA","tipo":"Province","lat":38.05,"lng":14.91},"geometry":{"type":"Polygon","coordinates":[[[14.18,38.03],[14.51,38.04],[14.91,38.19],[15.09,38.13],[15.18,38.16],[15.24,38.26],[15.29,38.21],[15.53,38.3],[15.65,38.28],[15.26,37.81],[15.14,37.9],[14.98,37.89],[14.93,37.96],[14.83,37.96],[14.73,37.88],[14.79,37.81],[14.6,37.81],[14.56,37.88],[14.47,37.8],[14.42,37.86],[14.28,37.84],[14.28,37.92],[14.18,38.03]]]}},{"type":"Feature","properties":{"id":"ITA-PA","nome":"Palermo","pais":"ITA","tipo":"Province","lat":37.89,"lng":13.56},"geometry":{"type":"Polygon","coordinates":[[[12.98,38.04],[13.07,38.09],[13.1,38.19],[13.32,38.22],[13.39,38.1],[13.51,38.11],[13.71,37.98],[14.02,38.05],[14.18,38.03],[14.28,37.92],[14.29,37.75],[14.13,37.62],[14.06,37.64],[13.97,37.58],[13.79,37.73],[13.64,37.66],[13.44,37.65],[13.36,37.54],[13.35,37.66],[13.24,37.62],[13.19,37.69],[13.06,37.71],[13.03,37.74],[13.08,37.82],[12.95,37.83],[12.94,37.9],[13.05,37.95],[12.98,38.04]]]}},{"type":"Feature","properties":{"id":"ITA-AG","nome":"Agrigento","pais":"ITA","tipo":"Province","lat":37.45,"lng":13.49},"geometry":{"type":"Polygon","coordinates":[[[14.04,37.11],[13.89,37.1],[13.42,37.31],[13.17,37.49],[13.02,37.5],[12.89,37.57],[12.91,37.69],[13.01,37.74],[13.24,37.62],[13.34,37.66],[13.36,37.54],[13.44,37.65],[13.78,37.68],[13.82,37.62],[13.67,37.59],[13.64,37.46],[13.89,37.4],[13.88,37.36],[14.02,37.28],[13.99,37.2],[14.04,37.11]]]}},{"type":"Feature","properties":{"id":"ITA-CL","nome":"Caltanissetta","pais":"ITA","tipo":"Province","lat":37.22,"lng":14.16},"geometry":{"type":"Polygon","coordinates":[[[14.33,37],[14.04,37.11],[13.99,37.2],[14.02,37.28],[13.85,37.43],[13.64,37.46],[13.67,37.59],[13.82,37.62],[13.73,37.68],[13.77,37.73],[13.96,37.59],[14.06,37.64],[14.15,37.61],[14.15,37.49],[14.07,37.41],[14.09,37.35],[14.35,37.31],[14.39,37.18],[14.47,37.13],[14.44,37.05],[14.33,37]]]}},{"type":"Feature","properties":{"id":"ITA-RG","nome":"Ragusa","pais":"ITA","tipo":"Province","lat":36.91,"lng":14.65},"geometry":{"type":"Polygon","coordinates":[[[15,36.7],[14.78,36.7],[14.49,36.79],[14.33,37],[14.79,37.13],[14.92,36.94],[14.84,36.97],[14.85,36.93],[14.94,36.87],[14.84,36.84],[14.99,36.78],[15,36.7]]]}},{"type":"Feature","properties":{"id":"ITA-SR","nome":"Siracusa","pais":"ITA","tipo":"Province","lat":37.09,"lng":15.05},"geometry":{"type":"Polygon","coordinates":[[[15.09,37.36],[15.25,37.26],[15.18,37.21],[15.33,37.01],[15.16,36.92],[15.09,36.65],[15,36.7],[14.97,36.79],[14.84,36.84],[14.94,36.87],[14.85,36.93],[14.84,36.97],[14.92,36.94],[14.8,37.12],[14.86,37.2],[14.78,37.22],[14.87,37.29],[14.79,37.33],[14.9,37.41],[15.09,37.36]]]}},{"type":"Feature","properties":{"id":"ITA-CT","nome":"Catania","pais":"ITA","tipo":"Province","lat":37.59,"lng":14.97},"geometry":{"type":"Polygon","coordinates":[[[15.26,37.81],[15.1,37.49],[15.09,37.36],[14.9,37.41],[14.79,37.33],[14.87,37.31],[14.78,37.23],[14.86,37.2],[14.84,37.13],[14.44,37.05],[14.47,37.13],[14.39,37.18],[14.35,37.31],[14.43,37.29],[14.45,37.34],[14.51,37.31],[14.63,37.42],[14.51,37.46],[14.54,37.54],[14.69,37.56],[14.77,37.5],[14.84,37.6],[14.8,37.71],[14.71,37.71],[14.74,37.82],[14.8,37.83],[14.73,37.86],[14.77,37.94],[15.14,37.9],[15.26,37.81]]]}},{"type":"Feature","properties":{"id":"ITA-CI","nome":"Carbonia-Iglesias","pais":"ITA","tipo":"Province","lat":39.24,"lng":8.58},"geometry":{"type":"Polygon","coordinates":[[[8.61,38.95],[8.37,39.22],[8.43,39.3],[8.37,39.38],[8.42,39.47],[8.53,39.48],[8.7,39.37],[8.85,39.09],[8.67,39.04],[8.61,38.95]]]}},{"type":"Feature","properties":{"id":"ITA-SS","nome":"Sassari","pais":"ITA","tipo":"Province","lat":40.64,"lng":8.68},"geometry":{"type":"Polygon","coordinates":[[[8.39,40.41],[8.29,40.6],[8.15,40.59],[8.2,40.69],[8.13,40.73],[8.22,40.88],[8.2,40.98],[8.28,40.87],[8.5,40.82],[8.71,40.92],[8.97,40.95],[8.98,40.9],[8.9,40.87],[8.99,40.84],[9.01,40.68],[9.18,40.65],[9.19,40.51],[9.28,40.49],[9.18,40.37],[9.03,40.31],[8.84,40.41],[8.65,40.31],[8.51,40.42],[8.39,40.41]]]}},{"type":"Feature","properties":{"id":"ITA-NU","nome":"Nuoro","pais":"ITA","tipo":"Province","lat":40.33,"lng":9.4},"geometry":{"type":"Polygon","coordinates":[[[9.75,40.66],[9.83,40.53],[9.76,40.39],[9.63,40.22],[9.53,40.22],[9.3,40.04],[9.32,39.99],[9.2,39.9],[9.2,39.83],[8.99,39.93],[9.01,39.98],[8.96,40.03],[9.04,40.06],[8.99,40.21],[8.69,40.21],[8.62,40.28],[8.83,40.41],[9.03,40.31],[9.27,40.48],[9.19,40.54],[9.32,40.55],[9.42,40.65],[9.6,40.7],[9.75,40.66]]]}},{"type":"Feature","properties":{"id":"ITA-OT","nome":"Olbia-Tempio","pais":"ITA","tipo":"Province","lat":40.93,"lng":9.29},"geometry":{"type":"Polygon","coordinates":[[[8.81,40.94],[9.23,41.26],[9.28,41.2],[9.42,41.18],[9.44,41.09],[9.47,41.15],[9.57,41.12],[9.51,41.02],[9.66,41],[9.5,40.93],[9.64,40.92],[9.61,40.89],[9.72,40.84],[9.66,40.8],[9.75,40.66],[9.6,40.7],[9.19,40.54],[9.18,40.65],[9.01,40.68],[8.99,40.84],[8.9,40.86],[8.98,40.9],[8.97,40.95],[8.81,40.94]]]}},{"type":"Feature","properties":{"id":"ITA-OR","nome":"Oristrano","pais":"ITA","tipo":"Province","lat":40,"lng":8.73},"geometry":{"type":"Polygon","coordinates":[[[8.55,39.7],[8.5,39.72],[8.55,39.88],[8.46,39.91],[8.44,39.86],[8.39,39.91],[8.38,40.03],[8.49,40.1],[8.48,40.29],[8.39,40.35],[8.39,40.41],[8.53,40.41],[8.68,40.21],[8.99,40.21],[9.04,40.06],[8.96,40.03],[9.01,39.98],[8.99,39.93],[9.16,39.86],[9,39.76],[8.94,39.78],[8.75,39.63],[8.55,39.7]]]}},{"type":"Feature","properties":{"id":"ITA-VS","nome":"Medio Campidano","pais":"ITA","tipo":"Province","lat":39.51,"lng":8.73},"geometry":{"type":"Polygon","coordinates":[[[8.4,39.45],[8.46,39.58],[8.45,39.76],[8.68,39.63],[8.84,39.67],[8.94,39.78],[9.07,39.75],[8.97,39.41],[8.7,39.37],[8.53,39.48],[8.4,39.45]]]}},{"type":"Feature","properties":{"id":"ITA-CA","nome":"Cagliari","pais":"ITA","tipo":"Province","lat":39.45,"lng":9.26},"geometry":{"type":"Polygon","coordinates":[[[9.65,39.55],[9.6,39.34],[9.63,39.3],[9.52,39.1],[9.29,39.22],[9.17,39.19],[9.01,39.26],[9.08,39.22],[9.02,39.15],[9.03,39],[8.85,38.88],[8.72,38.93],[8.64,38.86],[8.6,38.9],[8.67,39.04],[8.85,39.09],[8.7,39.37],[8.98,39.42],[9.07,39.74],[9,39.76],[9.1,39.83],[9.2,39.83],[9.2,39.9],[9.28,39.92],[9.28,39.84],[9.39,39.74],[9.35,39.69],[9.65,39.55]]]}},{"type":"Feature","properties":{"id":"ITA-OG","nome":"Ogliastra","pais":"ITA","tipo":"Province","lat":39.89,"lng":9.52},"geometry":{"type":"Polygon","coordinates":[[[9.63,40.22],[9.73,40.08],[9.65,39.55],[9.35,39.69],[9.39,39.74],[9.27,39.85],[9.3,40.04],[9.53,40.22],[9.63,40.22]]]}},{"type":"Feature","properties":{"id":"ITA-EN","nome":"Enna","pais":"ITA","tipo":"Province","lat":37.66,"lng":14.45},"geometry":{"type":"Polygon","coordinates":[[[14.74,37.82],[14.71,37.7],[14.8,37.71],[14.84,37.6],[14.78,37.51],[14.69,37.56],[14.53,37.53],[14.51,37.46],[14.63,37.42],[14.51,37.31],[14.09,37.35],[14.13,37.62],[14.29,37.73],[14.28,37.84],[14.42,37.86],[14.48,37.8],[14.56,37.88],[14.6,37.81],[14.74,37.82]]]}},{"type":"Feature","properties":{"id":"ITA-BN","nome":"Benevento","pais":"ITA","tipo":"Province","lat":41.23,"lng":14.77},"geometry":{"type":"Polygon","coordinates":[[[14.42,41.15],[14.46,41.18],[14.42,41.26],[14.49,41.31],[14.45,41.36],[15,41.48],[15.1,41.43],[15.07,41.35],[15.14,41.27],[14.99,41.27],[15,41.11],[14.75,41.01],[14.71,41.06],[14.57,41.01],[14.43,41.05],[14.43,41.11],[14.36,41.15],[14.42,41.15]]]}},{"type":"Feature","properties":{"id":"ITA-AT","nome":"Asti","pais":"ITA","tipo":"Province","lat":44.92,"lng":8.17},"geometry":{"type":"Polygon","coordinates":[[[8.02,44.81],[7.89,44.9],[7.94,45.04],[7.89,45.09],[8.1,45.13],[8.22,45.01],[8.24,45.06],[8.34,45.04],[8.37,44.86],[8.5,44.77],[8.35,44.69],[8.32,44.6],[8.36,44.58],[8.27,44.52],[8.2,44.61],[8.27,44.71],[8.1,44.75],[8.13,44.81],[8.02,44.81]]]}},{"type":"Feature","properties":{"id":"ITA-BG","nome":"Bergamo","pais":"ITA","tipo":"Province","lat":45.81,"lng":9.77},"geometry":{"type":"Polygon","coordinates":[[[10.17,46.06],[10.26,46.02],[10.1,45.93],[10.13,45.86],[10.06,45.7],[9.87,45.6],[9.89,45.43],[9.71,45.48],[9.67,45.44],[9.56,45.46],[9.51,45.51],[9.53,45.6],[9.45,45.75],[9.52,45.78],[9.47,45.85],[9.54,45.95],[9.49,46.01],[10.1,46.09],[10.17,46.06]]]}},{"type":"Feature","properties":{"id":"ITA-BS","nome":"Brescia","pais":"ITA","tipo":"Province","lat":45.63,"lng":10.36},"geometry":{"type":"Polygon","coordinates":[[[9.89,45.43],[9.87,45.6],[10.06,45.7],[10.13,45.86],[10.1,45.93],[10.26,46.02],[10.17,46.06],[10.16,46.16],[10.45,46.35],[10.57,46.32],[10.56,46.11],[10.46,45.98],[10.52,45.84],[10.58,45.79],[10.84,45.83],[10.64,45.61],[10.66,45.42],[10.47,45.41],[10.46,45.33],[10.33,45.2],[9.99,45.31],[9.89,45.36],[9.89,45.43]]]}},{"type":"Feature","properties":{"id":"ITA-CR","nome":"Cremona","pais":"ITA","tipo":"Province","lat":45.23,"lng":10},"geometry":{"type":"Polygon","coordinates":[[[9.89,45.43],[9.89,45.36],[10.01,45.3],[10.25,45.26],[10.48,45.15],[10.41,45.04],[10.52,45.08],[10.46,44.98],[10.56,44.98],[10.46,44.94],[10.5,44.92],[10.4,44.99],[10.07,45.04],[10,45.12],[9.92,45.11],[9.46,45.41],[9.51,45.51],[9.56,45.46],[9.67,45.44],[9.71,45.48],[9.89,45.43]]]}},{"type":"Feature","properties":{"id":"ITA-MN","nome":"Mantova","pais":"ITA","tipo":"Province","lat":45.14,"lng":10.74},"geometry":{"type":"Polygon","coordinates":[[[10.47,45.1],[10.48,45.15],[10.32,45.2],[10.46,45.33],[10.47,45.41],[10.7,45.42],[10.7,45.32],[10.99,45.2],[11.08,45.1],[11.2,45.11],[11.2,45.06],[11.42,44.95],[11.08,44.96],[10.89,44.91],[10.69,44.99],[10.52,44.92],[10.46,44.94],[10.56,45],[10.46,44.98],[10.53,45.07],[10.41,45.04],[10.47,45.1]]]}},{"type":"Feature","properties":{"id":"ITA-MI","nome":"Milano","pais":"ITA","tipo":"Province","lat":45.44,"lng":9.12},"geometry":{"type":"Polygon","coordinates":[[[9.5,45.65],[9.53,45.54],[9.36,45.37],[9.38,45.31],[9.01,45.33],[8.98,45.26],[8.71,45.56],[9.11,45.62],[9.32,45.54],[9.5,45.65]]]}},{"type":"Feature","properties":{"id":"ITA-LC","nome":"Lecco","pais":"ITA","tipo":"Province","lat":45.76,"lng":9.37},"geometry":{"type":"Polygon","coordinates":[[[9.53,46.01],[9.49,46.01],[9.54,45.94],[9.47,45.85],[9.52,45.78],[9.45,45.75],[9.48,45.67],[9.32,45.67],[9.25,45.77],[9.33,45.86],[9.26,45.95],[9.3,46.13],[9.42,46.16],[9.42,46.09],[9.53,46.01]]]}},{"type":"Feature","properties":{"id":"ITA-MB","nome":"Monza e Brianza","pais":"ITA","tipo":"Province","lat":45.63,"lng":9.28},"geometry":{"type":"Polygon","coordinates":[[[9.48,45.67],[9.46,45.6],[9.32,45.54],[9.05,45.62],[9.07,45.68],[9.19,45.66],[9.25,45.74],[9.32,45.67],[9.48,45.67]]]}},{"type":"Feature","properties":{"id":"ITA-LO","nome":"Lodi","pais":"ITA","tipo":"Province","lat":45.25,"lng":9.55},"geometry":{"type":"Polygon","coordinates":[[[9.47,45.45],[9.47,45.38],[9.58,45.36],[9.9,45.09],[9.68,45.08],[9.31,45.25],[9.42,45.45],[9.47,45.45]]]}},{"type":"Feature","properties":{"id":"ITA-SI","nome":"Siena","pais":"ITA","tipo":"Province","lat":43.22,"lng":11.42},"geometry":{"type":"Polygon","coordinates":[[[11.4,43.55],[11.69,43.27],[11.88,43.16],[11.95,43.17],[11.94,42.87],[11.64,42.8],[11.61,42.95],[11.4,42.97],[11.36,43.08],[11.09,43.08],[11.04,43.19],[10.91,43.16],[10.94,43.24],[10.99,43.25],[10.97,43.51],[11.03,43.54],[11.21,43.48],[11.4,43.55]]]}},{"type":"Feature","properties":{"id":"ITA-AR","nome":"Arezzo","pais":"ITA","tipo":"Province","lat":43.53,"lng":11.78},"geometry":{"type":"Polygon","coordinates":[[[11.75,43.24],[11.4,43.55],[11.61,43.69],[11.58,43.76],[11.65,43.86],[12.36,43.72],[12.2,43.65],[12.1,43.52],[12.13,43.48],[12.04,43.42],[12.14,43.3],[12.21,43.29],[11.89,43.16],[11.75,43.24]]]}},{"type":"Feature","properties":{"id":"ITA-FI","nome":"Firenze","pais":"ITA","tipo":"Province","lat":43.73,"lng":11.32},"geometry":{"type":"Polygon","coordinates":[[[10.79,43.72],[10.73,43.81],[10.95,43.82],[11.06,43.76],[11.15,43.86],[11.2,44.1],[11.26,44.12],[11.2,44.16],[11.4,44.23],[11.6,44.16],[11.59,44.13],[11.75,44.13],[11.65,44.01],[11.72,43.88],[11.63,43.85],[11.57,43.73],[11.61,43.69],[11.49,43.58],[11.21,43.48],[11.03,43.54],[10.95,43.45],[10.89,43.46],[10.82,43.61],[10.91,43.68],[10.79,43.72]]]}},{"type":"Feature","properties":{"id":"ITA-VC","nome":"Vercelli","pais":"ITA","tipo":"Province","lat":45.84,"lng":8.16},"geometry":{"type":"Polygon","coordinates":[[[8.01,45.34],[8.01,45.4],[8.13,45.38],[8.26,45.5],[8.29,45.64],[8.13,45.76],[7.92,45.73],[7.85,45.92],[8.21,45.95],[8.38,45.72],[8.31,45.7],[8.39,45.62],[8.41,45.41],[8.49,45.37],[8.56,45.16],[8.05,45.19],[7.96,45.33],[8.01,45.34]]]}},{"type":"Feature","properties":{"id":"ITA-PV","nome":"Pavia","pais":"ITA","tipo":"Province","lat":45.14,"lng":9.26},"geometry":{"type":"Polygon","coordinates":[[[8.83,45.41],[8.98,45.26],[9.01,45.33],[9.31,45.33],[9.31,45.25],[9.54,45.16],[9.54,45.09],[9.43,45.1],[9.31,44.92],[9.36,44.85],[9.31,44.7],[9.2,44.68],[9.16,44.81],[9.06,44.84],[8.88,45.05],[8.67,45.02],[8.57,45.14],[8.5,45.29],[8.54,45.36],[8.7,45.3],[8.73,45.38],[8.83,45.41]]]}},{"type":"Feature","properties":{"id":"ITA-RI","nome":"Rieti","pais":"ITA","tipo":"Province","lat":42.34,"lng":12.94},"geometry":{"type":"Polygon","coordinates":[[[12.52,42.3],[12.47,42.39],[12.54,42.37],[12.62,42.47],[12.72,42.45],[12.9,42.61],[13.15,42.65],[13.19,42.73],[13.28,42.74],[13.39,42.64],[13.37,42.59],[13.19,42.59],[13.14,42.54],[13.16,42.34],[13.37,42.19],[13.3,42.13],[13.1,42.17],[12.87,42.1],[12.78,42.19],[12.62,42.17],[12.62,42.25],[12.52,42.3]]]}},{"type":"Feature","properties":{"id":"ITA-NO","nome":"Novara","pais":"ITA","tipo":"Province","lat":45.59,"lng":8.54},"geometry":{"type":"Polygon","coordinates":[[[8.37,45.7],[8.38,45.84],[8.6,45.83],[8.57,45.79],[8.68,45.67],[8.72,45.52],[8.83,45.41],[8.73,45.38],[8.7,45.3],[8.57,45.37],[8.47,45.33],[8.5,45.37],[8.41,45.41],[8.39,45.61],[8.31,45.7],[8.37,45.7]]]}},{"type":"Feature","properties":{"id":"ITA-AL","nome":"Alessandria","pais":"ITA","tipo":"Province","lat":44.81,"lng":8.75},"geometry":{"type":"Polygon","coordinates":[[[8.4,45.2],[8.56,45.16],[8.67,45.02],[8.88,45.05],[9.06,44.84],[9.16,44.8],[9.2,44.6],[9.12,44.59],[8.94,44.68],[8.88,44.64],[8.9,44.57],[8.77,44.5],[8.72,44.58],[8.63,44.59],[8.56,44.52],[8.35,44.48],[8.27,44.52],[8.36,44.58],[8.32,44.6],[8.35,44.69],[8.5,44.79],[8.38,44.85],[8.39,44.97],[8.3,45.07],[8.22,45.01],[8.11,45.11],[8.15,45.17],[8.4,45.2]]]}},{"type":"Feature","properties":{"id":"ITA-TN","nome":"Trento","pais":"ITA","tipo":"Province","lat":46.04,"lng":10.99},"geometry":{"type":"Polygon","coordinates":[[[11.82,46.52],[11.9,46.45],[11.8,46.35],[11.97,46.19],[11.71,46.1],[11.68,45.98],[11.39,45.98],[11.27,45.91],[11.13,45.7],[10.93,45.68],[10.87,45.72],[10.89,45.81],[10.81,45.84],[10.58,45.79],[10.52,45.84],[10.46,45.99],[10.59,46.23],[10.53,46.34],[10.63,46.39],[10.62,46.45],[11.05,46.45],[11.06,46.52],[11.2,46.5],[11.15,46.27],[11.22,46.22],[11.58,46.37],[11.68,46.51],[11.82,46.52]]]}},{"type":"Feature","properties":{"id":"ITA-VI","nome":"Vicenza","pais":"ITA","tipo":"Province","lat":45.71,"lng":11.48},"geometry":{"type":"Polygon","coordinates":[[[11.18,45.62],[11.13,45.7],[11.27,45.91],[11.39,45.98],[11.56,46.02],[11.78,45.92],[11.74,45.83],[11.83,45.77],[11.82,45.69],[11.65,45.64],[11.66,45.54],[11.73,45.56],[11.75,45.49],[11.62,45.39],[11.61,45.25],[11.36,45.35],[11.32,45.5],[11.18,45.62]]]}},{"type":"Feature","properties":{"id":"ITA-VR","nome":"Verona","pais":"ITA","tipo":"Province","lat":45.45,"lng":11.04},"geometry":{"type":"Polygon","coordinates":[[[11.13,45.7],[11.32,45.5],[11.36,45.36],[11.49,45.28],[11.41,45.25],[11.43,45.07],[11.08,45.1],[10.99,45.2],[10.7,45.32],[10.64,45.61],[10.84,45.83],[10.93,45.68],[11.13,45.7]]]}},{"type":"Feature","properties":{"id":"ITA-TV","nome":"Treviso","pais":"ITA","tipo":"Province","lat":45.81,"lng":12.23},"geometry":{"type":"Polygon","coordinates":[[[12.33,46.08],[12.42,46.04],[12.57,45.84],[12.67,45.81],[12.66,45.7],[12.5,45.68],[12.42,45.57],[12.26,45.53],[12.07,45.64],[11.95,45.61],[11.82,45.69],[11.83,45.77],[11.75,45.86],[12.33,46.08]]]}},{"type":"Feature","properties":{"id":"ITA-PC","nome":"Piacenza","pais":"ITA","tipo":"Province","lat":44.87,"lng":9.58},"geometry":{"type":"Polygon","coordinates":[[[10.07,45.04],[9.99,44.95],[10.01,44.87],[9.77,44.68],[9.66,44.68],[9.49,44.55],[9.2,44.61],[9.2,44.68],[9.32,44.71],[9.36,44.86],[9.3,44.91],[9.43,45.1],[9.54,45.09],[9.55,45.13],[9.83,45.07],[9.9,45.14],[10,45.12],[10.07,45.04]]]}},{"type":"Feature","properties":{"id":"ITA-PR","nome":"Parma","pais":"ITA","tipo":"Province","lat":44.64,"lng":10.04},"geometry":{"type":"Polygon","coordinates":[[[9.86,44.76],[10.01,44.87],[9.99,44.95],[10.07,45.04],[10.4,44.99],[10.5,44.92],[10.39,44.55],[10.14,44.34],[9.87,44.48],[9.69,44.36],[9.6,44.43],[9.44,44.41],[9.49,44.55],[9.86,44.76]]]}},{"type":"Feature","properties":{"id":"ITA-RE","nome":"Reggio Emilia","pais":"ITA","tipo":"Province","lat":44.67,"lng":10.62},"geometry":{"type":"Polygon","coordinates":[[[10.14,44.34],[10.39,44.55],[10.47,44.9],[10.69,44.99],[10.89,44.91],[10.82,44.81],[10.76,44.54],[10.53,44.35],[10.48,44.23],[10.14,44.34]]]}},{"type":"Feature","properties":{"id":"ITA-MO","nome":"Modena","pais":"ITA","tipo":"Province","lat":44.43,"lng":10.85},"geometry":{"type":"Polygon","coordinates":[[[10.47,44.22],[10.53,44.35],[10.76,44.54],[10.82,44.81],[10.89,44.91],[11.26,44.95],[11.23,44.91],[11.37,44.84],[11.13,44.78],[11.08,44.65],[11.14,44.57],[10.99,44.44],[11.04,44.42],[11.03,44.32],[10.95,44.3],[10.94,44.22],[10.86,44.23],[10.82,44.11],[10.71,44.16],[10.57,44.13],[10.47,44.22]]]}},{"type":"Feature","properties":{"id":"ITA-BO","nome":"Bologna","pais":"ITA","tipo":"Province","lat":44.39,"lng":11.41},"geometry":{"type":"Polygon","coordinates":[[[11.26,44.8],[11.26,44.71],[11.38,44.78],[11.67,44.64],[11.79,44.64],[11.74,44.51],[11.82,44.4],[11.53,44.16],[11.4,44.23],[11.2,44.16],[11.23,44.1],[11.04,44.09],[10.99,44.14],[10.92,44.07],[10.82,44.11],[10.86,44.23],[10.94,44.22],[10.95,44.3],[11.03,44.32],[11.04,44.42],[10.99,44.44],[11.14,44.57],[11.08,44.65],[11.13,44.78],[11.26,44.8]]]}},{"type":"Feature","properties":{"id":"ITA-PT","nome":"Pistoia","pais":"ITA","tipo":"Province","lat":43.95,"lng":10.86},"geometry":{"type":"Polygon","coordinates":[[[10.66,43.87],[10.67,43.97],[10.74,44.03],[10.61,44.13],[10.64,44.15],[10.92,44.07],[10.99,44.14],[11.05,44.09],[11,43.83],[10.76,43.8],[10.66,43.87]]]}},{"type":"Feature","properties":{"id":"ITA-TR","nome":"Terni","pais":"ITA","tipo":"Province","lat":42.58,"lng":12.49},"geometry":{"type":"Polygon","coordinates":[[[12.07,42.94],[12.32,42.91],[12.29,42.77],[12.35,42.68],[12.59,42.75],[12.71,42.6],[12.84,42.67],[12.9,42.61],[12.72,42.45],[12.62,42.47],[12.54,42.37],[12.44,42.39],[12.28,42.51],[12.24,42.65],[12.03,42.65],[11.93,42.71],[11.97,42.76],[11.89,42.85],[12.07,42.94]]]}},{"type":"Feature","properties":{"id":"ITA-PG","nome":"Perugia","pais":"ITA","tipo":"Province","lat":43.1,"lng":12.49},"geometry":{"type":"Polygon","coordinates":[[[12.37,42.68],[12.29,42.77],[12.3,42.91],[12.07,42.94],[11.93,42.87],[11.98,43.05],[11.92,43.14],[12.03,43.25],[12.22,43.29],[12.14,43.3],[12.04,43.42],[12.2,43.62],[12.36,43.62],[12.31,43.55],[12.49,43.52],[12.61,43.43],[12.76,43.46],[12.75,43.38],[12.91,42.96],[12.97,42.89],[13.05,42.92],[13.26,42.8],[13.15,42.65],[13,42.61],[12.9,42.61],[12.84,42.67],[12.72,42.6],[12.59,42.75],[12.37,42.68]]]}},{"type":"Feature","properties":{"id":"ITA-FR","nome":"Frosinone","pais":"ITA","tipo":"Province","lat":41.61,"lng":13.56},"geometry":{"type":"Polygon","coordinates":[[[13.42,41.4],[13.26,41.44],[13.3,41.47],[13.27,41.53],[13.16,41.59],[13.01,41.82],[13.18,41.85],[13.31,41.95],[13.37,41.91],[13.36,41.83],[13.55,41.77],[13.71,41.79],[13.99,41.63],[14.01,41.52],[13.86,41.43],[13.87,41.34],[13.63,41.32],[13.45,41.46],[13.42,41.4]]]}},{"type":"Feature","properties":{"id":"ITA-AV","nome":"Avellino","pais":"ITA","tipo":"Province","lat":40.94,"lng":15.1},"geometry":{"type":"Polygon","coordinates":[[[14.65,40.89],[14.58,40.94],[14.58,41.04],[14.71,41.06],[14.75,41.01],[14.99,41.11],[14.99,41.27],[15.24,41.27],[15.27,41.24],[15.2,41.15],[15.58,41.03],[15.54,40.93],[15.37,40.9],[15.36,40.83],[15.3,40.84],[15.22,40.72],[14.65,40.83],[14.57,40.89],[14.65,40.89]]]}},{"type":"Feature","properties":{"id":"ITA-AQ","nome":"L'Aquila","pais":"ITA","tipo":"Province","lat":42.06,"lng":13.6},"geometry":{"type":"Polygon","coordinates":[[[13.38,42.6],[13.53,42.44],[13.78,42.41],[13.84,42.27],[13.8,42.15],[14.09,42.09],[14.1,41.9],[14.23,41.88],[14.14,41.82],[14.19,41.77],[13.99,41.69],[13.66,41.81],[13.54,41.77],[13.36,41.83],[13.37,41.91],[13.31,41.94],[13.03,42.03],[13.01,42.11],[13.09,42.17],[13.24,42.13],[13.37,42.19],[13.16,42.34],[13.13,42.45],[13.19,42.59],[13.38,42.6]]]}},{"type":"Feature","properties":{"id":"ITA-PN","nome":"Pordenone","pais":"ITA","tipo":"Province","lat":46.21,"lng":12.7},"geometry":{"type":"Polygon","coordinates":[[[12.5,46.4],[12.64,46.34],[12.97,46.33],[12.91,45.96],[12.97,45.87],[12.95,45.82],[12.79,45.86],[12.67,45.8],[12.45,45.96],[12.42,46.05],[12.5,46.15],[12.34,46.27],[12.5,46.4]]]}},{"type":"Feature","properties":{"id":"ITA-IS","nome":"Isernia","pais":"ITA","tipo":"Province","lat":41.65,"lng":14.24},"geometry":{"type":"Polygon","coordinates":[[[14.49,41.78],[14.52,41.71],[14.42,41.64],[14.5,41.59],[14.38,41.44],[14.12,41.5],[14.09,41.39],[13.96,41.47],[14.01,41.55],[13.95,41.69],[14.18,41.76],[14.15,41.84],[14.28,41.91],[14.49,41.78]]]}},{"type":"Feature","properties":{"id":"ITA-BI","nome":"Biella","pais":"ITA","tipo":"Province","lat":45.59,"lng":8.09},"geometry":{"type":"Polygon","coordinates":[[[8.13,45.76],[8.28,45.66],[8.29,45.56],[8.11,45.38],[7.88,45.53],[7.88,45.6],[7.92,45.73],[8.13,45.76]]]}},{"type":"Feature","properties":{"id":"ITA-PO","nome":"Prato","pais":"ITA","tipo":"Province","lat":43.9,"lng":11.08},"geometry":{"type":"Polygon","coordinates":[[[11.2,44.1],[11.15,43.86],[11.06,43.76],[10.98,43.79],[11.06,43.97],[11.02,44],[11.05,44.09],[11.2,44.1]]]}}]}