{"type":"FeatureCollection","features":[{"type":"Feature","properties":{"id":"JAM-06","nome":"Saint Ann","pais":"JAM","tipo":"Parish","lat":18.32,"lng":-77.24},"geometry":{"type":"Polygon","coordinates":[[[-77.47,18.48],[-77.07,18.41],[-77,18.24],[-77.21,18.19],[-77.49,18.2],[-77.47,18.48]]]}},{"type":"Feature","properties":{"id":"JAM-07","nome":"Trelawny","pais":"JAM","tipo":"Parish","lat":18.36,"lng":-77.62},"geometry":{"type":"Polygon","coordinates":[[[-77.74,18.51],[-77.47,18.48],[-77.49,18.2],[-77.78,18.23],[-77.74,18.51]]]}},{"type":"Feature","properties":{"id":"JAM-08","nome":"Saint James","pais":"JAM","tipo":"Parish","lat":18.36,"lng":-77.87},"geometry":{"type":"Polygon","coordinates":[[[-78,18.45],[-77.9,18.52],[-77.74,18.51],[-77.78,18.23],[-77.9,18.2],[-78,18.45]]]}},{"type":"Feature","properties":{"id":"JAM-09","nome":"Hanover","pais":"JAM","tipo":"Parish","lat":18.4,"lng":-78.13},"geometry":{"type":"Polygon","coordinates":[[[-78.35,18.3],[-78.33,18.37],[-78.19,18.46],[-78,18.45],[-77.92,18.3],[-78.1,18.34],[-78.35,18.3]]]}},{"type":"Feature","properties":{"id":"JAM-10","nome":"Westmoreland","pais":"JAM","tipo":"Parish","lat":18.27,"lng":-78.13},"geometry":{"type":"Polygon","coordinates":[[[-77.96,18.05],[-78.08,18.2],[-78.23,18.19],[-78.37,18.27],[-78.22,18.34],[-77.92,18.3],[-77.89,18.22],[-77.96,18.05]]]}},{"type":"Feature","properties":{"id":"JAM-11","nome":"Saint Elizabeth","pais":"JAM","tipo":"Parish","lat":18.05,"lng":-77.76},"geometry":{"type":"Polygon","coordinates":[[[-77.56,17.86],[-77.73,17.85],[-77.85,18.02],[-77.96,18.03],[-77.92,18.18],[-77.64,18.22],[-77.56,17.86]]]}},{"type":"Feature","properties":{"id":"JAM-12","nome":"Manchester","pais":"JAM","tipo":"Parish","lat":18.02,"lng":-77.5},"geometry":{"type":"Polygon","coordinates":[[[-77.39,17.85],[-77.56,17.86],[-77.64,18.22],[-77.49,18.2],[-77.36,17.9],[-77.39,17.85]]]}},{"type":"Feature","properties":{"id":"JAM-13","nome":"Clarendon","pais":"JAM","tipo":"Parish","lat":17.99,"lng":-77.31},"geometry":{"type":"Polygon","coordinates":[[[-77.13,17.89],[-77.22,17.77],[-77.14,17.77],[-77.16,17.7],[-77.39,17.85],[-77.36,17.9],[-77.49,18.2],[-77.21,18.19],[-77.13,17.89]]]}},{"type":"Feature","properties":{"id":"JAM-14","nome":"Saint Catherine","pais":"JAM","tipo":"Parish","lat":17.85,"lng":-77.03},"geometry":{"type":"Polygon","coordinates":[[[-76.85,17.99],[-76.94,17.83],[-77.13,17.89],[-77.21,18.19],[-76.96,18.25],[-76.87,18.15],[-76.85,17.99]]]}},{"type":"Feature","properties":{"id":"JAM-02","nome":"Saint Andrew","pais":"JAM","tipo":"Parish","lat":18.02,"lng":-76.77},"geometry":{"type":"Polygon","coordinates":[[[-76.81,17.97],[-76.89,18.03],[-76.85,18.16],[-76.63,18.07],[-76.66,17.93],[-76.83,17.94],[-76.72,17.95],[-76.74,17.99],[-76.81,17.97]]]}},{"type":"Feature","properties":{"id":"JAM-01","nome":"Kingston","pais":"JAM","tipo":"Parish","lat":17.98,"lng":-76.77},"geometry":{"type":"Polygon","coordinates":[[[-76.73,17.95],[-76.81,17.97],[-76.76,18],[-76.73,17.95]]]}},{"type":"Feature","properties":{"id":"JAM-03","nome":"Saint Thomas","pais":"JAM","tipo":"Parish","lat":17.95,"lng":-76.42},"geometry":{"type":"Polygon","coordinates":[[[-76.26,18],[-76.19,17.92],[-76.36,17.86],[-76.6,17.87],[-76.66,17.93],[-76.63,18.07],[-76.26,18]]]}},{"type":"Feature","properties":{"id":"JAM-04","nome":"Portland","pais":"JAM","tipo":"Parish","lat":18.12,"lng":-76.5},"geometry":{"type":"Polygon","coordinates":[[[-76.7,18.27],[-76.35,18.16],[-76.26,18],[-76.73,18.08],[-76.7,18.27]]]}},{"type":"Feature","properties":{"id":"JAM-05","nome":"Saint Mary","pais":"JAM","tipo":"Parish","lat":18.27,"lng":-76.89},"geometry":{"type":"Polygon","coordinates":[[[-77.07,18.41],[-76.89,18.41],[-76.79,18.28],[-76.7,18.27],[-76.75,18.14],[-76.9,18.16],[-77,18.24],[-77.07,18.41]]]}}]}