{"type":"FeatureCollection","features":[{"type":"Feature","properties":{"id":"JOR-IR","nome":"Irbid","pais":"JOR","tipo":"Province","lat":32.56,"lng":35.82},"geometry":{"type":"Polygon","coordinates":[[[35.57,32.55],[35.56,32.64],[35.77,32.75],[36,32.66],[36.09,32.43],[36.02,32.41],[36.02,32.35],[35.91,32.34],[35.85,32.4],[35.65,32.36],[35.64,32.18],[35.56,32.19],[35.57,32.55]]]}},{"type":"Feature","properties":{"id":"JOR-MD","nome":"Madaba","pais":"JOR","tipo":"Province","lat":31.59,"lng":35.67},"geometry":{"type":"Polygon","coordinates":[[[35.46,31.43],[35.5,31.69],[35.84,31.78],[35.81,31.65],[35.89,31.51],[35.84,31.43],[35.46,31.43]]]}},{"type":"Feature","properties":{"id":"JOR-KA","nome":"Karak","pais":"JOR","tipo":"Province","lat":31.18,"lng":35.77},"geometry":{"type":"Polygon","coordinates":[[[35.35,30.92],[35.44,31.1],[35.4,31.26],[35.46,31.43],[35.82,31.41],[35.85,31.25],[36.15,31.25],[36.19,31.09],[36.02,30.77],[35.67,30.97],[35.49,31],[35.44,30.88],[35.35,30.92]]]}},{"type":"Feature","properties":{"id":"JOR-AT","nome":"Tafilah","pais":"JOR","tipo":"Province","lat":30.79,"lng":35.64},"geometry":{"type":"Polygon","coordinates":[[[35.26,30.72],[35.33,30.91],[35.45,30.89],[35.49,31],[35.83,30.91],[36.02,30.77],[35.95,30.66],[35.66,30.6],[35.43,30.61],[35.26,30.72]]]}},{"type":"Feature","properties":{"id":"JOR-AQ","nome":"Aqaba","pais":"JOR","tipo":"Province","lat":29.63,"lng":35.34},"geometry":{"type":"Polygon","coordinates":[[[34.96,29.56],[35.15,30.12],[35.14,30.43],[35.26,30.72],[35.45,30.61],[35.3,30.01],[35.57,29.89],[35.74,29.23],[34.95,29.35],[35,29.52],[34.96,29.56]]]}},{"type":"Feature","properties":{"id":"JOR-BA","nome":"Balqa","pais":"JOR","tipo":"Province","lat":31.83,"lng":35.72},"geometry":{"type":"Polygon","coordinates":[[[35.5,31.69],[35.56,31.77],[35.52,32.06],[35.56,32.19],[35.9,32.1],[35.94,32.05],[35.66,31.87],[35.72,31.84],[35.71,31.77],[35.6,31.69],[35.5,31.69]]]}},{"type":"Feature","properties":{"id":"JOR-MA","nome":"Mafraq","pais":"JOR","tipo":"Province","lat":32.25,"lng":37.62},"geometry":{"type":"Polygon","coordinates":[[[36.81,32.31],[38.77,33.37],[39.06,32.5],[38.98,32.47],[39.03,32.33],[39.24,32.35],[39.29,32.24],[38.96,31.99],[37.76,31.7],[36.43,32.11],[36.03,32.13],[35.95,32.25],[36.02,32.41],[36.09,32.41],[36.08,32.52],[36.18,32.53],[36.39,32.38],[36.81,32.31]]]}},{"type":"Feature","properties":{"id":"JOR-MN","nome":"Ma`an","pais":"JOR","tipo":"Province","lat":30.49,"lng":36.64},"geometry":{"type":"Polygon","coordinates":[[[37.22,31.25],[37.98,30.5],[37.65,30.33],[37.47,29.99],[36.73,29.85],[36.48,29.49],[36.07,29.2],[35.74,29.23],[35.57,29.89],[35.48,29.96],[35.35,29.96],[35.3,30.03],[35.45,30.61],[35.95,30.66],[36.19,31.09],[36.15,31.25],[37.22,31.25]]]}},{"type":"Feature","properties":{"id":"JOR-AM","nome":"Amman","pais":"JOR","tipo":"Province","lat":31.62,"lng":36.44},"geometry":{"type":"Polygon","coordinates":[[[37,31.5],[36.96,31.49],[37.22,31.25],[35.85,31.25],[35.82,31.41],[35.89,31.51],[35.81,31.65],[35.84,31.78],[35.71,31.77],[35.72,31.84],[35.66,31.87],[35.94,32.05],[36.05,31.95],[36.41,32.01],[36.53,31.9],[36.47,31.84],[36.5,31.79],[36.61,31.72],[36.71,31.75],[37,31.5]]]}},{"type":"Feature","properties":{"id":"JOR-AZ","nome":"Zarqa","pais":"JOR","tipo":"Province","lat":31.81,"lng":36.83},"geometry":{"type":"Polygon","coordinates":[[[37.76,31.7],[37,31.5],[36.71,31.75],[36.61,31.72],[36.5,31.79],[36.47,31.84],[36.53,31.9],[36.43,32],[36.05,31.95],[35.9,32.1],[35.99,32.2],[36.03,32.13],[36.43,32.11],[37.76,31.7]]]}},{"type":"Feature","properties":{"id":"JOR-AJ","nome":"Ajlun","pais":"JOR","tipo":"Province","lat":32.29,"lng":35.76},"geometry":{"type":"Polygon","coordinates":[[[35.69,32.16],[35.64,32.18],[35.64,32.34],[35.85,32.4],[35.91,32.34],[35.69,32.16]]]}},{"type":"Feature","properties":{"id":"JOR-JA","nome":"Jarash","pais":"JOR","tipo":"Province","lat":32.22,"lng":35.86},"geometry":{"type":"Polygon","coordinates":[[[35.72,32.14],[35.86,32.32],[36.02,32.35],[35.95,32.26],[35.99,32.18],[35.9,32.1],[35.72,32.14]]]}}]}