{"type":"FeatureCollection","features":[{"type":"Feature","properties":{"id":"JPN-46","nome":"Kagoshima","pais":"JPN","tipo":"Prefecture","lat":29.46,"lng":129.6},"geometry":{"type":"MultiPolygon","coordinates":[[[[131.15,31.47],[131.01,31.36],[131.13,31.28],[130.94,31.12],[130.66,31],[130.8,31.34],[130.7,31.55],[130.59,31.59],[130.69,31.62],[130.75,31.56],[130.81,31.65],[130.69,31.73],[130.61,31.68],[130.52,31.45],[130.57,31.31],[130.66,31.27],[130.64,31.19],[130.54,31.16],[130.45,31.25],[130.22,31.25],[130.21,31.34],[130.12,31.41],[130.23,31.38],[130.34,31.61],[130.17,31.79],[130.24,31.82],[130.18,32.09],[130.34,32.16],[130.42,32.11],[130.61,32.16],[130.87,31.89],[130.89,31.79],[131.05,31.64],[131.19,31.59],[131.15,31.47]]],[[[130.67,30.37],[130.6,30.25],[130.49,30.23],[130.38,30.39],[130.5,30.47],[130.67,30.37]]],[[[131.05,30.84],[131.06,30.61],[130.98,30.52],[130.96,30.37],[130.87,30.34],[130.85,30.47],[130.93,30.54],[130.94,30.67],[131.05,30.84]]]]}},{"type":"Feature","properties":{"id":"JPN-44","nome":"Ōita","pais":"JPN","tipo":"Prefecture","lat":33.2,"lng":131.45},"geometry":{"type":"Polygon","coordinates":[[[131.2,33.61],[131.37,33.57],[131.52,33.68],[131.67,33.67],[131.74,33.48],[131.6,33.35],[131.51,33.36],[131.51,33.27],[131.9,33.27],[131.81,33.13],[132.01,33.06],[131.93,33.05],[131.9,32.98],[132.08,32.94],[131.98,32.89],[131.96,32.83],[132,32.81],[131.88,32.78],[131.87,32.73],[131.75,32.82],[131.7,32.77],[131.53,32.74],[131.48,32.82],[131.36,32.8],[131.26,32.87],[131.21,33.03],[131.06,33.18],[130.97,33.15],[130.99,33.03],[130.83,33.08],[130.84,33.34],[130.89,33.43],[130.98,33.5],[131.15,33.5],[131.2,33.61]]]}},{"type":"Feature","properties":{"id":"JPN-40","nome":"Fukuoka","pais":"JPN","tipo":"Prefecture","lat":33.49,"lng":130.62},"geometry":{"type":"Polygon","coordinates":[[[130.04,33.46],[130.17,33.53],[130.09,33.57],[130.21,33.67],[130.29,33.57],[130.39,33.6],[130.4,33.67],[130.35,33.64],[130.29,33.69],[130.39,33.68],[130.47,33.74],[130.49,33.86],[130.69,33.94],[130.9,33.89],[131.01,33.97],[130.96,33.82],[131.01,33.81],[131.08,33.63],[131.2,33.61],[131.15,33.5],[130.98,33.5],[130.89,33.43],[130.84,33.34],[130.83,33.08],[130.69,33.14],[130.43,32.98],[130.35,33.18],[130.53,33.34],[130.53,33.41],[130.41,33.39],[130.26,33.47],[130.04,33.46]]]}},{"type":"Feature","properties":{"id":"JPN-41","nome":"Saga","pais":"JPN","tipo":"Prefecture","lat":33.01,"lng":130.15},"geometry":{"type":"Polygon","coordinates":[[[129.81,33.33],[129.85,33.28],[129.87,33.4],[129.79,33.45],[129.87,33.44],[129.85,33.55],[129.94,33.53],[129.99,33.45],[130.26,33.47],[130.41,33.39],[130.52,33.42],[130.54,33.38],[130.35,33.14],[130.24,33.19],[130.13,33.12],[130.2,32.94],[129.93,33.07],[129.93,33.13],[129.76,33.27],[129.81,33.33]]]}},{"type":"Feature","properties":{"id":"JPN-42","nome":"Nagasaki","pais":"JPN","tipo":"Prefecture","lat":32.67,"lng":128.76},"geometry":{"type":"MultiPolygon","coordinates":[[[[130.2,32.94],[130.11,32.88],[130.34,32.86],[130.38,32.75],[130.34,32.67],[130.17,32.59],[130.13,32.68],[130.21,32.75],[130.09,32.79],[129.96,32.76],[129.74,32.57],[129.86,32.72],[129.64,32.93],[129.68,33.09],[129.76,33.05],[129.74,32.99],[129.82,32.98],[129.79,32.87],[130,32.85],[129.93,32.93],[129.95,33.02],[129.75,33.07],[129.76,33.14],[129.71,33.16],[129.67,33.1],[129.65,33.19],[129.55,33.23],[129.58,33.37],[129.67,33.4],[129.81,33.35],[129.76,33.27],[129.93,33.13],[129.93,33.07],[130.2,32.94]]],[[[128.88,32.67],[128.9,32.64],[128.78,32.65],[128.77,32.57],[128.6,32.61],[128.66,32.78],[128.7,32.74],[128.81,32.8],[128.88,32.67]]],[[[129.31,34.28],[129.35,34.29],[129.28,34.13],[129.17,34.11],[129.21,34.33],[129.31,34.28]]],[[[129.45,34.62],[129.46,34.55],[129.36,34.41],[129.4,34.34],[129.34,34.3],[129.31,34.38],[129.23,34.36],[129.31,34.46],[129.32,34.65],[129.46,34.7],[129.45,34.62]]]]}},{"type":"Feature","properties":{"id":"JPN-43","nome":"Kumamoto","pais":"JPN","tipo":"Prefecture","lat":32.59,"lng":130.83},"geometry":{"type":"MultiPolygon","coordinates":[[[[130.34,32.16],[130.47,32.35],[130.51,32.34],[130.55,32.49],[130.6,32.51],[130.56,32.55],[130.67,32.65],[130.45,32.62],[130.63,32.71],[130.59,32.82],[130.43,32.98],[130.69,33.14],[130.98,33.03],[130.98,33.16],[131.12,33.14],[131.32,32.82],[131.24,32.79],[131,32.49],[131.09,32.31],[131.08,32.16],[130.71,32.09],[130.59,32.16],[130.42,32.11],[130.34,32.16]]],[[[130.16,32.55],[130.2,32.34],[130,32.19],[130.01,32.25],[129.96,32.25],[130.06,32.31],[129.98,32.33],[130,32.53],[130.16,32.55]]]]}},{"type":"Feature","properties":{"id":"JPN-45","nome":"Miyazaki","pais":"JPN","tipo":"Prefecture","lat":32.1,"lng":131.29},"geometry":{"type":"Polygon","coordinates":[[[131.87,32.73],[131.68,32.54],[131.74,32.49],[131.66,32.48],[131.69,32.42],[131.56,32.22],[131.45,31.88],[131.5,31.8],[131.46,31.62],[131.36,31.42],[131.33,31.37],[131.25,31.39],[131.15,31.47],[131.19,31.59],[131.05,31.64],[130.89,31.79],[130.87,31.89],[130.7,32.07],[131.08,32.16],[131.09,32.31],[131,32.49],[131.26,32.8],[131.48,32.82],[131.54,32.74],[131.76,32.82],[131.87,32.73]]]}},{"type":"Feature","properties":{"id":"JPN-36","nome":"Tokushima","pais":"JPN","tipo":"Prefecture","lat":33.85,"lng":134.2},"geometry":{"type":"Polygon","coordinates":[[[134.44,34.21],[134.65,34.24],[134.6,34.01],[134.7,33.94],[134.65,33.85],[134.75,33.83],[134.4,33.65],[134.3,33.53],[134.19,33.55],[134.16,33.66],[134.06,33.68],[134.02,33.81],[133.91,33.78],[133.65,33.86],[133.66,34],[133.83,34.09],[133.98,34.07],[134.17,34.16],[134.41,34.16],[134.44,34.21]]]}},{"type":"Feature","properties":{"id":"JPN-37","nome":"Kagawa","pais":"JPN","tipo":"Prefecture","lat":34.22,"lng":134},"geometry":{"type":"Polygon","coordinates":[[[133.59,34.02],[133.65,34.17],[133.56,34.26],[133.7,34.23],[133.94,34.38],[134.08,34.35],[134.14,34.39],[134.17,34.32],[134.22,34.36],[134.44,34.21],[134.4,34.15],[134.17,34.16],[133.98,34.07],[133.83,34.09],[133.66,34],[133.59,34.02]]]}},{"type":"Feature","properties":{"id":"JPN-38","nome":"Ehime","pais":"JPN","tipo":"Prefecture","lat":33.81,"lng":132.92},"geometry":{"type":"Polygon","coordinates":[[[132.64,32.91],[132.56,32.94],[132.5,32.89],[132.47,33.04],[132.38,33.02],[132.48,33.07],[132.45,33.11],[132.49,33.13],[132.39,33.2],[132.49,33.17],[132.55,33.23],[132.48,33.28],[132.53,33.31],[132.38,33.32],[132.42,33.44],[132.31,33.46],[132.01,33.35],[132.68,33.72],[132.71,33.9],[132.94,34.14],[133.13,33.93],[133.65,34.01],[133.65,33.86],[133.18,33.77],[133,33.48],[132.81,33.44],[132.88,33.32],[132.69,33.12],[132.62,33.15],[132.68,32.96],[132.64,32.91]]]}},{"type":"Feature","properties":{"id":"JPN-39","nome":"Kōchi","pais":"JPN","tipo":"Prefecture","lat":33.61,"lng":133.44},"geometry":{"type":"Polygon","coordinates":[[[134.3,33.53],[134.18,33.24],[133.93,33.49],[133.74,33.54],[133.47,33.45],[133.27,33.35],[133.23,33.16],[133.1,33.02],[133.02,33.02],[132.96,32.81],[133.03,32.72],[132.92,32.78],[132.63,32.75],[132.71,32.91],[132.64,32.91],[132.67,33],[132.61,33.15],[132.69,33.12],[132.88,33.3],[132.81,33.44],[133,33.48],[133.18,33.77],[133.56,33.85],[133.91,33.78],[134.02,33.81],[134.06,33.68],[134.16,33.66],[134.19,33.55],[134.3,33.53]]]}},{"type":"Feature","properties":{"id":"JPN-32","nome":"Shimane","pais":"JPN","tipo":"Prefecture","lat":35.1,"lng":132.6},"geometry":{"type":"Polygon","coordinates":[[[131.68,34.67],[131.86,34.71],[132.41,35.18],[132.64,35.29],[132.67,35.39],[132.64,35.44],[132.97,35.52],[133.09,35.6],[133.33,35.57],[133.2,35.52],[133.33,35.41],[133.29,35.27],[133.16,35.21],[133.13,35.07],[132.85,35.07],[132.64,34.89],[132.67,34.84],[132.25,34.78],[132.14,34.71],[131.95,34.31],[131.77,34.31],[131.77,34.42],[131.68,34.45],[131.68,34.67]]]}},{"type":"Feature","properties":{"id":"JPN-35","nome":"Yamaguchi","pais":"JPN","tipo":"Prefecture","lat":34.22,"lng":131.65},"geometry":{"type":"Polygon","coordinates":[[[132.24,34.19],[132.21,33.99],[132.14,33.94],[132.16,33.84],[132.06,33.78],[132.1,33.87],[131.85,34],[131.78,33.97],[131.82,34.03],[131.74,34.06],[131.59,34.04],[131.58,33.99],[131.48,34.03],[131.44,33.98],[131.39,34.04],[131.26,33.92],[131.04,34.05],[130.92,33.91],[130.88,33.94],[130.92,34.01],[130.86,34.11],[130.92,34.18],[130.89,34.34],[131.03,34.38],[130.95,34.42],[131.17,34.37],[131.17,34.43],[131.28,34.41],[131.21,34.37],[131.41,34.42],[131.62,34.66],[131.68,34.67],[131.68,34.45],[131.77,34.42],[131.77,34.31],[131.95,34.31],[132.05,34.46],[132.13,34.25],[132.24,34.19]]]}},{"type":"Feature","properties":{"id":"JPN-31","nome":"Tottori","pais":"JPN","tipo":"Prefecture","lat":35.37,"lng":133.82},"geometry":{"type":"Polygon","coordinates":[[[133.26,35.54],[133.4,35.45],[133.58,35.53],[134.03,35.52],[134.37,35.6],[134.51,35.27],[134.17,35.16],[133.99,35.33],[133.82,35.24],[133.59,35.32],[133.5,35.18],[133.36,35.1],[133.13,35.07],[133.16,35.21],[133.3,35.28],[133.33,35.42],[133.2,35.52],[133.26,35.54]]]}},{"type":"Feature","properties":{"id":"JPN-28","nome":"Hyōgo","pais":"JPN","tipo":"Prefecture","lat":35.06,"lng":134.84},"geometry":{"type":"MultiPolygon","coordinates":[[[[134.37,35.6],[134.54,35.67],[134.86,35.66],[134.91,35.51],[135.04,35.5],[135.04,35.39],[134.93,35.38],[134.93,35.3],[135.15,35.24],[135.2,35.17],[135.39,35.1],[135.34,35.02],[135.44,34.9],[135.44,34.72],[135.05,34.62],[134.7,34.78],[134.49,34.79],[134.3,34.71],[134.26,35],[134.39,35.14],[134.4,35.23],[134.51,35.27],[134.37,35.6]]],[[[135,34.61],[135.03,34.58],[134.9,34.37],[134.96,34.27],[134.73,34.19],[134.66,34.29],[134.68,34.33],[135,34.61]]]]}},{"type":"Feature","properties":{"id":"JPN-26","nome":"Kyōto","pais":"JPN","tipo":"Urban Prefecture","lat":35.21,"lng":135.45},"geometry":{"type":"Polygon","coordinates":[[[134.86,35.66],[134.93,35.64],[135.23,35.77],[135.31,35.67],[135.19,35.55],[135.25,35.59],[135.24,35.54],[135.34,35.51],[135.32,35.45],[135.4,35.48],[135.34,35.54],[135.46,35.6],[135.45,35.45],[135.52,35.37],[135.74,35.34],[135.83,35.26],[135.81,35],[136.03,34.7],[135.75,34.73],[135.58,34.95],[135.54,34.91],[135.34,35.01],[135.38,35.11],[135.2,35.17],[135.15,35.25],[134.94,35.29],[134.93,35.38],[135.04,35.39],[135.04,35.5],[134.91,35.51],[134.86,35.66]]]}},{"type":"Feature","properties":{"id":"JPN-18","nome":"Fukui","pais":"JPN","tipo":"Prefecture","lat":35.93,"lng":136.32},"geometry":{"type":"Polygon","coordinates":[[[135.48,35.54],[135.56,35.49],[135.65,35.54],[135.65,35.48],[135.74,35.5],[135.71,35.56],[135.83,35.53],[135.81,35.64],[135.98,35.63],[135.96,35.73],[136.02,35.77],[136.07,35.66],[136.1,35.78],[135.96,36],[136.12,36.25],[136.23,36.29],[136.32,36.17],[136.72,36.07],[136.7,35.93],[136.8,35.85],[136.76,35.78],[136.32,35.76],[136.26,35.65],[136.13,35.66],[136.15,35.57],[136.08,35.51],[135.93,35.5],[135.88,35.38],[135.74,35.34],[135.52,35.37],[135.45,35.45],[135.48,35.54]]]}},{"type":"Feature","properties":{"id":"JPN-17","nome":"Ishikawa","pais":"JPN","tipo":"Prefecture","lat":36.57,"lng":136.68},"geometry":{"type":"Polygon","coordinates":[[[136.23,36.29],[136.43,36.43],[136.76,36.87],[136.73,37.13],[136.67,37.15],[136.75,37.36],[137.34,37.52],[137.36,37.45],[137.25,37.43],[137.23,37.29],[137.11,37.28],[137.01,37.18],[136.95,37.23],[136.89,37.17],[136.86,37.08],[136.98,37.05],[137.05,37.1],[137.05,36.97],[136.89,36.93],[136.78,36.72],[136.76,36.32],[136.82,36.24],[136.72,36.07],[136.32,36.17],[136.23,36.29]]]}},{"type":"Feature","properties":{"id":"JPN-16","nome":"Toyama","pais":"JPN","tipo":"Prefecture","lat":36.6,"lng":137.25},"geometry":{"type":"Polygon","coordinates":[[[137.04,36.96],[137.01,36.84],[137.2,36.76],[137.33,36.76],[137.5,36.96],[137.61,36.98],[137.68,36.93],[137.73,36.62],[137.62,36.42],[137.57,36.38],[137.16,36.44],[136.96,36.27],[136.85,36.34],[136.77,36.29],[136.78,36.72],[136.89,36.93],[137.04,36.96]]]}},{"type":"Feature","properties":{"id":"JPN-15","nome":"Niigata","pais":"JPN","tipo":"Prefecture","lat":37.55,"lng":139.01},"geometry":{"type":"MultiPolygon","coordinates":[[[[137.61,36.98],[138.24,37.18],[138.55,37.38],[138.75,37.6],[138.86,37.83],[139.22,37.99],[139.43,38.15],[139.55,38.55],[139.7,38.49],[139.71,38.39],[139.86,38.31],[139.84,38.24],[139.68,38.19],[139.62,37.91],[139.72,37.82],[139.54,37.62],[139.55,37.51],[139.19,37.42],[139.16,37.23],[139.24,37.14],[139.21,36.95],[139.08,37.04],[138.97,36.97],[138.9,36.84],[138.68,36.73],[138.67,36.84],[138.54,37.01],[138.37,36.98],[138.26,36.85],[138.04,36.81],[137.99,36.9],[137.87,36.92],[137.73,36.77],[137.69,36.91],[137.61,36.98]]],[[[138.46,38.07],[138.58,38.07],[138.5,37.91],[138.22,37.8],[138.34,37.97],[138.25,37.98],[138.24,38.07],[138.51,38.32],[138.46,38.07]]]]}},{"type":"Feature","properties":{"id":"JPN-06","nome":"Yamagata","pais":"JPN","tipo":"Prefecture","lat":38.4,"lng":140.08},"geometry":{"type":"Polygon","coordinates":[[[139.55,38.55],[139.77,38.82],[139.88,39.12],[140.41,38.98],[140.62,38.76],[140.6,38.66],[140.53,38.63],[140.59,38.45],[140.45,38.15],[140.28,38.05],[140.27,37.8],[140.21,37.74],[140.1,37.72],[139.63,37.88],[139.69,38.2],[139.79,38.21],[139.87,38.29],[139.71,38.39],[139.7,38.49],[139.55,38.55]]]}},{"type":"Feature","properties":{"id":"JPN-05","nome":"Akita","pais":"JPN","tipo":"Prefecture","lat":39.73,"lng":140.33},"geometry":{"type":"Polygon","coordinates":[[[139.88,39.12],[140.05,39.5],[140.06,39.73],[139.97,39.88],[139.76,39.86],[139.7,39.99],[139.82,39.96],[139.98,40.13],[140.02,40.36],[139.94,40.43],[140.41,40.48],[140.65,40.41],[140.85,40.5],[140.94,40.47],[140.96,40.37],[140.84,40.07],[140.87,39.88],[140.78,39.84],[140.81,39.64],[140.66,39.39],[140.8,39.17],[140.75,39.11],[140.8,39.05],[140.76,38.95],[140.54,38.87],[140.34,39],[139.88,39.12]]]}},{"type":"Feature","properties":{"id":"JPN-02","nome":"Aomori","pais":"JPN","tipo":"Prefecture","lat":40.64,"lng":140.77},"geometry":{"type":"Polygon","coordinates":[[[139.94,40.43],[139.94,40.54],[139.86,40.61],[140.05,40.77],[140.26,40.8],[140.32,41.03],[140.37,40.99],[140.41,41.03],[140.25,41.12],[140.32,41.15],[140.34,41.27],[140.46,41.18],[140.55,41.23],[140.63,41.19],[140.7,40.85],[140.85,40.88],[140.89,41.01],[141.13,40.87],[141.28,41.16],[141.21,41.26],[141.06,41.18],[140.77,41.15],[140.91,41.54],[141.28,41.35],[141.46,41.43],[141.39,41.16],[141.42,40.73],[141.49,40.56],[141.68,40.45],[141.55,40.36],[141.3,40.36],[141,40.21],[140.93,40.24],[140.95,40.46],[140.87,40.5],[140.65,40.41],[140.41,40.48],[139.94,40.43]]]}},{"type":"Feature","properties":{"id":"JPN-03","nome":"Iwate","pais":"JPN","tipo":"Prefecture","lat":39.57,"lng":141.36},"geometry":{"type":"Polygon","coordinates":[[[141.68,40.45],[141.84,40.23],[141.84,40.07],[141.95,40],[142.01,39.75],[141.96,39.61],[142.04,39.64],[142.07,39.55],[141.95,39.46],[142.04,39.48],[142.04,39.42],[141.91,39.33],[141.98,39.35],[141.9,39.28],[141.95,39.25],[141.88,39.21],[141.92,39.17],[141.84,39.15],[141.91,39.1],[141.82,39.09],[141.87,39.06],[141.82,39.06],[141.85,39.02],[141.73,39.04],[141.72,38.95],[141.69,39],[141.5,38.99],[141.44,38.81],[141.23,38.75],[141.13,38.8],[141.13,38.86],[140.76,38.95],[140.8,39.05],[140.75,39.11],[140.8,39.17],[140.66,39.39],[140.81,39.64],[140.78,39.84],[140.87,39.88],[140.86,40.18],[141.3,40.36],[141.55,40.36],[141.68,40.45]]]}},{"type":"Feature","properties":{"id":"JPN-04","nome":"Miyagi","pais":"JPN","tipo":"Prefecture","lat":38.53,"lng":140.97},"geometry":{"type":"Polygon","coordinates":[[[141.64,38.97],[141.67,38.85],[141.59,38.88],[141.52,38.77],[141.57,38.7],[141.46,38.66],[141.54,38.63],[141.47,38.57],[141.55,38.52],[141.47,38.43],[141.55,38.39],[141.5,38.37],[141.53,38.27],[141.33,38.41],[141.2,38.39],[141.17,38.32],[141.08,38.36],[140.93,38.05],[140.93,37.89],[140.85,37.88],[140.85,37.8],[140.78,37.77],[140.65,37.88],[140.27,37.96],[140.28,38.05],[140.45,38.15],[140.59,38.45],[140.53,38.63],[140.6,38.66],[140.62,38.76],[140.53,38.88],[140.82,38.95],[141.13,38.86],[141.13,38.8],[141.23,38.75],[141.44,38.81],[141.5,38.99],[141.64,38.97]]]}},{"type":"Feature","properties":{"id":"JPN-07","nome":"Fukushima","pais":"JPN","tipo":"Prefecture","lat":37.42,"lng":140.1},"geometry":{"type":"Polygon","coordinates":[[[140.93,37.89],[141.02,37.73],[141.04,37.38],[140.96,36.97],[140.8,36.85],[140.57,36.93],[140.56,36.86],[140.45,36.79],[140.24,36.92],[140.18,37.06],[139.92,37.14],[139.36,36.9],[139.22,36.93],[139.24,37.14],[139.16,37.23],[139.19,37.42],[139.55,37.51],[139.54,37.62],[139.72,37.82],[139.93,37.81],[140.12,37.72],[140.27,37.78],[140.27,37.96],[140.65,37.88],[140.76,37.77],[140.93,37.89]]]}},{"type":"Feature","properties":{"id":"JPN-08","nome":"Ibaraki","pais":"JPN","tipo":"Prefecture","lat":36.28,"lng":140.26},"geometry":{"type":"Polygon","coordinates":[[[140.8,36.85],[140.56,36.28],[140.65,36.01],[140.86,35.73],[140.55,35.89],[140.13,35.85],[139.69,36.13],[139.65,36.2],[139.95,36.36],[140.18,36.41],[140.27,36.72],[140.24,36.92],[140.45,36.79],[140.56,36.86],[140.57,36.93],[140.8,36.85]]]}},{"type":"Feature","properties":{"id":"JPN-12","nome":"Chiba","pais":"JPN","tipo":"Prefecture","lat":35.49,"lng":140.32},"geometry":{"type":"Polygon","coordinates":[[[140.86,35.74],[140.86,35.69],[140.66,35.69],[140.48,35.57],[140.39,35.38],[140.39,35.2],[140.32,35.13],[140.13,35.12],[139.93,34.91],[139.76,34.96],[139.87,35],[139.82,35.16],[139.87,35.25],[139.78,35.32],[140.1,35.57],[139.98,35.67],[139.86,35.63],[139.87,35.87],[139.75,36.08],[140.13,35.85],[140.55,35.89],[140.86,35.74]]]}},{"type":"Feature","properties":{"id":"JPN-13","nome":"Tokyo","pais":"JPN","tipo":"Metropolis","lat":35.66,"lng":139.41},"geometry":{"type":"Polygon","coordinates":[[[139.86,35.63],[139.79,35.6],[139.77,35.65],[139.79,35.51],[139.54,35.61],[139.45,35.6],[139.46,35.49],[139.04,35.7],[138.92,35.84],[139.01,35.88],[139.41,35.75],[139.86,35.78],[139.86,35.63]]]}},{"type":"Feature","properties":{"id":"JPN-14","nome":"Kanagawa","pais":"JPN","tipo":"Prefecture","lat":35.44,"lng":139.34},"geometry":{"type":"Polygon","coordinates":[[[139.79,35.51],[139.64,35.45],[139.69,35.43],[139.64,35.4],[139.65,35.3],[139.75,35.25],[139.66,35.13],[139.62,35.13],[139.62,35.21],[139.54,35.31],[139.41,35.32],[139.18,35.26],[139.16,35.14],[139.03,35.14],[138.97,35.23],[138.99,35.38],[138.9,35.38],[139.09,35.51],[139.12,35.65],[139.46,35.49],[139.45,35.6],[139.53,35.61],[139.79,35.51]]]}},{"type":"Feature","properties":{"id":"JPN-22","nome":"Shizuoka","pais":"JPN","tipo":"Prefecture","lat":35.04,"lng":138.31},"geometry":{"type":"Polygon","coordinates":[[[139.09,35.12],[139.14,34.87],[139,34.73],[138.99,34.65],[138.84,34.6],[138.75,34.69],[138.76,34.98],[138.79,35.03],[138.91,35.03],[138.7,35.14],[138.55,35.1],[138.51,34.98],[138.35,34.9],[138.34,34.83],[138.22,34.71],[138.23,34.59],[137.97,34.67],[137.47,34.67],[137.49,34.81],[137.62,34.88],[137.81,35.19],[138.12,35.37],[138.14,35.55],[138.2,35.63],[138.24,35.3],[138.34,35.29],[138.42,35.17],[138.51,35.19],[138.56,35.42],[138.7,35.35],[138.99,35.38],[138.97,35.2],[139.09,35.12]]]}},{"type":"Feature","properties":{"id":"JPN-23","nome":"Aichi","pais":"JPN","tipo":"Prefecture","lat":35,"lng":137.21},"geometry":{"type":"Polygon","coordinates":[[[137.47,34.67],[137.02,34.58],[137.07,34.66],[137.11,34.63],[137.34,34.73],[137.28,34.81],[137.02,34.78],[136.96,34.83],[136.98,34.92],[136.92,34.78],[136.97,34.7],[136.86,34.74],[136.82,34.95],[136.89,35.09],[136.75,35.03],[136.67,35.14],[136.76,35.35],[136.95,35.38],[137.17,35.24],[137.29,35.27],[137.42,35.22],[137.55,35.27],[137.58,35.19],[137.81,35.19],[137.62,34.88],[137.49,34.81],[137.47,34.67]]]}},{"type":"Feature","properties":{"id":"JPN-24","nome":"Mie","pais":"JPN","tipo":"Prefecture","lat":34.57,"lng":136.39},"geometry":{"type":"Polygon","coordinates":[[[136.75,35.03],[136.66,34.98],[136.52,34.68],[136.55,34.6],[136.92,34.43],[136.9,34.27],[136.79,34.25],[136.85,34.31],[136.7,34.3],[136.71,34.33],[136.34,34.18],[136.31,34.09],[136.22,34.08],[136.27,33.97],[136.23,33.99],[136.23,33.94],[136.1,33.89],[135.99,33.69],[135.95,33.7],[135.85,33.84],[136.02,34],[136.1,34.01],[136.12,34.24],[136.07,34.39],[136.21,34.49],[136.06,34.56],[136.07,34.66],[136,34.77],[136.11,34.87],[136.38,34.93],[136.44,35.13],[136.4,35.2],[136.53,35.23],[136.75,35.03]]]}},{"type":"Feature","properties":{"id":"JPN-30","nome":"Wakayama","pais":"JPN","tipo":"Prefecture","lat":33.93,"lng":135.4},"geometry":{"type":"Polygon","coordinates":[[[135.99,33.69],[135.95,33.58],[135.76,33.43],[135.77,33.48],[135.44,33.55],[135.33,33.67],[135.39,33.71],[135.12,33.89],[135.06,33.88],[135.08,33.98],[135.16,34.02],[135.09,34.07],[135.12,34.14],[135.19,34.15],[135.07,34.29],[135.65,34.37],[135.71,34.21],[135.54,34.06],[135.6,33.88],[135.82,33.87],[135.99,33.69]]]}},{"type":"Feature","properties":{"id":"JPN-27","nome":"Ōsaka","pais":"JPN","tipo":"Urban Prefecture","lat":34.6,"lng":135.52},"geometry":{"type":"Polygon","coordinates":[[[135.09,34.3],[135.26,34.38],[135.41,34.54],[135.44,34.9],[135.36,35],[135.65,34.9],[135.71,34.79],[135.62,34.55],[135.67,34.38],[135.19,34.27],[135.09,34.3]]]}},{"type":"Feature","properties":{"id":"JPN-33","nome":"Okayama","pais":"JPN","tipo":"Prefecture","lat":34.85,"lng":133.83},"geometry":{"type":"Polygon","coordinates":[[[134.3,34.71],[134.21,34.73],[134.28,34.7],[134.15,34.6],[133.94,34.59],[134.05,34.58],[133.94,34.45],[133.79,34.44],[133.72,34.53],[133.47,34.42],[133.52,34.48],[133.44,34.47],[133.26,35.05],[133.5,35.18],[133.59,35.32],[133.82,35.24],[133.99,35.33],[134.17,35.16],[134.4,35.23],[134.39,35.14],[134.26,35],[134.3,34.71]]]}},{"type":"Feature","properties":{"id":"JPN-34","nome":"Hiroshima","pais":"JPN","tipo":"Prefecture","lat":34.61,"lng":132.85},"geometry":{"type":"Polygon","coordinates":[[[133.44,34.47],[133.28,34.32],[133.31,34.37],[133.25,34.43],[133.19,34.28],[133.08,34.26],[133.07,34.32],[133.17,34.36],[133.09,34.39],[133.06,34.33],[132.84,34.31],[132.66,34.2],[132.55,34.19],[132.52,34.35],[132.38,34.37],[132.22,34.24],[132.24,34.19],[132.13,34.25],[132.04,34.5],[132.14,34.71],[132.25,34.78],[132.67,34.84],[132.64,34.89],[132.84,35.07],[132.99,35.08],[133.26,35.05],[133.3,35],[133.44,34.47]]]}},{"type":"Feature","properties":{"id":"JPN-01","nome":"Hokkaidō","pais":"JPN","tipo":"Circuit","lat":43.37,"lng":142.81},"geometry":{"type":"Polygon","coordinates":[[[145.77,43.39],[145.82,43.37],[145.63,43.31],[145.53,43.17],[145.14,43.13],[145.17,43.08],[145,43.04],[145.01,42.99],[144.9,42.98],[144.8,43.05],[144.74,42.92],[144.46,42.94],[144.32,43],[143.89,42.84],[143.58,42.6],[143.35,42.32],[143.33,42.11],[143.24,41.93],[142.96,42.11],[142.46,42.27],[142.17,42.46],[141.82,42.6],[141.43,42.56],[140.98,42.3],[140.73,42.56],[140.5,42.58],[140.33,42.43],[140.29,42.26],[140.55,42.11],[140.71,42.13],[141.2,41.8],[141.01,41.71],[140.82,41.77],[140.71,41.75],[140.73,41.81],[140.66,41.83],[140.6,41.74],[140.45,41.68],[140.43,41.53],[140.27,41.48],[140.21,41.4],[140.04,41.44],[139.98,41.58],[140.13,41.81],[140.15,41.98],[139.8,42.24],[139.77,42.31],[139.88,42.66],[140.04,42.69],[140.2,42.81],[140.28,42.76],[140.52,43],[140.34,43.21],[140.36,43.33],[140.49,43.37],[140.8,43.2],[141.01,43.23],[141.02,43.17],[141.17,43.14],[141.42,43.32],[141.44,43.41],[141.36,43.52],[141.39,43.58],[141.34,43.71],[141.64,43.94],[141.66,44.28],[141.8,44.64],[141.75,44.89],[141.58,45.25],[141.65,45.44],[141.82,45.42],[141.92,45.52],[142.22,45.3],[142.98,44.59],[143.41,44.32],[143.78,44.19],[143.68,44.18],[143.73,44.11],[144.12,44.13],[144.17,44.11],[144.11,44.03],[144.15,44.02],[144.24,44.12],[144.38,43.96],[144.74,43.91],[145.34,44.35],[145.37,44.25],[145.07,43.77],[145.39,43.31],[145.26,43.33],[145.52,43.23],[145.5,43.27],[145.58,43.34],[145.77,43.39]]]}},{"type":"Feature","properties":{"id":"JPN-47","nome":"Okinawa","pais":"JPN","tipo":"Prefecture","lat":24.33,"lng":123.8},"geometry":{"type":"MultiPolygon","coordinates":[[[[128.34,26.8],[128.31,26.7],[128.16,26.62],[128.14,26.55],[127.85,26.44],[127.92,26.31],[127.83,26.32],[127.77,26.22],[127.82,26.19],[127.8,26.14],[127.65,26.08],[127.64,26.21],[127.74,26.32],[127.72,26.43],[127.96,26.56],[127.88,26.69],[128.06,26.64],[128.26,26.89],[128.34,26.8]]],[[[129.71,28.46],[129.45,28.29],[129.42,28.25],[129.47,28.22],[129.35,28.16],[129.38,28.12],[129.27,28.23],[129.15,28.25],[129.27,28.26],[129.23,28.3],[129.26,28.33],[129.48,28.42],[129.52,28.39],[129.63,28.48],[129.64,28.44],[129.67,28.51],[129.71,28.46]]]]}},{"type":"Feature","properties":{"id":"JPN-10","nome":"Gunma","pais":"JPN","tipo":"Prefecture","lat":36.56,"lng":139.03},"geometry":{"type":"Polygon","coordinates":[[[139.09,37.04],[139.22,36.93],[139.36,36.9],[139.31,36.64],[139.45,36.57],[139.34,36.36],[139.44,36.27],[139.61,36.25],[139.67,36.15],[139.11,36.27],[139.03,36.14],[138.7,35.97],[138.57,36.15],[138.62,36.38],[138.39,36.43],[138.4,36.57],[138.51,36.69],[138.79,36.76],[139.09,37.04]]]}},{"type":"Feature","properties":{"id":"JPN-20","nome":"Nagano","pais":"JPN","tipo":"Prefecture","lat":36.07,"lng":138.02},"geometry":{"type":"Polygon","coordinates":[[[138.68,36.73],[138.5,36.68],[138.38,36.47],[138.44,36.4],[138.61,36.4],[138.57,36.15],[138.72,35.9],[138.62,35.85],[138.36,35.96],[138.18,35.79],[138.2,35.63],[138.11,35.36],[137.81,35.19],[137.57,35.19],[137.59,35.5],[137.44,35.73],[137.32,35.8],[137.58,36.03],[137.54,36.12],[137.62,36.31],[137.57,36.38],[137.72,36.59],[137.73,36.77],[137.87,36.92],[137.99,36.9],[138.04,36.81],[138.26,36.85],[138.37,36.98],[138.5,37.02],[138.67,36.84],[138.68,36.73]]]}},{"type":"Feature","properties":{"id":"JPN-09","nome":"Tochigi","pais":"JPN","tipo":"Prefecture","lat":36.66,"lng":139.79},"geometry":{"type":"Polygon","coordinates":[[[139.44,36.27],[139.34,36.38],[139.45,36.57],[139.31,36.64],[139.36,36.9],[139.89,37.14],[140.19,37.05],[140.27,36.72],[140.17,36.4],[139.95,36.36],[139.7,36.2],[139.44,36.27]]]}},{"type":"Feature","properties":{"id":"JPN-21","nome":"Gifu","pais":"JPN","tipo":"Prefecture","lat":35.85,"lng":136.94},"geometry":{"type":"Polygon","coordinates":[[[137.28,36.45],[137.57,36.38],[137.62,36.31],[137.54,36.12],[137.58,36.03],[137.32,35.8],[137.44,35.73],[137.59,35.5],[137.6,35.38],[137.55,35.27],[137.42,35.22],[137.29,35.27],[137.17,35.24],[136.95,35.38],[136.76,35.35],[136.67,35.14],[136.53,35.23],[136.4,35.2],[136.4,35.45],[136.26,35.65],[136.3,35.74],[136.77,35.79],[136.8,35.85],[136.7,35.94],[136.82,36.24],[136.77,36.29],[136.85,36.34],[136.96,36.27],[137.15,36.43],[137.28,36.45]]]}},{"type":"Feature","properties":{"id":"JPN-25","nome":"Shiga","pais":"JPN","tipo":"Prefecture","lat":35.18,"lng":136.09},"geometry":{"type":"Polygon","coordinates":[[[136.26,35.65],[136.4,35.45],[136.38,35.23],[136.44,35.13],[136.41,34.97],[136.31,34.88],[136.11,34.87],[136,34.77],[135.86,34.88],[135.83,35.26],[135.74,35.34],[135.88,35.38],[135.93,35.5],[136.14,35.56],[136.13,35.66],[136.26,35.65]]]}},{"type":"Feature","properties":{"id":"JPN-11","nome":"Saitama","pais":"JPN","tipo":"Prefecture","lat":36.02,"lng":139.29},"geometry":{"type":"Polygon","coordinates":[[[139.11,36.27],[139.67,36.15],[139.87,35.89],[139.86,35.78],[139.41,35.75],[139.01,35.88],[138.87,35.84],[138.72,35.9],[138.74,36.02],[139.03,36.14],[139.11,36.27]]]}},{"type":"Feature","properties":{"id":"JPN-19","nome":"Yamanashi","pais":"JPN","tipo":"Prefecture","lat":35.61,"lng":138.65},"geometry":{"type":"Polygon","coordinates":[[[138.36,35.96],[138.45,35.89],[138.63,35.85],[138.72,35.9],[138.92,35.84],[139.12,35.65],[139.1,35.53],[138.83,35.36],[138.7,35.35],[138.54,35.42],[138.51,35.19],[138.42,35.17],[138.34,35.29],[138.24,35.3],[138.24,35.52],[138.17,35.7],[138.22,35.85],[138.36,35.96]]]}},{"type":"Feature","properties":{"id":"JPN-29","nome":"Nara","pais":"JPN","tipo":"Prefecture","lat":34.28,"lng":135.88},"geometry":{"type":"Polygon","coordinates":[[[136.04,34.72],[136.06,34.56],[136.21,34.49],[136.07,34.39],[136.12,34.24],[136.1,34.02],[136.02,34],[135.85,33.84],[135.79,33.88],[135.62,33.86],[135.54,34.06],[135.71,34.21],[135.62,34.55],[135.71,34.76],[135.83,34.7],[136.04,34.72]]]}}]}