{"type":"FeatureCollection","features":[{"type":"Feature","properties":{"id":"KGZ-Y","nome":"Ysyk-Köl","pais":"KGZ","tipo":"Region","lat":42.04,"lng":77.95},"geometry":{"type":"Polygon","coordinates":[[[80.21,42.19],[80.23,42.03],[79.84,42],[79.75,41.88],[79.28,41.78],[78.67,41.54],[78.36,41.38],[78.35,41.27],[78.23,41.17],[78.14,41.25],[77.96,41.2],[77.65,41.23],[77.63,41.31],[77.36,41.26],[77.42,41.38],[77.28,41.5],[77.34,41.63],[77.21,41.59],[76.66,41.6],[76.73,41.76],[76.45,41.81],[76.62,41.85],[76.65,41.94],[76.16,42.03],[76.02,42.01],[76.09,42.11],[75.98,42.2],[76.01,42.29],[75.95,42.38],[75.77,42.35],[75.64,42.46],[75.84,42.59],[76.16,42.6],[76.48,42.78],[77.13,42.81],[77.21,42.91],[78.03,42.85],[78.43,42.88],[78.99,42.76],[79.17,42.79],[79.21,42.66],[79.43,42.47],[79.92,42.42],[80.21,42.19]]]}},{"type":"Feature","properties":{"id":"KGZ-N","nome":"Naryn","pais":"KGZ","tipo":"Region","lat":41.34,"lng":75.98},"geometry":{"type":"Polygon","coordinates":[[[78.23,41.17],[78.06,41.03],[77.83,41.06],[77.5,40.98],[77.01,41.04],[76.86,41.01],[76.77,40.94],[76.76,40.85],[76.65,40.76],[76.62,40.61],[76.45,40.42],[76.31,40.34],[76.24,40.44],[75.9,40.3],[75.68,40.29],[75.67,40.45],[75.56,40.63],[75.21,40.44],[75.04,40.44],[74.59,40.55],[74.57,40.62],[74.22,40.81],[74.04,40.97],[74.15,41.08],[74.08,41.15],[74.4,41.21],[74.34,41.29],[74.65,41.38],[74.75,41.61],[74.41,41.55],[74.08,41.56],[73.91,41.67],[74.02,41.69],[74.13,41.6],[74.1,41.72],[73.98,41.74],[73.97,41.85],[73.83,41.88],[73.79,41.84],[73.72,41.9],[74,42],[74.14,41.86],[74.32,42.02],[74.37,42.1],[74.32,42.13],[74.34,42.24],[74.67,42.23],[74.75,42.3],[74.88,42.3],[74.82,42.42],[75.52,42.46],[75.54,42.41],[75.64,42.46],[75.77,42.35],[75.95,42.38],[76.01,42.29],[75.98,42.2],[76.09,42.11],[76.02,42.01],[76.16,42.03],[76.65,41.94],[76.62,41.85],[76.45,41.81],[76.73,41.76],[76.66,41.6],[77.21,41.59],[77.34,41.63],[77.28,41.5],[77.42,41.38],[77.36,41.26],[77.63,41.31],[77.65,41.23],[77.96,41.2],[78.14,41.25],[78.23,41.17]]]}},{"type":"Feature","properties":{"id":"KGZ-O","nome":"Osh","pais":"KGZ","tipo":"Region","lat":40.11,"lng":73.18},"geometry":{"type":"Polygon","coordinates":[[[74.83,40.51],[74.79,40.42],[74.86,40.33],[74.71,40.33],[74.33,40.09],[74.17,40.11],[73.97,40.03],[73.82,39.81],[73.93,39.59],[73.82,39.47],[73.48,39.46],[73.17,39.36],[72.52,39.38],[72.32,39.33],[72.23,39.19],[72.05,39.37],[71.75,39.27],[71.71,39.32],[71.74,39.45],[71.55,39.44],[71.49,39.49],[71.55,39.67],[71.71,39.74],[72.1,39.63],[72.53,39.74],[72.48,39.86],[72.28,39.96],[72.27,40.14],[72.2,40.19],[72.21,40.29],[72.01,40.26],[71.96,40.32],[72.18,40.46],[72.39,40.39],[72.43,40.46],[72.35,40.6],[72.63,40.51],[72.66,40.58],[72.75,40.58],[72.78,40.67],[73.12,40.78],[73.26,40.9],[73.27,41],[73.39,41.02],[73.46,41.09],[73.6,41.09],[73.67,41.14],[73.7,41.1],[73.59,41.01],[73.71,40.95],[73.88,41.12],[73.93,41.02],[74.4,40.68],[74.57,40.62],[74.59,40.55],[74.83,40.51]]]}},{"type":"Feature","properties":{"id":"KGZ-C","nome":"Chuy","pais":"KGZ","tipo":"Region","lat":42.65,"lng":75.15},"geometry":{"type":"Polygon","coordinates":[[[74.18,43.26],[74.71,43],[75.2,42.85],[75.65,42.81],[75.8,42.94],[76.41,42.89],[76.96,42.99],[77.22,42.88],[77.1,42.8],[76.48,42.78],[76.16,42.6],[75.84,42.59],[75.54,42.41],[75.52,42.46],[74.82,42.42],[74.88,42.3],[74.75,42.3],[74.67,42.23],[74.34,42.24],[74.32,42.13],[74.37,42.1],[74.32,42.02],[74.14,41.86],[74,42],[73.8,41.96],[73.75,42.02],[73.38,42.02],[73.12,42.12],[73.09,42.24],[73.53,42.29],[73.69,42.41],[73.58,42.49],[73.51,42.42],[73.41,42.59],[73.57,43.03],[73.9,43.13],[73.97,43.22],[74.21,43.2],[74.18,43.26]],[[74.63,42.81],[74.67,42.87],[74.62,42.94],[74.5,42.87],[74.58,42.78],[74.63,42.81]]]}},{"type":"Feature","properties":{"id":"KGZ-T","nome":"Talas","pais":"KGZ","tipo":"Region","lat":42.48,"lng":72.27},"geometry":{"type":"Polygon","coordinates":[[[73.48,42.4],[73.58,42.49],[73.69,42.43],[73.59,42.31],[73.09,42.24],[73.11,42.14],[72.83,42.06],[72.38,42.21],[72.24,42.19],[72.16,42.08],[72.06,42.07],[71.63,42.2],[71.25,42.2],[71.05,42.29],[70.95,42.25],[70.85,42.31],[70.96,42.47],[71.06,42.47],[71,42.56],[71.14,42.6],[71.15,42.68],[71.25,42.75],[71.4,42.79],[71.58,42.76],[71.85,42.83],[72.73,42.65],[72.87,42.54],[73.28,42.51],[73.33,42.43],[73.48,42.4]]]}},{"type":"Feature","properties":{"id":"KGZ-J","nome":"Jalal-Abad","pais":"KGZ","tipo":"Region","lat":41.59,"lng":72.45},"geometry":{"type":"Polygon","coordinates":[[[70.94,42.04],[71.28,42.2],[71.63,42.2],[72.06,42.07],[72.35,42.21],[72.82,42.06],[73.11,42.14],[73.38,42.02],[73.77,42.01],[73.8,41.96],[73.73,41.89],[73.79,41.84],[73.83,41.88],[73.97,41.85],[73.98,41.74],[74.1,41.72],[74.13,41.6],[74.02,41.69],[73.91,41.67],[74.08,41.56],[74.41,41.55],[74.69,41.63],[74.75,41.6],[74.65,41.38],[74.34,41.29],[74.4,41.21],[74.08,41.16],[74.14,41.07],[74.04,40.97],[73.93,41.02],[73.87,41.13],[73.71,40.95],[73.64,40.98],[73.59,41.01],[73.7,41.1],[73.66,41.14],[73.28,41.01],[73.26,40.9],[73.14,40.84],[73,40.87],[72.87,40.82],[72.87,40.86],[72.62,40.88],[72.33,41.07],[72.17,41],[72.16,41.19],[71.87,41.19],[71.85,41.34],[71.75,41.45],[71.67,41.43],[71.67,41.55],[71.6,41.49],[71.64,41.43],[71.59,41.32],[71.52,41.3],[71.42,41.35],[71.42,41.13],[71.33,41.16],[71.28,41.11],[71.21,41.19],[71.18,41.11],[70.77,41.24],[70.77,41.35],[70.67,41.47],[70.45,41.41],[70.34,41.49],[70.17,41.52],[70.17,41.58],[70.45,41.71],[70.65,41.89],[70.81,41.92],[70.85,42.03],[70.94,42.04]]]}},{"type":"Feature","properties":{"id":"KGZ-B","nome":"Batken","pais":"KGZ","tipo":"Region","lat":39.79,"lng":70.89},"geometry":{"type":"Polygon","coordinates":[[[72,40.24],[72.21,40.29],[72.2,40.19],[72.27,40.14],[72.28,39.96],[72.48,39.86],[72.53,39.74],[72.1,39.63],[71.71,39.74],[71.55,39.67],[71.51,39.58],[71.38,39.59],[71.25,39.51],[71.1,39.51],[70.98,39.39],[70.77,39.38],[70.62,39.56],[70.48,39.6],[70.22,39.52],[70.2,39.62],[70.13,39.55],[69.67,39.58],[69.3,39.52],[69.29,39.68],[69.23,39.75],[69.31,39.98],[69.41,39.9],[69.5,39.92],[69.46,40.03],[69.52,40.13],[69.97,40.21],[70.53,40.03],[70.45,39.94],[70.48,39.9],[70.61,39.98],[70.67,40.1],[70.93,40.17],[71,40.27],[71.2,40.26],[71.25,40.32],[71.52,40.2],[71.59,40.2],[71.63,40.26],[71.69,40.14],[71.84,40.25],[72,40.24]],[[71.18,40.04],[71.01,40.16],[70.95,40.1],[71.05,39.99],[71.02,39.88],[71.21,39.89],[71.17,39.99],[71.24,40.05],[71.18,40.04]],[[70.5,39.88],[70.58,39.77],[70.7,39.82],[70.5,39.88]]]}},{"type":"Feature","properties":{"id":"KGZ-GB","nome":"Bishkek","pais":"KGZ","tipo":"Region","lat":42.84,"lng":74.59},"geometry":{"type":"Polygon","coordinates":[[[74.62,42.94],[74.67,42.87],[74.58,42.78],[74.5,42.87],[74.62,42.94]]]}}]}