{"type":"FeatureCollection","features":[{"type":"Feature","properties":{"id":"KHM-16","nome":"Rôtânôkiri","pais":"KHM","tipo":"Province","lat":13.24,"lng":107.08},"geometry":{"type":"Polygon","coordinates":[[[107.52,14.7],[107.46,14.45],[107.35,14.34],[107.32,14.12],[107.35,14],[107.43,13.98],[107.44,13.78],[107.6,13.54],[107.57,13.29],[107.47,13.33],[107.38,13.28],[107.25,13.37],[107.2,13.32],[107.08,13.32],[107.04,13.17],[106.79,13.19],[106.61,13.34],[106.55,13.56],[106.66,13.83],[106.59,14.12],[106.62,14.45],[106.81,14.31],[106.95,14.32],[107.03,14.44],[107.1,14.41],[107.29,14.6],[107.41,14.54],[107.52,14.7]]]}},{"type":"Feature","properties":{"id":"KHM-11","nome":"Môndól Kiri","pais":"KHM","tipo":"Province","lat":12.63,"lng":106.96},"geometry":{"type":"Polygon","coordinates":[[[107.54,12.72],[107.56,12.47],[107.5,12.33],[107.42,12.25],[107.32,12.33],[107.21,12.31],[106.95,12.08],[106.79,12.07],[106.76,12.24],[106.6,12.31],[106.55,12.41],[106.37,12.53],[106.42,12.72],[106.62,12.86],[106.61,12.92],[106.35,13.1],[106.36,13.15],[106.44,13.17],[106.36,13.27],[106.36,13.42],[106.87,13.17],[107.05,13.17],[107.08,13.32],[107.2,13.32],[107.25,13.37],[107.38,13.28],[107.47,13.33],[107.57,13.29],[107.46,13.02],[107.54,12.72]]]}},{"type":"Feature","properties":{"id":"KHM-10","nome":"Krâchéh","pais":"KHM","tipo":"Province","lat":12.66,"lng":106.18},"geometry":{"type":"Polygon","coordinates":[[[106.79,12.07],[106.68,11.97],[106.24,11.94],[106.16,11.96],[106.16,12.04],[105.99,12.2],[105.75,12.26],[105.78,12.39],[105.58,13.27],[105.89,13.12],[106.11,13.35],[106.36,13.42],[106.36,13.27],[106.44,13.17],[106.36,13.15],[106.35,13.1],[106.61,12.92],[106.62,12.86],[106.42,12.72],[106.37,12.53],[106.55,12.41],[106.6,12.31],[106.76,12.24],[106.79,12.07]]]}},{"type":"Feature","properties":{"id":"KHM-3","nome":"Kâmpóng Cham","pais":"KHM","tipo":"Province","lat":12.12,"lng":105.63},"geometry":{"type":"Polygon","coordinates":[[[106.43,11.68],[106.27,11.68],[106.02,11.77],[105.93,11.64],[105.82,11.64],[105.83,11.7],[105.46,11.77],[105.33,11.87],[105.15,11.75],[105.05,11.77],[105.07,11.82],[105,11.89],[104.93,11.82],[104.85,11.82],[104.82,11.89],[104.91,11.99],[104.89,12.24],[105.2,12.19],[105.17,12.39],[105.35,12.35],[105.4,12.48],[105.75,12.51],[105.75,12.26],[106.01,12.18],[106.17,12.03],[106.16,11.96],[106.4,11.97],[106.43,11.68]]]}},{"type":"Feature","properties":{"id":"KHM-20","nome":"Svay Rieng","pais":"KHM","tipo":"Province","lat":11.04,"lng":105.89},"geometry":{"type":"Polygon","coordinates":[[[105.79,11.58],[105.86,11.54],[105.84,11.29],[106.09,11.06],[106.16,11.05],[106.19,10.98],[106.12,10.93],[106.18,10.77],[105.93,10.9],[105.88,10.83],[105.75,11.02],[105.62,10.97],[105.59,11.01],[105.68,11.52],[105.79,11.58]]]}},{"type":"Feature","properties":{"id":"KHM-14","nome":"Prey Vêng","pais":"KHM","tipo":"Province","lat":11.36,"lng":105.47},"geometry":{"type":"Polygon","coordinates":[[[105.82,11.64],[105.68,11.52],[105.62,10.97],[105.41,10.96],[105.32,10.84],[105.21,10.89],[105.19,11.02],[105.29,11.23],[105.3,11.43],[105.11,11.59],[105.15,11.75],[105.33,11.87],[105.46,11.77],[105.83,11.7],[105.82,11.64]]]}},{"type":"Feature","properties":{"id":"KHM-8","nome":"Kândal","pais":"KHM","tipo":"Province","lat":11.55,"lng":104.97},"geometry":{"type":"Polygon","coordinates":[[[105.21,10.89],[105.03,10.93],[105.03,11.17],[104.93,11.33],[104.77,11.34],[104.78,11.42],[104.65,11.45],[104.79,11.88],[104.89,11.81],[104.98,11.89],[105.07,11.83],[105.05,11.77],[105.16,11.74],[105.14,11.54],[105.3,11.43],[105.29,11.23],[105.19,11.02],[105.21,10.89]],[[104.92,11.45],[104.97,11.55],[104.92,11.67],[104.86,11.68],[104.79,11.6],[104.78,11.46],[104.92,11.45]]]}},{"type":"Feature","properties":{"id":"KHM-21","nome":"Takêv","pais":"KHM","tipo":"Province","lat":10.93,"lng":104.75},"geometry":{"type":"Polygon","coordinates":[[[105.04,10.92],[105.07,10.71],[104.85,10.53],[104.7,10.52],[104.68,10.7],[104.74,10.79],[104.7,10.89],[104.55,10.9],[104.54,11.03],[104.44,11.06],[104.44,11.12],[104.67,11.1],[104.71,11.33],[104.92,11.34],[105.03,11.17],[105.04,10.92]]]}},{"type":"Feature","properties":{"id":"KHM-7","nome":"Kâmpôt","pais":"KHM","tipo":"Province","lat":10.85,"lng":104.33},"geometry":{"type":"Polygon","coordinates":[[[104.7,10.52],[104.57,10.53],[104.47,10.42],[104.35,10.57],[103.95,10.59],[103.94,10.99],[104.11,11.15],[104.44,11.12],[104.44,11.06],[104.54,11.03],[104.55,10.9],[104.7,10.89],[104.74,10.79],[104.68,10.7],[104.7,10.52]]]}},{"type":"Feature","properties":{"id":"KHM-22","nome":"Otdar Mean Chey","pais":"KHM","tipo":"Province","lat":14.17,"lng":103.55},"geometry":{"type":"Polygon","coordinates":[[[103.65,14.44],[103.68,14.38],[104.05,14.36],[104.07,14.24],[103.43,13.89],[103.33,14.06],[103.26,14],[103.18,14.05],[103.19,14.12],[103.02,14.24],[103.12,14.31],[103.65,14.44]]]}},{"type":"Feature","properties":{"id":"KHM-13","nome":"Preah Vihéar","pais":"KHM","tipo":"Province","lat":13.73,"lng":105.13},"geometry":{"type":"Polygon","coordinates":[[[104.77,14.44],[104.97,14.38],[105.05,14.21],[105.18,14.35],[105.34,14.11],[105.53,14.16],[105.74,14.09],[105.9,13.92],[105.53,13.84],[105.57,13.5],[105,13.12],[104.89,13.15],[104.89,13.34],[104.73,13.36],[104.56,13.28],[104.58,13.43],[104.68,13.58],[104.42,13.6],[104.42,13.75],[104.35,13.86],[104.5,14.19],[104.44,14.26],[104.46,14.36],[104.77,14.44]]]}},{"type":"Feature","properties":{"id":"KHM-17","nome":"Siemréab","pais":"KHM","tipo":"Province","lat":13.57,"lng":104.04},"geometry":{"type":"Polygon","coordinates":[[[104.18,14.4],[104.46,14.36],[104.44,14.26],[104.5,14.19],[104.35,13.86],[104.42,13.75],[104.41,13.63],[104.68,13.57],[104.38,12.92],[104.19,12.75],[103.67,13.33],[103.42,13.41],[103.4,13.65],[103.43,13.89],[104.07,14.24],[104.05,14.36],[104.18,14.4]]]}},{"type":"Feature","properties":{"id":"KHM-1","nome":"Bântéay Méanchey","pais":"KHM","tipo":"Province","lat":13.74,"lng":102.87},"geometry":{"type":"Polygon","coordinates":[[[102.45,13.56],[102.6,13.61],[102.54,13.67],[102.7,13.76],[102.92,14.19],[103.02,14.24],[103.19,14.12],[103.18,14.05],[103.26,14],[103.33,14.06],[103.43,13.92],[103.41,13.43],[103.16,13.46],[102.96,13.41],[102.76,13.47],[102.71,13.42],[102.33,13.48],[102.33,13.56],[102.45,13.56]]]}},{"type":"Feature","properties":{"id":"KHM-9","nome":"Kaôh Kong","pais":"KHM","tipo":"Province","lat":11.56,"lng":103.47},"geometry":{"type":"Polygon","coordinates":[[[102.91,11.65],[102.91,11.77],[102.77,12.04],[103.15,11.98],[103.4,12.13],[103.52,12.13],[103.86,11.91],[103.78,11.89],[103.8,11.66],[104.07,11.52],[104.14,11.16],[103.79,10.9],[103.69,10.74],[103.72,10.86],[103.67,11.06],[103.53,11.16],[103.47,11.15],[103.42,10.89],[103.35,10.87],[103.28,10.93],[103.14,10.88],[103.1,10.93],[103.12,11.15],[103.06,11.22],[103.15,11.32],[103.06,11.45],[103.17,11.43],[103.14,11.51],[103.11,11.47],[103.06,11.5],[103.04,11.6],[103.03,11.54],[102.95,11.56],[103,11.55],[102.99,11.64],[103.04,11.62],[102.99,11.67],[102.97,11.64],[102.99,11.7],[103.08,11.73],[102.98,11.71],[102.89,11.83],[102.97,11.71],[102.95,11.57],[102.91,11.65]]]}},{"type":"Feature","properties":{"id":"KHM-15","nome":"Pouthisat","pais":"KHM","tipo":"Province","lat":12.34,"lng":103.55},"geometry":{"type":"Polygon","coordinates":[[[102.77,12.04],[102.69,12.18],[102.76,12.43],[103.32,12.59],[103.59,12.58],[103.64,12.67],[103.62,12.84],[103.7,12.97],[103.68,13.03],[103.81,13.15],[104.41,12.55],[104.34,12.34],[104.19,12.24],[104.2,12.11],[104.11,12.08],[104.02,11.95],[103.94,11.98],[103.86,11.91],[103.49,12.14],[103.15,11.98],[102.77,12.04]]]}},{"type":"Feature","properties":{"id":"KHM-2","nome":"Batdâmbâng","pais":"KHM","tipo":"Province","lat":12.97,"lng":103.07},"geometry":{"type":"Polygon","coordinates":[[[102.76,12.43],[102.5,12.65],[102.74,12.74],[102.74,13.04],[102.65,13.12],[102.58,13.01],[102.47,13.01],[102.33,13.28],[102.33,13.48],[102.71,13.42],[102.76,13.47],[102.96,13.41],[103.16,13.46],[103.41,13.43],[103.68,13.32],[103.81,13.15],[103.68,13.03],[103.6,12.59],[103.32,12.59],[102.76,12.43]]]}},{"type":"Feature","properties":{"id":"KHM-24","nome":"Krong Pailin","pais":"KHM","tipo":"Municipality","lat":12.89,"lng":102.61},"geometry":{"type":"Polygon","coordinates":[[[102.5,12.65],[102.47,12.97],[102.67,13.11],[102.75,13],[102.75,12.77],[102.5,12.65]]]}},{"type":"Feature","properties":{"id":"KHM-19","nome":"Stœng Trêng","pais":"KHM","tipo":"Province","lat":13.67,"lng":106.1},"geometry":{"type":"Polygon","coordinates":[[[106.51,14.59],[106.62,14.46],[106.59,14.12],[106.66,13.83],[106.55,13.56],[106.61,13.34],[106.44,13.42],[106.31,13.42],[106.11,13.35],[106.03,13.21],[105.88,13.12],[105.58,13.27],[105.53,13.84],[105.69,13.86],[105.73,13.91],[106.07,13.92],[106.15,14.05],[106.01,14.23],[105.97,14.37],[106.17,14.37],[106.23,14.49],[106.31,14.45],[106.42,14.47],[106.51,14.59]]]}},{"type":"Feature","properties":{"id":"KHM-18","nome":"Krong Preah Sihanouk","pais":"KHM","tipo":"Municipality","lat":10.49,"lng":103.78},"geometry":{"type":"Polygon","coordinates":[[[103.92,10.62],[103.87,10.7],[103.82,10.54],[103.7,10.56],[103.75,10.51],[103.64,10.49],[103.5,10.62],[103.57,10.73],[103.72,10.76],[103.79,10.9],[103.94,10.99],[103.92,10.62]]]}},{"type":"Feature","properties":{"id":"KHM-23","nome":"Kep","pais":"KHM","tipo":"Province","lat":10.53,"lng":104.35},"geometry":{"type":"Polygon","coordinates":[[[104.42,10.45],[104.3,10.48],[104.28,10.58],[104.38,10.57],[104.42,10.45]]]}},{"type":"Feature","properties":{"id":"KHM-4","nome":"Kâmpóng Chhnang","pais":"KHM","tipo":"Province","lat":12.16,"lng":104.55},"geometry":{"type":"Polygon","coordinates":[[[104.2,12.11],[104.19,12.24],[104.34,12.34],[104.41,12.55],[104.5,12.52],[104.67,12.59],[104.83,12.53],[104.86,12.38],[104.91,12.39],[104.85,12.3],[104.91,11.99],[104.76,11.82],[104.52,11.74],[104.37,11.79],[104.2,12.11]]]}},{"type":"Feature","properties":{"id":"KHM-6","nome":"Kâmpóng Thum","pais":"KHM","tipo":"Province","lat":12.69,"lng":104.97},"geometry":{"type":"Polygon","coordinates":[[[104.41,12.55],[104.19,12.75],[104.38,12.92],[104.49,13.23],[104.73,13.36],[104.88,13.34],[104.89,13.15],[105,13.12],[105.55,13.47],[105.75,12.51],[105.4,12.48],[105.35,12.35],[105.17,12.39],[105.2,12.19],[104.89,12.24],[104.85,12.3],[104.91,12.38],[104.86,12.38],[104.83,12.53],[104.63,12.6],[104.5,12.52],[104.41,12.55]]]}},{"type":"Feature","properties":{"id":"KHM-5","nome":"Kâmpóng Spœ","pais":"KHM","tipo":"Province","lat":11.52,"lng":104.28},"geometry":{"type":"Polygon","coordinates":[[[103.96,11.56],[103.8,11.66],[103.78,11.89],[103.94,11.98],[104.07,11.98],[104.12,12.08],[104.2,12.11],[104.37,11.79],[104.52,11.74],[104.76,11.82],[104.65,11.45],[104.79,11.41],[104.71,11.32],[104.67,11.1],[104.16,11.15],[104.09,11.28],[104.07,11.52],[103.96,11.56]]]}},{"type":"Feature","properties":{"id":"KHM-12","nome":"Phnom Penh","pais":"KHM","tipo":"Municipality","lat":11.57,"lng":104.87},"geometry":{"type":"Polygon","coordinates":[[[104.87,11.68],[104.92,11.67],[104.96,11.5],[104.81,11.43],[104.79,11.6],[104.87,11.68]]]}}]}