{"type":"FeatureCollection","features":[{"type":"Feature","properties":{"id":"KNA-04","nome":"Saint George Gingerland","pais":"KNA","tipo":"Parish","lat":17.13,"lng":-62.56},"geometry":{"type":"Polygon","coordinates":[[[-62.54,17.14],[-62.57,17.1],[-62.58,17.15],[-62.54,17.14]]]}},{"type":"Feature","properties":{"id":"KNA-05","nome":"Saint James Windward","pais":"KNA","tipo":"Parish","lat":17.18,"lng":-62.57},"geometry":{"type":"Polygon","coordinates":[[[-62.61,17.19],[-62.56,17.2],[-62.54,17.14],[-62.61,17.19]]]}},{"type":"Feature","properties":{"id":"KNA-12","nome":"Saint Thomas Lowland","pais":"KNA","tipo":"Parish","lat":17.16,"lng":-62.61},"geometry":{"type":"Polygon","coordinates":[[[-62.63,17.14],[-62.61,17.19],[-62.58,17.15],[-62.63,17.14]]]}},{"type":"Feature","properties":{"id":"KNA-09","nome":"Saint Paul Capesterre","pais":"KNA","tipo":"Parish","lat":17.39,"lng":-62.83},"geometry":{"type":"Polygon","coordinates":[[[-62.86,17.38],[-62.82,17.41],[-62.81,17.37],[-62.86,17.38]]]}},{"type":"Feature","properties":{"id":"KNA-02","nome":"Saint Anne Sandy Point","pais":"KNA","tipo":"Parish","lat":17.36,"lng":-62.84},"geometry":{"type":"Polygon","coordinates":[[[-62.83,17.33],[-62.86,17.38],[-62.81,17.37],[-62.83,17.33]]]}},{"type":"Feature","properties":{"id":"KNA-13","nome":"Saint Thomas Middle Island","pais":"KNA","tipo":"Parish","lat":17.33,"lng":-62.79},"geometry":{"type":"Polygon","coordinates":[[[-62.77,17.3],[-62.83,17.33],[-62.81,17.37],[-62.77,17.3]]]}},{"type":"Feature","properties":{"id":"KNA-03","nome":"Saint George Basseterre","pais":"KNA","tipo":"Parish","lat":17.28,"lng":-62.69},"geometry":{"type":"Polygon","coordinates":[[[-62.68,17.3],[-62.62,17.23],[-62.73,17.32],[-62.68,17.3]]]}},{"type":"Feature","properties":{"id":"KNA-11","nome":"Saint Peter Basseterre","pais":"KNA","tipo":"Parish","lat":17.32,"lng":-62.71},"geometry":{"type":"Polygon","coordinates":[[[-62.7,17.34],[-62.68,17.3],[-62.73,17.32],[-62.7,17.34]]]}}]}