{"type":"FeatureCollection","features":[{"type":"Feature","properties":{"id":"KOR-42","nome":"Gangwon","pais":"KOR","tipo":"Province","lat":37.8,"lng":128.22},"geometry":{"type":"Polygon","coordinates":[[[127.97,38.3],[128.23,38.4],[128.28,38.58],[128.36,38.62],[128.64,38.13],[129.06,37.68],[129.33,37.28],[129.43,37.06],[129.47,36.73],[129.42,36.62],[129.28,36.63],[129.29,36.82],[129.17,36.84],[129.1,36.92],[129.1,36.98],[129.19,37],[129.15,37.03],[128.88,37.03],[128.8,37.09],[128.73,37],[128.28,37.11],[128.32,37.18],[128.19,37.2],[128.04,37.15],[127.99,37.22],[127.89,37.11],[127.81,37.12],[127.82,37.17],[127.61,37.13],[127.83,37.51],[127.54,37.6],[127.54,37.79],[127.63,37.88],[127.48,37.96],[127.44,38.07],[127.3,38.08],[127.31,38.14],[127.2,38.14],[127.18,38.07],[126.97,38.21],[127.16,38.31],[127.97,38.3]]]}},{"type":"Feature","properties":{"id":"KOR-41","nome":"Gyeonggi","pais":"KOR","tipo":"Province","lat":37.26,"lng":127.21},"geometry":{"type":"MultiPolygon","coordinates":[[[[126.67,37.83],[126.67,37.94],[126.97,38.21],[127.18,38.07],[127.2,38.14],[127.31,38.14],[127.3,38.08],[127.44,38.07],[127.48,37.96],[127.63,37.88],[127.54,37.79],[127.54,37.6],[127.83,37.51],[127.6,37.12],[127.38,36.91],[126.96,36.91],[127.04,36.99],[126.91,36.93],[126.82,37],[126.91,37.01],[126.89,37.1],[126.85,37.04],[126.76,37.05],[126.76,37.12],[126.87,37.18],[126.7,37.12],[126.67,37.16],[126.72,37.21],[126.67,37.26],[126.78,37.22],[126.87,37.27],[126.69,37.33],[126.8,37.44],[126.56,37.61],[126.53,37.77],[126.66,37.76],[126.66,37.67],[126.76,37.64],[126.68,37.69],[126.67,37.83]],[[127.12,37.55],[127.11,37.66],[127.05,37.68],[126.79,37.55],[126.96,37.43],[127.14,37.46],[127.19,37.54],[127.12,37.55]]],[[[126.51,37.6],[126.37,37.63],[126.42,37.65],[126.37,37.73],[126.41,37.82],[126.52,37.77],[126.51,37.6]]]]}},{"type":"Feature","properties":{"id":"KOR-44","nome":"South Chungcheong","pais":"KOR","tipo":"Province","lat":36.46,"lng":126.87},"geometry":{"type":"Polygon","coordinates":[[[126.81,36.05],[126.69,36],[126.59,36.13],[126.49,36.13],[126.6,36.17],[126.53,36.22],[126.58,36.29],[126.51,36.32],[126.58,36.35],[126.5,36.42],[126.62,36.47],[126.5,36.45],[126.48,36.75],[126.42,36.61],[126.37,36.63],[126.34,36.74],[126.3,36.7],[126.34,36.61],[126.3,36.58],[126.27,36.72],[126.18,36.67],[126.21,36.73],[126.16,36.76],[126.13,36.71],[126.17,36.82],[126.24,36.82],[126.19,36.89],[126.28,36.87],[126.29,36.96],[126.32,36.88],[126.29,36.79],[126.36,36.79],[126.33,36.85],[126.4,36.86],[126.42,36.92],[126.35,37],[126.45,37],[126.48,36.84],[126.52,36.95],[126.58,36.9],[126.5,37.05],[126.63,37],[126.63,36.91],[126.67,36.99],[126.76,36.98],[126.78,36.89],[126.83,36.91],[126.85,36.75],[126.86,36.83],[126.9,36.82],[126.86,36.87],[126.96,36.91],[127.13,36.93],[127.26,36.88],[127.33,36.72],[127.25,36.65],[127.1,36.69],[127.06,36.46],[127.22,36.46],[127.32,36.23],[127.54,36.39],[127.47,36.2],[127.56,36.19],[127.62,36.03],[127.43,35.99],[127.31,36.12],[127.11,36.06],[127.06,36.13],[126.81,36.05]]]}},{"type":"Feature","properties":{"id":"KOR-28","nome":"Incheon","pais":"KOR","tipo":"Metropolitan City","lat":37.5,"lng":126.51},"geometry":{"type":"Polygon","coordinates":[[[126.72,37.38],[126.62,37.38],[126.6,37.47],[126.64,37.5],[126.6,37.55],[126.76,37.51],[126.8,37.44],[126.72,37.38]]]}},{"type":"Feature","properties":{"id":"KOR-45","nome":"North Jeolla","pais":"KOR","tipo":"Province","lat":35.68,"lng":127.08},"geometry":{"type":"Polygon","coordinates":[[[126.44,35.37],[126.49,35.53],[126.64,35.57],[126.69,35.53],[126.67,35.59],[126.51,35.58],[126.47,35.64],[126.66,35.79],[126.78,35.76],[126.7,35.85],[126.84,35.89],[126.61,35.89],[126.52,35.97],[126.74,35.99],[126.87,36.05],[126.81,36.05],[126.86,36.09],[127.06,36.13],[127.11,36.06],[127.31,36.12],[127.43,35.99],[127.62,36.03],[127.75,35.98],[127.88,36.01],[127.92,35.95],[127.87,35.83],[127.71,35.73],[127.63,35.52],[127.69,35.41],[127.62,35.28],[127.5,35.33],[127.13,35.28],[127.07,35.43],[126.98,35.38],[126.89,35.46],[126.79,35.43],[126.75,35.34],[126.59,35.29],[126.58,35.39],[126.44,35.37]]]}},{"type":"Feature","properties":{"id":"KOR-46","nome":"South Jeolla","pais":"KOR","tipo":"Metropolitan City","lat":34.82,"lng":126.88},"geometry":{"type":"MultiPolygon","coordinates":[[[[127.8,34.96],[127.72,34.99],[127.66,34.91],[127.58,34.93],[127.65,34.82],[127.78,34.85],[127.74,34.73],[127.62,34.7],[127.64,34.62],[127.56,34.66],[127.58,34.75],[127.52,34.89],[127.37,34.82],[127.43,34.8],[127.36,34.76],[127.5,34.59],[127.35,34.59],[127.44,34.54],[127.34,34.45],[127.22,34.55],[127.12,34.54],[127.21,34.64],[127.19,34.57],[127.25,34.58],[127.27,34.71],[127.31,34.65],[127.36,34.7],[127.25,34.77],[127.2,34.69],[127.01,34.61],[126.9,34.42],[126.81,34.45],[126.78,34.59],[126.76,34.48],[126.63,34.4],[126.6,34.3],[126.52,34.29],[126.48,34.35],[126.52,34.41],[126.47,34.5],[126.54,34.51],[126.54,34.56],[126.39,34.53],[126.27,34.64],[126.3,34.75],[126.38,34.6],[126.47,34.6],[126.39,34.64],[126.38,34.71],[126.62,34.63],[126.36,34.75],[126.53,34.75],[126.54,34.8],[126.67,34.81],[126.58,34.82],[126.57,34.9],[126.51,34.78],[126.37,34.79],[126.44,34.98],[126.32,34.94],[126.37,35.02],[126.25,35.12],[126.34,35.16],[126.43,35.02],[126.45,35.1],[126.36,35.24],[126.31,35.23],[126.38,35.25],[126.41,35.37],[126.58,35.39],[126.59,35.29],[126.75,35.34],[126.87,35.46],[126.98,35.38],[127.07,35.43],[127.13,35.28],[127.56,35.31],[127.8,34.96]],[[126.99,35.24],[126.82,35.23],[126.97,35.15],[126.99,35.24]]],[[[126.38,34.5],[126.35,34.41],[126.21,34.36],[126.1,34.4],[126.27,34.52],[126.25,34.57],[126.38,34.5]]]]}},{"type":"Feature","properties":{"id":"KOR-48","nome":"South Gyeongsang","pais":"KOR","tipo":"Province","lat":35.32,"lng":128.22},"geometry":{"type":"MultiPolygon","coordinates":[[[[128.96,35.13],[128.92,35.08],[128.9,35.12],[128.76,35.08],[128.62,35.14],[128.6,35.21],[128.65,35.06],[128.51,35.1],[128.39,35.05],[128.37,35.01],[128.49,35.05],[128.5,35.01],[128.42,34.98],[128.43,34.89],[128.47,34.89],[128.41,34.84],[128.33,34.89],[128.34,34.95],[128.3,34.91],[128.22,34.94],[128.21,34.89],[128.06,34.93],[128.07,35.08],[128.02,35],[127.93,35.02],[127.91,34.96],[127.83,34.94],[127.61,35.25],[127.69,35.41],[127.63,35.55],[127.71,35.73],[127.91,35.89],[128.14,35.78],[128.22,35.71],[128.22,35.61],[128.42,35.58],[128.55,35.64],[128.58,35.56],[128.75,35.53],[129.01,35.58],[129,35.47],[129.27,35.32],[129.2,35.16],[129.07,35.27],[128.96,35.13]]],[[[128.07,34.82],[128.06,34.7],[127.98,34.7],[127.94,34.77],[127.89,34.71],[127.83,34.87],[127.9,34.94],[127.92,34.84],[128.07,34.82]]],[[[128.75,34.87],[128.74,34.79],[128.69,34.81],[128.66,34.76],[128.69,34.74],[128.58,34.71],[128.62,34.73],[128.56,34.78],[128.6,34.84],[128.53,34.81],[128.49,34.87],[128.65,34.89],[128.61,34.95],[128.7,35.03],[128.75,34.87]]]]}},{"type":"Feature","properties":{"id":"KOR-26","nome":"Busan","pais":"KOR","tipo":"Metropolitan City","lat":35.19,"lng":129.08},"geometry":{"type":"Polygon","coordinates":[[[129.2,35.16],[128.96,35.05],[129.04,35.26],[129.2,35.16]]]}},{"type":"Feature","properties":{"id":"KOR-31","nome":"Ulsan","pais":"KOR","tipo":"Metropolitan City","lat":35.5,"lng":129.23},"geometry":{"type":"Polygon","coordinates":[[[129.46,35.61],[129.45,35.51],[129.41,35.47],[129.37,35.53],[129.36,35.35],[129.29,35.32],[128.99,35.5],[129.01,35.58],[129.14,35.68],[129.46,35.61]]]}},{"type":"Feature","properties":{"id":"KOR-47","nome":"North Gyeongsang","pais":"KOR","tipo":"Metropolitan City","lat":36.34,"lng":128.71},"geometry":{"type":"Polygon","coordinates":[[[129.42,36.62],[129.44,36.41],[129.38,36.2],[129.43,36.1],[129.38,36.04],[129.45,35.99],[129.55,36.08],[129.59,36.02],[129.46,35.61],[129.27,35.62],[129.18,35.68],[128.98,35.57],[128.61,35.54],[128.55,35.64],[128.42,35.58],[128.22,35.61],[128.22,35.71],[128.12,35.79],[127.92,35.86],[127.88,36.01],[127.96,36.15],[128.03,36.16],[128,36.23],[127.84,36.24],[127.89,36.48],[127.79,36.56],[127.95,36.7],[128.06,36.67],[128.06,36.78],[128.2,36.78],[128.24,36.83],[128.34,36.76],[128.43,36.79],[128.5,36.94],[128.65,37.02],[128.76,37],[128.76,37.06],[128.83,37.09],[128.88,37.03],[129.18,37.02],[129.1,36.92],[129.17,36.84],[129.29,36.82],[129.28,36.63],[129.42,36.62]],[[128.74,35.85],[128.75,35.97],[128.69,36.01],[128.53,35.97],[128.48,35.85],[128.56,35.77],[128.74,35.85]]]}},{"type":"Feature","properties":{"id":"KOR-49","nome":"Jeju","pais":"KOR","tipo":"Province","lat":33.37,"lng":126.56},"geometry":{"type":"Polygon","coordinates":[[[126.95,33.48],[126.84,33.31],[126.61,33.24],[126.27,33.2],[126.16,33.3],[126.31,33.46],[126.48,33.52],[126.79,33.56],[126.95,33.48]]]}},{"type":"Feature","properties":{"id":"KOR-11","nome":"Seoul","pais":"KOR","tipo":"Capital Metropolitan City","lat":37.54,"lng":126.99},"geometry":{"type":"Polygon","coordinates":[[[127.05,37.68],[127.11,37.66],[127.12,37.55],[127.19,37.54],[127.14,37.46],[126.92,37.43],[126.84,37.48],[126.81,37.58],[126.89,37.57],[127.05,37.68]]]}},{"type":"Feature","properties":{"id":"KOR-30","nome":"Daejeon","pais":"KOR","tipo":"Metropolitan City","lat":36.36,"lng":127.4},"geometry":{"type":"Polygon","coordinates":[[[127.32,36.23],[127.22,36.46],[127.35,36.48],[127.48,36.37],[127.45,36.29],[127.32,36.23]]]}},{"type":"Feature","properties":{"id":"KOR-50","nome":"Sejong","pais":"KOR","tipo":"Special self-governing city","lat":36.5,"lng":127.23},"geometry":{"type":"Polygon","coordinates":[[[127.1,36.69],[127.25,36.65],[127.21,36.54],[127.36,36.54],[127.35,36.48],[127.06,36.46],[127.1,36.69]]]}},{"type":"Feature","properties":{"id":"KOR-43","nome":"North Chungcheong","pais":"KOR","tipo":"Province","lat":36.75,"lng":127.67},"geometry":{"type":"Polygon","coordinates":[[[127.49,37],[127.61,37.13],[127.82,37.17],[127.81,37.12],[127.89,37.11],[127.99,37.22],[128.04,37.15],[128.19,37.2],[128.32,37.18],[128.28,37.11],[128.65,37.02],[128.47,36.91],[128.43,36.79],[128.34,36.76],[128.24,36.83],[128.2,36.78],[128.06,36.78],[128.06,36.67],[127.95,36.7],[127.79,36.56],[127.89,36.48],[127.84,36.24],[128,36.23],[128.03,36.16],[127.96,36.15],[127.93,36.02],[127.75,35.98],[127.62,36.03],[127.56,36.19],[127.47,36.2],[127.54,36.39],[127.37,36.43],[127.36,36.54],[127.21,36.54],[127.34,36.76],[127.26,36.88],[127.49,37]]]}},{"type":"Feature","properties":{"id":"KOR-29","nome":"Gwangju","pais":"KOR","tipo":"Metropolitan City","lat":35.2,"lng":126.93},"geometry":{"type":"Polygon","coordinates":[[[126.93,35.25],[127.01,35.19],[126.97,35.15],[126.82,35.23],[126.93,35.25]]]}},{"type":"Feature","properties":{"id":"KOR-27","nome":"Daegu","pais":"KOR","tipo":"Metropolitan City","lat":35.9,"lng":128.63},"geometry":{"type":"Polygon","coordinates":[[[128.69,36.01],[128.76,35.89],[128.71,35.8],[128.56,35.77],[128.48,35.83],[128.53,35.97],[128.69,36.01]]]}}]}