{"type":"FeatureCollection","features":[{"type":"Feature","properties":{"id":"KOS-X02~","nome":"Dečani","pais":"KOS","tipo":"District","lat":42.53,"lng":20.25},"geometry":{"type":"Polygon","coordinates":[[[20.15,42.49],[20.06,42.55],[20.1,42.65],[20.44,42.54],[20.31,42.44],[20.15,42.49]]]}},{"type":"Feature","properties":{"id":"KOS-X01~","nome":"Đakovica","pais":"KOS","tipo":"District","lat":42.37,"lng":20.41},"geometry":{"type":"Polygon","coordinates":[[[20.25,42.32],[20.15,42.49],[20.31,42.44],[20.47,42.54],[20.54,42.5],[20.51,42.38],[20.6,42.32],[20.47,42.24],[20.25,42.32]]]}},{"type":"Feature","properties":{"id":"KOS-X03~","nome":"Dragaš","pais":"KOS","tipo":"District","lat":41.99,"lng":20.68},"geometry":{"type":"Polygon","coordinates":[[[20.57,41.87],[20.6,41.96],[20.55,42.07],[20.77,42.13],[20.72,41.87],[20.57,41.87]]]}},{"type":"Feature","properties":{"id":"KOS-X21~","nome":"Prizren","pais":"KOS","tipo":"District","lat":42.19,"lng":20.73},"geometry":{"type":"Polygon","coordinates":[[[20.55,42.07],[20.47,42.24],[20.65,42.32],[20.85,42.26],[20.86,42.19],[20.98,42.13],[20.78,42.08],[20.77,42.13],[20.65,42.13],[20.55,42.07]]]}},{"type":"Feature","properties":{"id":"KOS-X05~","nome":"Gnjilane","pais":"KOS","tipo":"District","lat":42.45,"lng":21.45},"geometry":{"type":"Polygon","coordinates":[[[21.5,42.24],[21.44,42.36],[21.34,42.43],[21.28,42.4],[21.29,42.56],[21.46,42.56],[21.52,42.47],[21.62,42.45],[21.62,42.39],[21.52,42.34],[21.56,42.25],[21.5,42.24]]]}},{"type":"Feature","properties":{"id":"KOS-X27~","nome":"Vitina","pais":"KOS","tipo":"District","lat":42.3,"lng":21.37},"geometry":{"type":"Polygon","coordinates":[[[21.48,42.25],[21.27,42.25],[21.23,42.35],[21.34,42.43],[21.44,42.36],[21.48,42.25]]]}},{"type":"Feature","properties":{"id":"KOS-X07~","nome":"Kačanik","pais":"KOS","tipo":"District","lat":42.2,"lng":21.24},"geometry":{"type":"Polygon","coordinates":[[[21.36,42.22],[21.29,42.09],[21.09,42.23],[21.26,42.32],[21.25,42.28],[21.36,42.22]]]}},{"type":"Feature","properties":{"id":"KOS-X24~","nome":"Štrpce","pais":"KOS","tipo":"District","lat":42.22,"lng":21.01},"geometry":{"type":"Polygon","coordinates":[[[21.1,42.2],[20.98,42.13],[20.85,42.2],[21.05,42.32],[21.12,42.26],[21.1,42.2]]]}},{"type":"Feature","properties":{"id":"KOS-X12~","nome":"Leposavić","pais":"KOS","tipo":"District","lat":43.1,"lng":20.79},"geometry":{"type":"Polygon","coordinates":[[[20.79,43.26],[20.86,43.22],[20.84,43.17],[20.99,43.1],[21,43.05],[20.81,42.97],[20.64,43.05],[20.67,43.11],[20.6,43.18],[20.79,43.26]]]}},{"type":"Feature","properties":{"id":"KOS-X19~","nome":"Podujevo","pais":"KOS","tipo":"District","lat":42.87,"lng":21.18},"geometry":{"type":"Polygon","coordinates":[[[20.99,43.1],[21.11,43.08],[21.26,42.89],[21.41,42.85],[21.39,42.75],[21.3,42.8],[21.11,42.76],[20.99,43.1]]]}},{"type":"Feature","properties":{"id":"KOS-X29~","nome":"Zubin Potok","pais":"KOS","tipo":"District","lat":42.92,"lng":20.66},"geometry":{"type":"Polygon","coordinates":[[[20.58,43.01],[20.71,42.99],[20.79,42.9],[20.72,42.85],[20.74,42.79],[20.45,42.92],[20.58,43.01]]]}},{"type":"Feature","properties":{"id":"KOS-X30~","nome":"Zvečan","pais":"KOS","tipo":"District","lat":42.95,"lng":20.77},"geometry":{"type":"Polygon","coordinates":[[[20.62,43.02],[20.78,43.01],[20.87,42.94],[20.86,42.89],[20.62,43.02]]]}},{"type":"Feature","properties":{"id":"KOS-X06~","nome":"Istok","pais":"KOS","tipo":"District","lat":42.77,"lng":20.49},"geometry":{"type":"Polygon","coordinates":[[[20.35,42.83],[20.59,42.87],[20.65,42.79],[20.62,42.7],[20.37,42.69],[20.35,42.83]]]}},{"type":"Feature","properties":{"id":"KOS-X20~","nome":"Priština","pais":"KOS","tipo":"District","lat":42.69,"lng":21.25},"geometry":{"type":"Polygon","coordinates":[[[21.39,42.75],[21.48,42.73],[21.4,42.69],[21.42,42.62],[21.08,42.57],[21.09,42.74],[21.15,42.79],[21.19,42.76],[21.3,42.8],[21.39,42.75]]]}},{"type":"Feature","properties":{"id":"KOS-X10~","nome":"Kosovska Kamenica","pais":"KOS","tipo":"District","lat":42.6,"lng":21.59},"geometry":{"type":"Polygon","coordinates":[[[21.48,42.73],[21.76,42.67],[21.62,42.45],[21.52,42.47],[21.42,42.62],[21.4,42.69],[21.48,42.73]]]}},{"type":"Feature","properties":{"id":"KOS-X18~","nome":"Peć","pais":"KOS","tipo":"District","lat":42.66,"lng":20.31},"geometry":{"type":"Polygon","coordinates":[[[20.18,42.74],[20.32,42.82],[20.33,42.72],[20.46,42.67],[20.5,42.52],[20.2,42.6],[20.02,42.72],[20.08,42.77],[20.18,42.74]]]}},{"type":"Feature","properties":{"id":"KOS-X17~","nome":"Orahovac","pais":"KOS","tipo":"District","lat":42.39,"lng":20.61},"geometry":{"type":"Polygon","coordinates":[[[20.58,42.3],[20.51,42.38],[20.54,42.5],[20.65,42.48],[20.72,42.38],[20.69,42.3],[20.58,42.3]]]}},{"type":"Feature","properties":{"id":"KOS-X22~","nome":"Srbica","pais":"KOS","tipo":"District","lat":42.72,"lng":20.74},"geometry":{"type":"Polygon","coordinates":[[[20.62,42.7],[20.66,42.85],[20.83,42.81],[20.85,42.74],[20.93,42.71],[20.82,42.7],[20.76,42.61],[20.62,42.7]]]}},{"type":"Feature","properties":{"id":"KOS-X08~","nome":"Klina","pais":"KOS","tipo":"District","lat":42.6,"lng":20.59},"geometry":{"type":"Polygon","coordinates":[[[20.62,42.7],[20.76,42.61],[20.54,42.5],[20.46,42.67],[20.62,42.7]]]}},{"type":"Feature","properties":{"id":"KOS-X11~","nome":"Kosovska Mitrovica","pais":"KOS","tipo":"District","lat":42.94,"lng":20.92},"geometry":{"type":"Polygon","coordinates":[[[21,43.05],[21.06,42.92],[20.96,42.93],[20.91,42.83],[20.83,42.81],[20.72,42.85],[20.86,42.89],[20.81,42.97],[21,43.05]]]}},{"type":"Feature","properties":{"id":"KOS-X04~","nome":"Glogovac","pais":"KOS","tipo":"District","lat":42.6,"lng":20.88},"geometry":{"type":"Polygon","coordinates":[[[20.79,42.52],[20.76,42.61],[20.82,42.7],[20.97,42.68],[20.94,42.53],[20.79,42.52]]]}},{"type":"Feature","properties":{"id":"KOS-X14~","nome":"Mališevo","pais":"KOS","tipo":"District","lat":42.48,"lng":20.74},"geometry":{"type":"Polygon","coordinates":[[[20.76,42.61],[20.87,42.42],[20.72,42.38],[20.65,42.48],[20.54,42.5],[20.76,42.61]]]}},{"type":"Feature","properties":{"id":"KOS-X25~","nome":"Suva Reka","pais":"KOS","tipo":"District","lat":42.34,"lng":20.85},"geometry":{"type":"Polygon","coordinates":[[[20.71,42.33],[20.88,42.47],[20.95,42.41],[20.96,42.27],[20.86,42.23],[20.71,42.33]]]}},{"type":"Feature","properties":{"id":"KOS-X26~","nome":"Uroševac","pais":"KOS","tipo":"District","lat":42.35,"lng":21.14},"geometry":{"type":"Polygon","coordinates":[[[21.11,42.28],[20.97,42.29],[20.95,42.36],[21.05,42.37],[21.1,42.45],[21.25,42.45],[21.29,42.35],[21.11,42.28]]]}},{"type":"Feature","properties":{"id":"KOS-X15~","nome":"Novo Brdo","pais":"KOS","tipo":"District","lat":42.58,"lng":21.38},"geometry":{"type":"Polygon","coordinates":[[[21.44,42.56],[21.29,42.56],[21.42,42.62],[21.48,42.58],[21.44,42.56]]]}},{"type":"Feature","properties":{"id":"KOS-X16~","nome":"Obilić","pais":"KOS","tipo":"District","lat":42.68,"lng":21.06},"geometry":{"type":"Polygon","coordinates":[[[21.1,42.79],[21.1,42.65],[20.95,42.64],[21.1,42.79]]]}},{"type":"Feature","properties":{"id":"KOS-X09~","nome":"Kosovo Polje","pais":"KOS","tipo":"District","lat":42.6,"lng":21.04},"geometry":{"type":"Polygon","coordinates":[[[21.02,42.64],[21.1,42.65],[21.11,42.61],[21.05,42.57],[20.94,42.59],[21.02,42.64]]]}},{"type":"Feature","properties":{"id":"KOS-X13~","nome":"Lipljan","pais":"KOS","tipo":"District","lat":42.5,"lng":21.11},"geometry":{"type":"Polygon","coordinates":[[[20.86,42.5],[20.98,42.57],[21.33,42.58],[21.25,42.45],[20.89,42.45],[20.86,42.5]]]}},{"type":"Feature","properties":{"id":"KOS-X23~","nome":"Štimlje","pais":"KOS","tipo":"District","lat":42.41,"lng":21},"geometry":{"type":"Polygon","coordinates":[[[21.1,42.45],[21.05,42.37],[20.95,42.36],[20.89,42.45],[21.1,42.45]]]}},{"type":"Feature","properties":{"id":"KOS-X28~","nome":"Vučitrn","pais":"KOS","tipo":"District","lat":42.79,"lng":20.98},"geometry":{"type":"Polygon","coordinates":[[[20.97,42.93],[21.06,42.92],[21.1,42.79],[20.97,42.68],[20.85,42.74],[20.83,42.81],[20.91,42.83],[20.97,42.93]]]}}]}