{"type":"FeatureCollection","features":[{"type":"Feature","properties":{"id":"KWT-JA","nome":"Al Jahrah","pais":"KWT","tipo":"Province","lat":29.78,"lng":48.2},"geometry":{"type":"MultiPolygon","coordinates":[[[[47.67,30.1],[47.95,29.99],[48,29.83],[48.18,29.56],[47.97,29.58],[47.72,29.39],[47.85,29.38],[47.82,29.34],[47.86,29.31],[47.78,29.2],[47.77,29.06],[47.45,28.98],[46.53,29.1],[46.85,29.44],[47.14,30],[47.36,30.09],[47.67,30.1]]],[[[48.35,29.71],[48.23,29.6],[48.16,29.63],[48.05,29.8],[48.11,29.84],[48.1,29.89],[48.2,29.93],[48.12,29.98],[48.19,29.98],[48.35,29.71]]]]}},{"type":"Feature","properties":{"id":"KWT-AH","nome":"Al Ahmadi","pais":"KWT","tipo":"Province","lat":28.87,"lng":47.94},"geometry":{"type":"Polygon","coordinates":[[[47.67,28.53],[47.45,28.98],[47.77,29.06],[47.84,29.27],[47.88,29.19],[48.11,29.21],[48.18,28.98],[48.28,28.89],[48.33,28.76],[48.39,28.74],[48.35,28.64],[48.39,28.65],[48.43,28.54],[47.67,28.53]]]}},{"type":"Feature","properties":{"id":"KWT-MU","nome":"Mubarak Al-Kabeer","pais":"KWT","tipo":"Province","lat":29.25,"lng":48.05},"geometry":{"type":"Polygon","coordinates":[[[48.09,29.31],[48.11,29.21],[48.03,29.21],[48.01,29.3],[48.09,29.31]]]}},{"type":"Feature","properties":{"id":"KWT-HA","nome":"Hawalli","pais":"KWT","tipo":"Province","lat":29.32,"lng":48.03},"geometry":{"type":"Polygon","coordinates":[[[48.01,29.37],[48.1,29.35],[48.09,29.31],[48.01,29.3],[48.01,29.37]]]}},{"type":"Feature","properties":{"id":"KWT-FA","nome":"Al Farwaniyah","pais":"KWT","tipo":"Province","lat":29.26,"lng":47.94},"geometry":{"type":"Polygon","coordinates":[[[47.86,29.31],[47.99,29.33],[48.03,29.21],[47.88,29.19],[47.86,29.31]]]}}]}