{"type":"FeatureCollection","features":[{"type":"Feature","properties":{"id":"LAO-PH","nome":"Phôngsali","pais":"LAO","tipo":"Province","lat":21.62,"lng":102.25},"geometry":{"type":"Polygon","coordinates":[[[101.75,22.5],[101.84,22.38],[101.91,22.44],[102.1,22.42],[102.21,22.25],[102.48,22.02],[102.48,21.96],[102.59,21.9],[102.65,21.66],[102.75,21.68],[102.81,21.84],[102.85,21.7],[102.96,21.72],[102.97,21.58],[102.85,21.43],[102.92,21.45],[102.88,21.31],[102.8,21.25],[102.88,21.24],[102.93,21.14],[102.81,21.14],[102.79,21.03],[102.51,20.87],[102.15,21.02],[101.72,21.3],[101.74,21.57],[101.8,21.63],[101.52,22.25],[101.6,22.28],[101.65,22.45],[101.75,22.5]]]}},{"type":"Feature","properties":{"id":"LAO-OU","nome":"Oudômxai","pais":"LAO","tipo":"Province","lat":20.16,"lng":101.55},"geometry":{"type":"Polygon","coordinates":[[[101.8,21.2],[102.25,21.01],[102.34,20.9],[102.34,20.67],[102.24,20.63],[102.14,20.41],[102.2,20.15],[101.56,19.82],[101.26,19.82],[101.13,19.89],[101.01,19.83],[100.76,19.87],[100.74,19.96],[100.94,20],[101.04,20.11],[101.18,20.07],[101.23,20.11],[101.23,20.32],[101.46,20.36],[101.54,20.48],[101.56,20.63],[101.41,20.73],[101.73,21],[101.8,21.2]]]}},{"type":"Feature","properties":{"id":"LAO-LM","nome":"Louang Namtha","pais":"LAO","tipo":"Province","lat":20.91,"lng":101.15},"geometry":{"type":"Polygon","coordinates":[[[101.16,21.55],[101.26,21.18],[101.52,21.24],[101.58,21.22],[101.58,21.18],[101.78,21.14],[101.73,21],[101.62,20.94],[101.62,20.87],[101.53,20.85],[101.41,20.73],[101.56,20.63],[101.54,20.48],[101.46,20.36],[101.13,20.3],[101.01,20.35],[100.94,20.5],[100.83,20.5],[100.79,20.66],[100.61,20.84],[100.65,20.88],[100.52,20.89],[100.54,21.03],[100.64,21.07],[100.73,21.31],[100.85,21.31],[101.16,21.55]]]}},{"type":"Feature","properties":{"id":"LAO-BK","nome":"Bokeo","pais":"LAO","tipo":"Province","lat":20.3,"lng":100.67},"geometry":{"type":"Polygon","coordinates":[[[100.51,20.81],[100.61,20.84],[100.72,20.76],[100.83,20.5],[100.97,20.48],[101.04,20.32],[101.23,20.31],[101.24,20.14],[101.18,20.07],[101.04,20.11],[100.94,20],[100.74,19.96],[100.75,19.86],[100.48,19.78],[100.41,19.79],[100.48,19.88],[100.55,20.17],[100.46,20.19],[100.34,20.39],[100.24,20.37],[100.15,20.24],[100.1,20.35],[100.22,20.71],[100.36,20.83],[100.51,20.81]]]}},{"type":"Feature","properties":{"id":"LAO-XA","nome":"Xaignabouri","pais":"LAO","tipo":"Province","lat":17.75,"lng":101.14},"geometry":{"type":"Polygon","coordinates":[[[100.39,19.72],[100.41,19.79],[100.67,19.81],[100.79,19.89],[101.01,19.83],[101.12,19.89],[101.26,19.82],[101.56,19.82],[101.71,19.93],[101.77,19.85],[101.75,19.68],[101.82,19.65],[101.82,19.47],[101.91,19.4],[101.82,19.28],[101.8,18.89],[101.85,18.76],[101.74,18.5],[101.4,18.18],[101.42,17.93],[101.55,17.88],[101.56,17.79],[101.47,17.72],[101.39,17.73],[101.13,17.46],[100.89,17.6],[101,17.88],[101.17,18.05],[101.16,18.32],[101.03,18.43],[101.23,18.66],[101.22,18.87],[101.33,19.02],[101.24,19.13],[101.17,19.38],[101.25,19.56],[100.88,19.61],[100.75,19.48],[100.63,19.54],[100.55,19.49],[100.46,19.54],[100.39,19.72]]]}},{"type":"Feature","properties":{"id":"LAO-BL","nome":"Bolikhamxai","pais":"LAO","tipo":"Province","lat":18.54,"lng":104.04},"geometry":{"type":"Polygon","coordinates":[[[103.47,18.42],[103.28,18.42],[103.23,18.35],[103.3,18.29],[103.01,18.12],[103,18.25],[102.9,18.29],[102.82,18.51],[103.29,18.53],[103.44,18.59],[103.5,18.67],[103.48,18.93],[103.54,18.95],[103.78,18.83],[103.89,18.88],[104.12,18.83],[104.25,18.98],[104.26,19.1],[104.71,18.8],[105.11,18.7],[105.17,18.61],[105.08,18.45],[105.26,18.25],[105.13,17.99],[105.04,17.94],[104.83,18],[104.55,18.23],[104.43,18.18],[104.28,17.86],[104,18.32],[103.87,18.28],[103.47,18.42]]]}},{"type":"Feature","properties":{"id":"LAO-KH","nome":"Khammouan","pais":"LAO","tipo":"Province","lat":17.62,"lng":105.34},"geometry":{"type":"Polygon","coordinates":[[[104.75,16.94],[104.81,17.19],[104.79,17.42],[104.48,17.64],[104.28,17.86],[104.43,18.18],[104.55,18.23],[104.83,18],[105.04,17.94],[105.13,17.99],[105.26,18.25],[105.37,18.15],[105.45,18.19],[105.72,17.67],[106.19,17.26],[106.28,17.28],[106.4,17.01],[106.13,17.11],[105.99,17.04],[105.69,17.12],[105.63,17.04],[105.48,17.1],[105.23,17.06],[105.16,17.11],[104.84,17.08],[104.79,16.99],[104.83,16.91],[104.75,16.94]]]}},{"type":"Feature","properties":{"id":"LAO-SV","nome":"Savannakhét","pais":"LAO","tipo":"Province","lat":16.49,"lng":105.77},"geometry":{"type":"Polygon","coordinates":[[[104.76,16.82],[104.75,16.94],[104.83,16.91],[104.8,17.01],[104.86,17.09],[105.16,17.11],[105.31,17.05],[105.48,17.1],[105.63,17.04],[105.69,17.12],[105.99,17.04],[106.15,17.1],[106.25,17.03],[106.52,16.99],[106.55,16.64],[106.64,16.59],[106.67,16.44],[106.78,16.42],[106.79,16.37],[106.66,16.32],[106.58,16.17],[106.31,16.14],[106.3,16.1],[106.16,16.18],[106.12,15.97],[105.79,15.89],[105.06,16.12],[105.02,16.28],[104.75,16.53],[104.76,16.82]]]}},{"type":"Feature","properties":{"id":"LAO-SL","nome":"Saravan","pais":"LAO","tipo":"Province","lat":15.76,"lng":106.25},"geometry":{"type":"Polygon","coordinates":[[[105.46,15.76],[105.36,15.92],[105.42,16.01],[105.89,15.88],[106.14,15.99],[106.12,16.14],[106.16,16.18],[106.3,16.1],[106.31,16.14],[106.63,16.19],[106.66,16.32],[106.78,16.34],[106.75,16.44],[106.82,16.53],[106.96,16.31],[107.12,16.25],[107.14,16.18],[107.07,16.08],[106.8,16.02],[106.65,15.78],[106.7,15.72],[106.68,15.55],[106.33,15.5],[106.32,15.42],[106.37,15.4],[106.16,15.29],[106.08,15.36],[106.07,15.46],[105.59,15.43],[105.64,15.68],[105.46,15.76]]]}},{"type":"Feature","properties":{"id":"LAO-VI","nome":"Vientiane [prefecture]","pais":"LAO","tipo":"Municipality|Prefecture","lat":18.1,"lng":102.56},"geometry":{"type":"Polygon","coordinates":[[[102.11,18.21],[102.04,18.22],[102.05,18.42],[102.21,18.43],[102.29,18.34],[102.49,18.3],[102.54,18.24],[102.85,18.31],[102.95,18.28],[103,18.13],[103.09,18.14],[103.04,17.99],[102.85,17.97],[102.67,17.87],[102.68,17.81],[102.6,17.84],[102.6,17.96],[102.41,17.99],[102.11,18.21]]]}},{"type":"Feature","properties":{"id":"LAO-VI2","nome":"Vientiane","pais":"LAO","tipo":"Province","lat":18.92,"lng":102.16},"geometry":{"type":"Polygon","coordinates":[[[102.06,18.19],[101.9,18.04],[101.79,18.07],[101.73,17.91],[101.58,17.87],[101.56,17.82],[101.55,17.88],[101.42,17.93],[101.42,18.21],[101.81,18.62],[101.86,18.79],[101.8,18.89],[101.81,19.05],[101.96,19.15],[102.13,19.4],[102.46,19.37],[102.58,19.22],[102.75,19.31],[103.09,19.15],[103.51,19.15],[103.89,19.01],[103.89,18.88],[103.78,18.83],[103.57,18.95],[103.48,18.93],[103.5,18.67],[103.37,18.55],[102.82,18.51],[102.9,18.29],[102.54,18.24],[102.18,18.43],[102.05,18.42],[102.06,18.19]]]}},{"type":"Feature","properties":{"id":"LAO-CH","nome":"Champasak","pais":"LAO","tipo":"Province","lat":14.11,"lng":106},"geometry":{"type":"Polygon","coordinates":[[[105.52,15.32],[105.49,15.37],[105.63,15.45],[106.07,15.46],[106.13,15.3],[106.37,15.4],[106.56,15.3],[106.67,15.22],[106.67,15.14],[106.81,15.07],[106.82,14.89],[106.69,14.79],[106.51,14.8],[106.5,14.96],[106.37,15.01],[106.17,14.83],[106.35,14.48],[106.31,14.45],[106.23,14.49],[106.17,14.37],[105.97,14.37],[106.01,14.23],[106.15,14.05],[106.07,13.92],[105.9,13.92],[105.74,14.09],[105.53,14.16],[105.34,14.11],[105.19,14.29],[105.18,14.35],[105.42,14.43],[105.51,14.56],[105.49,14.79],[105.59,14.99],[105.44,15.11],[105.56,15.27],[105.52,15.32]]]}},{"type":"Feature","properties":{"id":"LAO-LP","nome":"Louangphrabang","pais":"LAO","tipo":"Province","lat":20.08,"lng":102.55},"geometry":{"type":"Polygon","coordinates":[[[102.93,21.14],[103.13,20.85],[103.39,20.79],[103.21,20.67],[103.18,20.48],[103.25,20.41],[103.24,20.31],[103.11,20.18],[103.17,20.1],[103.14,19.92],[102.95,19.82],[102.94,19.72],[102.87,19.72],[102.67,19.53],[102.75,19.31],[102.7,19.27],[102.58,19.22],[102.46,19.37],[102.13,19.4],[101.96,19.15],[101.81,19.05],[101.82,19.28],[101.91,19.4],[101.82,19.47],[101.82,19.65],[101.75,19.68],[101.77,19.85],[101.71,19.93],[101.87,19.96],[102.2,20.15],[102.14,20.41],[102.24,20.63],[102.35,20.72],[102.31,20.96],[102.51,20.87],[102.79,21.03],[102.81,21.14],[102.93,21.14]]]}},{"type":"Feature","properties":{"id":"LAO-HO","nome":"Houaphan","pais":"LAO","tipo":"Province","lat":20.37,"lng":104.04},"geometry":{"type":"Polygon","coordinates":[[[104.09,20.96],[104.28,20.89],[104.62,20.65],[104.54,20.54],[104.44,20.53],[104.36,20.44],[104.59,20.41],[104.68,20.33],[104.66,20.21],[104.82,20.22],[104.96,20.08],[104.95,20],[104.76,19.89],[104.81,19.79],[104.68,19.72],[104.61,19.61],[104.2,19.7],[104.2,19.9],[104.17,19.85],[104.08,19.86],[103.94,19.79],[103.87,19.85],[103.89,19.95],[103.8,20.03],[103.7,19.99],[103.69,19.93],[103.47,19.87],[103.14,19.92],[103.17,20.1],[103.11,20.18],[103.24,20.31],[103.25,20.41],[103.18,20.48],[103.23,20.71],[103.43,20.82],[103.69,20.66],[103.79,20.85],[104.09,20.96]]]}},{"type":"Feature","properties":{"id":"LAO-XI","nome":"Xiangkhoang","pais":"LAO","tipo":"Province","lat":19.51,"lng":103.46},"geometry":{"type":"Polygon","coordinates":[[[104.2,19.7],[104.09,19.65],[104,19.68],[104.09,19.48],[103.85,19.3],[104.26,19.1],[104.25,18.98],[104.09,18.81],[103.89,18.88],[103.86,19.03],[103.58,19.09],[103.51,19.15],[103.26,19.12],[102.91,19.2],[102.76,19.29],[102.66,19.47],[103.03,19.86],[103.23,19.93],[103.47,19.87],[103.69,19.93],[103.74,20.02],[103.85,20],[103.87,19.85],[103.95,19.78],[104.2,19.9],[104.2,19.7]]]}},{"type":"Feature","properties":{"id":"LAO-XE","nome":"Xékong","pais":"LAO","tipo":"Province","lat":15.64,"lng":106.98},"geometry":{"type":"Polygon","coordinates":[[[107.14,16.18],[107.3,16.06],[107.44,16.07],[107.38,15.92],[107.19,15.86],[107.15,15.77],[107.37,15.5],[107.49,15.48],[107.66,15.28],[107.58,15.05],[107.5,15.04],[107.46,15.18],[107.35,15.17],[107.17,15.28],[106.79,15.25],[106.67,15.14],[106.67,15.22],[106.32,15.42],[106.35,15.51],[106.68,15.55],[106.7,15.72],[106.65,15.78],[106.82,16.05],[106.98,16.04],[107.14,16.18]]]}},{"type":"Feature","properties":{"id":"LAO-AT","nome":"Attapu","pais":"LAO","tipo":"Province","lat":14.78,"lng":106.87},"geometry":{"type":"Polygon","coordinates":[[[107.5,15.04],[107.45,15.03],[107.45,14.97],[107.56,14.89],[107.43,14.55],[107.29,14.6],[107.13,14.43],[107.03,14.44],[106.93,14.32],[106.81,14.31],[106.54,14.51],[106.51,14.59],[106.42,14.47],[106.34,14.45],[106.34,14.53],[106.18,14.75],[106.17,14.83],[106.34,15.01],[106.5,14.96],[106.51,14.8],[106.69,14.79],[106.82,14.89],[106.81,15.07],[106.68,15.13],[106.79,15.25],[107.17,15.28],[107.35,15.17],[107.46,15.18],[107.5,15.04]]]}}]}