{"type":"FeatureCollection","features":[{"type":"Feature","properties":{"id":"LBN-NA","nome":"An Nabatiyah","pais":"LBN","tipo":"Province","lat":33.33,"lng":35.57},"geometry":{"type":"Polygon","coordinates":[[[35.6,33.24],[35.55,33.28],[35.48,33.09],[35.35,33.06],[35.29,33.1],[35.43,33.31],[35.3,33.37],[35.37,33.38],[35.41,33.47],[35.53,33.5],[35.54,33.35],[35.72,33.48],[35.85,33.42],[35.6,33.24]]]}},{"type":"Feature","properties":{"id":"LBN-JA","nome":"South Lebanon","pais":"LBN","tipo":"Province","lat":33.27,"lng":35.3},"geometry":{"type":"Polygon","coordinates":[[[35.29,33.1],[35.1,33.1],[35.2,33.22],[35.27,33.46],[35.38,33.59],[35.6,33.61],[35.63,33.43],[35.59,33.39],[35.54,33.35],[35.52,33.5],[35.3,33.37],[35.43,33.31],[35.29,33.1]]]}},{"type":"Feature","properties":{"id":"LBN-BI","nome":"Beqaa","pais":"LBN","tipo":"Province","lat":34.05,"lng":36.11},"geometry":{"type":"Polygon","coordinates":[[[35.87,33.43],[35.72,33.48],[35.63,33.43],[35.61,33.51],[35.81,33.78],[35.77,33.81],[35.95,33.99],[36.01,34.15],[36.25,34.46],[36.43,34.49],[36.53,34.41],[36.6,34.2],[36.29,33.95],[36.27,33.91],[36.36,33.82],[36.14,33.85],[35.99,33.76],[35.92,33.64],[36.04,33.57],[35.87,33.43]]]}},{"type":"Feature","properties":{"id":"LBN-AS","nome":"North Lebanon","pais":"LBN","tipo":"Province","lat":34.39,"lng":36.04},"geometry":{"type":"Polygon","coordinates":[[[36.31,34.69],[36.44,34.6],[36.25,34.46],[36.04,34.16],[35.64,34.22],[35.81,34.46],[35.98,34.54],[35.97,34.65],[36.26,34.63],[36.31,34.69]]]}},{"type":"Feature","properties":{"id":"LBN-JL","nome":"Mount Lebanon","pais":"LBN","tipo":"Province","lat":33.93,"lng":35.69},"geometry":{"type":"Polygon","coordinates":[[[35.55,33.91],[35.64,34],[35.64,34.22],[36.01,34.15],[35.61,33.51],[35.6,33.61],[35.38,33.59],[35.48,33.87],[35.55,33.91]]]}},{"type":"Feature","properties":{"id":"LBN-BA","nome":"Beirut","pais":"LBN","tipo":"Province","lat":33.88,"lng":35.51},"geometry":{"type":"Polygon","coordinates":[[[35.48,33.87],[35.48,33.91],[35.55,33.91],[35.48,33.87]]]}}]}