{"type":"FeatureCollection","features":[{"type":"Feature","properties":{"id":"LBR-CM","nome":"Grand Cape Mount","pais":"LBR","tipo":"County","lat":7.1,"lng":-11},"geometry":{"type":"Polygon","coordinates":[[[-11.48,6.92],[-11.32,7.21],[-10.94,7.51],[-10.86,7.54],[-10.61,7.49],[-10.53,7.39],[-10.52,7.3],[-10.94,7.01],[-10.97,6.73],[-11.08,6.59],[-11.35,6.7],[-11.38,6.84],[-11.48,6.92]]]}},{"type":"Feature","properties":{"id":"LBR-X1~","nome":"Gbapolu","pais":"LBR","tipo":"County","lat":7.52,"lng":-10.18},"geometry":{"type":"Polygon","coordinates":[[[-10.86,7.54],[-10.62,7.77],[-10.62,8.02],[-10.23,7.9],[-10.2,7.93],[-10.11,7.8],[-9.95,7.84],[-9.7,7.74],[-9.68,7.67],[-9.83,7.33],[-9.83,7.2],[-10.1,7.04],[-10.11,7.12],[-10.2,7.13],[-10.34,6.98],[-10.45,6.96],[-10.47,6.88],[-10.72,6.82],[-10.75,6.97],[-10.95,7],[-10.52,7.3],[-10.52,7.38],[-10.6,7.48],[-10.86,7.54]]]}},{"type":"Feature","properties":{"id":"LBR-LO","nome":"Lofa","pais":"LBR","tipo":"County","lat":8.13,"lng":-9.88},"geometry":{"type":"Polygon","coordinates":[[[-10.62,8.02],[-10.53,8.12],[-10.32,8.18],[-10.28,8.48],[-10.09,8.51],[-10.06,8.42],[-9.81,8.51],[-9.77,8.56],[-9.72,8.44],[-9.7,8.49],[-9.65,8.46],[-9.68,8.39],[-9.6,8.41],[-9.5,8.34],[-9.53,8.19],[-9.48,8.16],[-9.47,8.03],[-9.42,8.03],[-9.45,7.91],[-9.36,7.74],[-9.35,7.62],[-9.51,7.34],[-9.68,7.21],[-9.78,7.2],[-9.83,7.33],[-9.7,7.74],[-9.95,7.84],[-10.11,7.8],[-10.2,7.93],[-10.23,7.9],[-10.62,8.02]]]}},{"type":"Feature","properties":{"id":"LBR-NI","nome":"Nimba","pais":"LBR","tipo":"County","lat":6.86,"lng":-8.74},"geometry":{"type":"Polygon","coordinates":[[[-8.49,7.56],[-8.3,7.14],[-8.32,6.81],[-8.62,6.49],[-8.72,6.26],[-8.85,6.12],[-8.85,6.04],[-8.94,6],[-8.92,5.85],[-9.09,5.83],[-9.07,6.05],[-9.12,6.14],[-9.06,6.27],[-9.14,6.36],[-9.09,6.61],[-9.18,6.63],[-9.11,6.81],[-9.19,6.98],[-9.16,7.06],[-9.11,7.2],[-8.96,7.29],[-8.86,7.27],[-8.69,7.69],[-8.57,7.69],[-8.49,7.56]]]}},{"type":"Feature","properties":{"id":"LBR-GG","nome":"Grand Gedeh","pais":"LBR","tipo":"County","lat":5.87,"lng":-8.16},"geometry":{"type":"Polygon","coordinates":[[[-8.62,6.49],[-8.5,6.43],[-8.47,6.49],[-8.42,6.45],[-8.41,6.34],[-7.91,6.27],[-7.79,5.96],[-7.49,5.81],[-7.45,5.85],[-7.39,5.52],[-8.43,5.47],[-8.48,5.54],[-8.35,5.64],[-8.41,5.75],[-8.51,5.79],[-8.58,5.71],[-8.94,5.92],[-8.62,6.49]]]}},{"type":"Feature","properties":{"id":"LBR-X2~","nome":"River Gee","pais":"LBR","tipo":"County","lat":5.29,"lng":-7.91},"geometry":{"type":"Polygon","coordinates":[[[-7.41,5.51],[-7.45,5.42],[-7.39,5.32],[-7.48,5.26],[-7.49,5.14],[-7.58,5.07],[-7.55,4.91],[-7.61,4.9],[-7.61,4.82],[-7.72,4.88],[-7.84,4.86],[-7.86,5.08],[-8.31,5.17],[-8.44,5.42],[-8.43,5.47],[-7.41,5.51]]]}},{"type":"Feature","properties":{"id":"LBR-MY","nome":"Maryland","pais":"LBR","tipo":"County","lat":4.64,"lng":-7.7},"geometry":{"type":"Polygon","coordinates":[[[-7.61,4.82],[-7.54,4.35],[-7.59,4.35],[-7.81,4.42],[-7.81,4.6],[-7.9,4.75],[-8.1,4.86],[-8.02,5.11],[-7.85,5.07],[-7.83,4.86],[-7.72,4.88],[-7.61,4.82]]]}},{"type":"Feature","properties":{"id":"LBR-BG","nome":"Bong","pais":"LBR","tipo":"County","lat":7,"lng":-9.81},"geometry":{"type":"Polygon","coordinates":[[[-9.49,7.37],[-9.33,7.42],[-9.12,7.24],[-9.19,6.98],[-9.11,6.89],[-9.17,6.63],[-9.33,6.62],[-9.45,6.51],[-9.64,6.44],[-9.58,6.57],[-9.65,6.64],[-9.74,6.65],[-9.72,6.73],[-9.78,6.79],[-9.89,6.63],[-10.46,6.78],[-10.51,6.84],[-10.45,6.96],[-10.34,6.98],[-10.2,7.13],[-10.11,7.12],[-10.08,7.04],[-9.81,7.21],[-9.67,7.21],[-9.49,7.37]]]}},{"type":"Feature","properties":{"id":"LBR-BM","nome":"Bomi","pais":"LBR","tipo":"County","lat":6.75,"lng":-10.78},"geometry":{"type":"Polygon","coordinates":[[[-10.81,6.4],[-11.08,6.6],[-10.98,6.72],[-10.93,7],[-10.75,6.97],[-10.73,6.82],[-10.47,6.88],[-10.57,6.78],[-10.6,6.62],[-10.56,6.57],[-10.61,6.53],[-10.69,6.58],[-10.8,6.52],[-10.81,6.4]]]}},{"type":"Feature","properties":{"id":"LBR-MO","nome":"Montserrado","pais":"LBR","tipo":"County","lat":6.43,"lng":-10.58},"geometry":{"type":"Polygon","coordinates":[[[-10.64,6.22],[-10.81,6.31],[-10.76,6.4],[-10.81,6.4],[-10.81,6.51],[-10.69,6.58],[-10.61,6.53],[-10.56,6.57],[-10.59,6.7],[-10.56,6.82],[-10.51,6.84],[-10.36,6.76],[-10.41,6.62],[-10.38,6.46],[-10.61,6.3],[-10.64,6.22]]]}},{"type":"Feature","properties":{"id":"LBR-MG","nome":"Margibi","pais":"LBR","tipo":"County","lat":6.63,"lng":-10.18},"geometry":{"type":"Polygon","coordinates":[[[-10.37,6.15],[-10.64,6.22],[-10.61,6.3],[-10.38,6.45],[-10.41,6.62],[-10.36,6.76],[-9.89,6.63],[-9.81,6.79],[-9.73,6.76],[-9.75,6.65],[-9.84,6.54],[-10.1,6.49],[-10.18,6.55],[-10.24,6.53],[-10.22,6.49],[-10.37,6.15]]]}},{"type":"Feature","properties":{"id":"LBR-GB","nome":"Grand Bassa","pais":"LBR","tipo":"County","lat":6.12,"lng":-9.73},"geometry":{"type":"Polygon","coordinates":[[[-9.73,5.58],[-10.06,5.91],[-10.36,6.12],[-10.22,6.49],[-10.24,6.53],[-9.96,6.5],[-9.84,6.54],[-9.75,6.65],[-9.67,6.65],[-9.58,6.56],[-9.63,6.44],[-9.33,6.62],[-9.1,6.61],[-9.14,6.36],[-9.45,6.32],[-9.46,6.16],[-9.65,6.03],[-9.67,5.66],[-9.73,5.58]]]}},{"type":"Feature","properties":{"id":"LBR-RI","nome":"River Cess","pais":"LBR","tipo":"County","lat":5.83,"lng":-9.4},"geometry":{"type":"Polygon","coordinates":[[[-9.42,5.27],[-9.73,5.58],[-9.67,5.66],[-9.65,6.03],[-9.46,6.16],[-9.45,6.32],[-9.14,6.36],[-9.06,6.27],[-9.12,6.14],[-9.07,5.88],[-9.15,5.72],[-9.36,5.58],[-9.32,5.42],[-9.42,5.27]]]}},{"type":"Feature","properties":{"id":"LBR-SI","nome":"Sinoe","pais":"LBR","tipo":"County","lat":5.39,"lng":-8.87},"geometry":{"type":"Polygon","coordinates":[[[-8.7,4.82],[-9.1,5.03],[-9.43,5.29],[-9.32,5.42],[-9.36,5.58],[-9.15,5.71],[-9.09,5.83],[-8.9,5.88],[-8.58,5.71],[-8.46,5.79],[-8.36,5.68],[-8.36,5.63],[-8.44,5.61],[-8.48,5.53],[-8.31,5.17],[-8.55,5.02],[-8.7,4.82]]]}},{"type":"Feature","properties":{"id":"LBR-GK","nome":"Grand Kru","pais":"LBR","tipo":"County","lat":4.87,"lng":-8.26},"geometry":{"type":"Polygon","coordinates":[[[-7.84,4.46],[-8.26,4.58],[-8.7,4.82],[-8.55,5.02],[-8.32,5.17],[-8.02,5.11],[-8.1,4.86],[-7.9,4.75],[-7.81,4.6],[-7.84,4.46]]]}}]}