{"type":"FeatureCollection","features":[{"type":"Feature","properties":{"id":"LBY-GD","nome":"Ghadamis","pais":"LBY","tipo":"Municipality|Governarate","lat":30.33,"lng":10.62},"geometry":{"type":"Polygon","coordinates":[[[10.68,31.96],[10.87,32.14],[11.53,32.42],[11.64,32.32],[11.86,32.31],[11.84,31.34],[11.96,31.08],[11.59,30.54],[11.73,29.09],[11.9,28.86],[11.95,28.6],[11.9,28.53],[11.72,28.61],[11.32,28.54],[11.02,28.64],[10.91,28.84],[10.44,28.62],[10.14,28.72],[9.83,28.62],[9.83,29.13],[9.67,29.61],[9.29,30.12],[9.87,30.36],[10.19,30.73],[10.27,30.92],[10.12,31.49],[10.26,31.68],[10.48,31.73],[10.58,31.84],[10.61,31.95],[10.68,31.96]]]}},{"type":"Feature","properties":{"id":"LBY-NQ","nome":"An Nuqat al Khams","pais":"LBY","tipo":"Municipality|Governarate","lat":32.67,"lng":12.01},"geometry":{"type":"Polygon","coordinates":[[[11.53,32.42],[11.56,32.51],[11.45,32.64],[11.51,33.18],[11.85,33.08],[12.3,32.84],[12.57,32.81],[12.46,32.6],[12.1,32.35],[11.7,32.31],[11.53,32.42]]]}},{"type":"Feature","properties":{"id":"LBY-KF","nome":"Al Kufrah","pais":"LBY","tipo":"Municipality|Governarate","lat":23.72,"lng":22.07},"geometry":{"type":"Polygon","coordinates":[[[23.98,19.5],[19.19,21.86],[19.17,27.01],[24.98,27.05],[24.98,20],[23.98,20],[23.98,19.5]]]}},{"type":"Feature","properties":{"id":"LBY-MQ","nome":"Murzuq","pais":"LBY","tipo":"Municipality|Governarate","lat":25,"lng":15.26},"geometry":{"type":"Polygon","coordinates":[[[19.19,21.86],[15.99,23.44],[14.22,22.62],[13.48,23.18],[11.97,23.52],[11.57,24.27],[11.47,24.33],[11.46,24.59],[11.33,24.8],[11.33,25.39],[11.4,25.55],[11.59,25.65],[11.86,25.55],[12.16,25.58],[12.36,25.73],[12.62,25.72],[12.97,25.86],[13.21,25.88],[13.48,26.12],[14.42,26.38],[14.83,26.76],[16.28,27.08],[16.28,26.85],[16.52,26.7],[16.62,26.43],[16.94,26.16],[17.41,26.05],[17.78,26.16],[17.95,26.29],[18.2,26.38],[18.51,26.15],[19.17,26],[19.19,21.86]]]}},{"type":"Feature","properties":{"id":"LBY-BU","nome":"Al Butnan","pais":"LBY","tipo":"Municipality|Governarate","lat":30.07,"lng":24.06},"geometry":{"type":"Polygon","coordinates":[[[25.15,31.66],[24.85,31.35],[24.88,31.04],[24.99,30.79],[24.91,30.5],[24.69,30.18],[24.97,29.24],[24.98,28.1],[23.06,28.14],[23.06,30.77],[22.97,30.8],[22.96,31.23],[23.25,32.22],[23.31,32.16],[23.3,32.22],[23.84,32.15],[24.09,32.01],[24.73,32.03],[24.98,31.97],[25.15,31.66]]]}},{"type":"Feature","properties":{"id":"LBY-AJ","nome":"Ajdabiya","pais":"LBY","tipo":"Municipality|Governarate","lat":29.04,"lng":21.74},"geometry":{"type":"Polygon","coordinates":[[[24.98,28.1],[24.98,27.05],[19.17,27.01],[19.17,28.35],[18.5,28.5],[18.51,29.16],[18.73,29.67],[18.78,30.38],[18.97,30.28],[19.15,30.26],[19.62,30.42],[20.04,30.82],[20.15,31.05],[20.13,31.26],[20.3,31.23],[20.42,31.09],[20.59,31.01],[21.66,31.04],[22.26,31.15],[22.62,30.83],[23.06,30.77],[23.06,28.14],[24.98,28.1]]]}},{"type":"Feature","properties":{"id":"LBY-WS","nome":"Ash Shati'","pais":"LBY","tipo":"Municipality|Governarate","lat":27.87,"lng":12.84},"geometry":{"type":"Polygon","coordinates":[[[9.93,27.82],[9.78,28.27],[9.83,28.62],[10.14,28.72],[10.44,28.62],[10.91,28.84],[11.02,28.64],[11.32,28.54],[11.72,28.61],[11.9,28.53],[11.98,28.65],[12.49,28.54],[12.5,28.47],[12.69,28.43],[12.79,28.56],[13.21,28.84],[13.66,29.42],[13.91,29.57],[14.18,29.47],[14.42,29.26],[14.42,28.88],[14.53,28.72],[14.96,28.41],[15.02,28.14],[15.59,28.21],[15.79,28.16],[15.89,28],[15.8,27.72],[15.56,27.74],[14.92,27.57],[14.85,27.46],[14.42,27.17],[13.98,27.13],[13.19,27.29],[13.01,27.25],[11.37,26.22],[11.11,27.44],[10.27,27.67],[9.93,27.82]]]}},{"type":"Feature","properties":{"id":"LBY-GT","nome":"Ghat","pais":"LBY","tipo":"Municipality|Governarate","lat":25.92,"lng":10.43},"geometry":{"type":"Polygon","coordinates":[[[10.41,24.47],[10.24,24.6],[10.19,24.75],[10.04,24.83],[10.01,25.33],[9.38,26.17],[9.48,26.35],[9.85,26.52],[9.91,26.84],[9.83,26.92],[9.72,27.31],[9.93,27.82],[10.27,27.67],[11.11,27.44],[11.36,26.36],[11.3,25.75],[11.4,25.55],[11.33,25.39],[11.33,24.8],[11.46,24.59],[11.47,24.33],[10.7,24.56],[10.41,24.47]]]}},{"type":"Feature","properties":{"id":"LBY-SR","nome":"Surt","pais":"LBY","tipo":"Municipality|Governarate","lat":30.2,"lng":17.45},"geometry":{"type":"Polygon","coordinates":[[[16.14,31.26],[16.73,31.22],[17.37,31.09],[18.18,30.79],[18.78,30.38],[18.73,29.67],[18.51,29.16],[18.5,28.48],[18.23,28.56],[17.98,28.73],[17.9,28.98],[17.58,29.39],[17.33,29.28],[17.09,29.35],[16.98,29.43],[16.42,29.41],[16.53,29.63],[16.12,31.05],[16.14,31.26]]]}},{"type":"Feature","properties":{"id":"LBY-MI","nome":"Misratah","pais":"LBY","tipo":"Municipality|Governarate","lat":32.22,"lng":15.02},"geometry":{"type":"Polygon","coordinates":[[[14.76,32.45],[15.11,32.41],[15.27,32.33],[15.37,32.16],[15.37,31.93],[15.51,31.63],[15.76,31.39],[16.14,31.26],[16.12,31.05],[16.53,29.63],[16.42,29.41],[16.14,29.5],[15.88,29.38],[15.74,29.39],[15.57,29.59],[15.05,29.7],[14.85,29.86],[14.98,30.02],[14.95,30.41],[14.21,30.72],[13.93,31.24],[13.63,31.51],[13.4,32.05],[13.99,32.07],[14.12,32.14],[14.37,31.98],[14.67,31.97],[14.75,32.18],[14.76,32.45]]]}},{"type":"Feature","properties":{"id":"LBY-MB","nome":"Al Marqab","pais":"LBY","tipo":"Municipality|Governarate","lat":32.54,"lng":14.14},"geometry":{"type":"Polygon","coordinates":[[[13.95,32.76],[14.19,32.71],[14.45,32.53],[14.76,32.45],[14.75,32.18],[14.67,31.97],[14.37,31.98],[14.12,32.14],[13.99,32.07],[13.4,32.05],[13.36,32.2],[13.24,32.33],[13.38,32.38],[13.45,32.53],[13.81,32.62],[13.95,32.76]]]}},{"type":"Feature","properties":{"id":"LBY-TN","nome":"Tajura' wa an Nawahi al Arba","pais":"LBY","tipo":"Municipality|Governarate","lat":32.69,"lng":13.52},"geometry":{"type":"Polygon","coordinates":[[[13.1,32.88],[13.26,32.92],[13.57,32.8],[13.95,32.76],[13.81,32.62],[13.45,32.53],[13.38,32.38],[13.24,32.33],[13.16,32.65],[13.08,32.72],[13.1,32.88]]]}},{"type":"Feature","properties":{"id":"LBY-ZA","nome":"Az Zawiyah","pais":"LBY","tipo":"Municipality|Governarate","lat":32.46,"lng":12.49},"geometry":{"type":"Polygon","coordinates":[[[12.57,32.81],[12.82,32.8],[13.1,32.88],[13.07,32.72],[12.97,32.67],[12.82,32.41],[12.82,32.26],[12.65,32.23],[12.4,32.3],[11.86,32.31],[12.1,32.35],[12.29,32.47],[12.46,32.6],[12.57,32.81]]]}},{"type":"Feature","properties":{"id":"LBY-QB","nome":"Al Qubbah","pais":"LBY","tipo":"Municipality|Governarate","lat":31.82,"lng":22.58},"geometry":{"type":"Polygon","coordinates":[[[21.99,32.91],[22.15,32.95],[22.21,32.89],[23.12,32.63],[23.1,32.52],[23.15,32.48],[23.08,32.33],[23.25,32.22],[23.12,31.85],[23.07,31.51],[22.99,31.4],[22.97,30.8],[22.62,30.83],[22.26,31.15],[22.11,31.12],[21.92,31.28],[22,31.79],[21.96,32.32],[22.03,32.55],[21.97,32.76],[21.99,32.91]]]}},{"type":"Feature","properties":{"id":"LBY-JA","nome":"Al Jabal al Akhdar","pais":"LBY","tipo":"Municipality|Governarate","lat":32.01,"lng":21.72},"geometry":{"type":"Polygon","coordinates":[[[21.36,32.78],[21.62,32.94],[21.99,32.91],[21.97,32.76],[22.03,32.55],[21.96,32.32],[22,31.79],[21.92,31.28],[22.11,31.12],[21.72,31.07],[21.71,31.28],[21.61,31.47],[21.66,31.91],[21.36,32.33],[21.33,32.51],[21.46,32.63],[21.36,32.78]]]}},{"type":"Feature","properties":{"id":"LBY-MJ","nome":"Al Marj","pais":"LBY","tipo":"Municipality|Governarate","lat":32.17,"lng":21.01},"geometry":{"type":"Polygon","coordinates":[[[20.58,32.56],[21.1,32.78],[21.39,32.78],[21.46,32.7],[21.46,32.63],[21.33,32.51],[21.33,32.43],[21.46,32.13],[21.63,32],[21.66,31.91],[21.61,31.47],[21.71,31.28],[21.72,31.07],[21.32,31.04],[21.22,31.54],[21.15,31.6],[20.68,31.56],[20.51,31.63],[20.31,32.11],[20.56,32.44],[20.58,32.56]]]}},{"type":"Feature","properties":{"id":"LBY-BA","nome":"Benghazi","pais":"LBY","tipo":"Municipality|Governarate","lat":31.29,"lng":20.62},"geometry":{"type":"Polygon","coordinates":[[[20.14,31.22],[19.95,31.56],[19.94,31.96],[20.07,32.18],[20.58,32.56],[20.56,32.44],[20.31,32.11],[20.35,31.93],[20.55,31.58],[21.15,31.6],[21.22,31.54],[21.32,31.04],[20.59,31.01],[20.42,31.09],[20.3,31.23],[20.13,31.26],[20.14,31.22]]]}},{"type":"Feature","properties":{"id":"LBY-JI","nome":"Al Jifarah","pais":"LBY","tipo":"Municipality|Governarate","lat":32.49,"lng":13.04},"geometry":{"type":"Polygon","coordinates":[[[13.25,32.32],[12.82,32.26],[12.82,32.41],[12.97,32.67],[13.08,32.72],[13.16,32.65],[13.19,32.39],[13.25,32.32]]]}},{"type":"Feature","properties":{"id":"LBY-MZ","nome":"Mizdah","pais":"LBY","tipo":"Municipality|Governarate","lat":30.61,"lng":13.29},"geometry":{"type":"Polygon","coordinates":[[[12.82,32.26],[13.25,32.32],[13.3,32.27],[13.63,31.51],[13.93,31.24],[14.21,30.72],[14.95,30.41],[14.98,30.02],[14.74,29.68],[14.76,29.46],[14.71,29.36],[14.42,29.21],[14.37,29.32],[14.18,29.47],[13.99,29.55],[13.82,29.55],[13.6,29.36],[13.1,28.74],[12.85,28.61],[12.69,28.43],[12.59,28.43],[12.5,28.47],[12.49,28.54],[11.98,28.65],[11.95,28.6],[11.9,28.86],[11.73,29.09],[11.59,30.54],[11.96,31.08],[11.84,31.34],[11.86,32.31],[12.4,32.3],[12.65,32.23],[12.82,32.26]]]}},{"type":"Feature","properties":{"id":"LBY-JU","nome":"Al Jufrah","pais":"LBY","tipo":"Municipality|Governarate","lat":27.94,"lng":17.3},"geometry":{"type":"Polygon","coordinates":[[[14.42,29.21],[14.75,29.41],[14.74,29.68],[14.85,29.86],[15.05,29.7],[15.57,29.59],[15.74,29.39],[15.88,29.38],[16.14,29.5],[16.55,29.39],[16.98,29.43],[17.09,29.35],[17.33,29.28],[17.58,29.39],[17.9,28.98],[17.98,28.73],[18.09,28.64],[18.23,28.56],[19.17,28.35],[19.17,26],[18.51,26.15],[18.2,26.38],[17.95,26.29],[17.78,26.16],[17.41,26.05],[16.94,26.16],[16.62,26.43],[16.52,26.7],[16.28,26.85],[16.26,27.15],[16.02,27.31],[15.79,27.69],[15.88,28.08],[15.59,28.21],[15.02,28.14],[14.96,28.41],[14.53,28.72],[14.42,28.88],[14.42,29.21]]]}},{"type":"Feature","properties":{"id":"LBY-SB","nome":"Sabha","pais":"LBY","tipo":"Municipality|Governarate","lat":27.24,"lng":15.11},"geometry":{"type":"Polygon","coordinates":[[[15.8,27.72],[16.02,27.31],[16.26,27.15],[16.28,27.08],[14.83,26.76],[14.42,26.38],[13.93,26.25],[13.97,26.46],[14.15,26.67],[14.04,26.86],[13.98,27.13],[14.42,27.17],[14.85,27.46],[14.92,27.57],[15.07,27.63],[15.56,27.74],[15.8,27.72]]]}},{"type":"Feature","properties":{"id":"LBY-WD","nome":"Wadi al Hayaa","pais":"LBY","tipo":"Municipality|Governarate","lat":26.36,"lng":12.68},"geometry":{"type":"Polygon","coordinates":[[[13.98,27.13],[14.04,26.86],[14.15,26.67],[13.97,26.46],[13.93,26.25],[13.48,26.12],[13.21,25.88],[12.97,25.86],[12.62,25.72],[12.36,25.73],[12.16,25.58],[11.86,25.55],[11.59,25.65],[11.4,25.55],[11.33,25.64],[11.32,25.94],[11.37,26.22],[13.01,27.25],[13.19,27.29],[13.98,27.13]]]}}]}