{"type":"FeatureCollection","features":[{"type":"Feature","properties":{"id":"LCA-06","nome":"Gros Islet","pais":"LCA","tipo":"Quarter","lat":14.07,"lng":-60.94},"geometry":{"type":"Polygon","coordinates":[[[-60.98,14.04],[-60.91,14.11],[-60.94,14.02],[-60.98,14.04]]]}},{"type":"Feature","properties":{"id":"LCA-02","nome":"Castries","pais":"LCA","tipo":"Quarter","lat":14,"lng":-60.97},"geometry":{"type":"Polygon","coordinates":[[[-61.03,13.99],[-60.98,14.04],[-60.94,14.02],[-60.96,13.88],[-61.03,13.99]]]}},{"type":"Feature","properties":{"id":"LCA-01","nome":"Anse-la-Raye","pais":"LCA","tipo":"Quarter","lat":13.94,"lng":-61.02},"geometry":{"type":"Polygon","coordinates":[[[-61.07,13.91],[-60.99,13.98],[-60.99,13.87],[-61.07,13.91]]]}},{"type":"Feature","properties":{"id":"LCA-10","nome":"Soufrière","pais":"LCA","tipo":"Quarter","lat":13.85,"lng":-61.04},"geometry":{"type":"Polygon","coordinates":[[[-61.07,13.79],[-61.07,13.91],[-60.96,13.88],[-61.07,13.79]]]}},{"type":"Feature","properties":{"id":"LCA-03","nome":"Choiseul","pais":"LCA","tipo":"Quarter","lat":13.79,"lng":-61.03},"geometry":{"type":"Polygon","coordinates":[[[-61.02,13.76],[-61.07,13.79],[-60.98,13.84],[-61.02,13.76]]]}},{"type":"Feature","properties":{"id":"LCA-07","nome":"Laborie","pais":"LCA","tipo":"Quarter","lat":13.77,"lng":-60.99},"geometry":{"type":"Polygon","coordinates":[[[-60.97,13.73],[-61.02,13.76],[-60.98,13.83],[-60.97,13.73]]]}},{"type":"Feature","properties":{"id":"LCA-11","nome":"Vieux Fort","pais":"LCA","tipo":"Quarter","lat":13.78,"lng":-60.94},"geometry":{"type":"Polygon","coordinates":[[[-60.92,13.77],[-60.96,13.71],[-60.98,13.84],[-60.92,13.77]]]}},{"type":"Feature","properties":{"id":"LCA-08","nome":"Micoud","pais":"LCA","tipo":"Quarter","lat":13.82,"lng":-60.92},"geometry":{"type":"Polygon","coordinates":[[[-60.89,13.83],[-60.92,13.77],[-60.98,13.84],[-60.89,13.83]]]}},{"type":"Feature","properties":{"id":"LCA-09","nome":"Praslin","pais":"LCA","tipo":"Quarter","lat":13.87,"lng":-60.92},"geometry":{"type":"Polygon","coordinates":[[[-60.89,13.91],[-60.89,13.83],[-60.96,13.85],[-60.96,13.9],[-60.89,13.91]]]}},{"type":"Feature","properties":{"id":"LCA-05","nome":"Dennery","pais":"LCA","tipo":"Quarter","lat":13.94,"lng":-60.91},"geometry":{"type":"Polygon","coordinates":[[[-60.88,13.98],[-60.89,13.91],[-60.96,13.9],[-60.94,13.98],[-60.88,13.98]]]}},{"type":"Feature","properties":{"id":"LCA-04","nome":"Dauphin","pais":"LCA","tipo":"Quarter","lat":14.02,"lng":-60.91},"geometry":{"type":"Polygon","coordinates":[[[-60.9,14.07],[-60.88,13.98],[-60.94,13.98],[-60.9,14.07]]]}}]}