{"type":"FeatureCollection","features":[{"type":"Feature","properties":{"id":"LKA-53","nome":"Trikuṇāmalaya","pais":"LKA","tipo":"District","lat":8.56,"lng":81.08},"geometry":{"type":"Polygon","coordinates":[[[80.92,8.99],[80.91,8.94],[80.98,8.98],[81.23,8.65],[81.25,8.55],[81.21,8.57],[81.21,8.51],[81.13,8.5],[81.37,8.48],[81.42,8.25],[81.28,8.26],[81.23,8.16],[81.2,8.23],[80.92,8.34],[80.99,8.47],[80.9,8.63],[80.91,8.84],[80.75,8.91],[80.92,8.99]]]}},{"type":"Feature","properties":{"id":"LKA-45","nome":"Mulativ","pais":"LKA","tipo":"District","lat":9.24,"lng":80.57},"geometry":{"type":"Polygon","coordinates":[[[80.63,9.45],[80.8,9.29],[80.74,9.3],[80.82,9.27],[80.88,9.15],[80.83,9.14],[80.95,9],[80.88,9.04],[80.92,8.99],[80.77,8.94],[80.78,9],[80.68,9.03],[80.65,9.11],[80.52,9.08],[80.42,9.12],[80.39,8.99],[80.17,8.95],[80.22,9.07],[80.19,9.24],[80.24,9.3],[80.4,9.3],[80.54,9.4],[80.59,9.36],[80.63,9.45]]]}},{"type":"Feature","properties":{"id":"LKA-41","nome":"Yāpanaya","pais":"LKA","tipo":"District","lat":9.51,"lng":79.69},"geometry":{"type":"Polygon","coordinates":[[[80.26,9.62],[80.09,9.62],[79.91,9.77],[80.12,9.82],[80.29,9.68],[80.26,9.62]]]}},{"type":"Feature","properties":{"id":"LKA-42","nome":"Kilinŏchchi","pais":"LKA","tipo":"District","lat":9.38,"lng":80.33},"geometry":{"type":"Polygon","coordinates":[[[80.11,9.21],[80.12,9.3],[80.05,9.39],[80.2,9.47],[80.05,9.6],[80.23,9.53],[80.29,9.45],[80.43,9.5],[80.61,9.45],[80.59,9.36],[80.53,9.4],[80.5,9.35],[80.24,9.3],[80.22,9.23],[80.11,9.21]]]}},{"type":"Feature","properties":{"id":"LKA-43","nome":"Mannārama","pais":"LKA","tipo":"District","lat":8.84,"lng":80.09},"geometry":{"type":"Polygon","coordinates":[[[79.91,8.57],[79.95,8.74],[79.92,8.94],[80.05,9.03],[80.11,9.21],[80.19,9.24],[80.22,9.07],[80.17,8.95],[80.37,8.95],[80.39,8.85],[80.18,8.77],[80.24,8.68],[80.04,8.67],[80.05,8.52],[79.91,8.57]]]}},{"type":"Feature","properties":{"id":"LKA-62","nome":"Puttalama","pais":"LKA","tipo":"District","lat":7.95,"lng":79.91},"geometry":{"type":"Polygon","coordinates":[[[79.83,7.28],[79.7,8.22],[79.78,8.35],[79.73,8.01],[79.81,7.99],[79.81,8.24],[79.91,8.57],[80.03,8.53],[79.96,8.37],[80,8.23],[80.09,8.21],[80.15,8.07],[80.15,7.95],[80.01,7.83],[79.9,7.6],[79.94,7.27],[79.83,7.28]]]}},{"type":"Feature","properties":{"id":"LKA-12","nome":"Gampaha","pais":"LKA","tipo":"District","lat":7.13,"lng":80.01},"geometry":{"type":"Polygon","coordinates":[[[79.85,6.96],[79.83,7.28],[80.13,7.32],[80.19,7.26],[80.15,7.15],[80.21,7.13],[80.18,6.98],[80.07,6.91],[79.85,6.96]]]}},{"type":"Feature","properties":{"id":"LKA-11","nome":"Kŏḷamba","pais":"LKA","tipo":"District","lat":6.86,"lng":80.03},"geometry":{"type":"Polygon","coordinates":[[[79.9,6.71],[79.85,6.96],[80.07,6.91],[80.13,6.97],[80.22,6.97],[80.18,6.81],[79.89,6.78],[79.9,6.71]]]}},{"type":"Feature","properties":{"id":"LKA-13","nome":"Kaḷutara","pais":"LKA","tipo":"District","lat":6.59,"lng":80.14},"geometry":{"type":"Polygon","coordinates":[[[79.98,6.44],[79.89,6.78],[80.18,6.81],[80.38,6.43],[80.29,6.39],[80.3,6.32],[79.98,6.44]]]}},{"type":"Feature","properties":{"id":"LKA-31","nome":"Gālla","pais":"LKA","tipo":"District","lat":6.2,"lng":80.24},"geometry":{"type":"Polygon","coordinates":[[[80.38,5.96],[80.2,6.03],[80.1,6.13],[79.98,6.44],[80.3,6.32],[80.35,6.42],[80.49,6.38],[80.48,6.29],[80.38,6.33],[80.44,6.24],[80.38,6.22],[80.44,6.09],[80.38,5.96]]]}},{"type":"Feature","properties":{"id":"LKA-32","nome":"Mātara","pais":"LKA","tipo":"District","lat":6.17,"lng":80.55},"geometry":{"type":"Polygon","coordinates":[[[80.73,5.98],[80.59,5.92],[80.38,5.96],[80.44,6.09],[80.38,6.22],[80.44,6.24],[80.38,6.33],[80.48,6.29],[80.46,6.35],[80.54,6.39],[80.65,6.35],[80.61,6.19],[80.69,6.12],[80.66,6.04],[80.73,5.98]]]}},{"type":"Feature","properties":{"id":"LKA-33","nome":"Hambantŏṭa","pais":"LKA","tipo":"District","lat":6.27,"lng":81.16},"geometry":{"type":"Polygon","coordinates":[[[81.71,6.51],[81.32,6.21],[80.73,5.98],[80.66,6.04],[80.69,6.12],[80.61,6.19],[80.66,6.3],[80.94,6.23],[80.92,6.3],[81.05,6.42],[81.25,6.34],[81.46,6.41],[81.48,6.49],[81.61,6.58],[81.71,6.51]]]}},{"type":"Feature","properties":{"id":"LKA-52","nome":"Ampāra","pais":"LKA","tipo":"District","lat":7.16,"lng":81.72},"geometry":{"type":"Polygon","coordinates":[[[81.77,7.46],[81.81,7.41],[81.83,7.47],[81.88,7.33],[81.89,7.02],[81.71,6.51],[81.61,6.58],[81.63,6.95],[81.62,7.06],[81.5,7.15],[81.55,7.22],[81.48,7.45],[81.38,7.41],[81.29,7.24],[81.2,7.37],[81.2,7.56],[81.05,7.51],[80.99,7.72],[81.22,7.65],[81.24,7.74],[81.33,7.73],[81.45,7.64],[81.44,7.57],[81.49,7.52],[81.65,7.53],[81.67,7.4],[81.77,7.46]]]}},{"type":"Feature","properties":{"id":"LKA-51","nome":"Maḍakalapuva","pais":"LKA","tipo":"District","lat":7.85,"lng":81.46},"geometry":{"type":"Polygon","coordinates":[[[81.42,8.25],[81.45,8.13],[81.4,8.19],[81.4,8.14],[81.56,8],[81.59,7.86],[81.71,7.71],[81.63,7.76],[81.6,7.73],[81.66,7.72],[81.77,7.57],[81.78,7.47],[81.67,7.4],[81.65,7.53],[81.49,7.52],[81.44,7.57],[81.45,7.64],[81.24,7.74],[81.24,7.92],[81.34,7.94],[81.31,8.26],[81.42,8.25]]]}},{"type":"Feature","properties":{"id":"LKA-91","nome":"Ratnapura","pais":"LKA","tipo":"District","lat":6.58,"lng":80.56},"geometry":{"type":"Polygon","coordinates":[[[80.93,6.69],[80.83,6.49],[80.94,6.23],[80.67,6.31],[80.6,6.4],[80.41,6.4],[80.22,6.69],[80.18,6.86],[80.23,6.92],[80.32,6.84],[80.5,6.83],[80.51,6.77],[80.81,6.79],[80.86,6.74],[80.83,6.68],[80.93,6.69]]]}},{"type":"Feature","properties":{"id":"LKA-82","nome":"Mŏṇarāgala","pais":"LKA","tipo":"District","lat":6.72,"lng":81.34},"geometry":{"type":"Polygon","coordinates":[[[80.92,6.3],[80.84,6.4],[80.88,6.62],[80.94,6.69],[81.02,6.54],[81.06,6.58],[81.06,6.81],[81.24,6.98],[81.24,7.07],[81.13,7.17],[81.23,7.27],[81.33,7.26],[81.38,7.41],[81.48,7.45],[81.55,7.22],[81.5,7.15],[81.62,7.06],[81.63,6.95],[81.61,6.58],[81.48,6.49],[81.46,6.41],[81.25,6.34],[81.05,6.42],[80.92,6.3]]]}},{"type":"Feature","properties":{"id":"LKA-92","nome":"Kægalla","pais":"LKA","tipo":"District","lat":7.09,"lng":80.35},"geometry":{"type":"Polygon","coordinates":[[[80.29,6.86],[80.18,6.98],[80.21,7.13],[80.15,7.18],[80.4,7.39],[80.55,7.17],[80.45,7.11],[80.43,6.99],[80.51,6.84],[80.29,6.86]]]}},{"type":"Feature","properties":{"id":"LKA-81","nome":"Badulla","pais":"LKA","tipo":"District","lat":7.05,"lng":81.03},"geometry":{"type":"Polygon","coordinates":[[[81.27,7.28],[81.13,7.17],[81.24,7.02],[81.22,6.93],[81.06,6.81],[81.09,6.61],[81.02,6.54],[80.94,6.69],[80.83,6.68],[80.86,6.74],[80.81,6.76],[80.83,6.85],[80.78,6.92],[80.91,6.99],[80.95,7.19],[81.01,7.23],[80.99,7.61],[81.05,7.51],[81.2,7.56],[81.2,7.37],[81.27,7.28]]]}},{"type":"Feature","properties":{"id":"LKA-22","nome":"Mātale","pais":"LKA","tipo":"District","lat":7.61,"lng":80.74},"geometry":{"type":"Polygon","coordinates":[[[80.76,8.01],[80.85,7.96],[80.77,7.8],[80.77,7.69],[80.99,7.72],[80.98,7.49],[80.78,7.44],[80.72,7.47],[80.65,7.39],[80.57,7.46],[80.57,7.62],[80.49,7.8],[80.76,8.01]]]}},{"type":"Feature","properties":{"id":"LKA-72","nome":"Pŏḷŏnnaruva","pais":"LKA","tipo":"District","lat":8,"lng":81.05},"geometry":{"type":"Polygon","coordinates":[[[80.79,7.96],[80.76,8.08],[80.8,8.27],[80.94,8.34],[81,8.27],[81.2,8.23],[81.2,8.15],[81.31,8.26],[81.34,7.94],[81.24,7.92],[81.22,7.65],[81.06,7.73],[80.78,7.68],[80.77,7.8],[80.85,7.96],[80.79,7.96]]]}},{"type":"Feature","properties":{"id":"LKA-61","nome":"Kuruṇægala","pais":"LKA","tipo":"District","lat":7.71,"lng":80.24},"geometry":{"type":"Polygon","coordinates":[[[80.42,7.36],[80.35,7.39],[80.34,7.33],[80.19,7.26],[80.13,7.32],[79.94,7.27],[79.9,7.6],[80.01,7.83],[80.15,7.95],[80.1,8.2],[80.41,8.05],[80.46,7.94],[80.57,7.49],[80.56,7.42],[80.42,7.36]]]}},{"type":"Feature","properties":{"id":"LKA-71","nome":"Anurādhapura","pais":"LKA","tipo":"District","lat":8.29,"lng":80.47},"geometry":{"type":"Polygon","coordinates":[[[80.92,8.34],[80.8,8.27],[80.76,8.01],[80.5,7.82],[80.42,8.04],[80,8.23],[79.96,8.37],[80.05,8.52],[80.04,8.67],[80.24,8.68],[80.34,8.55],[80.43,8.68],[80.53,8.67],[80.65,8.79],[80.6,8.87],[80.81,8.92],[80.91,8.84],[80.9,8.63],[80.99,8.47],[80.92,8.34]]]}},{"type":"Feature","properties":{"id":"LKA-23","nome":"Nuvara Ĕliya","pais":"LKA","tipo":"District","lat":6.94,"lng":80.7},"geometry":{"type":"Polygon","coordinates":[[[80.64,6.75],[80.49,6.79],[80.43,6.99],[80.49,7.03],[80.57,6.94],[80.6,7],[80.54,7.06],[80.68,7.1],[80.77,7.21],[80.76,7.27],[80.83,7.2],[80.95,7.19],[80.93,7.02],[80.78,6.92],[80.84,6.81],[80.64,6.75]]]}},{"type":"Feature","properties":{"id":"LKA-44","nome":"Vavuniyāva","pais":"LKA","tipo":"District","lat":8.9,"lng":80.48},"geometry":{"type":"Polygon","coordinates":[[[80.75,8.91],[80.6,8.87],[80.65,8.79],[80.53,8.67],[80.43,8.68],[80.34,8.55],[80.17,8.75],[80.25,8.83],[80.39,8.85],[80.34,8.96],[80.43,9.04],[80.41,9.12],[80.52,9.08],[80.65,9.11],[80.68,9.03],[80.78,9],[80.75,8.91]]]}},{"type":"Feature","properties":{"id":"LKA-21","nome":"Mahanuvara","pais":"LKA","tipo":"District","lat":7.3,"lng":80.72},"geometry":{"type":"Polygon","coordinates":[[[80.46,7.03],[80.45,7.11],[80.55,7.17],[80.42,7.36],[80.47,7.4],[80.57,7.46],[80.69,7.39],[80.72,7.47],[80.78,7.44],[80.98,7.49],[80.99,7.21],[80.83,7.2],[80.76,7.27],[80.77,7.21],[80.68,7.1],[80.54,7.06],[80.6,7],[80.57,6.94],[80.46,7.03]]]}}]}