{"type":"FeatureCollection","features":[{"type":"Feature","properties":{"id":"LSO-J","nome":"Mokhotlong","pais":"LSO","tipo":"District","lat":-29.2,"lng":29},"geometry":{"type":"Polygon","coordinates":[[[28.86,-28.77],[29.06,-28.97],[29.31,-29.09],[29.44,-29.34],[29.28,-29.53],[29.16,-29.58],[29.02,-29.49],[28.78,-29.49],[28.8,-29.35],[28.67,-29.31],[28.71,-29.19],[28.56,-29.26],[28.75,-29.07],[28.86,-28.77]]]}},{"type":"Feature","properties":{"id":"LSO-B","nome":"Butha-Buthe","pais":"LSO","tipo":"District","lat":-28.83,"lng":28.52},"geometry":{"type":"Polygon","coordinates":[[[28.63,-28.57],[28.7,-28.69],[28.83,-28.76],[28.83,-28.87],[28.68,-29.03],[28.5,-29.07],[28.49,-28.88],[28.27,-28.8],[28.22,-28.7],[28.63,-28.57]]]}},{"type":"Feature","properties":{"id":"LSO-C","nome":"Leribe","pais":"LSO","tipo":"District","lat":-28.89,"lng":28.21},"geometry":{"type":"Polygon","coordinates":[[[28.16,-28.71],[28.25,-28.72],[28.27,-28.8],[28.49,-28.88],[28.5,-29.07],[28.68,-29.03],[28.79,-28.89],[28.75,-29.07],[28.57,-29.21],[28.62,-29.34],[28.42,-29.3],[28.34,-29.11],[28.23,-29.11],[28.01,-28.94],[27.89,-29.05],[27.63,-29.09],[27.75,-28.91],[28.01,-28.88],[28.16,-28.71]]]}},{"type":"Feature","properties":{"id":"LSO-H","nome":"Qacha's Nek","pais":"LSO","tipo":"District","lat":-29.97,"lng":28.68},"geometry":{"type":"Polygon","coordinates":[[[29.02,-29.98],[28.64,-30.13],[28.36,-30.17],[28.2,-30.12],[28.27,-30],[28.37,-30.03],[28.55,-29.92],[28.56,-29.77],[28.67,-29.81],[28.7,-29.88],[28.79,-29.81],[28.96,-29.86],[29.01,-29.74],[29.11,-29.75],[29.15,-29.91],[29.02,-29.98]]]}},{"type":"Feature","properties":{"id":"LSO-K","nome":"Thaba-Tseka","pais":"LSO","tipo":"District","lat":-29.6,"lng":28.7},"geometry":{"type":"Polygon","coordinates":[[[29.28,-29.53],[29.27,-29.63],[29.16,-29.67],[29.11,-29.75],[29.01,-29.74],[28.96,-29.86],[28.79,-29.81],[28.7,-29.88],[28.67,-29.81],[28.56,-29.77],[28.28,-29.89],[28.1,-29.43],[28.28,-29.26],[28.25,-29.15],[28.31,-29.11],[28.41,-29.29],[28.56,-29.35],[28.62,-29.33],[28.56,-29.26],[28.71,-29.19],[28.67,-29.31],[28.8,-29.35],[28.78,-29.49],[29.02,-29.49],[29.16,-29.58],[29.28,-29.53]]]}},{"type":"Feature","properties":{"id":"LSO-D","nome":"Berea","pais":"LSO","tipo":"District","lat":-29.19,"lng":27.9},"geometry":{"type":"Polygon","coordinates":[[[27.51,-29.27],[27.63,-29.09],[27.89,-29.05],[28,-28.94],[28.26,-29.12],[28.29,-29.23],[28.2,-29.33],[28.16,-29.29],[28.04,-29.37],[28.01,-29.26],[27.89,-29.34],[27.78,-29.29],[27.54,-29.33],[27.51,-29.27]]]}},{"type":"Feature","properties":{"id":"LSO-A","nome":"Maseru","pais":"LSO","tipo":"District","lat":-29.56,"lng":27.75},"geometry":{"type":"Polygon","coordinates":[[[27.34,-29.48],[27.51,-29.27],[27.54,-29.33],[27.78,-29.29],[27.89,-29.34],[28.01,-29.26],[28.04,-29.37],[28.17,-29.29],[28.2,-29.33],[28.1,-29.45],[28.18,-29.71],[28.06,-29.72],[28.16,-29.86],[28.09,-29.93],[27.94,-29.84],[27.66,-29.82],[27.63,-29.7],[27.53,-29.64],[27.43,-29.66],[27.36,-29.53],[27.3,-29.52],[27.34,-29.48]]]}},{"type":"Feature","properties":{"id":"LSO-E","nome":"Mafeteng","pais":"LSO","tipo":"District","lat":-29.81,"lng":28.18},"geometry":{"type":"MultiPolygon","coordinates":[[[[27.09,-29.61],[27.35,-29.52],[27.43,-29.66],[27.53,-29.64],[27.63,-29.7],[27.66,-29.82],[28.08,-29.9],[28.06,-29.94],[27.9,-29.89],[27.88,-29.94],[27.84,-29.9],[27.82,-29.95],[27.68,-29.98],[27.56,-29.92],[27.44,-30.04],[27.37,-29.97],[27.39,-29.85],[27.17,-29.92],[27,-29.67],[27.09,-29.61]]],[[[28.09,-29.7],[28.23,-29.73],[28.29,-29.96],[28.13,-29.9],[28.16,-29.8],[28.1,-29.8],[28.09,-29.7]]]]}},{"type":"Feature","properties":{"id":"LSO-F","nome":"Mohale's Hoek","pais":"LSO","tipo":"District","lat":-30.07,"lng":27.86},"geometry":{"type":"Polygon","coordinates":[[[27.32,-30.13],[27.17,-29.92],[27.29,-29.87],[27.39,-29.85],[27.37,-29.97],[27.44,-30.04],[27.56,-29.92],[27.68,-29.98],[27.82,-29.95],[27.84,-29.9],[27.88,-29.94],[27.9,-29.89],[28.06,-29.94],[28.22,-29.91],[28.29,-29.96],[28.34,-29.85],[28.55,-29.8],[28.55,-29.92],[28.37,-30.03],[28.3,-29.98],[27.93,-30.07],[27.9,-30.19],[27.81,-30.27],[27.72,-30.25],[27.74,-30.33],[27.69,-30.37],[27.53,-30.39],[27.45,-30.31],[27.37,-30.31],[27.38,-30.14],[27.32,-30.13]]]}},{"type":"Feature","properties":{"id":"LSO-G","nome":"Quthing","pais":"LSO","tipo":"District","lat":-30.35,"lng":27.94},"geometry":{"type":"Polygon","coordinates":[[[28.36,-30.17],[28.2,-30.28],[28.24,-30.35],[28.13,-30.46],[28.08,-30.66],[27.74,-30.6],[27.53,-30.39],[27.72,-30.35],[27.72,-30.25],[27.86,-30.23],[27.94,-30.07],[28.26,-30],[28.2,-30.12],[28.36,-30.17]]]}}]}