{"type":"FeatureCollection","features":[{"type":"Feature","properties":{"id":"LTU-UT","nome":"Utenos","pais":"LTU","tipo":"County","lat":55.53,"lng":25.62},"geometry":{"type":"Polygon","coordinates":[[[26.59,55.67],[26.61,55.59],[26.45,55.33],[26.77,55.3],[26.79,55.26],[26.32,55.23],[26.15,55.25],[26.12,55.31],[25.96,55.28],[25.73,55.33],[25.64,55.22],[25.78,55.13],[25.73,55.05],[25.22,55.04],[25.13,55.1],[25.25,55.19],[25.15,55.22],[25.18,55.27],[24.78,55.38],[24.79,55.45],[24.63,55.52],[24.69,55.61],[24.63,55.66],[24.72,55.67],[24.69,55.72],[25.02,55.73],[25.09,55.69],[25.38,55.77],[25.69,55.73],[25.81,55.78],[25.96,55.96],[26.28,55.74],[26.59,55.67]]]}},{"type":"Feature","properties":{"id":"LTU-VL","nome":"Vilniaus","pais":"LTU","tipo":"County","lat":54.73,"lng":25.16},"geometry":{"type":"Polygon","coordinates":[[[26.74,55.24],[26.64,55.2],[26.6,55.12],[26.26,55.14],[26.14,54.97],[25.87,54.94],[25.78,54.87],[25.72,54.77],[25.74,54.57],[25.63,54.51],[25.53,54.35],[25.56,54.3],[25.7,54.32],[25.79,54.24],[25.74,54.15],[25.52,54.14],[25.5,54.22],[25.55,54.23],[25.46,54.3],[25.37,54.25],[25.21,54.26],[25.07,54.13],[24.85,54.14],[24.77,54.23],[24.99,54.39],[25,54.45],[24.74,54.41],[24.43,54.45],[24.47,54.69],[24.62,54.73],[24.66,54.82],[24.8,54.89],[24.55,54.99],[24.65,55.07],[24.54,55.12],[24.39,55.32],[24.42,55.39],[24.63,55.49],[24.61,55.52],[24.79,55.45],[24.78,55.38],[25.18,55.27],[25.15,55.22],[25.25,55.19],[25.13,55.1],[25.22,55.04],[25.74,55.06],[25.78,55.13],[25.64,55.22],[25.73,55.33],[25.96,55.28],[26.12,55.31],[26.15,55.25],[26.32,55.23],[26.68,55.28],[26.74,55.24]]]}},{"type":"Feature","properties":{"id":"LTU-AL","nome":"Alytaus","pais":"LTU","tipo":"County","lat":54.25,"lng":24.17},"geometry":{"type":"Polygon","coordinates":[[[24.85,54.14],[24.78,54.09],[24.81,53.98],[24.67,53.99],[24.38,53.89],[24.17,53.96],[23.63,53.9],[23.49,53.94],[23.46,54.13],[23.34,54.23],[23.37,54.34],[23.64,54.51],[23.86,54.46],[24,54.5],[24.01,54.55],[24.25,54.56],[24.41,54.54],[24.45,54.43],[24.66,54.45],[24.74,54.41],[25,54.45],[24.99,54.39],[24.77,54.23],[24.85,54.14]]]}},{"type":"Feature","properties":{"id":"LTU-PN","nome":"Panevezio","pais":"LTU","tipo":"County","lat":56.07,"lng":24.91},"geometry":{"type":"Polygon","coordinates":[[[24.87,56.44],[25.07,56.2],[25.66,56.14],[25.96,55.96],[25.94,55.91],[25.69,55.73],[25.38,55.77],[25.09,55.69],[25.02,55.73],[24.69,55.72],[24.71,55.66],[24.63,55.66],[24.69,55.61],[24.6,55.51],[24.63,55.49],[24.42,55.39],[24.21,55.47],[24.05,55.44],[24.05,55.48],[23.87,55.57],[24.01,55.64],[24.02,55.76],[23.94,55.84],[24.06,55.9],[24,56.04],[24.16,56.16],[24.14,56.26],[24.32,56.3],[24.48,56.27],[24.87,56.44]]]}},{"type":"Feature","properties":{"id":"LTU-TE","nome":"Telšiai","pais":"LTU","tipo":"County","lat":56.04,"lng":22.11},"geometry":{"type":"Polygon","coordinates":[[[22.09,56.42],[22.58,56.39],[22.55,56.33],[22.45,56.3],[22.37,56.16],[22.47,56.1],[22.68,56.13],[22.7,56.08],[22.6,56.05],[22.58,55.98],[22.7,55.95],[22.49,55.8],[22.51,55.7],[22.46,55.68],[22.17,55.68],[21.88,55.6],[21.75,55.76],[21.52,55.81],[21.62,55.88],[21.59,56],[21.99,56.21],[21.91,56.35],[22.09,56.42]]]}},{"type":"Feature","properties":{"id":"LTU-KL","nome":"Klaipedos","pais":"LTU","tipo":"County","lat":55.63,"lng":21.39},"geometry":{"type":"MultiPolygon","coordinates":[[[[21.05,56.07],[21.19,56.08],[21.33,56.22],[21.97,56.38],[21.9,56.34],[21.99,56.21],[21.59,56],[21.62,55.88],[21.52,55.81],[21.75,55.76],[21.88,55.59],[21.81,55.56],[21.89,55.44],[22.05,55.41],[21.9,55.27],[22.05,55.23],[22.08,55.15],[22.3,55.15],[22.27,55.07],[22.08,55.03],[22,55.09],[21.5,55.19],[21.37,55.29],[21.27,55.25],[21.26,55.37],[21.18,55.35],[21.25,55.42],[21.22,55.52],[21.06,55.79],[21.05,56.07]]],[[[20.99,55.27],[20.92,55.28],[21.08,55.5],[21.09,55.72],[21.13,55.66],[21.11,55.42],[20.99,55.27]]]]}},{"type":"Feature","properties":{"id":"LTU-SA","nome":"Šiauliai","pais":"LTU","tipo":"County","lat":55.96,"lng":23.27},"geometry":{"type":"Polygon","coordinates":[[[22.92,56.41],[23.06,56.3],[23.29,56.37],[23.86,56.33],[24.14,56.26],[24.16,56.16],[24,56.04],[24.06,55.9],[23.94,55.84],[24.02,55.76],[24.01,55.64],[23.63,55.47],[23.54,55.55],[23.46,55.52],[23.18,55.58],[22.87,55.48],[22.62,55.48],[22.63,55.53],[22.46,55.68],[22.51,55.7],[22.49,55.8],[22.7,55.95],[22.58,55.98],[22.6,56.05],[22.7,56.08],[22.66,56.13],[22.44,56.11],[22.37,56.16],[22.39,56.22],[22.58,56.39],[22.67,56.35],[22.92,56.41]]]}},{"type":"Feature","properties":{"id":"LTU-MR","nome":"Marijampoles","pais":"LTU","tipo":"County","lat":54.68,"lng":23.18},"geometry":{"type":"Polygon","coordinates":[[[22.93,54.38],[22.77,54.36],[22.68,54.45],[22.7,54.68],[22.85,54.81],[22.82,54.89],[22.63,54.96],[22.57,55.06],[23,55.11],[23.57,55.04],[23.4,54.96],[23.63,54.87],[23.61,54.78],[23.68,54.67],[23.62,54.63],[23.78,54.49],[23.56,54.47],[23.37,54.34],[23.34,54.23],[23.05,54.29],[22.93,54.38]]]}},{"type":"Feature","properties":{"id":"LTU-TA","nome":"Taurages","pais":"LTU","tipo":"County","lat":55.27,"lng":22.65},"geometry":{"type":"Polygon","coordinates":[[[22.57,55.06],[22.27,55.07],[22.3,55.15],[22.08,55.15],[22.05,55.23],[21.9,55.27],[22.05,55.41],[21.89,55.44],[21.81,55.56],[22.07,55.66],[22.46,55.68],[22.86,55.29],[22.93,55.33],[23.01,55.26],[23.48,55.22],[23.41,55.08],[22.57,55.06]]]}},{"type":"Feature","properties":{"id":"LTU-KU","nome":"Kauno","pais":"LTU","tipo":"County","lat":55.07,"lng":23.99},"geometry":{"type":"Polygon","coordinates":[[[24.42,55.39],[24.42,55.25],[24.65,55.06],[24.55,54.99],[24.8,54.89],[24.66,54.82],[24.62,54.73],[24.47,54.69],[24.49,54.61],[24.41,54.54],[24.03,54.55],[23.86,54.46],[23.76,54.47],[23.76,54.54],[23.62,54.63],[23.68,54.67],[23.61,54.78],[23.63,54.87],[23.4,54.96],[23.58,55.02],[23.41,55.08],[23.48,55.22],[23.01,55.26],[22.93,55.33],[22.86,55.29],[22.65,55.47],[22.87,55.48],[23.18,55.58],[23.46,55.52],[23.54,55.55],[23.63,55.47],[23.89,55.57],[24.05,55.48],[24.05,55.44],[24.21,55.47],[24.42,55.39]]]}}]}