{"type":"FeatureCollection","features":[{"type":"Feature","properties":{"id":"LUX-D","nome":"Diekirch","pais":"LUX","tipo":"District","lat":49.98,"lng":6},"geometry":{"type":"Polygon","coordinates":[[[6.12,50.12],[6.12,50],[6.3,49.85],[6.25,49.79],[6.06,49.83],[5.99,49.73],[5.81,49.72],[5.71,49.88],[5.87,50.1],[6,50.17],[6.12,50.12]]]}},{"type":"Feature","properties":{"id":"LUX-G","nome":"Grevenmacher","pais":"LUX","tipo":"District","lat":49.65,"lng":6.34},"geometry":{"type":"Polygon","coordinates":[[[6.3,49.85],[6.5,49.8],[6.5,49.71],[6.35,49.57],[6.35,49.46],[6.23,49.54],[6.3,49.59],[6.29,49.67],[6.17,49.69],[6.26,49.75],[6.3,49.85]]]}},{"type":"Feature","properties":{"id":"LUX-L","nome":"Luxembourg","pais":"LUX","tipo":"District","lat":49.64,"lng":6.05},"geometry":{"type":"Polygon","coordinates":[[[5.79,49.54],[5.89,49.64],[5.86,49.71],[5.99,49.73],[6.04,49.82],[6.27,49.77],[6.17,49.69],[6.31,49.63],[6.23,49.55],[6.25,49.49],[5.96,49.44],[5.79,49.54]]]}}]}