{"type":"FeatureCollection","features":[{"type":"Feature","properties":{"id":"LVA-084","nome":"Rujienas","pais":"LVA","tipo":"Municipality","lat":57.89,"lng":25.26},"geometry":{"type":"Polygon","coordinates":[[[25.26,58.08],[25.42,58.01],[25.26,57.94],[25.46,57.79],[25.27,57.78],[25.13,57.93],[25.09,58.07],[25.23,57.99],[25.28,58.01],[25.26,58.08]]]}},{"type":"Feature","properties":{"id":"LVA-060","nome":"Mazsalacas","pais":"LVA","tipo":"Municipality","lat":57.91,"lng":25.03},"geometry":{"type":"Polygon","coordinates":[[[25.03,58.05],[25.09,58.07],[25.25,57.8],[24.9,57.83],[24.83,57.98],[25.03,58.05]]]}},{"type":"Feature","properties":{"id":"LVA-005","nome":"Alojas","pais":"LVA","tipo":"Municipality","lat":57.81,"lng":24.82},"geometry":{"type":"Polygon","coordinates":[[[24.82,57.98],[24.9,57.83],[25.08,57.77],[25.08,57.63],[24.88,57.62],[24.83,57.72],[24.65,57.77],[24.57,57.88],[24.58,57.95],[24.82,57.98]]]}},{"type":"Feature","properties":{"id":"LVA-064","nome":"Nauksenu","pais":"LVA","tipo":"Municipality","lat":57.93,"lng":25.44},"geometry":{"type":"Polygon","coordinates":[[[25.55,57.95],[25.7,57.92],[25.65,57.86],[25.47,57.87],[25.56,57.81],[25.49,57.79],[25.26,57.94],[25.42,58.01],[25.55,57.95]]]}},{"type":"Feature","properties":{"id":"LVA-085","nome":"Salacgrivas","pais":"LVA","tipo":"Municipality","lat":57.75,"lng":24.41},"geometry":{"type":"Polygon","coordinates":[[[24.55,57.95],[24.65,57.77],[24.56,57.67],[24.42,57.67],[24.43,57.57],[24.55,57.54],[24.58,57.46],[24.39,57.4],[24.29,57.85],[24.55,57.95]]]}},{"type":"Feature","properties":{"id":"LVA-009","nome":"Apes","pais":"LVA","tipo":"Municipality","lat":57.46,"lng":26.5},"geometry":{"type":"Polygon","coordinates":[[[26.43,57.56],[26.58,57.52],[26.8,57.57],[26.81,57.5],[26.72,57.49],[26.69,57.42],[26.28,57.33],[26.35,57.58],[26.43,57.56]]]}},{"type":"Feature","properties":{"id":"LVA-101","nome":"Valkas","pais":"LVA","tipo":"Municipality","lat":57.66,"lng":26.06},"geometry":{"type":"Polygon","coordinates":[[[25.71,57.92],[25.79,57.86],[26.01,57.84],[26.02,57.77],[26.35,57.58],[26.36,57.51],[26.12,57.57],[25.9,57.53],[25.88,57.6],[25.99,57.67],[25.86,57.68],[25.85,57.75],[25.62,57.76],[25.47,57.86],[25.65,57.86],[25.71,57.92]]]}},{"type":"Feature","properties":{"id":"LVA-007","nome":"Aluksne","pais":"LVA","tipo":"Municipality","lat":57.42,"lng":27.17},"geometry":{"type":"Polygon","coordinates":[[[26.87,57.63],[27.09,57.55],[27.53,57.53],[27.51,57.43],[27.69,57.33],[27.56,57.26],[27.35,57.28],[27.16,57.23],[26.62,57.36],[26.61,57.42],[26.81,57.5],[26.8,57.57],[26.87,57.63]]]}},{"type":"Feature","properties":{"id":"LVA-108","nome":"Vilakas","pais":"LVA","tipo":"Municipality","lat":57.18,"lng":27.63},"geometry":{"type":"Polygon","coordinates":[[[27.69,57.36],[27.85,57.27],[27.82,57.16],[27.68,57.1],[27.75,57.03],[27.55,57.04],[27.4,57.16],[27.49,57.27],[27.56,57.26],[27.69,57.36]]]}},{"type":"Feature","properties":{"id":"LVA-014","nome":"Baltinavas","pais":"LVA","tipo":"Municipality","lat":56.92,"lng":27.6},"geometry":{"type":"Polygon","coordinates":[[[27.75,57.03],[27.64,56.84],[27.45,56.85],[27.42,56.9],[27.75,57.03]]]}},{"type":"Feature","properties":{"id":"LVA-044","nome":"Karsavas","pais":"LVA","tipo":"Municipality","lat":56.76,"lng":27.63},"geometry":{"type":"Polygon","coordinates":[[[27.64,56.84],[27.79,56.87],[27.92,56.81],[27.8,56.67],[27.64,56.69],[27.58,56.62],[27.47,56.66],[27.46,56.77],[27.34,56.78],[27.43,56.85],[27.64,56.84]]]}},{"type":"Feature","properties":{"id":"LVA-023","nome":"Ciblas","pais":"LVA","tipo":"Municipality","lat":56.61,"lng":27.86},"geometry":{"type":"Polygon","coordinates":[[[27.87,56.74],[28.13,56.53],[27.92,56.48],[27.81,56.55],[27.76,56.52],[27.56,56.58],[27.64,56.69],[27.8,56.67],[27.87,56.74]]]}},{"type":"Feature","properties":{"id":"LVA-058","nome":"Ludzas","pais":"LVA","tipo":"Municipality","lat":56.41,"lng":27.8},"geometry":{"type":"Polygon","coordinates":[[[28.09,56.5],[28.17,56.43],[27.98,56.43],[28.01,56.38],[27.84,56.32],[27.92,56.29],[28,56.33],[28.12,56.27],[28.07,56.2],[27.85,56.18],[27.67,56.24],[27.72,56.3],[27.69,56.36],[27.49,56.51],[27.56,56.58],[27.76,56.52],[27.81,56.55],[27.92,56.48],[28.09,56.5]]]}},{"type":"Feature","properties":{"id":"LVA-110","nome":"Zilupes","pais":"LVA","tipo":"Municipality","lat":56.34,"lng":28.11},"geometry":{"type":"Polygon","coordinates":[[[28.17,56.43],[28.22,56.27],[28.15,56.14],[28.04,56.16],[28.09,56.3],[27.84,56.32],[28.01,56.38],[27.98,56.43],[28.17,56.43]]]}},{"type":"Feature","properties":{"id":"LVA-065","nome":"Neretas","pais":"LVA","tipo":"Municipality","lat":56.32,"lng":25.11},"geometry":{"type":"Polygon","coordinates":[[[25.35,56.16],[25.07,56.2],[24.88,56.45],[25.01,56.5],[25.07,56.4],[25.29,56.41],[25.3,56.34],[25.37,56.33],[25.31,56.29],[25.4,56.23],[25.41,56.18],[25.35,56.16]]]}},{"type":"Feature","properties":{"id":"LVA-107","nome":"Viesites","pais":"LVA","tipo":"Municipality","lat":56.29,"lng":25.53},"geometry":{"type":"Polygon","coordinates":[[[25.45,56.15],[25.35,56.16],[25.41,56.18],[25.4,56.23],[25.31,56.29],[25.37,56.33],[25.3,56.34],[25.3,56.42],[25.59,56.47],[25.73,56.37],[25.65,56.14],[25.45,56.15]]]}},{"type":"Feature","properties":{"id":"LVA-105","nome":"Vecumnieku","pais":"LVA","tipo":"Municipality","lat":56.48,"lng":24.63},"geometry":{"type":"Polygon","coordinates":[[[24.87,56.44],[24.48,56.31],[24.51,56.36],[24.45,56.38],[24.53,56.41],[24.51,56.45],[24.31,56.61],[24.6,56.71],[24.6,56.62],[24.7,56.58],[24.66,56.54],[25,56.55],[25.01,56.5],[24.87,56.44]]]}},{"type":"Feature","properties":{"id":"LVA-088","nome":"Saldus","pais":"LVA","tipo":"Municipality","lat":56.64,"lng":22.4},"geometry":{"type":"Polygon","coordinates":[[[22.21,56.39],[21.98,56.39],[21.95,56.49],[22.13,56.58],[22.1,56.67],[22.19,56.74],[22.16,56.8],[22.34,56.85],[22.26,56.89],[22.3,56.92],[22.53,56.91],[22.44,56.77],[22.5,56.64],[22.57,56.57],[22.69,56.59],[22.73,56.42],[22.86,56.4],[22.67,56.35],[22.21,56.39]]]}},{"type":"Feature","properties":{"id":"LVA-081","nome":"Rucavas","pais":"LVA","tipo":"Municipality","lat":56.23,"lng":21.21},"geometry":{"type":"Polygon","coordinates":[[[21.49,56.27],[21.25,56.19],[21.19,56.08],[21.05,56.07],[20.97,56.25],[21.03,56.27],[21.08,56.17],[21.18,56.36],[21.49,56.27]]]}},{"type":"Feature","properties":{"id":"LVA-074","nome":"Priekules","pais":"LVA","tipo":"Municipality","lat":56.42,"lng":21.56},"geometry":{"type":"Polygon","coordinates":[[[21.74,56.32],[21.49,56.27],[21.38,56.33],[21.44,56.41],[21.35,56.5],[21.4,56.56],[21.48,56.51],[21.53,56.51],[21.53,56.57],[21.71,56.55],[21.73,56.47],[21.67,56.42],[21.75,56.38],[21.74,56.32]]]}},{"type":"Feature","properties":{"id":"LVA-100","nome":"Vainodes","pais":"LVA","tipo":"Municipality","lat":56.43,"lng":21.83},"geometry":{"type":"Polygon","coordinates":[[[21.97,56.38],[21.74,56.32],[21.75,56.38],[21.67,56.42],[21.73,56.47],[21.71,56.55],[21.8,56.57],[21.96,56.51],[21.97,56.38]]]}},{"type":"Feature","properties":{"id":"LVA-010","nome":"Auces","pais":"LVA","tipo":"Municipality","lat":56.48,"lng":22.97},"geometry":{"type":"Polygon","coordinates":[[[23.06,56.3],[22.96,56.4],[22.73,56.42],[22.71,56.57],[22.85,56.54],[22.96,56.6],[23.09,56.55],[23.17,56.36],[23.06,56.3]]]}},{"type":"Feature","properties":{"id":"LVA-016","nome":"Bauska","pais":"LVA","tipo":"Municipality","lat":56.42,"lng":24.27},"geometry":{"type":"Polygon","coordinates":[[[24.57,56.31],[24.14,56.26],[23.98,56.31],[24.16,56.39],[24.04,56.43],[24.02,56.5],[24.34,56.54],[24.51,56.45],[24.53,56.41],[24.45,56.38],[24.51,56.36],[24.48,56.31],[24.57,56.31]]]}},{"type":"Feature","properties":{"id":"LVA-098","nome":"Tervetes","pais":"LVA","tipo":"Municipality","lat":56.43,"lng":23.31},"geometry":{"type":"Polygon","coordinates":[[[23.38,56.35],[23.17,56.36],[23.12,56.41],[23.31,56.46],[23.27,56.49],[23.38,56.55],[23.46,56.4],[23.38,56.35]]]}},{"type":"Feature","properties":{"id":"LVA-JEL","nome":"Jelgava","pais":"LVA","tipo":"Municipality","lat":56.49,"lng":23.65},"geometry":{"type":"Polygon","coordinates":[[[23.52,56.33],[23.38,56.35],[23.46,56.4],[23.42,56.49],[23.48,56.6],[23.41,56.61],[23.49,56.66],[23.42,56.71],[23.53,56.76],[23.46,56.88],[23.63,56.89],[23.77,56.8],[23.67,56.72],[23.73,56.69],[23.62,56.67],[23.67,56.6],[23.79,56.65],[23.91,56.61],[23.99,56.5],[23.84,56.43],[23.87,56.33],[23.52,56.33]]]}},{"type":"Feature","properties":{"id":"LVA-083","nome":"Rundales","pais":"LVA","tipo":"Municipality","lat":56.41,"lng":23.96},"geometry":{"type":"Polygon","coordinates":[[[23.98,56.31],[23.87,56.33],[23.84,56.43],[24.02,56.5],[24.04,56.43],[24.16,56.39],[23.98,56.31]]]}},{"type":"Feature","properties":{"id":"LVA-004","nome":"Aknistes","pais":"LVA","tipo":"Municipality","lat":56.16,"lng":25.79},"geometry":{"type":"Polygon","coordinates":[[[25.8,56.04],[25.65,56.14],[25.69,56.23],[25.88,56.22],[26.03,56.08],[25.94,56.06],[25.83,56.12],[25.86,56.08],[25.8,56.04]]]}},{"type":"Feature","properties":{"id":"LVA-036","nome":"Ilukstes","pais":"LVA","tipo":"Municipality","lat":56,"lng":26.18},"geometry":{"type":"Polygon","coordinates":[[[25.96,55.96],[25.8,56.04],[25.86,56.08],[25.83,56.12],[26.05,56.07],[26.21,56.16],[26.3,56.15],[26.39,55.98],[26.29,55.92],[26.35,55.81],[26.23,55.8],[25.96,55.96]]]}},{"type":"Feature","properties":{"id":"LVA-DGV","nome":"Daugavpils","pais":"LVA","tipo":"Municipality","lat":56.04,"lng":26.59},"geometry":{"type":"Polygon","coordinates":[[[26.59,55.67],[26.34,55.72],[26.23,55.8],[26.35,55.81],[26.29,55.92],[26.39,55.98],[26.3,56.18],[26.89,56.13],[26.97,56.06],[26.93,55.87],[26.98,55.83],[26.82,55.71],[26.59,55.67]],[[26.52,55.83],[26.63,55.9],[26.61,55.96],[26.44,55.91],[26.52,55.83]]]}},{"type":"Feature","properties":{"id":"LVA-024","nome":"Dagdas","pais":"LVA","tipo":"Municipality","lat":56.12,"lng":27.62},"geometry":{"type":"Polygon","coordinates":[[[28.05,56.14],[27.76,55.98],[27.37,56.02],[27.37,56.08],[27.24,56.11],[27.34,56.14],[27.3,56.2],[27.54,56.26],[27.84,56.18],[28.05,56.21],[28.05,56.14]]]}},{"type":"Feature","properties":{"id":"LVA-047","nome":"Kraslavas","pais":"LVA","tipo":"Municipality","lat":55.93,"lng":27.34},"geometry":{"type":"Polygon","coordinates":[[[27.76,55.98],[27.65,55.92],[27.59,55.79],[27.35,55.83],[27.26,55.79],[26.93,55.87],[26.93,56],[27.15,55.98],[27.19,56.05],[27.32,56.08],[27.37,56.08],[27.37,56.02],[27.76,55.98]]]}},{"type":"Feature","properties":{"id":"LVA-066","nome":"Nicas","pais":"LVA","tipo":"Municipality","lat":56.35,"lng":21.09},"geometry":{"type":"Polygon","coordinates":[[[20.97,56.26],[21.02,56.47],[21.06,56.39],[21.06,56.49],[21.21,56.43],[21.23,56.35],[21.18,56.36],[21.08,56.17],[21.03,56.27],[20.97,56.26]]]}},{"type":"Feature","properties":{"id":"LVA-032","nome":"Grobinas","pais":"LVA","tipo":"Municipality","lat":56.48,"lng":21.25},"geometry":{"type":"Polygon","coordinates":[[[21.06,56.49],[21.09,56.57],[21.02,56.62],[21.15,56.68],[21.26,56.66],[21.26,56.53],[21.35,56.54],[21.44,56.41],[21.38,56.33],[21.26,56.33],[21.21,56.43],[21.06,56.49]]]}},{"type":"Feature","properties":{"id":"LVA-071","nome":"Pavilostas","pais":"LVA","tipo":"Municipality","lat":56.81,"lng":21.25},"geometry":{"type":"Polygon","coordinates":[[[21.05,56.66],[21.07,56.85],[21.33,56.97],[21.49,56.9],[21.32,56.81],[21.26,56.66],[21.05,56.66]]]}},{"type":"Feature","properties":{"id":"LVA-VEN","nome":"Ventspils","pais":"LVA","tipo":"Municipality","lat":57.34,"lng":21.82},"geometry":{"type":"Polygon","coordinates":[[[21.33,56.97],[21.41,57.07],[21.42,57.29],[21.51,57.38],[21.57,57.34],[21.67,57.4],[21.62,57.47],[21.7,57.56],[22.19,57.66],[22.24,57.62],[22.27,57.51],[22.08,57.42],[22.28,57.38],[22.31,57.29],[22.19,57.21],[22.19,57.12],[21.64,57.11],[21.51,57.08],[21.45,56.95],[21.33,56.97]]]}},{"type":"Feature","properties":{"id":"LVA-VEN2","nome":"Ventspils","pais":"LVA","tipo":"Republican City","lat":57.4,"lng":21.59},"geometry":{"type":"Polygon","coordinates":[[[21.51,57.38],[21.62,57.47],[21.67,57.4],[21.57,57.34],[21.51,57.38]]]}},{"type":"Feature","properties":{"id":"LVA-027","nome":"Dundagas","pais":"LVA","tipo":"Municipality","lat":57.58,"lng":22.41},"geometry":{"type":"Polygon","coordinates":[[[22.19,57.66],[22.61,57.75],[22.57,57.62],[22.63,57.5],[22.55,57.5],[22.48,57.41],[22.08,57.42],[22.27,57.51],[22.19,57.66]]]}},{"type":"Feature","properties":{"id":"LVA-079","nome":"Rojas","pais":"LVA","tipo":"Municipality","lat":57.49,"lng":22.77},"geometry":{"type":"Polygon","coordinates":[[[22.59,57.66],[22.99,57.41],[22.89,57.37],[22.71,57.44],[22.63,57.5],[22.59,57.66]]]}},{"type":"Feature","properties":{"id":"LVA-097","nome":"Talsi","pais":"LVA","tipo":"Municipality","lat":57.32,"lng":22.62},"geometry":{"type":"Polygon","coordinates":[[[22.99,57.41],[23.03,57.39],[22.92,57.33],[23.08,57.24],[22.91,57.14],[22.64,57.09],[22.64,57.02],[22.38,57.02],[22.35,57.11],[22.19,57.2],[22.31,57.29],[22.28,57.43],[22.48,57.41],[22.55,57.5],[22.89,57.37],[22.99,57.41]]]}},{"type":"Feature","properties":{"id":"LVA-063","nome":"Mersraga","pais":"LVA","tipo":"Municipality","lat":57.33,"lng":23.06},"geometry":{"type":"Polygon","coordinates":[[[23.03,57.39],[23.16,57.32],[23.08,57.24],[22.92,57.33],[23.03,57.39]]]}},{"type":"Feature","properties":{"id":"LVA-029","nome":"Engures","pais":"LVA","tipo":"Municipality","lat":57,"lng":23.32},"geometry":{"type":"Polygon","coordinates":[[[23.16,57.32],[23.26,57.1],[23.58,56.98],[23.37,56.91],[23.15,56.92],[23.23,57.07],[23.1,57.16],[23.16,57.32]]]}},{"type":"Feature","properties":{"id":"LVA-JUR","nome":"Jurmala","pais":"LVA","tipo":"Republican City","lat":56.96,"lng":23.74},"geometry":{"type":"Polygon","coordinates":[[[23.58,56.98],[23.95,56.99],[23.47,56.94],[23.58,56.98]]]}},{"type":"Feature","properties":{"id":"LVA-RIX","nome":"Riga","pais":"LVA","tipo":"Republican City","lat":56.99,"lng":24.12},"geometry":{"type":"Polygon","coordinates":[[[23.93,57.01],[24.11,57.09],[24.32,56.97],[24.23,56.93],[24.26,56.87],[24.07,56.87],[23.94,56.94],[24,56.98],[23.93,57.01]]]}},{"type":"Feature","properties":{"id":"LVA-020","nome":"Carnikavas","pais":"LVA","tipo":"Municipality","lat":57.12,"lng":24.25},"geometry":{"type":"Polygon","coordinates":[[[24.11,57.09],[24.35,57.18],[24.25,57.06],[24.11,57.09]]]}},{"type":"Feature","properties":{"id":"LVA-089","nome":"Saulkrastu","pais":"LVA","tipo":"Municipality","lat":57.26,"lng":24.43},"geometry":{"type":"Polygon","coordinates":[[[24.33,57.2],[24.4,57.26],[24.4,57.35],[24.49,57.24],[24.33,57.2]]]}},{"type":"Feature","properties":{"id":"LVA-054","nome":"Limbaži","pais":"LVA","tipo":"Municipality","lat":57.59,"lng":24.69},"geometry":{"type":"Polygon","coordinates":[[[24.4,57.35],[24.39,57.4],[24.58,57.46],[24.55,57.54],[24.43,57.57],[24.42,57.67],[24.56,57.67],[24.65,57.77],[24.83,57.72],[24.89,57.57],[25.09,57.51],[24.69,57.39],[24.7,57.35],[24.64,57.32],[24.71,57.23],[24.55,57.32],[24.43,57.29],[24.4,57.35]]]}},{"type":"Feature","properties":{"id":"LVA-094","nome":"Smiltenes","pais":"LVA","tipo":"Municipality","lat":57.4,"lng":26.01},"geometry":{"type":"Polygon","coordinates":[[[26.31,57.5],[26.26,57.28],[26.06,57.27],[25.75,57.28],[25.66,57.46],[25.94,57.48],[25.98,57.55],[26.12,57.57],[26.31,57.5]]]}},{"type":"Feature","properties":{"id":"LVA-015","nome":"Balvu","pais":"LVA","tipo":"Municipality","lat":57.02,"lng":27.43},"geometry":{"type":"Polygon","coordinates":[[[27.35,57.28],[27.49,57.27],[27.4,57.16],[27.66,56.99],[27.42,56.9],[27.45,56.85],[27.35,56.78],[26.93,56.83],[27.04,56.88],[27.2,56.86],[27.33,56.94],[27.25,56.99],[27.33,57.06],[27.01,57.11],[27.35,57.28]]]}},{"type":"Feature","properties":{"id":"LVA-096","nome":"Strencu","pais":"LVA","tipo":"Municipality","lat":57.64,"lng":25.79},"geometry":{"type":"Polygon","coordinates":[[[25.73,57.57],[25.51,57.65],[25.62,57.72],[25.85,57.75],[25.86,57.68],[25.99,57.67],[25.88,57.6],[25.9,57.53],[25.96,57.52],[25.94,57.48],[25.78,57.5],[25.82,57.52],[25.73,57.57]]]}},{"type":"Feature","properties":{"id":"LVA-017","nome":"Beverinas","pais":"LVA","tipo":"Municipality","lat":57.53,"lng":25.59},"geometry":{"type":"Polygon","coordinates":[[[25.63,57.62],[25.82,57.52],[25.4,57.44],[25.38,57.51],[25.63,57.62]]]}},{"type":"Feature","properties":{"id":"LVA-019","nome":"Burtnieku","pais":"LVA","tipo":"Municipality","lat":57.68,"lng":25.34},"geometry":{"type":"Polygon","coordinates":[[[25.55,57.79],[25.69,57.74],[25.51,57.65],[25.59,57.61],[25.46,57.54],[25.19,57.67],[25.09,57.65],[25.1,57.74],[25.02,57.8],[25.13,57.8],[25.14,57.84],[25.27,57.78],[25.55,57.79]]]}},{"type":"Feature","properties":{"id":"LVA-045","nome":"Kocenu","pais":"LVA","tipo":"Municipality","lat":57.54,"lng":25.21},"geometry":{"type":"Polygon","coordinates":[[[24.92,57.56],[24.88,57.62],[25.19,57.67],[25.38,57.55],[25.39,57.39],[25.21,57.42],[25.02,57.56],[24.92,57.56]]]}},{"type":"Feature","properties":{"id":"LVA-REZ","nome":"Rezeknes","pais":"LVA","tipo":"Municipality","lat":56.36,"lng":27.26},"geometry":{"type":"Polygon","coordinates":[[[26.93,56.83],[27.46,56.77],[27.47,56.66],[27.58,56.62],[27.5,56.48],[27.69,56.36],[27.7,56.26],[27.04,56.18],[26.95,56.3],[26.99,56.33],[26.9,56.41],[27.03,56.45],[27.01,56.56],[26.77,56.68],[26.93,56.83]]]}},{"type":"Feature","properties":{"id":"LVA-104","nome":"Vecpiebalgas","pais":"LVA","tipo":"Municipality","lat":57.11,"lng":25.7},"geometry":{"type":"Polygon","coordinates":[[[25.75,57.28],[25.77,57.15],[25.92,57.1],[25.92,56.98],[25.5,56.99],[25.62,57.07],[25.54,57.12],[25.56,57.22],[25.75,57.28]]]}},{"type":"Feature","properties":{"id":"LVA-076","nome":"Raunas","pais":"LVA","tipo":"Municipality","lat":57.34,"lng":25.64},"geometry":{"type":"MultiPolygon","coordinates":[[[[25.66,57.46],[25.75,57.28],[25.6,57.26],[25.51,57.35],[25.66,57.46]]],[[[25.99,57.29],[26.06,57.25],[25.95,57.19],[25.75,57.21],[25.77,57.28],[25.99,57.29]]]]}},{"type":"Feature","properties":{"id":"LVA-075","nome":"Priekulu","pais":"LVA","tipo":"Municipality","lat":57.37,"lng":25.44},"geometry":{"type":"Polygon","coordinates":[[[25.6,57.47],[25.66,57.46],[25.6,57.38],[25.51,57.36],[25.6,57.29],[25.55,57.21],[25.23,57.33],[25.38,57.37],[25.4,57.44],[25.6,57.47]]]}},{"type":"Feature","properties":{"id":"LVA-070","nome":"Pargaujas","pais":"LVA","tipo":"Municipality","lat":57.36,"lng":25.08},"geometry":{"type":"Polygon","coordinates":[[[25.08,57.5],[25.39,57.39],[25.25,57.35],[25.21,57.26],[24.98,57.24],[24.8,57.41],[25.08,57.5]]]}},{"type":"Feature","properties":{"id":"LVA-048","nome":"Krimuldas","pais":"LVA","tipo":"Municipality","lat":57.28,"lng":24.79},"geometry":{"type":"Polygon","coordinates":[[[24.83,57.4],[24.93,57.25],[24.8,57.14],[24.67,57.13],[24.62,57.2],[24.71,57.23],[24.64,57.32],[24.7,57.35],[24.69,57.39],[24.83,57.4]]]}},{"type":"Feature","properties":{"id":"LVA-033","nome":"Gulbene","pais":"LVA","tipo":"Municipality","lat":57.17,"lng":26.58},"geometry":{"type":"Polygon","coordinates":[[[26.13,57.28],[26.42,57.33],[26.52,57.41],[26.71,57.31],[26.99,57.3],[27.16,57.23],[26.86,56.98],[26.57,56.95],[26.5,57.06],[26.12,57.08],[26.17,57.14],[26,57.24],[26.13,57.28]]]}},{"type":"Feature","properties":{"id":"LVA-082","nome":"Rugaju","pais":"LVA","tipo":"Municipality","lat":56.99,"lng":27.11},"geometry":{"type":"Polygon","coordinates":[[[26.86,56.98],[27.01,57.11],[27.1,57.11],[27.33,57.06],[27.25,56.99],[27.33,56.94],[27.2,56.86],[26.99,56.88],[26.86,56.98]]]}},{"type":"Feature","properties":{"id":"LVA-039","nome":"Jaunpiebalgas","pais":"LVA","tipo":"Municipality","lat":57.14,"lng":26.01},"geometry":{"type":"Polygon","coordinates":[[[26.01,57.22],[26.17,57.14],[26.12,57.08],[25.88,57.1],[25.76,57.17],[26.01,57.22]]]}},{"type":"Feature","properties":{"id":"LVA-001","nome":"Aglonas","pais":"LVA","tipo":"Municipality","lat":56.1,"lng":27.09},"geometry":{"type":"Polygon","coordinates":[[[27.04,56.18],[27.3,56.2],[27.34,56.14],[27.24,56.11],[27.26,56.07],[27.15,55.98],[27.04,55.98],[26.89,56.13],[27.04,56.18]]]}},{"type":"Feature","properties":{"id":"LVA-078","nome":"Riebinu","pais":"LVA","tipo":"Municipality","lat":56.36,"lng":26.82},"geometry":{"type":"Polygon","coordinates":[[[26.93,56.45],[26.9,56.41],[26.99,56.33],[26.95,56.3],[27.04,56.18],[26.93,56.12],[26.8,56.19],[26.84,56.21],[26.78,56.28],[26.65,56.34],[26.73,56.4],[26.54,56.47],[26.74,56.56],[26.95,56.48],[26.93,56.45]]]}},{"type":"Feature","properties":{"id":"LVA-109","nome":"Vilanu","pais":"LVA","tipo":"Municipality","lat":56.55,"lng":26.89},"geometry":{"type":"Polygon","coordinates":[[[26.83,56.49],[26.73,56.58],[26.79,56.61],[26.77,56.68],[26.98,56.59],[27.04,56.47],[26.83,56.49]]]}},{"type":"Feature","properties":{"id":"LVA-012","nome":"Babites","pais":"LVA","tipo":"Municipality","lat":56.89,"lng":23.76},"geometry":{"type":"Polygon","coordinates":[[[23.95,56.99],[24,56.98],[23.82,56.88],[23.82,56.8],[23.49,56.93],[23.95,56.99]]]}},{"type":"Feature","properties":{"id":"LVA-031","nome":"Garkalnes","pais":"LVA","tipo":"Municipality","lat":57.02,"lng":24.39},"geometry":{"type":"Polygon","coordinates":[[[24.32,56.97],[24.16,57.05],[24.32,57.03],[24.51,57.11],[24.57,57.06],[24.53,57],[24.32,56.97]]]}},{"type":"Feature","properties":{"id":"LVA-052","nome":"Kekavas","pais":"LVA","tipo":"Municipality","lat":56.81,"lng":24.26},"geometry":{"type":"Polygon","coordinates":[[[24.16,56.9],[24.22,56.83],[24.46,56.84],[24.54,56.77],[24.25,56.79],[24.27,56.75],[24.19,56.72],[24.01,56.71],[24.01,56.76],[24.11,56.8],[24.09,56.88],[24.16,56.9]]]}},{"type":"Feature","properties":{"id":"LVA-062","nome":"Marupes","pais":"LVA","tipo":"Municipality","lat":56.89,"lng":23.94},"geometry":{"type":"Polygon","coordinates":[[[23.94,56.94],[24.07,56.89],[23.85,56.83],[23.82,56.88],[23.94,56.94]]]}},{"type":"Feature","properties":{"id":"LVA-068","nome":"Olaines","pais":"LVA","tipo":"Municipality","lat":56.79,"lng":23.96},"geometry":{"type":"Polygon","coordinates":[[[24.07,56.89],[24.12,56.82],[24.09,56.76],[23.76,56.74],[23.78,56.82],[24.07,56.89]]]}},{"type":"Feature","properties":{"id":"LVA-087","nome":"Salaspils","pais":"LVA","tipo":"Municipality","lat":56.87,"lng":24.37},"geometry":{"type":"Polygon","coordinates":[[[24.26,56.87],[24.23,56.93],[24.46,56.89],[24.44,56.84],[24.31,56.82],[24.18,56.87],[24.26,56.87]]]}},{"type":"Feature","properties":{"id":"LVA-095","nome":"Stopinu","pais":"LVA","tipo":"Municipality","lat":56.94,"lng":24.33},"geometry":{"type":"Polygon","coordinates":[[[24.23,56.93],[24.32,56.97],[24.41,56.93],[24.23,56.93]]]}},{"type":"Feature","properties":{"id":"LVA-090","nome":"Sejas","pais":"LVA","tipo":"Municipality","lat":57.2,"lng":24.53},"geometry":{"type":"Polygon","coordinates":[[[24.55,57.32],[24.68,57.22],[24.62,57.2],[24.67,57.13],[24.51,57.11],[24.47,57.18],[24.37,57.18],[24.49,57.24],[24.46,57.29],[24.55,57.32]]]}},{"type":"Feature","properties":{"id":"LVA-061","nome":"Malpils","pais":"LVA","tipo":"Municipality","lat":57,"lng":24.96},"geometry":{"type":"Polygon","coordinates":[[[24.98,57.08],[25.14,56.95],[24.81,56.93],[24.89,57.01],[24.88,57.1],[24.98,57.08]]]}},{"type":"Feature","properties":{"id":"LVA-091","nome":"Siguldas","pais":"LVA","tipo":"Municipality","lat":57.1,"lng":24.83},"geometry":{"type":"Polygon","coordinates":[[[25.15,56.99],[24.88,57.1],[24.89,57.01],[24.85,56.98],[24.73,56.99],[24.63,57.06],[24.76,57.08],[24.9,57.22],[24.99,57.12],[25.17,57.07],[25.15,56.99]]]}},{"type":"Feature","properties":{"id":"LVA-059","nome":"Madona","pais":"LVA","tipo":"Municipality","lat":56.81,"lng":26.23},"geometry":{"type":"Polygon","coordinates":[[[26.95,56.85],[26.77,56.68],[26.71,56.72],[26.39,56.68],[26.29,56.59],[26.13,56.65],[25.93,56.64],[25.75,56.87],[25.95,56.91],[25.89,56.96],[25.95,57.1],[26.18,57.08],[26.17,56.95],[26.22,56.93],[26.36,56.93],[26.41,56.99],[26.37,57.04],[26.5,57.06],[26.57,56.95],[26.47,56.85],[26.54,56.8],[26.71,56.9],[26.95,56.85]]]}},{"type":"Feature","properties":{"id":"LVA-057","nome":"Lubanas","pais":"LVA","tipo":"Municipality","lat":56.94,"lng":26.71},"geometry":{"type":"Polygon","coordinates":[[[26.99,56.88],[26.71,56.9],[26.54,56.8],[26.47,56.85],[26.57,56.95],[26.76,56.99],[26.91,56.97],[26.99,56.88]]]}},{"type":"Feature","properties":{"id":"LVA-102","nome":"Varaklanu","pais":"LVA","tipo":"Municipality","lat":56.63,"lng":26.64},"geometry":{"type":"Polygon","coordinates":[[[26.77,56.68],[26.79,56.61],[26.72,56.54],[26.38,56.64],[26.39,56.68],[26.68,56.72],[26.77,56.68]]]}},{"type":"Feature","properties":{"id":"LVA-008","nome":"Amatas","pais":"LVA","tipo":"Municipality","lat":57.08,"lng":25.34},"geometry":{"type":"Polygon","coordinates":[[[25.5,56.99],[25.4,56.94],[25.34,56.98],[25.14,56.95],[25.17,57.07],[25.11,57.11],[25.21,57.15],[25.09,57.25],[25.23,57.3],[25.38,57.19],[25.56,57.15],[25.62,57.07],[25.5,56.99]]]}},{"type":"Feature","properties":{"id":"LVA-030","nome":"Erglu","pais":"LVA","tipo":"Municipality","lat":56.9,"lng":25.67},"geometry":{"type":"Polygon","coordinates":[[[25.49,56.99],[25.81,56.99],[25.95,56.93],[25.77,56.89],[25.69,56.77],[25.51,56.81],[25.48,56.87],[25.56,56.87],[25.49,56.99]]]}},{"type":"Feature","properties":{"id":"LVA-021","nome":"Cesvaines","pais":"LVA","tipo":"Municipality","lat":57.01,"lng":26.28},"geometry":{"type":"Polygon","coordinates":[[[26.32,57.1],[26.41,56.99],[26.36,56.93],[26.17,56.95],[26.18,57.08],[26.32,57.1]]]}},{"type":"Feature","properties":{"id":"LVA-067","nome":"Ogre","pais":"LVA","tipo":"Municipality","lat":56.86,"lng":25.13},"geometry":{"type":"Polygon","coordinates":[[[25.47,56.99],[25.56,56.87],[25.48,56.87],[25.51,56.81],[25.44,56.78],[25.27,56.75],[25.28,56.7],[24.82,56.83],[24.72,56.74],[24.59,56.81],[24.81,56.93],[25.34,56.98],[25.4,56.94],[25.47,56.99]]]}},{"type":"Feature","properties":{"id":"LVA-080","nome":"Ropazu","pais":"LVA","tipo":"Municipality","lat":56.96,"lng":24.58},"geometry":{"type":"Polygon","coordinates":[[[24.81,56.93],[24.5,56.87],[24.37,56.94],[24.4,56.99],[24.53,57],[24.52,57.05],[24.63,57.06],[24.82,56.99],[24.81,56.93]]]}},{"type":"Feature","properties":{"id":"LVA-035","nome":"Ikskiles","pais":"LVA","tipo":"Municipality","lat":56.85,"lng":24.57},"geometry":{"type":"Polygon","coordinates":[[[24.51,56.82],[24.44,56.88],[24.74,56.87],[24.51,56.82]]]}},{"type":"Feature","properties":{"id":"LVA-013","nome":"Baldones","pais":"LVA","tipo":"Municipality","lat":56.73,"lng":24.36},"geometry":{"type":"Polygon","coordinates":[[[24.53,56.75],[24.37,56.66],[24.19,56.72],[24.27,56.75],[24.25,56.79],[24.53,56.75]]]}},{"type":"Feature","properties":{"id":"LVA-051","nome":"Keguma","pais":"LVA","tipo":"Municipality","lat":56.65,"lng":24.73},"geometry":{"type":"Polygon","coordinates":[[[24.52,56.71],[24.51,56.82],[24.72,56.74],[24.82,56.83],[24.92,56.8],[24.8,56.72],[25.06,56.6],[24.66,56.54],[24.7,56.58],[24.59,56.64],[24.63,56.68],[24.52,56.71]]]}},{"type":"Feature","properties":{"id":"LVA-034","nome":"Iecavas","pais":"LVA","tipo":"Municipality","lat":56.61,"lng":24.21},"geometry":{"type":"Polygon","coordinates":[[[24.25,56.7],[24.36,56.66],[24.37,56.62],[24.31,56.61],[24.38,56.53],[24.08,56.54],[24.11,56.57],[24.01,56.66],[24.25,56.7]]]}},{"type":"Feature","properties":{"id":"LVA-072","nome":"Plavinu","pais":"LVA","tipo":"Municipality","lat":56.69,"lng":25.73},"geometry":{"type":"Polygon","coordinates":[[[25.77,56.83],[25.93,56.64],[25.49,56.59],[25.62,56.72],[25.6,56.77],[25.77,56.83]]]}},{"type":"Feature","properties":{"id":"LVA-046","nome":"Kokneses","pais":"LVA","tipo":"Municipality","lat":56.7,"lng":25.44},"geometry":{"type":"Polygon","coordinates":[[[25.51,56.81],[25.69,56.77],[25.6,56.77],[25.62,56.72],[25.52,56.61],[25.29,56.59],[25.3,56.72],[25.26,56.74],[25.51,56.81]]]}},{"type":"Feature","properties":{"id":"LVA-002","nome":"Aizkraukles","pais":"LVA","tipo":"Municipality","lat":56.65,"lng":25.23},"geometry":{"type":"Polygon","coordinates":[[[25.22,56.71],[25.29,56.68],[25.29,56.59],[25.14,56.62],[25.22,56.71]]]}},{"type":"Feature","properties":{"id":"LVA-092","nome":"Skriveru","pais":"LVA","tipo":"Municipality","lat":56.68,"lng":25.1},"geometry":{"type":"Polygon","coordinates":[[[25.1,56.74],[25.18,56.7],[25.18,56.64],[25.02,56.61],[25.03,56.73],[25.1,56.74]]]}},{"type":"Feature","properties":{"id":"LVA-053","nome":"Lielvardes","pais":"LVA","tipo":"Municipality","lat":56.73,"lng":24.95},"geometry":{"type":"Polygon","coordinates":[[[25.1,56.74],[25.03,56.73],[24.99,56.62],[24.8,56.72],[24.94,56.81],[25.1,56.74]]]}},{"type":"Feature","properties":{"id":"LVA-038","nome":"Jaunjelgavas","pais":"LVA","tipo":"Municipality","lat":56.51,"lng":25.3},"geometry":{"type":"Polygon","coordinates":[[[24.95,56.58],[25.4,56.63],[25.61,56.57],[25.56,56.51],[25.59,56.46],[25.48,56.42],[25.07,56.4],[24.95,56.58]]]}},{"type":"Feature","properties":{"id":"LVA-073","nome":"Preilu","pais":"LVA","tipo":"Municipality","lat":56.27,"lng":26.7},"geometry":{"type":"Polygon","coordinates":[[[26.75,56.11],[26.62,56.15],[26.67,56.18],[26.66,56.26],[26.46,56.36],[26.48,56.39],[26.54,56.38],[26.62,56.45],[26.73,56.4],[26.65,56.34],[26.78,56.28],[26.84,56.21],[26.8,56.19],[26.89,56.13],[26.75,56.11]]]}},{"type":"Feature","properties":{"id":"LVA-056","nome":"Livanu","pais":"LVA","tipo":"Municipality","lat":56.38,"lng":26.32},"geometry":{"type":"Polygon","coordinates":[[[26.34,56.19],[26.19,56.23],[26.16,56.38],[26.09,56.41],[26.26,56.51],[26.36,56.45],[26.54,56.49],[26.58,56.43],[26.54,56.38],[26.46,56.36],[26.6,56.28],[26.44,56.27],[26.36,56.31],[26.29,56.28],[26.34,56.19]]]}},{"type":"Feature","properties":{"id":"LVA-103","nome":"Varkavas","pais":"LVA","tipo":"Municipality","lat":56.22,"lng":26.51},"geometry":{"type":"Polygon","coordinates":[[[26.51,56.13],[26.34,56.19],[26.29,56.28],[26.66,56.26],[26.67,56.18],[26.6,56.17],[26.65,56.14],[26.51,56.13]]]}},{"type":"Feature","properties":{"id":"LVA-JKB","nome":"Jekabpils","pais":"LVA","tipo":"Municipality","lat":56.32,"lng":25.96},"geometry":{"type":"Polygon","coordinates":[[[26.09,56.41],[26.16,56.38],[26.19,56.23],[26.33,56.16],[26.35,56.09],[26.22,56.17],[26.05,56.07],[25.88,56.22],[25.69,56.23],[25.68,56.29],[25.84,56.41],[25.82,56.49],[26.09,56.41]]]}},{"type":"Feature","properties":{"id":"LVA-049","nome":"Krustpils","pais":"LVA","tipo":"Municipality","lat":56.56,"lng":26.2},"geometry":{"type":"Polygon","coordinates":[[[26.36,56.45],[26.29,56.52],[26.09,56.41],[25.88,56.5],[25.92,56.53],[25.79,56.53],[25.76,56.61],[25.98,56.67],[26.29,56.59],[26.38,56.64],[26.59,56.6],[26.63,56.54],[26.6,56.49],[26.36,56.45]]]}},{"type":"Feature","properties":{"id":"LVA-086","nome":"Salas","pais":"LVA","tipo":"Municipality","lat":56.49,"lng":25.72},"geometry":{"type":"Polygon","coordinates":[[[25.74,56.62],[25.84,56.41],[25.73,56.35],[25.61,56.43],[25.56,56.51],[25.61,56.57],[25.56,56.57],[25.74,56.62]]]}},{"type":"Feature","properties":{"id":"LVA-003","nome":"Aizputes","pais":"LVA","tipo":"Municipality","lat":56.72,"lng":21.59},"geometry":{"type":"Polygon","coordinates":[[[21.44,56.87],[21.74,56.76],[21.82,56.69],[21.8,56.57],[21.58,56.55],[21.61,56.64],[21.45,56.65],[21.34,56.72],[21.32,56.81],[21.44,56.87]]]}},{"type":"Feature","properties":{"id":"LVA-050","nome":"Kuldigas","pais":"LVA","tipo":"Municipality","lat":56.96,"lng":21.99},"geometry":{"type":"Polygon","coordinates":[[[21.53,56.84],[21.44,56.87],[21.71,56.96],[21.57,57.09],[21.64,57.11],[22.1,57.1],[22.19,57.12],[22.21,57.18],[22.35,57.11],[22.38,57.02],[22.51,57.01],[22.42,56.89],[22.26,56.89],[22.34,56.85],[22.2,56.8],[21.98,56.82],[21.93,56.8],[21.96,56.73],[21.82,56.69],[21.53,56.84]]]}},{"type":"Feature","properties":{"id":"LVA-006","nome":"Alsungas","pais":"LVA","tipo":"Municipality","lat":56.99,"lng":21.56},"geometry":{"type":"Polygon","coordinates":[[[21.49,56.9],[21.39,56.93],[21.47,56.97],[21.51,57.08],[21.57,57.09],[21.69,57],[21.71,56.96],[21.49,56.9]]]}},{"type":"Feature","properties":{"id":"LVA-093","nome":"Skrundas","pais":"LVA","tipo":"Municipality","lat":56.64,"lng":21.99},"geometry":{"type":"Polygon","coordinates":[[[21.87,56.52],[21.78,56.61],[21.84,56.7],[21.96,56.73],[21.93,56.8],[22.16,56.8],[22.19,56.74],[22.1,56.67],[22.13,56.58],[22.01,56.56],[22.06,56.51],[21.87,56.52]]]}},{"type":"Feature","properties":{"id":"LVA-043","nome":"Kandavas","pais":"LVA","tipo":"Municipality","lat":56.94,"lng":22.7},"geometry":{"type":"Polygon","coordinates":[[[22.45,56.92],[22.51,57.01],[22.64,57.02],[22.64,57.09],[22.96,57.13],[22.84,57.08],[22.88,57.02],[22.82,56.97],[22.94,56.86],[22.64,56.81],[22.49,56.85],[22.53,56.91],[22.45,56.92]]]}},{"type":"Feature","properties":{"id":"LVA-099","nome":"Tukums","pais":"LVA","tipo":"Municipality","lat":56.95,"lng":23.01},"geometry":{"type":"Polygon","coordinates":[[[23.49,56.93],[23.49,56.82],[23.17,56.69],[23.04,56.81],[22.93,56.81],[22.92,56.92],[22.82,56.97],[22.88,57.02],[22.84,57.08],[23.11,57.27],[23.1,57.16],[23.23,57.07],[23.15,56.92],[23.49,56.93]]]}},{"type":"Feature","properties":{"id":"LVA-026","nome":"Dobele","pais":"LVA","tipo":"Municipality","lat":56.62,"lng":23.2},"geometry":{"type":"Polygon","coordinates":[[[23.4,56.79],[23.49,56.82],[23.53,56.76],[23.42,56.71],[23.49,56.66],[23.41,56.61],[23.48,56.6],[23.44,56.5],[23.36,56.55],[23.27,56.49],[23.31,56.46],[23.15,56.43],[23.02,56.59],[22.85,56.54],[22.78,56.59],[22.86,56.64],[22.8,56.7],[23.17,56.69],[23.4,56.79]]]}},{"type":"Feature","properties":{"id":"LVA-040","nome":"Jaunpils","pais":"LVA","tipo":"Municipality","lat":56.77,"lng":22.91},"geometry":{"type":"Polygon","coordinates":[[[23.08,56.69],[22.83,56.7],[22.79,56.8],[22.94,56.86],[22.93,56.81],[23.06,56.79],[23.12,56.7],[23.08,56.69]]]}},{"type":"Feature","properties":{"id":"LVA-018","nome":"Brocenu","pais":"LVA","tipo":"Municipality","lat":56.7,"lng":22.64},"geometry":{"type":"Polygon","coordinates":[[[22.79,56.8],[22.81,56.68],[22.86,56.64],[22.76,56.56],[22.55,56.58],[22.44,56.77],[22.49,56.85],[22.79,56.8]]]}},{"type":"Feature","properties":{"id":"LVA-069","nome":"Ozolnieku","pais":"LVA","tipo":"Municipality","lat":56.64,"lng":23.95},"geometry":{"type":"Polygon","coordinates":[[[24,56.73],[24.03,56.6],[24.11,56.57],[24.04,56.5],[23.67,56.72],[24,56.73]]]}},{"type":"Feature","properties":{"id":"LVA-JEL2","nome":"Jelgava","pais":"LVA","tipo":"Republican City","lat":56.65,"lng":23.7},"geometry":{"type":"Polygon","coordinates":[[[23.68,56.67],[23.81,56.65],[23.71,56.59],[23.62,56.67],[23.68,56.67]]]}},{"type":"Feature","properties":{"id":"LVA-DGV2","nome":"Daugavpils","pais":"LVA","tipo":"Republican City","lat":55.88,"lng":26.55},"geometry":{"type":"Polygon","coordinates":[[[26.59,55.96],[26.63,55.9],[26.58,55.84],[26.52,55.83],[26.44,55.91],[26.59,55.96]]]}},{"type":"Feature","properties":{"id":"LVA-REZ2","nome":"Rezekne","pais":"LVA","tipo":"Republican City","lat":56.52,"lng":27.33},"geometry":{"type":"Polygon","coordinates":[[[27.34,56.56],[27.36,56.49],[27.28,56.49],[27.34,56.56]]]}},{"type":"Feature","properties":{"id":"LVA-028","nome":"Durbes","pais":"LVA","tipo":"Municipality","lat":56.61,"lng":21.41},"geometry":{"type":"Polygon","coordinates":[[[21.29,56.76],[21.45,56.65],[21.61,56.64],[21.62,56.59],[21.5,56.55],[21.53,56.51],[21.4,56.56],[21.35,56.5],[21.35,56.54],[21.26,56.53],[21.29,56.76]]]}},{"type":"Feature","properties":{"id":"LVA-037","nome":"Incukalna","pais":"LVA","tipo":"Municipality","lat":57.1,"lng":24.64},"geometry":{"type":"Polygon","coordinates":[[[24.63,57.06],[24.51,57.11],[24.78,57.14],[24.76,57.08],[24.63,57.06]]]}},{"type":"Feature","properties":{"id":"LVA-011","nome":"Ādaži","pais":"LVA","tipo":"Municipality","lat":57.11,"lng":24.39},"geometry":{"type":"Polygon","coordinates":[[[24.35,57.18],[24.47,57.18],[24.51,57.11],[24.26,57.04],[24.35,57.18]]]}},{"type":"Feature","properties":{"id":"LVA-022","nome":"Cesu","pais":"LVA","tipo":"Municipality","lat":57.24,"lng":25.43},"geometry":{"type":"Polygon","coordinates":[[[25.23,57.3],[25.47,57.28],[25.58,57.2],[25.56,57.15],[25.38,57.19],[25.23,57.3]]]}},{"type":"Feature","properties":{"id":"LVA-055","nome":"Ligatnes","pais":"LVA","tipo":"Municipality","lat":57.18,"lng":25.07},"geometry":{"type":"Polygon","coordinates":[[[24.98,57.24],[25.16,57.23],[25.21,57.15],[24.99,57.12],[24.9,57.22],[24.98,57.24]]]}},{"type":"Feature","properties":{"id":"LVA-JKB2","nome":"Jekabpils","pais":"LVA","tipo":"Republican City","lat":56.51,"lng":25.86},"geometry":{"type":"Polygon","coordinates":[[[25.82,56.49],[25.85,56.54],[25.93,56.51],[25.82,56.49]]]}}]}