{"type":"FeatureCollection","features":[{"type":"Feature","properties":{"id":"MDA-BR","nome":"Briceni","pais":"MDA","tipo":"District","lat":48.26,"lng":26.96},"geometry":{"type":"Polygon","coordinates":[[[26.72,48.26],[26.62,48.26],[26.68,48.33],[26.77,48.29],[26.78,48.37],[26.84,48.39],[26.94,48.35],[27.04,48.4],[27.25,48.38],[27.31,48.3],[27.28,48.23],[27.13,48.24],[27.05,48.12],[26.72,48.26]]]}},{"type":"Feature","properties":{"id":"MDA-ED","nome":"Edineţ","pais":"MDA","tipo":"District","lat":48.13,"lng":27.3},"geometry":{"type":"Polygon","coordinates":[[[27.1,48.01],[27.03,48.1],[27.15,48.26],[27.28,48.23],[27.31,48.3],[27.56,48.19],[27.56,48.06],[27.48,48.02],[27.3,48.02],[27.18,47.94],[27.1,48.01]]]}},{"type":"Feature","properties":{"id":"MDA-RI","nome":"Rîşcani","pais":"MDA","tipo":"District","lat":47.96,"lng":27.56},"geometry":{"type":"Polygon","coordinates":[[[27.29,47.75],[27.16,47.92],[27.3,48.02],[27.56,48.06],[27.55,48.12],[27.69,48.05],[27.68,47.95],[27.83,47.96],[27.95,47.85],[27.85,47.78],[27.48,47.86],[27.29,47.75]]]}},{"type":"Feature","properties":{"id":"MDA-GL","nome":"Glodeni","pais":"MDA","tipo":"District","lat":47.75,"lng":27.57},"geometry":{"type":"Polygon","coordinates":[[[27.43,47.58],[27.27,47.71],[27.38,47.84],[27.76,47.84],[27.86,47.77],[27.43,47.58]]]}},{"type":"Feature","properties":{"id":"MDA-FA","nome":"Făleşti","pais":"MDA","tipo":"District","lat":47.57,"lng":27.72},"geometry":{"type":"Polygon","coordinates":[[[27.43,47.57],[27.81,47.77],[27.96,47.74],[27.94,47.68],[28.02,47.62],[27.93,47.55],[28.01,47.5],[27.98,47.46],[27.59,47.37],[27.58,47.46],[27.47,47.49],[27.43,47.57]]]}},{"type":"Feature","properties":{"id":"MDA-UN","nome":"Ungheni","pais":"MDA","tipo":"District","lat":47.26,"lng":27.91},"geometry":{"type":"Polygon","coordinates":[[[28.01,47.03],[27.81,47.14],[27.73,47.28],[27.59,47.37],[27.93,47.47],[28.23,47.42],[28.09,47.33],[28.16,47.29],[28,47.24],[27.97,47.14],[28.06,47.04],[28.01,47.03]]]}},{"type":"Feature","properties":{"id":"MDA-NI","nome":"Nisporeni","pais":"MDA","tipo":"District","lat":47.05,"lng":28.24},"geometry":{"type":"Polygon","coordinates":[[[28.1,46.92],[27.97,47.14],[28,47.24],[28.09,47.25],[28.33,47.16],[28.35,47.08],[28.5,47.06],[28.42,46.94],[28.34,47.04],[28.22,46.91],[28.1,46.92]]]}},{"type":"Feature","properties":{"id":"MDA-HI","nome":"Hîncesti","pais":"MDA","tipo":"District","lat":46.83,"lng":28.42},"geometry":{"type":"Polygon","coordinates":[[[28.12,46.84],[28.1,46.92],[28.22,46.91],[28.34,47.04],[28.42,46.94],[28.49,47.05],[28.74,46.82],[28.58,46.67],[28.58,46.71],[28.4,46.72],[28.39,46.63],[28.33,46.61],[28.25,46.63],[28.12,46.84]]]}},{"type":"Feature","properties":{"id":"MDA-LE","nome":"Leova","pais":"MDA","tipo":"District","lat":46.57,"lng":28.41},"geometry":{"type":"Polygon","coordinates":[[[28.24,46.48],[28.25,46.63],[28.38,46.62],[28.4,46.72],[28.58,46.71],[28.58,46.49],[28.38,46.39],[28.23,46.39],[28.24,46.48]]]}},{"type":"Feature","properties":{"id":"MDA-CT","nome":"Cantemir","pais":"MDA","tipo":"District","lat":46.26,"lng":28.31},"geometry":{"type":"Polygon","coordinates":[[[28.11,46.1],[28.14,46.18],[28.11,46.23],[28.21,46.39],[28.47,46.43],[28.51,46.33],[28.44,46.1],[28.11,46.1]]]}},{"type":"Feature","properties":{"id":"MDA-CA","nome":"Cahul","pais":"MDA","tipo":"District","lat":45.64,"lng":28.31},"geometry":{"type":"Polygon","coordinates":[[[28.11,46.1],[28.46,46.09],[28.47,45.92],[28.3,45.71],[28.4,45.66],[28.51,45.8],[28.57,45.72],[28.47,45.66],[28.54,45.58],[28.28,45.59],[28.2,45.46],[28.06,45.59],[28.17,45.63],[28.08,46.01],[28.11,46.1]]]}},{"type":"Feature","properties":{"id":"MDA-OC","nome":"Ocniţa","pais":"MDA","tipo":"District","lat":48.4,"lng":27.57},"geometry":{"type":"Polygon","coordinates":[[[27.58,48.49],[27.89,48.38],[27.59,48.36],[27.51,48.24],[27.27,48.33],[27.31,48.42],[27.58,48.49]]]}},{"type":"Feature","properties":{"id":"MDA-DO","nome":"Donduseni","pais":"MDA","tipo":"District","lat":48.23,"lng":27.76},"geometry":{"type":"Polygon","coordinates":[[[27.89,48.38],[28.02,48.28],[27.95,48.2],[27.85,48.21],[27.89,48.13],[27.78,48.13],[27.71,48.05],[27.55,48.12],[27.51,48.24],[27.59,48.36],[27.89,48.38]]]}},{"type":"Feature","properties":{"id":"MDA-SO","nome":"Soroca","pais":"MDA","tipo":"District","lat":48.1,"lng":28.25},"geometry":{"type":"Polygon","coordinates":[[[28,48.33],[28.09,48.3],[28.09,48.24],[28.36,48.24],[28.32,48.14],[28.41,48.17],[28.46,48.07],[28.54,48.09],[28.44,47.99],[28.07,47.99],[28.03,48],[28.1,48.12],[27.95,48.2],[28.02,48.24],[28,48.33]]]}},{"type":"Feature","properties":{"id":"MDA-CAM","nome":"Camenca","pais":"MDA","tipo":"District","lat":48.04,"lng":28.7},"geometry":{"type":"Polygon","coordinates":[[[28.54,48.16],[28.8,48.11],[28.94,47.88],[28.78,47.98],[28.64,47.84],[28.48,47.89],[28.47,48],[28.54,48.16]]]}},{"type":"Feature","properties":{"id":"MDA-RE","nome":"Rezina","pais":"MDA","tipo":"District","lat":47.73,"lng":29.08},"geometry":{"type":"Polygon","coordinates":[[[28.94,47.94],[29.11,47.98],[29.24,47.87],[29.18,47.8],[29.24,47.76],[29.13,47.47],[28.99,47.6],[29.02,47.85],[28.93,47.89],[28.94,47.94]]]}},{"type":"Feature","properties":{"id":"MDA-SN","nome":"Stîngă Nistrului","pais":"MDA","tipo":"District","lat":47.15,"lng":29.18},"geometry":{"type":"Polygon","coordinates":[[[29.14,47.48],[29.37,47.3],[29.28,47.2],[29.3,47.14],[29.19,47.16],[29.12,47.07],[29.07,47.1],[29.19,47.26],[29.07,47.25],[28.98,47.36],[29.14,47.48]]]}},{"type":"Feature","properties":{"id":"MDA-GRI","nome":"Grigoriopol","pais":"MDA","tipo":"Territorial Unit","lat":47.12,"lng":29.44},"geometry":{"type":"Polygon","coordinates":[[[29.37,47.3],[29.57,47.31],[29.54,47.14],[29.48,47.11],[29.52,47.06],[29.59,47.07],[29.56,46.96],[29.38,46.94],[29.3,46.97],[29.38,47.04],[29.28,47.2],[29.37,47.3]]]}},{"type":"Feature","properties":{"id":"MDA-BD","nome":"Bender","pais":"MDA","tipo":"City","lat":46.79,"lng":29.7},"geometry":{"type":"Polygon","coordinates":[[[29.56,46.96],[29.93,46.81],[29.94,46.56],[29.73,46.59],[29.76,46.66],[29.45,46.82],[29.46,46.95],[29.56,46.96]]]}},{"type":"Feature","properties":{"id":"MDA-SV","nome":"Ștefan Vodă","pais":"MDA","tipo":"District","lat":46.5,"lng":29.77},"geometry":{"type":"Polygon","coordinates":[[[29.9,46.55],[30.13,46.42],[29.83,46.34],[29.71,46.47],[29.6,46.36],[29.48,46.43],[29.42,46.56],[29.57,46.67],[29.57,46.72],[29.76,46.66],[29.73,46.59],[29.9,46.55]]]}},{"type":"Feature","properties":{"id":"MDA-CS","nome":"Causeni","pais":"MDA","tipo":"District","lat":46.62,"lng":29.37},"geometry":{"type":"Polygon","coordinates":[[[29.2,46.36],[29.17,46.6],[29.07,46.64],[28.97,46.8],[29.09,46.85],[29.19,46.77],[29.45,46.82],[29.55,46.77],[29.57,46.67],[29.43,46.61],[29.46,46.48],[29.37,46.42],[29.31,46.47],[29.2,46.36]]]}},{"type":"Feature","properties":{"id":"MDA-CM","nome":"Cimişlia","pais":"MDA","tipo":"District","lat":46.59,"lng":28.78},"geometry":{"type":"Polygon","coordinates":[[[29.18,46.54],[29.06,46.5],[29.06,46.55],[28.95,46.55],[28.76,46.42],[28.59,46.5],[28.58,46.67],[28.74,46.82],[28.97,46.8],[29.18,46.54]]]}},{"type":"Feature","properties":{"id":"MDA-BS","nome":"Basarabeasca","pais":"MDA","tipo":"District","lat":46.37,"lng":28.88},"geometry":{"type":"Polygon","coordinates":[[[29.06,46.5],[28.93,46.43],[28.93,46.26],[28.98,46.22],[28.92,46.17],[28.8,46.3],[28.7,46.3],[28.76,46.42],[28.93,46.55],[29.05,46.56],[29.06,46.5]]]}},{"type":"Feature","properties":{"id":"MDA-TA","nome":"Taraclia","pais":"MDA","tipo":"District","lat":45.9,"lng":28.7},"geometry":{"type":"Polygon","coordinates":[[[28.98,46.22],[29.02,46.18],[28.94,46.09],[28.96,46],[28.74,45.95],[28.75,45.85],[28.67,45.78],[28.55,45.74],[28.39,45.87],[28.47,45.92],[28.46,46.09],[28.6,46.04],[28.62,45.97],[28.83,46.01],[28.98,46.22]]]}},{"type":"Feature","properties":{"id":"MDA-GA","nome":"Comrat","pais":"MDA","tipo":"Autonomous Territory","lat":46.19,"lng":28.64},"geometry":{"type":"MultiPolygon","coordinates":[[[[28.59,46.5],[28.76,46.42],[28.7,46.3],[28.76,46.32],[28.82,46.23],[28.91,46.22],[28.83,46.01],[28.62,45.97],[28.57,46.06],[28.44,46.1],[28.51,46.33],[28.46,46.39],[28.59,46.5]]],[[[28.4,45.66],[28.3,45.71],[28.39,45.87],[28.51,45.8],[28.4,45.66]]]]}},{"type":"Feature","properties":{"id":"MDA-CR","nome":"Criuleni","pais":"MDA","tipo":"District","lat":47.18,"lng":29.04},"geometry":{"type":"Polygon","coordinates":[[[28.84,47.1],[28.78,47.14],[28.8,47.24],[29.02,47.33],[29.18,47.2],[29.07,47.1],[29.12,47.07],[29.19,47.16],[29.29,47.14],[29.24,46.98],[29.06,47.04],[28.97,47.01],[28.97,47.06],[28.95,47.03],[28.84,47.1]]]}},{"type":"Feature","properties":{"id":"MDA-ST","nome":"Străşeni","pais":"MDA","tipo":"District","lat":47.18,"lng":28.58},"geometry":{"type":"Polygon","coordinates":[[[28.79,47.2],[28.84,47.1],[28.66,47.14],[28.77,47.05],[28.75,47.02],[28.33,47.11],[28.33,47.16],[28.47,47.21],[28.46,47.28],[28.52,47.32],[28.66,47.33],[28.79,47.2]]]}},{"type":"Feature","properties":{"id":"MDA-AN","nome":"Anenii Noi","pais":"MDA","tipo":"District","lat":46.88,"lng":29.19},"geometry":{"type":"Polygon","coordinates":[[[29.24,46.98],[29.29,47.14],[29.38,47.04],[29.29,46.99],[29.32,46.96],[29.47,46.94],[29.45,46.82],[29.19,46.77],[29.05,46.86],[29.06,46.91],[28.91,46.96],[29.06,47.04],[29.24,46.98]]]}},{"type":"Feature","properties":{"id":"MDA-OR","nome":"Orhei","pais":"MDA","tipo":"District","lat":47.4,"lng":28.82},"geometry":{"type":"Polygon","coordinates":[[[29.02,47.33],[28.83,47.26],[28.79,47.2],[28.52,47.42],[28.6,47.51],[28.9,47.6],[29.11,47.46],[28.98,47.36],[29.02,47.33]]]}},{"type":"Feature","properties":{"id":"MDA-SN2","nome":"Transnistria","pais":"MDA","tipo":"District","lat":47.26,"lng":29.16},"geometry":{"type":"Polygon","coordinates":[[[29.16,47.23],[29.13,47.27],[29.17,47.29],[29.16,47.23]]]}},{"type":"Feature","properties":{"id":"MDA-CU","nome":"Chişinău","pais":"MDA","tipo":"City","lat":47.03,"lng":28.82},"geometry":{"type":"Polygon","coordinates":[[[28.84,47.1],[28.95,47.03],[28.97,47.06],[28.97,47.01],[28.91,46.96],[28.78,46.99],[28.79,47.04],[28.66,47.14],[28.84,47.1]]]}},{"type":"Feature","properties":{"id":"MDA-TE","nome":"Teleneşti","pais":"MDA","tipo":"District","lat":47.57,"lng":28.43},"geometry":{"type":"Polygon","coordinates":[[[28.53,47.76],[28.64,47.72],[28.61,47.67],[28.72,47.6],[28.58,47.43],[28.32,47.41],[28.15,47.46],[28.17,47.55],[28.36,47.57],[28.41,47.61],[28.41,47.69],[28.53,47.76]]]}},{"type":"Feature","properties":{"id":"MDA-SD","nome":"Şoldăneşti","pais":"MDA","tipo":"District","lat":47.84,"lng":28.7},"geometry":{"type":"Polygon","coordinates":[[[28.64,47.72],[28.43,47.85],[28.53,47.89],[28.64,47.84],[28.78,47.98],[28.96,47.86],[28.84,47.83],[28.77,47.74],[28.64,47.72]]]}},{"type":"Feature","properties":{"id":"MDA-FL","nome":"Floreşti","pais":"MDA","tipo":"District","lat":47.87,"lng":28.3},"geometry":{"type":"Polygon","coordinates":[[[28.48,47.89],[28.44,47.81],[28.53,47.76],[28.41,47.69],[28.14,47.83],[28.07,47.99],[28.47,48],[28.48,47.89]]]}},{"type":"Feature","properties":{"id":"MDA-RE2","nome":"Rezina","pais":"MDA","tipo":"District","lat":47.67,"lng":28.82},"geometry":{"type":"Polygon","coordinates":[[[28.71,47.55],[28.72,47.6],[28.61,47.67],[28.64,47.72],[28.96,47.84],[28.94,47.88],[29.02,47.85],[28.98,47.74],[29.03,47.53],[28.9,47.6],[28.79,47.53],[28.71,47.55]]]}},{"type":"Feature","properties":{"id":"MDA-IA","nome":"Ialoveni","pais":"MDA","tipo":"District","lat":46.89,"lng":28.79},"geometry":{"type":"Polygon","coordinates":[[[28.66,46.86],[28.49,47.05],[28.63,47.01],[28.77,47.05],[28.78,46.99],[29.04,46.93],[29.09,46.85],[28.95,46.79],[28.66,46.86]]]}},{"type":"Feature","properties":{"id":"MDA-CL","nome":"Călărași","pais":"MDA","tipo":"District","lat":47.29,"lng":28.34},"geometry":{"type":"Polygon","coordinates":[[[28.58,47.33],[28.33,47.16],[28.09,47.25],[28.16,47.29],[28.09,47.33],[28.27,47.43],[28.49,47.44],[28.58,47.33]]]}},{"type":"Feature","properties":{"id":"MDA-DR","nome":"Drochia","pais":"MDA","tipo":"District","lat":48.03,"lng":27.89},"geometry":{"type":"Polygon","coordinates":[[[28.07,47.9],[27.92,47.85],[27.83,47.96],[27.68,47.95],[27.69,48.05],[27.78,48.13],[27.89,48.13],[27.85,48.21],[27.95,48.2],[28.1,48.12],[28.03,48],[28.07,47.9]]]}},{"type":"Feature","properties":{"id":"MDA-SI","nome":"Sîngerei","pais":"MDA","tipo":"District","lat":47.69,"lng":28.17},"geometry":{"type":"Polygon","coordinates":[[[27.95,47.85],[28.07,47.9],[28.41,47.69],[28.41,47.61],[28.17,47.55],[28.15,47.46],[27.98,47.46],[28.01,47.5],[27.93,47.55],[28.02,47.62],[27.95,47.71],[28.05,47.73],[27.95,47.85]]]}},{"type":"Feature","properties":{"id":"MDA-BA","nome":"Bălţi","pais":"MDA","tipo":"City","lat":47.78,"lng":27.95},"geometry":{"type":"Polygon","coordinates":[[[27.95,47.82],[28.04,47.78],[28.05,47.72],[27.86,47.75],[27.95,47.82]]]}}]}