{"type":"FeatureCollection","features":[{"type":"Feature","properties":{"id":"MKD-72","nome":"Struga","pais":"MKD","tipo":"Statistical Region","lat":41.18,"lng":20.6},"geometry":{"type":"Polygon","coordinates":[[[20.5,41.34],[20.54,41.4],[20.68,41.43],[20.73,41.36],[20.74,41.17],[20.65,41.08],[20.58,41.09],[20.51,41.21],[20.63,41.24],[20.5,41.25],[20.5,41.34]]]}},{"type":"Feature","properties":{"id":"MKD-78","nome":"Centar župa","pais":"MKD","tipo":"Statistical Region","lat":41.46,"lng":20.58},"geometry":{"type":"Polygon","coordinates":[[[20.54,41.4],[20.48,41.47],[20.57,41.52],[20.68,41.43],[20.54,41.4]]]}},{"type":"Feature","properties":{"id":"MKD-21","nome":"Debar","pais":"MKD","tipo":"Statistical Region","lat":41.54,"lng":20.59},"geometry":{"type":"Polygon","coordinates":[[[20.48,41.47],[20.44,41.55],[20.53,41.59],[20.73,41.48],[20.68,41.43],[20.57,41.52],[20.48,41.47]]]}},{"type":"Feature","properties":{"id":"MKD-50","nome":"Mavrovo and Rostusa","pais":"MKD","tipo":"Statistical Region","lat":41.63,"lng":20.7},"geometry":{"type":"Polygon","coordinates":[[[20.53,41.59],[20.5,41.73],[20.55,41.8],[20.79,41.77],[20.9,41.66],[20.78,41.62],[20.82,41.54],[20.76,41.47],[20.53,41.59]]]}},{"type":"Feature","properties":{"id":"MKD-19","nome":"Gostivar","pais":"MKD","tipo":"Statistical Region","lat":41.79,"lng":20.81},"geometry":{"type":"Polygon","coordinates":[[[20.55,41.8],[20.54,41.86],[20.64,41.87],[20.85,41.8],[21.03,41.84],[21.08,41.78],[21.03,41.73],[21.05,41.65],[20.99,41.62],[20.79,41.77],[20.55,41.8]]]}},{"type":"Feature","properties":{"id":"MKD-12","nome":"Vevčani","pais":"MKD","tipo":"Statistical Region","lat":41.24,"lng":20.57},"geometry":{"type":"Polygon","coordinates":[[[20.51,41.21],[20.5,41.25],[20.63,41.24],[20.51,41.21]]]}},{"type":"Feature","properties":{"id":"MKD-58","nome":"Ohrid","pais":"MKD","tipo":"Statistical Region","lat":41.03,"lng":20.85},"geometry":{"type":"Polygon","coordinates":[[[20.77,40.89],[20.66,41.06],[20.83,41.24],[21.03,41.22],[20.9,41.12],[20.84,40.92],[20.77,40.89]]]}},{"type":"Feature","properties":{"id":"MKD-22","nome":"Debarca","pais":"MKD","tipo":"Statistical Region","lat":41.33,"lng":20.86},"geometry":{"type":"Polygon","coordinates":[[[20.66,41.06],[20.76,41.27],[20.69,41.42],[20.89,41.42],[21.03,41.22],[20.83,41.24],[20.66,41.06]]]}},{"type":"Feature","properties":{"id":"MKD-66","nome":"Resen","pais":"MKD","tipo":"Statistical Region","lat":41.03,"lng":21.05},"geometry":{"type":"Polygon","coordinates":[[[20.97,40.85],[20.83,40.96],[20.9,41.12],[21.04,41.21],[21.11,41.1],[21.07,41.05],[21.26,40.9],[20.97,40.85]]]}},{"type":"Feature","properties":{"id":"MKD-56","nome":"Novo Selo","pais":"MKD","tipo":"Statistical Region","lat":41.43,"lng":22.87},"geometry":{"type":"Polygon","coordinates":[[[22.92,41.34],[22.79,41.34],[22.86,41.52],[22.94,41.52],[22.92,41.34]]]}},{"type":"Feature","properties":{"id":"MKD-26","nome":"Dojran","pais":"MKD","tipo":"Statistical Region","lat":41.25,"lng":22.65},"geometry":{"type":"Polygon","coordinates":[[[22.74,41.29],[22.7,41.14],[22.57,41.24],[22.74,41.29]]]}},{"type":"Feature","properties":{"id":"MKD-10","nome":"Valandovo","pais":"MKD","tipo":"Statistical Region","lat":41.29,"lng":22.54},"geometry":{"type":"Polygon","coordinates":[[[22.76,41.32],[22.5,41.21],[22.47,41.31],[22.33,41.41],[22.44,41.45],[22.53,41.4],[22.54,41.33],[22.76,41.32]]]}},{"type":"Feature","properties":{"id":"MKD-73","nome":"Strumitsa","pais":"MKD","tipo":"Statistical Region","lat":41.38,"lng":22.62},"geometry":{"type":"Polygon","coordinates":[[[22.8,41.34],[22.54,41.33],[22.53,41.4],[22.45,41.45],[22.67,41.47],[22.8,41.34]]]}},{"type":"Feature","properties":{"id":"MKD-05","nome":"Bogdanci","pais":"MKD","tipo":"Statistical Region","lat":41.18,"lng":22.58},"geometry":{"type":"Polygon","coordinates":[[[22.66,41.18],[22.59,41.12],[22.5,41.21],[22.55,41.25],[22.66,41.18]]]}},{"type":"Feature","properties":{"id":"MKD-18","nome":"Gevgelija","pais":"MKD","tipo":"Statistical Region","lat":41.24,"lng":22.4},"geometry":{"type":"Polygon","coordinates":[[[22.59,41.12],[22.21,41.17],[22.36,41.38],[22.47,41.31],[22.52,41.15],[22.59,41.12]]]}},{"type":"Feature","properties":{"id":"MKD-36","nome":"Kavadartsi","pais":"MKD","tipo":"Statistical Region","lat":41.32,"lng":22.04},"geometry":{"type":"Polygon","coordinates":[[[22.21,41.16],[21.93,41.11],[21.77,41.44],[21.95,41.44],[22.04,41.5],[22.07,41.36],[22.19,41.28],[22.29,41.3],[22.21,41.16]]]}},{"type":"Feature","properties":{"id":"MKD-55","nome":"Novaci","pais":"MKD","tipo":"Statistical Region","lat":41.03,"lng":21.66},"geometry":{"type":"Polygon","coordinates":[[[21.76,40.92],[21.55,40.87],[21.44,41],[21.43,41.09],[21.54,41.09],[21.62,41.16],[21.9,41.06],[21.76,40.92]]]}},{"type":"Feature","properties":{"id":"MKD-62","nome":"Prilep","pais":"MKD","tipo":"Statistical Region","lat":41.28,"lng":21.64},"geometry":{"type":"Polygon","coordinates":[[[21.93,41.11],[21.9,41.06],[21.44,41.19],[21.36,41.24],[21.43,41.31],[21.39,41.34],[21.73,41.47],[21.82,41.43],[21.82,41.29],[21.88,41.26],[21.93,41.11]]]}},{"type":"Feature","properties":{"id":"MKD-04","nome":"Bitola","pais":"MKD","tipo":"Statistical Region","lat":41.04,"lng":21.29},"geometry":{"type":"Polygon","coordinates":[[[21.51,40.9],[21.25,40.86],[21.25,40.94],[21.07,41.05],[21.1,41.13],[21.31,41.21],[21.51,40.9]]]}},{"type":"Feature","properties":{"id":"MKD-48","nome":"Lipkovo","pais":"MKD","tipo":"Statistical Region","lat":42.14,"lng":21.58},"geometry":{"type":"Polygon","coordinates":[[[21.48,42.25],[21.68,42.23],[21.6,42.04],[21.48,42.13],[21.48,42.25]]]}},{"type":"Feature","properties":{"id":"MKD-82","nome":"Čučer Sandevo","pais":"MKD","tipo":"Statistical Region","lat":42.14,"lng":21.39},"geometry":{"type":"Polygon","coordinates":[[[21.47,42.24],[21.51,42.15],[21.44,42.03],[21.36,42.03],[21.29,42.15],[21.47,42.24]]]}},{"type":"Feature","properties":{"id":"MKD-29","nome":"Gjorče Petrov","pais":"MKD","tipo":"Municipality","lat":42.06,"lng":21.3},"geometry":{"type":"Polygon","coordinates":[[[21.29,42.09],[21.36,41.98],[21.25,42.05],[21.29,42.09]]]}},{"type":"Feature","properties":{"id":"MKD-68","nome":"Saraj","pais":"MKD","tipo":"Municipality","lat":41.98,"lng":21.25},"geometry":{"type":"Polygon","coordinates":[[[21.23,42.1],[21.36,41.95],[21.22,41.88],[21.14,41.99],[21.19,42.05],[21.15,42.08],[21.23,42.1]]]}},{"type":"Feature","properties":{"id":"MKD-35","nome":"Jegunovce","pais":"MKD","tipo":"Municipality","lat":42.03,"lng":21.13},"geometry":{"type":"Polygon","coordinates":[[[21.1,42.2],[21.23,42.1],[21.15,42.08],[21.18,42.01],[21.11,41.98],[21.03,42.02],[21.13,42.07],[21.04,42.16],[21.1,42.2]]]}},{"type":"Feature","properties":{"id":"MKD-75","nome":"Tearce","pais":"MKD","tipo":"Municipality","lat":42.08,"lng":21.02},"geometry":{"type":"Polygon","coordinates":[[[20.98,42.13],[21.04,42.16],[21.13,42.07],[21.02,42.02],[20.9,42.12],[20.98,42.13]]]}},{"type":"Feature","properties":{"id":"MKD-76","nome":"Tetovo","pais":"MKD","tipo":"Statistical Region","lat":42.05,"lng":20.89},"geometry":{"type":"Polygon","coordinates":[[[20.78,42.08],[20.93,42.11],[21.05,41.96],[20.85,41.99],[20.75,41.94],[20.78,42.08]]]}},{"type":"Feature","properties":{"id":"MKD-06","nome":"Bogovinje","pais":"MKD","tipo":"Statistical Region","lat":41.95,"lng":20.87},"geometry":{"type":"Polygon","coordinates":[[[20.75,41.91],[20.85,41.99],[20.99,41.93],[20.96,41.87],[20.75,41.91]]]}},{"type":"Feature","properties":{"id":"MKD-16","nome":"Vrapcište","pais":"MKD","tipo":"Statistical Region","lat":41.86,"lng":20.83},"geometry":{"type":"Polygon","coordinates":[[[20.71,41.86],[20.77,41.92],[20.96,41.85],[20.85,41.8],[20.71,41.86]]]}},{"type":"Feature","properties":{"id":"MKD-44","nome":"Kriva Palanka","pais":"MKD","tipo":"Statistical Region","lat":42.24,"lng":22.26},"geometry":{"type":"Polygon","coordinates":[[[22.27,42.37],[22.51,42.15],[22.42,42.1],[22.2,42.12],[22.19,42.27],[22.14,42.32],[22.27,42.37]]]}},{"type":"Feature","properties":{"id":"MKD-65","nome":"Rankovce","pais":"MKD","tipo":"Statistical Region","lat":42.19,"lng":22.1},"geometry":{"type":"Polygon","coordinates":[[[22.06,42.3],[22.14,42.32],[22.19,42.27],[22.19,42.1],[22.02,42.16],[22.06,42.3]]]}},{"type":"Feature","properties":{"id":"MKD-71","nome":"Staro Nagoričane","pais":"MKD","tipo":"Statistical Region","lat":42.21,"lng":21.89},"geometry":{"type":"Polygon","coordinates":[[[21.93,42.34],[22.05,42.3],[22.05,42.17],[21.96,42.1],[21.79,42.1],[21.78,42.23],[21.72,42.26],[21.93,42.34]]]}},{"type":"Feature","properties":{"id":"MKD-47","nome":"Kumanovo","pais":"MKD","tipo":"Statistical Region","lat":42.03,"lng":21.79},"geometry":{"type":"Polygon","coordinates":[[[21.68,42.23],[21.78,42.23],[21.79,42.1],[21.93,42.12],[21.92,42.05],[21.98,41.99],[21.87,42],[21.81,41.94],[21.69,41.98],[21.6,42.06],[21.69,42.17],[21.68,42.23]]]}},{"type":"Feature","properties":{"id":"MKD-23","nome":"Delčevo","pais":"MKD","tipo":"Statistical Region","lat":41.92,"lng":22.74},"geometry":{"type":"Polygon","coordinates":[[[22.63,42.08],[22.84,42.02],[22.88,41.87],[22.77,41.79],[22.68,41.8],[22.71,41.9],[22.61,41.93],[22.63,42.08]]]}},{"type":"Feature","properties":{"id":"MKD-51","nome":"Makedonska Kamenica","pais":"MKD","tipo":"Statistical Region","lat":42.04,"lng":22.52},"geometry":{"type":"Polygon","coordinates":[[[22.51,42.15],[22.63,42.08],[22.54,41.94],[22.42,42.1],[22.51,42.15]]]}},{"type":"Feature","properties":{"id":"MKD-03","nome":"Berovo","pais":"MKD","tipo":"Statistical Region","lat":41.63,"lng":22.8},"geometry":{"type":"Polygon","coordinates":[[[22.99,41.68],[22.94,41.52],[22.85,41.52],[22.68,41.57],[22.62,41.73],[22.67,41.81],[22.99,41.68]]]}},{"type":"Feature","properties":{"id":"MKD-60","nome":"Pehčevo","pais":"MKD","tipo":"Statistical Region","lat":41.79,"lng":22.88},"geometry":{"type":"Polygon","coordinates":[[[22.88,41.87],[23.01,41.74],[22.99,41.68],[22.78,41.73],[22.76,41.79],[22.88,41.87]]]}},{"type":"Feature","properties":{"id":"MKD-30","nome":"Želino","pais":"MKD","tipo":"Statistical Region","lat":41.92,"lng":21.13},"geometry":{"type":"Polygon","coordinates":[[[21.07,41.9],[21.03,42.01],[21.19,41.97],[21.23,41.82],[21.07,41.86],[21.07,41.9]]]}},{"type":"Feature","properties":{"id":"MKD-08","nome":"Brvenica","pais":"MKD","tipo":"Statistical Region","lat":41.85,"lng":21.07},"geometry":{"type":"Polygon","coordinates":[[[21.02,41.95],[21.07,41.86],[21.18,41.84],[21.08,41.78],[20.95,41.85],[20.96,41.95],[21.02,41.95]]]}},{"type":"Feature","properties":{"id":"MKD-52","nome":"Brod","pais":"MKD","tipo":"Statistical Region","lat":41.63,"lng":21.21},"geometry":{"type":"Polygon","coordinates":[[[21.18,41.84],[21.4,41.66],[21.33,41.49],[21.2,41.43],[21.08,41.47],[21.15,41.53],[21.03,41.73],[21.18,41.84]]]}},{"type":"Feature","properties":{"id":"MKD-57","nome":"Oslomej","pais":"MKD","tipo":"Statistical Region","lat":41.58,"lng":21.03},"geometry":{"type":"Polygon","coordinates":[[[21.05,41.65],[21.1,41.58],[21.01,41.5],[20.99,41.63],[21.05,41.65]]]}},{"type":"Feature","properties":{"id":"MKD-70","nome":"Sopište","pais":"MKD","tipo":"Statistical Region","lat":41.83,"lng":21.33},"geometry":{"type":"Polygon","coordinates":[[[21.23,41.82],[21.22,41.89],[21.44,41.94],[21.44,41.89],[21.34,41.89],[21.38,41.86],[21.35,41.73],[21.23,41.82]]]}},{"type":"Feature","properties":{"id":"MKD-38","nome":"Karpoš","pais":"MKD","tipo":"Municipality","lat":41.98,"lng":21.39},"geometry":{"type":"Polygon","coordinates":[[[21.36,41.95],[21.36,42.03],[21.43,42],[21.43,41.95],[21.36,41.95]]]}},{"type":"Feature","properties":{"id":"MKD-09","nome":"Butel","pais":"MKD","tipo":"Municipality","lat":42.07,"lng":21.47},"geometry":{"type":"Polygon","coordinates":[[[21.42,42.03],[21.49,42.14],[21.46,42],[21.38,42.02],[21.42,42.03]]]}},{"type":"Feature","properties":{"id":"MKD-31","nome":"Zajas","pais":"MKD","tipo":"Statistical Region","lat":41.6,"lng":20.88},"geometry":{"type":"Polygon","coordinates":[[[20.99,41.62],[20.97,41.56],[20.9,41.52],[20.78,41.62],[20.91,41.67],[20.99,41.62]]]}},{"type":"Feature","properties":{"id":"MKD-27","nome":"Dolneni","pais":"MKD","tipo":"Statistical Region","lat":41.47,"lng":21.43},"geometry":{"type":"Polygon","coordinates":[[[21.33,41.49],[21.38,41.59],[21.6,41.44],[21.35,41.36],[21.26,41.41],[21.3,41.43],[21.26,41.48],[21.33,41.49]]]}},{"type":"Feature","properties":{"id":"MKD-45","nome":"Krivogaštani","pais":"MKD","tipo":"Statistical Region","lat":41.3,"lng":21.37},"geometry":{"type":"Polygon","coordinates":[[[21.33,41.39],[21.43,41.32],[21.38,41.25],[21.32,41.27],[21.33,41.39]]]}},{"type":"Feature","properties":{"id":"MKD-53","nome":"Mogila","pais":"MKD","tipo":"Statistical Region","lat":41.15,"lng":21.45},"geometry":{"type":"Polygon","coordinates":[[[21.34,41.26],[21.59,41.14],[21.37,41.08],[21.3,41.22],[21.34,41.26]]]}},{"type":"Feature","properties":{"id":"MKD-80","nome":"Čaška","pais":"MKD","tipo":"Statistical Region","lat":41.58,"lng":21.59},"geometry":{"type":"Polygon","coordinates":[[[21.37,41.59],[21.44,41.73],[21.57,41.74],[21.77,41.6],[21.81,41.46],[21.64,41.43],[21.37,41.59]]]}},{"type":"Feature","properties":{"id":"MKD-67","nome":"Rosoman","pais":"MKD","tipo":"Statistical Region","lat":41.48,"lng":21.9},"geometry":{"type":"Polygon","coordinates":[[[21.81,41.46],[21.85,41.53],[21.98,41.55],[21.95,41.44],[21.81,41.46]]]}},{"type":"Feature","properties":{"id":"MKD-54","nome":"Negotino","pais":"MKD","tipo":"Statistical Region","lat":41.37,"lng":22.14},"geometry":{"type":"Polygon","coordinates":[[[21.98,41.5],[22.01,41.65],[22.3,41.49],[22.19,41.47],[22.13,41.35],[22.08,41.35],[22.04,41.5],[21.98,41.5]]]}},{"type":"Feature","properties":{"id":"MKD-28","nome":"Drugovo","pais":"MKD","tipo":"Statistical Region","lat":41.43,"lng":20.91},"geometry":{"type":"Polygon","coordinates":[[[20.81,41.61],[21,41.41],[21.09,41.43],[21.14,41.38],[20.96,41.32],[20.89,41.42],[20.69,41.42],[20.8,41.51],[20.81,41.61]]]}},{"type":"Feature","properties":{"id":"MKD-17","nome":"Gazi Baba","pais":"MKD","tipo":"Municipality","lat":42.03,"lng":21.51},"geometry":{"type":"Polygon","coordinates":[[[21.45,42],[21.51,42.1],[21.58,41.92],[21.45,42]]]}},{"type":"Feature","properties":{"id":"MKD-46","nome":"Kruševo","pais":"MKD","tipo":"Statistical Region","lat":41.37,"lng":21.23},"geometry":{"type":"Polygon","coordinates":[[[21.26,41.47],[21.33,41.31],[21.31,41.21],[21.13,41.4],[21.26,41.47]]]}},{"type":"Feature","properties":{"id":"MKD-25","nome":"Demir Hisar","pais":"MKD","tipo":"Statistical Region","lat":41.26,"lng":21.12},"geometry":{"type":"Polygon","coordinates":[[[21.13,41.39],[21.29,41.24],[21.1,41.13],[20.95,41.32],[21.13,41.39]]]}},{"type":"Feature","properties":{"id":"MKD-74","nome":"Studeničani","pais":"MKD","tipo":"Statistical Region","lat":41.83,"lng":21.46},"geometry":{"type":"Polygon","coordinates":[[[21.35,41.73],[21.38,41.86],[21.34,41.89],[21.56,41.93],[21.59,41.89],[21.47,41.82],[21.48,41.74],[21.39,41.66],[21.35,41.73]]]}},{"type":"Feature","properties":{"id":"MKD-39","nome":"Kisela Voda","pais":"MKD","tipo":"Municipality","lat":41.93,"lng":21.48},"geometry":{"type":"Polygon","coordinates":[[[21.45,41.93],[21.43,41.97],[21.54,41.92],[21.45,41.93]]]}},{"type":"Feature","properties":{"id":"MKD-63","nome":"Probištip","pais":"MKD","tipo":"Statistical Region","lat":41.94,"lng":22.17},"geometry":{"type":"Polygon","coordinates":[[[22.26,41.95],[22.18,41.84],[22.01,41.97],[22.33,42.04],[22.26,41.95]]]}},{"type":"Feature","properties":{"id":"MKD-81","nome":"Češinovo-Obleševo","pais":"MKD","tipo":"Statistical Region","lat":41.86,"lng":22.29},"geometry":{"type":"Polygon","coordinates":[[[22.25,41.95],[22.33,41.92],[22.39,41.79],[22.19,41.88],[22.25,41.95]]]}},{"type":"Feature","properties":{"id":"MKD-02","nome":"Aračinovo","pais":"MKD","tipo":"Statistical Region","lat":42.02,"lng":21.59},"geometry":{"type":"Polygon","coordinates":[[[21.54,41.99],[21.54,42.07],[21.63,42.05],[21.54,41.99]]]}},{"type":"Feature","properties":{"id":"MKD-32","nome":"Zelenikovo","pais":"MKD","tipo":"Statistical Region","lat":41.81,"lng":21.55},"geometry":{"type":"Polygon","coordinates":[[[21.49,41.74],[21.47,41.82],[21.63,41.89],[21.61,41.75],[21.49,41.74]]]}},{"type":"Feature","properties":{"id":"MKD-40","nome":"Kičevo","pais":"MKD","tipo":"Statistical Region","lat":41.52,"lng":20.95},"geometry":{"type":"Polygon","coordinates":[[[20.97,41.55],[20.98,41.47],[20.9,41.52],[20.97,41.55]]]}},{"type":"Feature","properties":{"id":"MKD-61","nome":"Plasnica","pais":"MKD","tipo":"Statistical Region","lat":41.44,"lng":21.12},"geometry":{"type":"Polygon","coordinates":[[[21.14,41.48],[21.2,41.43],[21.05,41.43],[21.14,41.48]]]}},{"type":"Feature","properties":{"id":"MKD-15","nome":"Vraneštica","pais":"MKD","tipo":"Statistical Region","lat":41.47,"lng":21.02},"geometry":{"type":"Polygon","coordinates":[[[21.1,41.58],[21.15,41.53],[21.04,41.47],[21.07,41.42],[21,41.41],[20.97,41.47],[21.1,41.58]]]}},{"type":"Feature","properties":{"id":"MKD-85","nome":"Skopje","pais":"MKD","tipo":"Statistical Region","lat":41.9,"lng":21.69},"geometry":{"type":"Polygon","coordinates":[[[21.57,41.91],[21.69,41.98],[21.81,41.94],[21.72,41.8],[21.63,41.82],[21.64,41.88],[21.57,41.91]]]}},{"type":"Feature","properties":{"id":"MKD-49","nome":"Lozovo","pais":"MKD","tipo":"Statistical Region","lat":41.73,"lng":21.92},"geometry":{"type":"Polygon","coordinates":[[[21.85,41.83],[22.01,41.73],[21.94,41.71],[21.95,41.65],[21.82,41.74],[21.85,41.83]]]}},{"type":"Feature","properties":{"id":"MKD-69","nome":"Sveti Nikole","pais":"MKD","tipo":"Statistical Region","lat":41.88,"lng":21.95},"geometry":{"type":"Polygon","coordinates":[[[22.01,41.73],[21.81,41.87],[21.87,42],[22.02,42],[22.09,41.9],[22.1,41.82],[22.01,41.73]]]}},{"type":"Feature","properties":{"id":"MKD-20","nome":"Gradsko","pais":"MKD","tipo":"Statistical Region","lat":41.59,"lng":21.9},"geometry":{"type":"Polygon","coordinates":[[[21.98,41.55],[21.82,41.49],[21.78,41.62],[21.88,41.72],[21.9,41.65],[22.01,41.65],[21.98,41.6],[22.03,41.6],[22.03,41.55],[21.98,41.55]]]}},{"type":"Feature","properties":{"id":"MKD-43","nome":"Kratovo","pais":"MKD","tipo":"Statistical Region","lat":42.06,"lng":22.14},"geometry":{"type":"Polygon","coordinates":[[[22.34,42.03],[22.25,42.05],[22.06,41.99],[21.92,42.06],[22.02,42.16],[22.14,42.09],[22.32,42.11],[22.34,42.03]]]}},{"type":"Feature","properties":{"id":"MKD-34","nome":"Ilinden","pais":"MKD","tipo":"Statistical Region","lat":41.98,"lng":21.61},"geometry":{"type":"Polygon","coordinates":[[[21.58,41.92],[21.54,41.99],[21.63,42.04],[21.69,42.01],[21.67,41.93],[21.58,41.92]]]}},{"type":"Feature","properties":{"id":"MKD-37","nome":"Karbinci","pais":"MKD","tipo":"Statistical Region","lat":41.77,"lng":22.28},"geometry":{"type":"Polygon","coordinates":[[[22.16,41.87],[22.45,41.77],[22.4,41.71],[22.3,41.71],[22.13,41.79],[22.16,41.87]]]}},{"type":"Feature","properties":{"id":"MKD-83","nome":"Štip","pais":"MKD","tipo":"Statistical Region","lat":41.68,"lng":22.17},"geometry":{"type":"Polygon","coordinates":[[[22.06,41.62],[21.94,41.69],[22.05,41.72],[22.1,41.87],[22.15,41.86],[22.14,41.78],[22.4,41.71],[22.29,41.67],[22.32,41.6],[22.26,41.54],[22.06,41.62]]]}},{"type":"Feature","properties":{"id":"MKD-42","nome":"Kočani","pais":"MKD","tipo":"Statistical Region","lat":41.98,"lng":22.39},"geometry":{"type":"Polygon","coordinates":[[[22.26,41.95],[22.38,42.1],[22.45,42.09],[22.52,41.95],[22.36,41.85],[22.26,41.95]]]}},{"type":"Feature","properties":{"id":"MKD-33","nome":"Zrnovci","pais":"MKD","tipo":"Statistical Region","lat":41.82,"lng":22.4},"geometry":{"type":"Polygon","coordinates":[[[22.39,41.79],[22.36,41.85],[22.44,41.87],[22.45,41.79],[22.39,41.79]]]}},{"type":"Feature","properties":{"id":"MKD-13","nome":"Veles","pais":"MKD","tipo":"Statistical Region","lat":41.72,"lng":21.72},"geometry":{"type":"Polygon","coordinates":[[[21.6,41.7],[21.62,41.82],[21.72,41.81],[21.74,41.89],[21.8,41.91],[21.86,41.71],[21.81,41.62],[21.74,41.61],[21.6,41.7]]]}},{"type":"Feature","properties":{"id":"MKD-24","nome":"Demir Kapija","pais":"MKD","tipo":"Statistical Region","lat":41.37,"lng":22.22},"geometry":{"type":"Polygon","coordinates":[[[22.25,41.45],[22.33,41.48],[22.35,41.33],[22.21,41.28],[22.08,41.35],[22.13,41.35],[22.19,41.47],[22.25,41.45]]]}},{"type":"Feature","properties":{"id":"MKD-14","nome":"Vinica","pais":"MKD","tipo":"Statistical Region","lat":41.87,"lng":22.57},"geometry":{"type":"Polygon","coordinates":[[[22.45,41.77],[22.45,41.95],[22.6,41.99],[22.61,41.93],[22.71,41.9],[22.65,41.73],[22.45,41.77]]]}},{"type":"Feature","properties":{"id":"MKD-07","nome":"Bosilovo","pais":"MKD","tipo":"Statistical Region","lat":41.47,"lng":22.77},"geometry":{"type":"Polygon","coordinates":[[[22.86,41.52],[22.79,41.4],[22.69,41.42],[22.73,41.57],[22.86,41.52]]]}},{"type":"Feature","properties":{"id":"MKD-64","nome":"Radoviš","pais":"MKD","tipo":"Statistical Region","lat":41.64,"lng":22.47},"geometry":{"type":"Polygon","coordinates":[[[22.4,41.71],[22.45,41.77],[22.62,41.73],[22.6,41.53],[22.46,41.52],[22.43,41.57],[22.31,41.6],[22.29,41.67],[22.4,41.71]]]}},{"type":"Feature","properties":{"id":"MKD-11","nome":"Vasilevo","pais":"MKD","tipo":"Statistical Region","lat":41.54,"lng":22.62},"geometry":{"type":"Polygon","coordinates":[[[22.55,41.49],[22.51,41.47],[22.5,41.53],[22.6,41.53],[22.6,41.63],[22.73,41.57],[22.7,41.48],[22.55,41.49]]]}},{"type":"Feature","properties":{"id":"MKD-41","nome":"Konče","pais":"MKD","tipo":"Statistical Region","lat":41.51,"lng":22.38},"geometry":{"type":"Polygon","coordinates":[[[22.3,41.49],[22.26,41.55],[22.32,41.6],[22.43,41.57],[22.51,41.47],[22.33,41.42],[22.3,41.49]]]}}]}