{"type":"FeatureCollection","features":[{"type":"Feature","properties":{"id":"MLT-30","nome":"Mellieħa","pais":"MLT","tipo":"Estado","lat":35.96,"lng":14.36},"geometry":{"type":"Polygon","coordinates":[[[14.34,35.93],[14.33,35.98],[14.41,35.97],[14.34,35.93]]]}},{"type":"Feature","properties":{"id":"MLT-46","nome":"Rabat","pais":"MLT","tipo":"Estado","lat":35.88,"lng":14.38},"geometry":{"type":"Polygon","coordinates":[[[14.36,35.86],[14.34,35.9],[14.41,35.9],[14.36,35.86]]]}},{"type":"Feature","properties":{"id":"MLT-55","nome":"Siġġiewi","pais":"MLT","tipo":"Estado","lat":35.85,"lng":14.43},"geometry":{"type":"Polygon","coordinates":[[[14.43,35.82],[14.4,35.86],[14.47,35.86],[14.43,35.82]]]}}]}