{"type":"FeatureCollection","features":[{"type":"Feature","properties":{"id":"MNE-17","nome":"Rožaje","pais":"MNE","tipo":"Municipality","lat":42.86,"lng":20.2},"geometry":{"type":"Polygon","coordinates":[[[20.35,42.83],[20.22,42.8],[20.18,42.74],[20.05,42.79],[20.13,42.97],[20.34,42.91],[20.35,42.83]]]}},{"type":"Feature","properties":{"id":"MNE-03","nome":"Berane","pais":"MNE","tipo":"Municipality","lat":42.82,"lng":19.9},"geometry":{"type":"Polygon","coordinates":[[[20.06,42.76],[20.04,42.71],[19.91,42.69],[19.88,42.76],[19.68,42.83],[19.67,42.87],[20.06,43.02],[20.13,42.97],[20.06,42.76]]]}},{"type":"Feature","properties":{"id":"MNE-13","nome":"Plav","pais":"MNE","tipo":"Municipality","lat":42.6,"lng":19.92},"geometry":{"type":"Polygon","coordinates":[[[20.04,42.71],[20.1,42.65],[20.06,42.55],[19.82,42.47],[19.75,42.49],[19.75,42.59],[20.04,42.71]]]}},{"type":"Feature","properties":{"id":"MNE-14","nome":"Pljevlja","pais":"MNE","tipo":"Municipality","lat":43.3,"lng":19.23},"geometry":{"type":"Polygon","coordinates":[[[19.2,43.53],[19.19,43.45],[19.37,43.38],[19.55,43.22],[19.46,43.05],[19.05,43.22],[19.02,43.3],[19.07,43.31],[18.91,43.49],[18.98,43.55],[19.2,43.53]]]}},{"type":"Feature","properties":{"id":"MNE-04","nome":"Bijelo Polje","pais":"MNE","tipo":"Municipality","lat":43.02,"lng":19.76},"geometry":{"type":"Polygon","coordinates":[[[19.55,43.22],[19.81,43.09],[19.93,43.11],[20.06,43.02],[19.7,42.91],[19.65,43],[19.46,43.05],[19.55,43.22]]]}},{"type":"Feature","properties":{"id":"MNE-21","nome":"Žabljak","pais":"MNE","tipo":"Municipality","lat":43.11,"lng":19.2},"geometry":{"type":"Polygon","coordinates":[[[18.99,43.27],[19.02,43.3],[19.07,43.2],[19.19,43.19],[19.41,43.05],[19.33,42.99],[19.07,43.07],[18.99,43.16],[18.99,43.27]]]}},{"type":"Feature","properties":{"id":"MNE-15","nome":"Plužine","pais":"MNE","tipo":"Municipality","lat":43.15,"lng":18.82},"geometry":{"type":"Polygon","coordinates":[[[18.9,43.35],[18.99,43.27],[19.03,43.11],[18.93,43.03],[18.98,42.93],[18.85,42.96],[18.74,43.1],[18.62,43.12],[18.68,43.25],[18.9,43.35]]]}},{"type":"Feature","properties":{"id":"MNE-12","nome":"Nikšic","pais":"MNE","tipo":"Municipality","lat":42.83,"lng":18.83},"geometry":{"type":"Polygon","coordinates":[[[18.64,43.02],[18.62,43.12],[18.74,43.1],[18.85,42.96],[19.21,42.86],[19.21,42.71],[19.05,42.7],[18.94,42.62],[18.73,42.72],[18.67,42.63],[18.54,42.63],[18.43,42.95],[18.48,43.01],[18.64,43.02]]]}},{"type":"Feature","properties":{"id":"MNE-10","nome":"Kotor","pais":"MNE","tipo":"Municipality","lat":42.54,"lng":18.65},"geometry":{"type":"Polygon","coordinates":[[[18.51,42.6],[18.65,42.63],[18.76,42.51],[18.79,42.28],[18.69,42.35],[18.71,42.46],[18.65,42.45],[18.51,42.6]]]}},{"type":"Feature","properties":{"id":"MNE-01","nome":"Andrijevica","pais":"MNE","tipo":"Municipality","lat":42.69,"lng":19.77},"geometry":{"type":"Polygon","coordinates":[[[19.75,42.59],[19.63,42.67],[19.64,42.82],[19.88,42.76],[19.91,42.69],[19.75,42.59]]]}},{"type":"Feature","properties":{"id":"MNE-16","nome":"Podgorica","pais":"MNE","tipo":"Municipality","lat":42.45,"lng":19.31},"geometry":{"type":"Polygon","coordinates":[[[19.66,42.63],[19.28,42.2],[19.14,42.27],[19.14,42.37],[18.96,42.5],[19.2,42.49],[19.3,42.68],[19.45,42.68],[19.54,42.74],[19.66,42.63]]]}},{"type":"Feature","properties":{"id":"MNE-02","nome":"Bar","pais":"MNE","tipo":"Municipality","lat":42.14,"lng":19.15},"geometry":{"type":"Polygon","coordinates":[[[19.28,42.2],[19.37,42.11],[19.21,42.1],[19.24,42.01],[19.14,42.02],[18.98,42.17],[18.92,42.3],[19.05,42.32],[19.28,42.2]]]}},{"type":"Feature","properties":{"id":"MNE-20","nome":"Ulcinj","pais":"MNE","tipo":"Municipality","lat":42,"lng":19.26},"geometry":{"type":"Polygon","coordinates":[[[19.37,42.11],[19.37,41.85],[19.14,41.99],[19.24,42.01],[19.21,42.1],[19.37,42.11]]]}},{"type":"Feature","properties":{"id":"MNE-05","nome":"Budva","pais":"MNE","tipo":"Municipality","lat":42.3,"lng":18.89},"geometry":{"type":"Polygon","coordinates":[[[18.97,42.18],[18.89,42.28],[18.79,42.28],[18.8,42.36],[18.91,42.32],[19,42.22],[18.97,42.18]]]}},{"type":"Feature","properties":{"id":"MNE-19","nome":"Tivat","pais":"MNE","tipo":"Municipality","lat":42.39,"lng":18.69},"geometry":{"type":"Polygon","coordinates":[[[18.69,42.36],[18.64,42.42],[18.7,42.39],[18.69,42.48],[18.73,42.43],[18.69,42.36]]]}},{"type":"Feature","properties":{"id":"MNE-11","nome":"Mojkovac","pais":"MNE","tipo":"Municipality","lat":42.97,"lng":19.52},"geometry":{"type":"Polygon","coordinates":[[[19.33,42.99],[19.51,43.04],[19.65,43],[19.7,42.91],[19.45,42.9],[19.33,42.99]]]}},{"type":"Feature","properties":{"id":"MNE-06","nome":"Cetinje","pais":"MNE","tipo":"Municipality","lat":42.5,"lng":18.9},"geometry":{"type":"Polygon","coordinates":[[[18.73,42.72],[18.93,42.64],[19.01,42.56],[18.96,42.49],[19.14,42.37],[19.11,42.3],[18.79,42.35],[18.76,42.51],[18.65,42.63],[18.73,42.72]]]}},{"type":"Feature","properties":{"id":"MNE-18","nome":"Šavnik","pais":"MNE","tipo":"Municipality","lat":42.96,"lng":19.15},"geometry":{"type":"Polygon","coordinates":[[[19.02,43.09],[19.21,43.05],[19.37,42.93],[19.23,42.91],[19.21,42.86],[18.98,42.93],[18.93,43.03],[19.02,43.09]]]}},{"type":"Feature","properties":{"id":"MNE-09","nome":"Kolašin","pais":"MNE","tipo":"Municipality","lat":42.79,"lng":19.44},"geometry":{"type":"Polygon","coordinates":[[[19.21,42.76],[19.23,42.91],[19.68,42.88],[19.63,42.67],[19.54,42.74],[19.45,42.68],[19.31,42.67],[19.21,42.76]]]}},{"type":"Feature","properties":{"id":"MNE-07","nome":"Danilovgrad","pais":"MNE","tipo":"Municipality","lat":42.59,"lng":19.12},"geometry":{"type":"Polygon","coordinates":[[[19.18,42.69],[19.21,42.76],[19.3,42.68],[19.2,42.49],[18.99,42.51],[19.01,42.56],[18.94,42.62],[19.05,42.7],[19.18,42.69]]]}}]}