{"type":"FeatureCollection","features":[{"type":"Feature","properties":{"id":"MNG-061","nome":"Dornod","pais":"MNG","tipo":"Province","lat":48.78,"lng":114.26},"geometry":{"type":"Polygon","coordinates":[[[116.68,49.82],[116.04,48.87],[116.03,48.77],[115.8,48.53],[115.8,48.24],[115.51,48.13],[115.58,47.91],[115.91,47.68],[116.24,47.86],[116.82,47.88],[117.36,47.65],[117.77,47.99],[118.18,48.03],[118.47,47.99],[118.77,47.76],[119.08,47.66],[119.13,47.53],[119.31,47.48],[119.28,47.41],[119.7,47.16],[119.77,46.99],[119.9,46.9],[119.87,46.67],[119.68,46.59],[119.06,46.66],[118.85,46.77],[118.72,46.68],[118.27,46.72],[117.9,46.61],[117.8,46.52],[117.67,46.52],[117.57,46.6],[117.39,46.57],[117.34,46.36],[116.81,46.39],[116.58,46.3],[116.24,46.62],[115.17,46.57],[114.91,46.49],[114.7,46.73],[114.46,46.84],[114.48,47.15],[114.44,47.2],[113.8,47.51],[112.95,47.67],[112.69,47.6],[112.69,47.81],[112.54,48.08],[112.54,48.47],[112.21,48.95],[112.25,49.04],[112.17,49.32],[112.21,49.36],[112.13,49.44],[112.47,49.53],[112.73,49.49],[113.04,49.59],[113.21,49.82],[113.58,50.02],[113.85,50.08],[114.29,50.28],[114.75,50.24],[115,50.14],[115.39,49.89],[115.72,49.88],[116.22,50.01],[116.58,49.92],[116.68,49.82]]]}},{"type":"Feature","properties":{"id":"MNG-071","nome":"Bayan-Ölgiy","pais":"MNG","tipo":"Province","lat":48.88,"lng":89.81},"geometry":{"type":"Polygon","coordinates":[[[87.91,48.76],[87.74,48.87],[87.87,48.97],[87.82,49.17],[87.96,49.17],[88.14,49.27],[88.12,49.36],[88.17,49.44],[88.62,49.49],[88.87,49.44],[88.89,49.54],[89.01,49.46],[89.2,49.52],[89.22,49.63],[89.37,49.58],[89.7,49.72],[89.62,49.84],[89.67,49.93],[90,50],[90.07,49.97],[90.3,49.58],[90.64,49.43],[90.68,49.32],[90.9,49.3],[90.91,49.21],[91.09,48.99],[91.31,48.85],[91.35,48.7],[91.1,48.7],[90.69,48.58],[90.84,48.43],[90.79,48.31],[90.83,48.13],[90.96,48.03],[91.18,47.66],[91.26,47.5],[91.24,47.39],[91.47,47.18],[91.42,46.98],[91.89,46.69],[91.88,46.64],[91.5,46.64],[91.42,46.56],[91.27,46.66],[91.01,46.69],[90.89,46.94],[90.71,47.01],[90.47,47.31],[90.49,47.38],[90.34,47.66],[90.08,47.76],[90.04,47.88],[89.75,47.82],[89.54,48.03],[89.05,47.99],[88.92,48.11],[88.6,48.2],[88.5,48.39],[87.98,48.55],[87.94,48.6],[88.06,48.71],[87.91,48.76]]]}},{"type":"Feature","properties":{"id":"MNG-043","nome":"Hovd","pais":"MNG","tipo":"Province","lat":46.8,"lng":92.46},"geometry":{"type":"Polygon","coordinates":[[[90.91,45.19],[90.65,45.49],[90.71,45.75],[91,46.02],[90.9,46.3],[91.05,46.55],[91,46.59],[91.01,46.69],[91.27,46.66],[91.42,46.56],[91.5,46.64],[91.84,46.62],[91.89,46.69],[91.42,46.98],[91.47,47.18],[91.24,47.39],[91.26,47.5],[91.18,47.66],[90.96,48.03],[90.84,48.11],[90.79,48.31],[90.84,48.43],[90.69,48.59],[91.1,48.7],[91.39,48.71],[91.64,48.92],[91.82,48.98],[91.91,48.94],[91.98,48.76],[92.08,48.76],[92.21,48.61],[92.29,48.64],[92.77,48.56],[93.02,48.67],[93.19,48.62],[93.25,48.5],[93.5,48.36],[93.43,48.23],[93.19,48.09],[93.28,47.85],[93.54,47.51],[94.03,47.24],[94.08,47.08],[94.27,46.86],[94.23,46.78],[93.78,46.59],[93.53,46.57],[93.63,46.35],[93.4,46.01],[93.41,45.92],[93.12,45.7],[93.08,45.01],[92.22,45.01],[92.04,45.07],[91.53,45.07],[91.44,45.15],[91.25,45.13],[91.06,45.22],[90.91,45.19]]]}},{"type":"Feature","properties":{"id":"MNG-051","nome":"Sühbaatar","pais":"MNG","tipo":"Province","lat":46.18,"lng":113.9},"geometry":{"type":"Polygon","coordinates":[[[116.58,46.3],[116.21,45.91],[116.25,45.8],[116.14,45.69],[116,45.68],[115.64,45.44],[114.53,45.39],[114.42,45.2],[114.09,44.96],[113.6,44.74],[112.75,44.87],[112.41,45.07],[111.98,45.09],[111.97,45.28],[111.75,45.51],[111.77,45.8],[111.62,46.1],[111.23,46.26],[111.32,46.39],[111.27,46.64],[111.47,46.92],[111.59,47.27],[111.81,47.4],[112.09,47.38],[112.07,47.57],[112.13,47.66],[112.69,47.81],[112.69,47.6],[112.95,47.67],[113.8,47.51],[114.44,47.2],[114.48,47.15],[114.46,46.84],[114.7,46.73],[114.91,46.49],[115.17,46.57],[116.24,46.62],[116.58,46.3]]]}},{"type":"Feature","properties":{"id":"MNG-063","nome":"Dornogovi","pais":"MNG","tipo":"Province","lat":44.41,"lng":109.83},"geometry":{"type":"Polygon","coordinates":[[[111.98,45.09],[111.74,44.97],[111.4,44.39],[111.54,44.16],[111.84,43.94],[111.94,43.79],[111.93,43.7],[111.75,43.66],[111.57,43.5],[110.97,43.32],[110.41,42.77],[109.49,42.45],[108.96,42.45],[108.8,42.4],[108.05,42.44],[108.05,43.12],[107.98,43.71],[107.67,44.37],[107.85,44.81],[108.31,44.85],[108.62,45.05],[108.51,45.64],[108.59,45.93],[108.42,45.9],[108.3,46],[108.32,46.33],[108.07,46.57],[108.21,46.67],[108.02,46.69],[107.96,46.77],[108.48,46.78],[108.71,46.86],[108.83,47.01],[108.95,46.97],[108.98,46.81],[109.1,46.86],[109.12,46.75],[109.01,46.5],[109.22,46.27],[109.39,46.18],[109.74,46.19],[109.99,46.31],[110.07,46.48],[110.04,46.62],[110.1,46.64],[110.21,46.6],[110.55,46.24],[110.85,46.09],[110.97,46.07],[111.23,46.23],[111.6,46.11],[111.77,45.8],[111.75,45.51],[111.97,45.28],[111.98,45.09]]]}},{"type":"Feature","properties":{"id":"MNG-065","nome":"Govi-Altay","pais":"MNG","tipo":"Province","lat":45.46,"lng":95.78},"geometry":{"type":"Polygon","coordinates":[[[93.27,44.98],[93.08,45.01],[93.14,45.45],[93.11,45.67],[93.41,45.92],[93.4,46.01],[93.63,46.35],[93.53,46.57],[93.78,46.59],[94.26,46.83],[94.08,47.08],[94.03,47.24],[93.54,47.51],[93.49,47.63],[93.73,47.65],[94.11,47.78],[94.51,47.69],[94.97,47.68],[95.11,47.56],[95.47,47.57],[96.18,47.26],[96.32,47.08],[96.39,46.89],[96.68,46.94],[96.83,46.89],[96.99,46.61],[97.24,46.59],[97.39,46.67],[97.64,46.61],[97.69,46.33],[97.98,46.1],[98.15,46.05],[98.38,45.84],[98.48,45.45],[98.35,45.08],[98.23,44.95],[98.22,44.57],[97.94,44.37],[97.98,44],[97.94,43.6],[97.8,43.28],[97.85,42.72],[97.19,42.79],[96.36,42.72],[96.32,42.91],[95.87,43.25],[95.54,43.96],[95.32,44.02],[95.32,44.16],[95.4,44.28],[95.04,44.25],[94.72,44.34],[94.59,44.44],[94.34,44.51],[94.18,44.66],[93.93,44.67],[93.69,44.89],[93.27,44.98]]]}},{"type":"Feature","properties":{"id":"MNG-069","nome":"Bayanhongor","pais":"MNG","tipo":"Province","lat":45.83,"lng":99.7},"geometry":{"type":"Polygon","coordinates":[[[99.47,42.56],[97.85,42.72],[97.8,43.28],[97.94,43.6],[97.98,44],[97.94,44.37],[98.22,44.57],[98.23,44.95],[98.35,45.08],[98.48,45.45],[98.38,45.84],[98.15,46.05],[97.98,46.1],[97.68,46.34],[97.64,46.66],[97.88,47.19],[98.15,47.24],[98.27,47.36],[98.27,47.45],[98.39,47.65],[98.6,47.73],[98.74,47.71],[98.79,47.58],[99.01,47.48],[99.28,47.5],[99.65,47.66],[99.67,47.53],[99.83,47.4],[99.87,47.11],[100.4,47.18],[100.49,47],[100.63,46.95],[100.71,46.84],[101.2,46.86],[101.52,46.6],[101.56,46.45],[101.45,46.33],[101.5,46.15],[101.3,46.01],[101.27,45.59],[101.11,45.39],[101.19,45.03],[101.57,44.85],[101.5,44.7],[101.75,44.06],[101.21,43.82],[100.33,43.82],[99.82,44.17],[99.49,44.11],[99.52,43.2],[99.62,42.6],[99.47,42.56]]]}},{"type":"Feature","properties":{"id":"MNG-053","nome":"Ömnögovi","pais":"MNG","tipo":"Province","lat":43.46,"lng":103.76},"geometry":{"type":"Polygon","coordinates":[[[101.22,42.53],[100.02,42.68],[99.62,42.6],[99.52,43.2],[99.48,44.11],[99.82,44.17],[100.33,43.82],[101.19,43.82],[101.75,44.06],[102.12,44.15],[103,44.15],[102.93,44.35],[103.26,44.84],[103.64,45.01],[103.77,45.19],[104.1,45.18],[104.11,44.93],[104.2,44.83],[105.48,44.7],[105.76,44.31],[106,44.2],[106.47,44.25],[107.28,44.5],[107.45,44.46],[107.71,44.51],[107.67,44.32],[107.98,43.71],[108.05,43.12],[108.05,42.44],[106.77,42.29],[105.2,41.74],[104.97,41.59],[104.89,41.64],[104.5,41.66],[104.5,41.87],[103.69,41.76],[103.07,42],[102.03,42.18],[101.64,42.52],[101.22,42.53]]]}},{"type":"Feature","properties":{"id":"MNG-041","nome":"Hövsgöl","pais":"MNG","tipo":"Province","lat":50.15,"lng":99.82},"geometry":{"type":"Polygon","coordinates":[[[98.94,52.12],[99.32,51.93],[99.71,51.88],[99.92,51.75],[100.51,51.73],[101.35,51.45],[101.72,51.45],[102.18,51.32],[102.15,51.1],[102.23,50.98],[102.22,50.8],[102.33,50.72],[102.28,50.59],[102.51,50.5],[102.62,50.4],[102.42,50.3],[102.11,49.93],[102.78,49.69],[102.52,49.63],[102.34,49.45],[101.98,49.37],[101.73,49.23],[101.64,49.11],[101.65,49],[101.34,48.98],[100.71,49.21],[100.59,49.08],[100.42,49.07],[100.42,49.02],[100.57,48.94],[100.36,48.8],[100.35,48.63],[100.46,48.56],[100.2,48.49],[100.16,48.4],[99.76,48.48],[99.68,48.32],[99.35,48.32],[99.24,48.26],[99.1,48.34],[99.02,48.58],[99.15,48.86],[99.05,49.16],[98.74,49.13],[98.56,48.99],[98.19,49.06],[97.92,49.03],[97.53,49.2],[97.16,49.23],[96.9,49.38],[96.86,49.45],[96.89,49.55],[97.15,49.71],[97.09,49.81],[97.21,49.73],[97.34,49.73],[97.57,49.85],[97.57,49.92],[97.76,49.96],[97.83,49.92],[98.11,50.06],[98.26,50.28],[98.3,50.49],[98.04,50.62],[97.94,50.77],[97.98,50.85],[97.81,50.97],[97.93,51.22],[97.92,51.32],[98.05,51.47],[98.22,51.48],[98.23,51.58],[98.33,51.72],[98.68,51.82],[98.86,52.11],[98.94,52.12]]]}},{"type":"Feature","properties":{"id":"MNG-067","nome":"Bulgan","pais":"MNG","tipo":"Province","lat":49,"lng":103.2},"geometry":{"type":"Polygon","coordinates":[[[102.62,50.4],[102.93,50.3],[103.2,50.3],[103.28,50.2],[103.6,50.13],[103.79,50.19],[104.12,50.15],[104.35,50.27],[104.52,50.15],[104.62,50.01],[104.52,49.98],[104.52,49.88],[104.73,49.69],[104.67,49.65],[104.52,49.11],[104.1,49.12],[104,48.99],[104.3,48.93],[104.54,48.79],[104.53,48.42],[104.29,48.14],[104.39,47.99],[104.7,47.94],[104.76,47.66],[104.53,47.65],[104.49,47.6],[104.16,47.52],[104.07,47.47],[104.17,47.36],[104.15,47.3],[103.68,47.25],[103.66,47.34],[103.4,47.49],[103.21,47.7],[103.09,47.72],[103.01,47.84],[102.85,47.9],[102.81,48.08],[102.68,48.22],[102.37,48.33],[102.23,48.5],[102.13,48.81],[101.98,48.78],[101.68,48.94],[101.64,49.11],[101.73,49.23],[101.98,49.37],[102.34,49.45],[102.52,49.63],[102.78,49.69],[102.1,49.95],[102.42,50.3],[102.62,50.4]]]}},{"type":"Feature","properties":{"id":"MNG-046","nome":"Uvs","pais":"MNG","tipo":"Province","lat":49.69,"lng":92.84},"geometry":{"type":"Polygon","coordinates":[[[92.36,50.87],[92.65,50.67],[92.8,50.79],[92.96,50.78],[93.01,50.62],[93.1,50.6],[94.24,50.57],[94.35,50.22],[94.6,50.02],[94.92,50.05],[95.08,49.95],[95.45,49.91],[95.46,49.61],[95.69,49.36],[95.59,49.16],[95.56,48.91],[95.1,48.72],[94.79,48.69],[94.13,48.8],[93.72,48.66],[93.46,48.4],[93.07,48.66],[92.77,48.56],[92.29,48.64],[92.21,48.61],[92.08,48.76],[91.98,48.76],[91.86,48.97],[91.64,48.92],[91.35,48.7],[91.3,48.87],[91.09,48.99],[90.91,49.21],[90.9,49.3],[90.68,49.32],[90.64,49.43],[90.31,49.57],[90.1,49.96],[90,50],[90.05,50.08],[90.48,50.21],[90.68,50.22],[90.73,50.29],[90.98,50.41],[91.42,50.46],[91.75,50.68],[92.16,50.69],[92.36,50.87]]]}},{"type":"Feature","properties":{"id":"MNG-049","nome":"Selenge","pais":"MNG","tipo":"Province","lat":48.85,"lng":106.46},"geometry":{"type":"Polygon","coordinates":[[[105.33,50.48],[105.98,50.4],[106.22,50.29],[106.66,50.33],[106.97,50.2],[107.06,50.07],[107.19,50.01],[107.95,49.93],[107.93,49.67],[108.57,49.33],[108.52,49.12],[108.3,49.11],[108.09,49.01],[107.91,49.07],[107.68,49.06],[107.53,48.98],[107.73,48.83],[107.65,48.64],[107.25,48.56],[107.11,48.62],[106.57,48.53],[106.17,48.69],[106.02,48.67],[106.01,48.81],[105.83,48.87],[105.51,48.79],[105.44,48.76],[105.49,48.64],[105.06,48.51],[104.53,48.63],[104.54,48.79],[104.38,48.9],[104.57,49.01],[104.52,49.11],[104.67,49.65],[104.73,49.69],[104.52,49.88],[104.52,49.98],[104.62,50.01],[104.35,50.27],[105.11,50.39],[105.33,50.48]],[[106.37,49.52],[106.04,49.62],[106.14,49.77],[106.14,49.82],[106.04,49.8],[105.83,49.64],[105.9,49.47],[105.81,49.13],[106.06,49.1],[106.36,49.19],[106.6,49.09],[106.8,49.13],[106.78,49.51],[106.51,49.61],[106.37,49.52]]]}},{"type":"Feature","properties":{"id":"MNG-057","nome":"Dzavhan","pais":"MNG","tipo":"Province","lat":48.62,"lng":96.17},"geometry":{"type":"Polygon","coordinates":[[[95.83,50.02],[95.95,49.94],[96.06,50],[96.35,49.89],[96.5,49.92],[96.59,49.86],[96.7,49.91],[97.01,49.87],[97.15,49.71],[96.9,49.56],[96.86,49.44],[97.16,49.23],[97.53,49.2],[97.92,49.03],[98.19,49.06],[98.52,48.98],[98.64,49.02],[98.74,49.13],[99.08,49.13],[99.15,48.84],[99.02,48.61],[99.1,48.34],[98.7,48.23],[98.56,48.12],[98.19,48.05],[98.22,47.86],[98.17,47.7],[98.39,47.65],[98.38,47.58],[98.15,47.24],[97.86,47.17],[97.64,46.61],[97.39,46.67],[97.24,46.59],[96.99,46.61],[96.83,46.89],[96.68,46.94],[96.39,46.89],[96.32,47.08],[96.18,47.26],[95.47,47.57],[95.11,47.56],[94.97,47.68],[94.51,47.69],[94.15,47.78],[93.49,47.63],[93.27,47.87],[93.19,48.09],[93.47,48.27],[93.5,48.36],[93.46,48.4],[93.52,48.5],[93.72,48.66],[94.13,48.8],[94.79,48.69],[95.52,48.86],[95.69,49.36],[95.46,49.61],[95.46,49.88],[95.83,50.02]]]}},{"type":"Feature","properties":{"id":"MNG-039","nome":"Hentiy","pais":"MNG","tipo":"Province","lat":47.71,"lng":110.54},"geometry":{"type":"Polygon","coordinates":[[[108.57,49.33],[109.29,49.34],[109.52,49.26],[109.73,49.27],[110.18,49.16],[110.37,49.24],[110.69,49.13],[111.34,49.36],[112.13,49.44],[112.21,49.36],[112.17,49.32],[112.25,49.04],[112.21,48.95],[112.54,48.47],[112.54,48.08],[112.69,47.81],[112.13,47.66],[112.07,47.57],[112.09,47.38],[111.81,47.4],[111.59,47.27],[111.47,46.92],[111.27,46.64],[111.31,46.37],[111.23,46.23],[111.04,46.11],[110.92,46.08],[110.64,46.18],[110.15,46.63],[110.04,46.62],[110.07,46.48],[109.99,46.31],[109.74,46.19],[109.39,46.18],[109.22,46.27],[109.01,46.5],[109.12,46.75],[109.1,46.86],[108.97,46.82],[108.95,46.97],[108.69,47.1],[108.4,47.51],[108.48,47.71],[108.48,47.91],[108.88,48.08],[109.04,48.32],[108.85,48.82],[108.74,48.97],[108.52,49.12],[108.57,49.33]]]}},{"type":"Feature","properties":{"id":"MNG-037","nome":"Darhan-Uul","pais":"MNG","tipo":"Municipality","lat":49.36,"lng":106.31},"geometry":{"type":"Polygon","coordinates":[[[106.14,49.82],[106.14,49.73],[106.04,49.62],[106.37,49.52],[106.51,49.61],[106.78,49.51],[106.8,49.13],[106.6,49.09],[106.36,49.19],[106.06,49.1],[105.81,49.13],[105.9,49.47],[105.83,49.64],[106.14,49.82]]]}},{"type":"Feature","properties":{"id":"MNG-047","nome":"Töv","pais":"MNG","tipo":"Province","lat":47.15,"lng":106.55},"geometry":{"type":"Polygon","coordinates":[[[108.43,47.56],[108.4,47.5],[108.69,47.1],[108.83,47.01],[108.76,46.9],[108.48,46.78],[108.12,46.81],[107.86,46.76],[107.8,46.57],[107.42,46.43],[107.1,46.4],[106.83,46.55],[106.16,46.57],[105.8,46.73],[105.66,46.71],[105.4,46.44],[104.97,46.59],[104.65,46.38],[104.4,46.54],[104.38,46.69],[104.23,46.85],[104.35,46.91],[104.35,47],[104.18,47.15],[104.17,47.36],[104.07,47.47],[104.53,47.65],[104.76,47.66],[104.7,47.94],[104.39,47.99],[104.29,48.14],[104.52,48.37],[104.53,48.63],[105.06,48.51],[105.49,48.64],[105.44,48.76],[105.51,48.79],[105.83,48.87],[106.01,48.81],[106.02,48.67],[106.17,48.69],[106.57,48.53],[107.11,48.62],[107.25,48.56],[107.65,48.64],[107.73,48.83],[107.53,48.98],[107.68,49.06],[107.91,49.07],[108.09,49.01],[108.3,49.11],[108.52,49.12],[108.74,48.97],[108.85,48.82],[109.04,48.32],[108.88,48.08],[108.6,47.93],[108.35,47.92],[108.24,47.83],[108.23,47.62],[108.43,47.56]],[[106.88,48.17],[106.36,48.26],[106.52,47.75],[107.03,47.73],[107.28,47.64],[107.51,47.65],[107.56,47.93],[107.33,47.99],[107.1,48.22],[106.88,48.17]]]}},{"type":"Feature","properties":{"id":"MNG-073","nome":"Arhangay","pais":"MNG","tipo":"Province","lat":48.01,"lng":100.92},"geometry":{"type":"Polygon","coordinates":[[[101.65,49],[101.72,48.91],[101.98,48.78],[102.13,48.81],[102.23,48.5],[102.37,48.33],[102.68,48.22],[102.81,48.08],[102.85,47.9],[103.01,47.84],[103.09,47.72],[103.21,47.7],[103.4,47.49],[103.66,47.34],[103.68,47.25],[103.53,47.2],[103.19,47.21],[103.03,47.35],[102.66,47.43],[102.64,47.39],[102.73,47.29],[102.54,47.1],[102.51,46.97],[102.43,46.96],[102.27,47.05],[101.8,46.9],[101.26,46.82],[101.18,46.87],[100.71,46.84],[100.63,46.95],[100.49,47],[100.4,47.18],[99.87,47.11],[99.83,47.4],[99.67,47.53],[99.65,47.66],[99.28,47.5],[99.01,47.48],[98.79,47.58],[98.71,47.73],[98.39,47.65],[98.17,47.7],[98.22,47.86],[98.16,48],[98.22,48.08],[98.56,48.12],[98.7,48.23],[99.1,48.34],[99.24,48.26],[99.35,48.32],[99.68,48.32],[99.78,48.48],[100.16,48.4],[100.2,48.49],[100.46,48.56],[100.35,48.63],[100.36,48.8],[100.57,48.94],[100.42,49.02],[100.42,49.07],[100.59,49.08],[100.71,49.21],[101.34,48.98],[101.65,49]]]}},{"type":"Feature","properties":{"id":"MNG-035","nome":"Orhon","pais":"MNG","tipo":"Municipality","lat":49.01,"lng":104.29},"geometry":{"type":"Polygon","coordinates":[[[104.52,49.11],[104.56,49],[104.38,48.9],[104,48.99],[104.1,49.12],[104.52,49.11]]]}},{"type":"Feature","properties":{"id":"MNG-059","nome":"Dundgovi","pais":"MNG","tipo":"Province","lat":45.41,"lng":106.12},"geometry":{"type":"Polygon","coordinates":[[[107.1,46.4],[107.42,46.43],[107.8,46.57],[107.86,46.76],[107.96,46.77],[108.02,46.69],[108.21,46.67],[108.07,46.57],[108.32,46.33],[108.3,46],[108.42,45.9],[108.59,45.93],[108.51,45.64],[108.61,45.02],[108.48,44.99],[108.31,44.85],[107.85,44.81],[107.79,44.59],[107.71,44.51],[107.45,44.46],[107.28,44.5],[106.47,44.25],[106.03,44.2],[105.76,44.31],[105.48,44.7],[104.2,44.83],[104.11,44.93],[104.12,45.16],[103.77,45.19],[103.8,45.36],[103.61,45.54],[103.63,45.62],[103.74,45.71],[104.06,45.74],[104.18,46.12],[104.42,46.16],[104.53,46.27],[104.55,46.38],[104.6,46.42],[104.65,46.38],[104.97,46.59],[105.4,46.44],[105.66,46.71],[105.8,46.73],[106.16,46.57],[106.83,46.55],[107.1,46.4]]]}},{"type":"Feature","properties":{"id":"MNG-055","nome":"Övörhangay","pais":"MNG","tipo":"Province","lat":45.78,"lng":102.86},"geometry":{"type":"Polygon","coordinates":[[[104.15,47.3],[104.18,47.15],[104.35,47],[104.35,46.91],[104.23,46.85],[104.38,46.69],[104.41,46.53],[104.6,46.42],[104.42,46.16],[104.17,46.11],[104.06,45.74],[103.77,45.72],[103.63,45.62],[103.63,45.5],[103.81,45.33],[103.69,45.06],[103.23,44.8],[102.93,44.35],[103,44.15],[102.12,44.15],[101.75,44.06],[101.5,44.7],[101.57,44.85],[101.21,45.01],[101.14,45.15],[101.11,45.41],[101.27,45.59],[101.3,46.01],[101.5,46.15],[101.45,46.33],[101.56,46.45],[101.52,46.6],[101.26,46.82],[101.8,46.9],[102.27,47.05],[102.43,46.96],[102.51,46.97],[102.54,47.1],[102.73,47.29],[102.64,47.39],[102.66,47.43],[103.03,47.35],[103.19,47.21],[103.53,47.2],[104.15,47.3]]]}},{"type":"Feature","properties":{"id":"MNG-064","nome":"Govĭ-Sümber","pais":"MNG","tipo":"Municipality","lat":47.74,"lng":108.35},"geometry":{"type":"Polygon","coordinates":[[[108.48,47.91],[108.43,47.56],[108.26,47.59],[108.2,47.72],[108.24,47.83],[108.35,47.92],[108.48,47.91]]]}},{"type":"Feature","properties":{"id":"MNG-1","nome":"Ulaanbaatar","pais":"MNG","tipo":"Municipality","lat":47.96,"lng":106.97},"geometry":{"type":"Polygon","coordinates":[[[106.36,48.26],[106.88,48.17],[107.1,48.22],[107.33,47.99],[107.57,47.91],[107.51,47.65],[107.28,47.64],[107.03,47.73],[106.52,47.75],[106.36,48.26]]]}}]}