{"type":"FeatureCollection","features":[{"type":"Feature","properties":{"id":"MNP-X01~","nome":"Rota","pais":"MNP","tipo":"Estado","lat":14.15,"lng":145.21},"geometry":{"type":"Polygon","coordinates":[[[145.21,14.18],[145.29,14.18],[145.21,14.11],[145.12,14.13],[145.21,14.18]]]}},{"type":"Feature","properties":{"id":"MNP-X02~","nome":"Tinian","pais":"MNP","tipo":"Estado","lat":15,"lng":145.62},"geometry":{"type":"Polygon","coordinates":[[[145.65,15.07],[145.63,14.92],[145.58,15.02],[145.65,15.07]]]}},{"type":"Feature","properties":{"id":"MNP-X03~","nome":"Saipan","pais":"MNP","tipo":"Estado","lat":15.19,"lng":145.74},"geometry":{"type":"Polygon","coordinates":[[[145.79,15.27],[145.82,15.26],[145.75,15.1],[145.69,15.1],[145.7,15.2],[145.79,15.27]]]}}]}