{"type":"FeatureCollection","features":[{"type":"Feature","properties":{"id":"MRT-11","nome":"Tiris Zemmour","pais":"MRT","tipo":"Region","lat":24.33,"lng":-8.99},"geometry":{"type":"Polygon","coordinates":[[[-8.68,27.29],[-4.82,25],[-6.59,24.99],[-6.51,24.28],[-10.79,21.52],[-12.38,21.35],[-13.03,21.58],[-13.09,22.5],[-13.17,22.75],[-13.12,22.88],[-13.02,23.02],[-12.62,23.27],[-12.02,23.46],[-12.02,25.99],[-8.69,26],[-8.68,27.29]]]}},{"type":"Feature","properties":{"id":"MRT-08","nome":"Dakhlet Nouadhibou","pais":"MRT","tipo":"Region","lat":20.84,"lng":-16.14},"geometry":{"type":"Polygon","coordinates":[[[-17.06,20.77],[-17.08,20.9],[-16.96,21.33],[-14.3,21.33],[-14.17,21.14],[-15.84,21.15],[-15.58,20.74],[-16.28,19.5],[-16.32,19.45],[-16.3,19.55],[-16.39,19.46],[-16.36,19.54],[-16.45,19.41],[-16.47,19.46],[-16.23,19.79],[-16.25,19.9],[-16.31,19.89],[-16.22,20],[-16.26,20.14],[-16.21,20.25],[-16.47,20.65],[-16.41,20.68],[-16.53,20.74],[-16.54,20.56],[-16.67,20.68],[-16.92,21.16],[-17.02,21.03],[-17.06,20.77]]]}},{"type":"Feature","properties":{"id":"MRT-07","nome":"Adrar","pais":"MRT","tipo":"Region","lat":20.76,"lng":-10.33},"geometry":{"type":"Polygon","coordinates":[[[-14.3,21.33],[-13.02,21.33],[-13.03,21.58],[-12.38,21.35],[-10.79,21.52],[-6.51,24.28],[-6.37,23.12],[-7.99,19.73],[-11.03,19.71],[-11.42,19.41],[-11.45,19.2],[-11.68,19.32],[-12.34,18.9],[-12.67,18.56],[-13.24,19],[-14.22,19],[-14.15,21.12],[-14.3,21.33]]]}},{"type":"Feature","properties":{"id":"MRT-05","nome":"Brakna","pais":"MRT","tipo":"Region","lat":17.08,"lng":-13.63},"geometry":{"type":"Polygon","coordinates":[[[-14.91,16.64],[-14.93,16.69],[-14.32,17.09],[-13.96,17.6],[-13.73,17.8],[-12.67,18.56],[-12.48,18.27],[-12.54,17.49],[-12.31,17.28],[-12.52,17.12],[-12.73,17.05],[-12.93,16.62],[-13.11,16.58],[-13.18,16.41],[-13.63,16.29],[-13.67,16.18],[-13.83,16.12],[-13.96,16.23],[-13.98,16.34],[-14.34,16.64],[-14.91,16.64]]]}},{"type":"Feature","properties":{"id":"MRT-06","nome":"Trarza","pais":"MRT","tipo":"Region","lat":17.93,"lng":-14.61},"geometry":{"type":"Polygon","coordinates":[[[-14.95,16.67],[-15.04,16.63],[-15.11,16.67],[-15.13,16.58],[-15.46,16.58],[-15.67,16.48],[-16.05,16.5],[-16.13,16.55],[-16.27,16.52],[-16.39,16.23],[-16.46,16.19],[-16.54,15.81],[-16.54,16.27],[-16.46,16.64],[-16.17,17.26],[-16.03,17.89],[-15.78,17.89],[-15.78,18.39],[-16.06,18.39],[-16.21,19],[-13.24,19],[-12.67,18.56],[-13.73,17.8],[-13.96,17.6],[-14.32,17.09],[-14.95,16.67]]]}},{"type":"Feature","properties":{"id":"MRT-04","nome":"Gorgol","pais":"MRT","tipo":"Region","lat":16.03,"lng":-12.86},"geometry":{"type":"Polygon","coordinates":[[[-13.67,16.11],[-13.72,16.15],[-13.63,16.29],[-13.18,16.41],[-13.11,16.58],[-12.93,16.62],[-12.82,16.86],[-12.83,16.67],[-12.74,16.55],[-12.76,16.46],[-12.43,16.44],[-12.43,16.21],[-12.26,16.24],[-12.22,16.12],[-12.01,16.05],[-12,15.94],[-12.24,15.88],[-12.46,15.66],[-12.75,15.13],[-12.79,15.21],[-12.89,15.25],[-12.83,15.28],[-12.92,15.37],[-12.96,15.51],[-13.08,15.49],[-13.11,15.6],[-13.24,15.62],[-13.32,15.93],[-13.44,16.1],[-13.5,16.1],[-13.48,16.15],[-13.67,16.11]]]}},{"type":"Feature","properties":{"id":"MRT-10","nome":"Guidimaka","pais":"MRT","tipo":"Region","lat":15.34,"lng":-12.12},"geometry":{"type":"Polygon","coordinates":[[[-12.69,15.09],[-12.75,15.13],[-12.67,15.34],[-12.46,15.66],[-12.24,15.88],[-12,15.94],[-11.83,15.91],[-11.81,16.06],[-11.5,15.97],[-11.82,15.3],[-11.86,15.05],[-11.81,15.03],[-11.82,14.9],[-11.88,14.84],[-12.07,14.73],[-12.14,14.78],[-12.25,14.77],[-12.45,14.91],[-12.48,15.02],[-12.69,15.09]]]}},{"type":"Feature","properties":{"id":"MRT-01","nome":"Hodh ech Chargui","pais":"MRT","tipo":"Region","lat":18.02,"lng":-7.19},"geometry":{"type":"Polygon","coordinates":[[[-6.37,23.12],[-5.62,16.53],[-5.35,16.31],[-5.51,15.49],[-9,15.5],[-8.96,15.54],[-8.97,15.86],[-9.07,16.06],[-8.87,16.32],[-8.89,16.39],[-8.29,17.02],[-8.6,17.35],[-9.15,17.28],[-6.37,23.12]]]}},{"type":"Feature","properties":{"id":"MRT-02","nome":"Hodh el Gharbi","pais":"MRT","tipo":"Region","lat":16.48,"lng":-9.69},"geometry":{"type":"Polygon","coordinates":[[[-9,15.5],[-9.35,15.5],[-9.36,15.7],[-9.45,15.59],[-9.42,15.44],[-10.07,15.36],[-10.32,15.44],[-10.58,15.43],[-10.67,15.94],[-10.78,16.04],[-10.76,16.19],[-10.84,16.3],[-10.81,16.42],[-10.87,16.46],[-10.7,16.59],[-10.84,16.61],[-10.99,16.82],[-10.99,17.36],[-11.08,17.72],[-10.33,17.52],[-9.72,17.56],[-9.15,17.28],[-8.6,17.35],[-8.29,17.02],[-8.89,16.39],[-8.87,16.32],[-9.07,16.06],[-8.97,15.86],[-8.96,15.54],[-9,15.5]]]}},{"type":"Feature","properties":{"id":"MRT-03","nome":"Assaba","pais":"MRT","tipo":"Region","lat":16.58,"lng":-11.71},"geometry":{"type":"Polygon","coordinates":[[[-10.92,15.1],[-11.43,15.62],[-11.53,15.64],[-11.61,15.54],[-11.7,15.54],[-11.5,15.97],[-11.81,16.06],[-11.83,15.91],[-11.94,15.9],[-12,15.94],[-12.01,16.05],[-12.22,16.12],[-12.26,16.24],[-12.43,16.21],[-12.43,16.44],[-12.76,16.46],[-12.74,16.55],[-12.84,16.7],[-12.82,16.93],[-12.73,17.05],[-12.52,17.12],[-12.31,17.28],[-12.21,17.19],[-11.91,17.09],[-11.75,17.14],[-11.57,17.12],[-11.47,17.51],[-11.51,17.56],[-11.42,17.63],[-11.58,17.99],[-11.49,18.08],[-11.21,18.1],[-11.14,18.24],[-10.97,18.31],[-11.09,17.66],[-10.99,17.36],[-11,16.84],[-10.84,16.61],[-10.7,16.59],[-10.87,16.46],[-10.81,16.42],[-10.84,16.3],[-10.76,16.19],[-10.78,16.04],[-10.67,15.94],[-10.58,15.43],[-10.74,15.42],[-10.92,15.1]]]}},{"type":"Feature","properties":{"id":"MRT-12","nome":"Inchiri","pais":"MRT","tipo":"Region","lat":20.07,"lng":-15.34},"geometry":{"type":"Polygon","coordinates":[[[-16.21,19],[-16.54,19.38],[-16.41,19.39],[-16.28,19.5],[-15.58,20.74],[-15.84,21.15],[-14.17,21.14],[-14.22,19],[-16.21,19]]]}},{"type":"Feature","properties":{"id":"MRT-NKC","nome":"Nouakchott","pais":"MRT","tipo":"District","lat":18.14,"lng":-15.92},"geometry":{"type":"Polygon","coordinates":[[[-16.03,17.89],[-16.06,18.39],[-15.78,18.39],[-15.78,17.89],[-16.03,17.89]]]}},{"type":"Feature","properties":{"id":"MRT-09","nome":"Tagant","pais":"MRT","tipo":"Region","lat":18.62,"lng":-10.33},"geometry":{"type":"Polygon","coordinates":[[[-11.45,19.2],[-11.42,19.41],[-11.03,19.71],[-7.99,19.73],[-9.15,17.28],[-9.72,17.56],[-10.33,17.52],[-11.08,17.72],[-10.97,18.31],[-11.14,18.24],[-11.21,18.1],[-11.49,18.08],[-11.58,17.99],[-11.42,17.63],[-11.51,17.56],[-11.47,17.51],[-11.57,17.12],[-11.75,17.14],[-11.91,17.09],[-12.21,17.19],[-12.54,17.49],[-12.48,18.27],[-12.67,18.56],[-12.34,18.9],[-11.68,19.32],[-11.45,19.2]]]}}]}