{"type":"FeatureCollection","features":[{"type":"Feature","properties":{"id":"MUS-RR","nome":"Rivière du Rempart","pais":"MUS","tipo":"District","lat":-20.07,"lng":57.66},"geometry":{"type":"Polygon","coordinates":[[[57.58,-20],[57.68,-20],[57.73,-20.1],[57.63,-20.16],[57.58,-20]]]}},{"type":"Feature","properties":{"id":"MUS-PA","nome":"Pamplemousses","pais":"MUS","tipo":"District","lat":-20.09,"lng":57.57},"geometry":{"type":"Polygon","coordinates":[[[57.49,-20.12],[57.58,-20],[57.63,-20.17],[57.55,-20.2],[57.54,-20.12],[57.49,-20.12]]]}},{"type":"Feature","properties":{"id":"MUS-BL","nome":"Rivière Noire","pais":"MUS","tipo":"District","lat":-20.34,"lng":57.41},"geometry":{"type":"Polygon","coordinates":[[[57.4,-20.5],[57.3,-20.43],[57.36,-20.43],[57.38,-20.24],[57.46,-20.16],[57.49,-20.42],[57.39,-20.45],[57.4,-20.5]]]}},{"type":"Feature","properties":{"id":"MUS-SA","nome":"Savanne","pais":"MUS","tipo":"District","lat":-20.46,"lng":57.52},"geometry":{"type":"Polygon","coordinates":[[[57.63,-20.49],[57.47,-20.52],[57.39,-20.45],[57.57,-20.4],[57.63,-20.49]]]}},{"type":"Feature","properties":{"id":"MUS-GP","nome":"Grand Port","pais":"MUS","tipo":"District","lat":-20.39,"lng":57.65},"geometry":{"type":"Polygon","coordinates":[[[57.78,-20.3],[57.67,-20.48],[57.55,-20.4],[57.78,-20.3]]]}},{"type":"Feature","properties":{"id":"MUS-FL","nome":"Flacq","pais":"MUS","tipo":"District","lat":-20.22,"lng":57.72},"geometry":{"type":"Polygon","coordinates":[[[57.73,-20.1],[57.79,-20.27],[57.67,-20.33],[57.61,-20.18],[57.73,-20.1]]]}},{"type":"Feature","properties":{"id":"MUS-RO","nome":"Rodrigues","pais":"MUS","tipo":"Dependency","lat":-19.7,"lng":63.45},"geometry":{"type":"Polygon","coordinates":[[[63.48,-19.68],[63.37,-19.77],[63.33,-19.74],[63.48,-19.68]]]}},{"type":"Feature","properties":{"id":"MUS-MO","nome":"Moka","pais":"MUS","tipo":"District","lat":-20.25,"lng":57.6},"geometry":{"type":"Polygon","coordinates":[[[57.61,-20.18],[57.68,-20.29],[57.63,-20.34],[57.49,-20.19],[57.61,-20.18]]]}},{"type":"Feature","properties":{"id":"MUS-PW","nome":"Plaines Wilhems","pais":"MUS","tipo":"District","lat":-20.36,"lng":57.52},"geometry":{"type":"Polygon","coordinates":[[[57.6,-20.34],[57.5,-20.43],[57.46,-20.4],[57.45,-20.34],[57.55,-20.33],[57.47,-20.19],[57.6,-20.34]]]}},{"type":"Feature","properties":{"id":"MUS-PL","nome":"Port Louis","pais":"MUS","tipo":"City","lat":-20.17,"lng":57.53},"geometry":{"type":"Polygon","coordinates":[[[57.47,-20.19],[57.54,-20.12],[57.55,-20.2],[57.47,-20.19]]]}},{"type":"Feature","properties":{"id":"MUS-VP","nome":"Vacoas-Phoenix","pais":"MUS","tipo":"City","lat":-20.3,"lng":57.49},"geometry":{"type":"Polygon","coordinates":[[[57.47,-20.33],[57.46,-20.29],[57.53,-20.3],[57.47,-20.33]]]}}]}