{"type":"FeatureCollection","features":[{"type":"Feature","properties":{"id":"MWI-CT","nome":"Chitipa","pais":"MWI","tipo":"District","lat":-10.03,"lng":33.89},"geometry":{"type":"Polygon","coordinates":[[[34.01,-9.48],[34.32,-9.72],[34.52,-10.01],[34.62,-10.58],[34.11,-10.58],[33.95,-10.45],[33.7,-10.07],[33.48,-9.97],[33.7,-9.78],[33.65,-9.61],[33.73,-9.58],[33.91,-9.72],[34.01,-9.48]]]}},{"type":"Feature","properties":{"id":"MWI-RU","nome":"Rumphi","pais":"MWI","tipo":"District","lat":-10.71,"lng":33.95},"geometry":{"type":"Polygon","coordinates":[[[34.62,-10.58],[34.68,-10.75],[34.62,-10.97],[34.23,-10.97],[34.06,-11.08],[33.94,-10.96],[33.92,-11.03],[33.75,-11.03],[33.72,-11.08],[33.54,-11.02],[33.45,-11.11],[33.43,-11.01],[33.29,-10.98],[33.23,-10.9],[33.5,-10.77],[33.67,-10.57],[33.95,-10.45],[34.11,-10.58],[34.62,-10.58]]]}},{"type":"Feature","properties":{"id":"MWI-NB","nome":"Nkhata Bay","pais":"MWI","tipo":"District","lat":-11.63,"lng":34.16},"geometry":{"type":"Polygon","coordinates":[[[34.62,-10.97],[34.62,-11.12],[34.77,-11.35],[34.89,-11.38],[34.96,-11.57],[34.62,-11.58],[34.56,-11.83],[34.36,-12.2],[34.03,-12.2],[33.72,-12.11],[33.82,-11.99],[33.79,-11.6],[34.1,-11.44],[34.02,-11.25],[34.06,-11.08],[34.23,-10.97],[34.62,-10.97]]]}},{"type":"Feature","properties":{"id":"MWI-CT2","nome":"Chitipa","pais":"MWI","tipo":"District","lat":-9.89,"lng":33.43},"geometry":{"type":"Polygon","coordinates":[[[32.94,-9.49],[32.92,-9.41],[32.97,-9.38],[33.11,-9.49],[33.3,-9.49],[33.42,-9.62],[33.65,-9.61],[33.7,-9.78],[33.48,-9.97],[33.7,-10.07],[33.95,-10.45],[33.67,-10.57],[33.53,-10.34],[33.53,-10.23],[33.3,-10.06],[33.34,-9.83],[33.22,-9.73],[33.18,-9.6],[33.1,-9.59],[33.08,-9.66],[32.99,-9.63],[32.99,-9.5],[32.94,-9.49]]]}},{"type":"Feature","properties":{"id":"MWI-MZ","nome":"Mzimba","pais":"MWI","tipo":"District","lat":-11.88,"lng":33.66},"geometry":{"type":"Polygon","coordinates":[[[33.27,-11.42],[33.39,-11.16],[33.29,-10.98],[33.43,-11.01],[33.45,-11.11],[33.54,-11.02],[33.72,-11.08],[33.75,-11.03],[33.92,-11.03],[33.94,-10.96],[34.06,-11.08],[34.02,-11.25],[34.1,-11.44],[33.79,-11.6],[33.82,-11.99],[33.72,-12.09],[33.84,-12.14],[33.76,-12.26],[33.92,-12.46],[34.11,-12.5],[33.81,-12.72],[33.57,-12.64],[33.59,-12.4],[33.51,-12.33],[33.35,-12.33],[33.25,-12.14],[33.31,-11.9],[33.3,-11.61],[33.21,-11.56],[33.27,-11.42]]]}},{"type":"Feature","properties":{"id":"MWI-KS","nome":"Kasungu","pais":"MWI","tipo":"District","lat":-12.93,"lng":33.45},"geometry":{"type":"Polygon","coordinates":[[[33.33,-12.54],[33.49,-12.39],[33.57,-12.39],[33.57,-12.64],[33.67,-12.71],[33.84,-12.71],[33.83,-12.84],[33.93,-12.85],[34,-12.94],[33.53,-13.34],[33.46,-13.33],[33.33,-13.63],[33.19,-13.49],[33.15,-13.34],[32.91,-13.35],[33,-13.2],[32.97,-13.12],[33.01,-12.92],[32.95,-12.84],[32.96,-12.73],[33.05,-12.59],[33.17,-12.62],[33.26,-12.53],[33.33,-12.54]]]}},{"type":"Feature","properties":{"id":"MWI-MC","nome":"Mchinji","pais":"MWI","tipo":"District","lat":-13.7,"lng":33.01},"geometry":{"type":"Polygon","coordinates":[[[32.71,-13.58],[32.81,-13.53],[32.91,-13.35],[33.15,-13.34],[33.19,-13.49],[33.33,-13.63],[33.25,-13.83],[33.34,-13.98],[33.36,-14.23],[33.28,-14.06],[33.14,-13.92],[33,-14.05],[32.87,-13.82],[32.76,-13.78],[32.81,-13.71],[32.68,-13.63],[32.67,-13.58],[32.71,-13.58]]]}},{"type":"Feature","properties":{"id":"MWI-NK","nome":"Nkhotakota","pais":"MWI","tipo":"District","lat":-12.84,"lng":34.17},"geometry":{"type":"Polygon","coordinates":[[[34.36,-12.2],[34.49,-12.69],[34.58,-13.4],[34.33,-13.4],[34.13,-13.49],[34.1,-13.17],[34.06,-13.11],[33.97,-13.17],[33.92,-13.07],[34,-12.92],[33.82,-12.82],[33.88,-12.63],[34.1,-12.49],[33.92,-12.46],[33.76,-12.22],[33.86,-12.14],[34.03,-12.2],[34.36,-12.2]]]}},{"type":"Feature","properties":{"id":"MWI-SA","nome":"Salima","pais":"MWI","tipo":"District","lat":-13.76,"lng":34.49},"geometry":{"type":"Polygon","coordinates":[[[34.58,-13.4],[34.65,-13.5],[34.86,-13.52],[34.74,-14.08],[34.5,-14.11],[34.28,-13.85],[34.19,-13.87],[34.31,-13.74],[34.28,-13.67],[34.2,-13.69],[34.12,-13.62],[34.12,-13.5],[34.33,-13.4],[34.58,-13.4]]]}},{"type":"Feature","properties":{"id":"MWI-MG","nome":"Mangochi","pais":"MWI","tipo":"District","lat":-14.37,"lng":35.35},"geometry":{"type":"Polygon","coordinates":[[[34.86,-13.52],[35.08,-13.7],[35.75,-14.54],[35.56,-14.61],[35.46,-14.76],[35.29,-14.68],[35.28,-14.76],[34.99,-14.76],[34.8,-14.55],[34.74,-14.08],[34.86,-13.52]]]}},{"type":"Feature","properties":{"id":"MWI-MH","nome":"Machinga","pais":"MWI","tipo":"District","lat":-14.95,"lng":35.54},"geometry":{"type":"Polygon","coordinates":[[[35.75,-14.54],[35.85,-14.65],[35.86,-14.88],[35.9,-14.89],[35.79,-15.21],[35.19,-15.25],[35.31,-14.95],[35.28,-14.68],[35.46,-14.76],[35.56,-14.61],[35.75,-14.54]]]}},{"type":"Feature","properties":{"id":"MWI-DE","nome":"Dedza","pais":"MWI","tipo":"District","lat":-14.21,"lng":34.18},"geometry":{"type":"Polygon","coordinates":[[[33.66,-14.61],[33.62,-14.56],[33.71,-14.4],[33.93,-14.29],[33.96,-14.2],[34.09,-14.11],[34.28,-13.85],[34.5,-14.11],[34.74,-14.08],[34.75,-14.3],[34.59,-14.41],[34.34,-14.39],[33.8,-14.53],[33.72,-14.49],[33.66,-14.61]]]}},{"type":"Feature","properties":{"id":"MWI-LI","nome":"Lilongwe","pais":"MWI","tipo":"District","lat":-14.04,"lng":33.77},"geometry":{"type":"Polygon","coordinates":[[[33.62,-14.56],[33.36,-14.23],[33.34,-13.98],[33.25,-13.84],[33.42,-13.48],[33.47,-13.67],[33.52,-13.7],[33.75,-13.66],[33.79,-13.76],[34.05,-13.82],[34.25,-13.78],[34.19,-13.87],[34.28,-13.85],[34.09,-14.11],[33.96,-14.2],[33.93,-14.29],[33.72,-14.39],[33.62,-14.56]]]}},{"type":"Feature","properties":{"id":"MWI-NS","nome":"Nsanje","pais":"MWI","tipo":"District","lat":-17.05,"lng":35.1},"geometry":{"type":"Polygon","coordinates":[[[35.03,-16.82],[34.89,-16.7],[35.06,-16.49],[35.1,-16.33],[35.24,-16.4],[35.23,-16.47],[35.13,-16.54],[35.28,-16.7],[35.29,-17.13],[35.07,-17.11],[35.04,-17.04],[35.13,-16.86],[35.03,-16.82]]]}},{"type":"Feature","properties":{"id":"MWI-CK","nome":"Chikwawa","pais":"MWI","tipo":"District","lat":-16.15,"lng":34.66},"geometry":{"type":"Polygon","coordinates":[[[34.89,-16.7],[34.52,-16.3],[34.43,-16.27],[34.4,-16.06],[34.23,-15.89],[34.29,-15.75],[34.87,-15.83],[34.85,-15.97],[35.1,-16.33],[35.06,-16.49],[34.89,-16.7]]]}},{"type":"Feature","properties":{"id":"MWI-MW","nome":"Mwanza","pais":"MWI","tipo":"District","lat":-15.64,"lng":34.51},"geometry":{"type":"Polygon","coordinates":[[[34.34,-15.73],[34.42,-15.58],[34.76,-15.61],[34.75,-15.81],[34.54,-15.81],[34.34,-15.73]]]}},{"type":"Feature","properties":{"id":"MWI-NE","nome":"Neno","pais":"MWI","tipo":"District","lat":-15.44,"lng":34.69},"geometry":{"type":"Polygon","coordinates":[[[34.42,-15.58],[34.41,-15.48],[34.57,-15.3],[34.56,-15.2],[34.8,-15.25],[34.82,-15.32],[35.05,-15.32],[34.91,-15.39],[34.76,-15.61],[34.42,-15.58]]]}},{"type":"Feature","properties":{"id":"MWI-NU","nome":"Ntcheu","pais":"MWI","tipo":"District","lat":-14.78,"lng":34.69},"geometry":{"type":"Polygon","coordinates":[[[34.56,-15.2],[34.58,-14.98],[34.52,-14.61],[34.38,-14.41],[34.54,-14.43],[34.75,-14.3],[34.8,-14.55],[34.99,-14.76],[34.99,-14.82],[34.83,-15.33],[34.8,-15.25],[34.56,-15.2]]]}},{"type":"Feature","properties":{"id":"MWI-ZO","nome":"Zomba","pais":"MWI","tipo":"District","lat":-15.45,"lng":35.43},"geometry":{"type":"Polygon","coordinates":[[[35.79,-15.21],[35.84,-15.46],[35.66,-15.49],[35.46,-15.67],[35.28,-15.66],[35.19,-15.52],[35.11,-15.53],[35.14,-15.48],[35.01,-15.35],[35.17,-15.23],[35.79,-15.21]]]}},{"type":"Feature","properties":{"id":"MWI-PH","nome":"Phalombe","pais":"MWI","tipo":"District","lat":-15.69,"lng":35.67},"geometry":{"type":"Polygon","coordinates":[[[35.84,-15.46],[35.8,-15.93],[35.67,-15.89],[35.6,-15.94],[35.5,-15.69],[35.54,-15.58],[35.69,-15.47],[35.84,-15.46]]]}},{"type":"Feature","properties":{"id":"MWI-MU","nome":"Mulanje","pais":"MWI","tipo":"District","lat":-15.99,"lng":35.54},"geometry":{"type":"Polygon","coordinates":[[[35.8,-15.93],[35.79,-16.04],[35.7,-16.11],[35.51,-16.17],[35.42,-16.12],[35.28,-16.19],[35.34,-15.68],[35.53,-15.61],[35.5,-15.69],[35.6,-15.94],[35.67,-15.89],[35.8,-15.93]]]}},{"type":"Feature","properties":{"id":"MWI-TH","nome":"Thyolo","pais":"MWI","tipo":"District","lat":-16.11,"lng":35.11},"geometry":{"type":"Polygon","coordinates":[[[35.3,-16.21],[35.24,-16.4],[35.15,-16.39],[34.89,-16.03],[35.19,-15.86],[35.31,-16.01],[35.3,-16.21]]]}},{"type":"Feature","properties":{"id":"MWI-DO","nome":"Dowa","pais":"MWI","tipo":"District","lat":-13.62,"lng":33.87},"geometry":{"type":"Polygon","coordinates":[[[34.12,-13.5],[34.12,-13.62],[34.2,-13.69],[34.28,-13.67],[34.31,-13.75],[34.05,-13.82],[33.79,-13.76],[33.75,-13.66],[33.48,-13.68],[33.42,-13.48],[33.46,-13.33],[33.53,-13.34],[33.62,-13.23],[33.76,-13.5],[34.12,-13.5]]]}},{"type":"Feature","properties":{"id":"MWI-BA","nome":"Balaka","pais":"MWI","tipo":"District","lat":-15.04,"lng":35.08},"geometry":{"type":"Polygon","coordinates":[[[35.17,-15.23],[35.09,-15.31],[34.84,-15.31],[34.99,-14.76],[35.3,-14.78],[35.31,-14.95],[35.17,-15.23]]]}},{"type":"Feature","properties":{"id":"MWI-CR","nome":"Chiradzulu","pais":"MWI","tipo":"District","lat":-15.74,"lng":35.22},"geometry":{"type":"Polygon","coordinates":[[[35.19,-15.52],[35.34,-15.68],[35.31,-16.01],[35.12,-15.8],[35.1,-15.6],[35.19,-15.52]]]}},{"type":"Feature","properties":{"id":"MWI-BL","nome":"Blantyre","pais":"MWI","tipo":"District","lat":-15.69,"lng":34.94},"geometry":{"type":"Polygon","coordinates":[[[35.14,-15.54],[35.1,-15.62],[35.15,-15.86],[34.89,-16.03],[34.87,-15.83],[34.75,-15.81],[34.77,-15.59],[34.91,-15.39],[35.01,-15.35],[35.14,-15.54]]]}},{"type":"Feature","properties":{"id":"MWI-NI","nome":"Ntchisi","pais":"MWI","tipo":"District","lat":-13.27,"lng":33.88},"geometry":{"type":"Polygon","coordinates":[[[33.92,-13.02],[33.96,-13.16],[34.06,-13.11],[34.1,-13.17],[34.13,-13.49],[34.08,-13.52],[33.76,-13.5],[33.63,-13.27],[33.92,-13.02]]]}}]}