{"type":"FeatureCollection","features":[{"type":"Feature","properties":{"id":"MYS-12","nome":"Sabah","pais":"MYS","tipo":"State","lat":5.31,"lng":117.1},"geometry":{"type":"MultiPolygon","coordinates":[[[[116.59,4.33],[116.52,4.4],[116.41,4.29],[116.31,4.38],[116.13,4.38],[116.02,4.27],[115.84,4.39],[115.77,4.23],[115.64,4.15],[115.67,4.32],[115.59,4.39],[115.56,4.57],[115.66,4.82],[115.64,4.94],[115.42,4.96],[115.56,5.07],[115.61,5.21],[115.49,5.22],[115.36,5.32],[115.6,5.64],[115.6,5.52],[115.62,5.57],[115.76,5.52],[115.85,5.56],[115.93,5.76],[116.05,5.84],[116.14,6.07],[116.11,6.13],[116.22,6.24],[116.29,6.23],[116.29,6.28],[116.24,6.27],[116.5,6.5],[116.77,7.03],[116.84,6.96],[116.81,6.86],[116.86,6.82],[116.78,6.59],[116.97,6.71],[117.06,6.85],[117.03,6.93],[117.15,7],[117.26,6.94],[117.23,6.82],[117.3,6.64],[117.46,6.55],[117.53,6.62],[117.56,6.54],[117.73,6.45],[117.72,6.25],[117.6,6.2],[117.67,5.97],[117.47,5.87],[117.77,5.91],[118.02,6.06],[118.13,5.86],[118.06,5.81],[117.92,5.81],[117.96,5.69],[118.13,5.69],[118.18,5.81],[118.37,5.81],[118.59,5.68],[118.57,5.53],[118.65,5.64],[118.82,5.48],[118.92,5.45],[118.93,5.39],[119.19,5.45],[119.27,5.36],[119.27,5.2],[119.16,5.11],[118.68,4.94],[118.5,4.93],[118.36,5.04],[118.14,4.88],[118.28,4.7],[118.48,4.6],[118.5,4.51],[118.6,4.52],[118.65,4.44],[118.56,4.36],[118.35,4.36],[117.98,4.23],[117.66,4.42],[117.61,4.38],[117.65,4.27],[117.6,4.21],[117.63,4.18],[117.57,4.16],[117.44,4.19],[117.2,4.36],[116.59,4.33]]],[[[117.17,7.34],[117.28,7.33],[117.26,7.2],[117.07,7.1],[117.07,7.28],[117.17,7.34]]]]}},{"type":"Feature","properties":{"id":"MYS-09","nome":"Perlis","pais":"MYS","tipo":"State","lat":6.52,"lng":100.25},"geometry":{"type":"Polygon","coordinates":[[[100.19,6.71],[100.27,6.7],[100.38,6.53],[100.2,6.26],[100.13,6.44],[100.19,6.71]]]}},{"type":"Feature","properties":{"id":"MYS-02","nome":"Kedah","pais":"MYS","tipo":"State","lat":5.81,"lng":100.65},"geometry":{"type":"MultiPolygon","coordinates":[[[[100.38,6.53],[100.63,6.44],[100.73,6.49],[100.81,6.41],[100.83,6.24],[100.97,6.27],[101.09,6.21],[101.05,6.16],[101.08,5.94],[100.95,5.77],[100.94,5.52],[100.85,5.35],[100.76,5.32],[100.56,5.08],[100.5,5.13],[100.56,5.14],[100.53,5.55],[100.35,5.57],[100.35,6.01],[100.2,6.26],[100.38,6.53]]],[[[99.9,6.36],[99.87,6.29],[99.83,6.32],[99.73,6.26],[99.65,6.44],[99.77,6.42],[99.84,6.47],[99.9,6.36]]]]}},{"type":"Feature","properties":{"id":"MYS-03","nome":"Kelantan","pais":"MYS","tipo":"State","lat":5.4,"lng":102.01},"geometry":{"type":"Polygon","coordinates":[[[101.78,5.74],[102.06,6.09],[102.07,6.26],[102.38,6.13],[102.54,5.85],[102.39,5.69],[102.39,5.43],[102.44,5.37],[102.41,5.18],[102.53,5.11],[102.51,4.91],[102.64,4.86],[102.67,4.79],[102.61,4.77],[102.6,4.69],[102.4,4.72],[102.34,4.64],[102.23,4.64],[102.12,4.76],[101.97,4.76],[101.91,4.62],[101.8,4.76],[101.77,4.64],[101.65,4.56],[101.38,4.61],[101.34,4.68],[101.46,4.89],[101.44,4.97],[101.53,5.27],[101.62,5.36],[101.75,5.37],[101.75,5.49],[101.67,5.52],[101.66,5.66],[101.71,5.78],[101.78,5.74]]]}},{"type":"Feature","properties":{"id":"MYS-08","nome":"Perak","pais":"MYS","tipo":"State","lat":4.75,"lng":101.06},"geometry":{"type":"Polygon","coordinates":[[[100.97,5.77],[101.12,5.63],[101.21,5.68],[101.25,5.79],[101.56,5.91],[101.7,5.76],[101.67,5.52],[101.75,5.5],[101.75,5.37],[101.62,5.36],[101.53,5.27],[101.44,4.97],[101.46,4.89],[101.34,4.68],[101.39,4.5],[101.34,4.43],[101.45,4.38],[101.47,4.22],[101.58,4.08],[101.63,3.77],[101.52,3.68],[101.37,3.79],[101.33,3.77],[101.34,3.69],[101.27,3.67],[101.24,3.72],[101.08,3.73],[101.09,3.78],[100.97,3.77],[100.94,3.86],[100.72,3.87],[100.71,3.98],[100.87,4.02],[100.78,4.02],[100.77,4.1],[100.62,4.18],[100.57,4.32],[100.65,4.56],[100.59,4.61],[100.67,4.67],[100.6,4.67],[100.62,4.79],[100.44,4.92],[100.36,5.08],[100.49,5.14],[100.57,5.08],[100.76,5.32],[100.85,5.35],[100.94,5.54],[100.97,5.77]]]}},{"type":"Feature","properties":{"id":"MYS-13","nome":"Sarawak","pais":"MYS","tipo":"State","lat":2.45,"lng":113.34},"geometry":{"type":"MultiPolygon","coordinates":[[[[115.35,4.31],[115.15,4.91],[115.21,4.96],[115.34,4.9],[115.42,4.96],[115.62,4.96],[115.66,4.82],[115.56,4.5],[115.68,4.31],[115.61,4],[115.54,3.9],[115.59,3.86],[115.54,3.63],[115.6,3.43],[115.52,3.36],[115.46,3.03],[115.31,2.99],[115.24,3.04],[115.07,2.83],[115.1,2.76],[115.06,2.61],[115.15,2.6],[115.21,2.51],[114.92,2.35],[114.91,2.28],[114.78,2.25],[114.75,2.13],[114.78,2.04],[114.84,2.04],[114.83,1.9],[114.68,1.84],[114.67,1.69],[114.55,1.43],[114.37,1.51],[114.17,1.42],[114.09,1.47],[113.91,1.44],[113.62,1.23],[113.52,1.31],[113.4,1.29],[113.09,1.43],[112.96,1.42],[113.02,1.51],[112.97,1.57],[112.47,1.57],[112.16,1.43],[112.19,1.38],[112.09,1.14],[111.91,1.11],[111.82,1.01],[111.62,1.03],[111.5,0.96],[111.47,1.02],[111.2,1.08],[110.88,1.01],[110.78,0.9],[110.55,0.85],[110.26,0.99],[110.17,1.17],[110.07,1.2],[109.92,1.39],[109.78,1.46],[109.65,1.62],[109.64,1.78],[109.54,1.83],[109.53,1.91],[109.65,2.08],[109.69,1.87],[109.93,1.69],[110.29,1.67],[110.33,1.8],[110.39,1.7],[110.51,1.74],[110.47,1.62],[110.73,1.55],[110.68,1.45],[110.84,1.57],[111.14,1.37],[111.23,1.39],[111.34,1.33],[111.38,1.35],[111.26,1.42],[111.16,1.41],[111.01,1.56],[111.04,1.68],[111.27,1.63],[111.17,1.66],[111.1,1.77],[111.21,2.07],[111.38,2.16],[111.18,2.15],[111.24,2.22],[111.18,2.25],[111.22,2.42],[111.37,2.34],[111.49,2.35],[111.4,2.48],[111.52,2.49],[111.42,2.54],[111.44,2.68],[111.67,2.84],[112.01,2.89],[113.01,3.16],[113.43,3.75],[113.74,4],[113.95,4.27],[113.98,4.59],[114.25,4.48],[114.28,4.26],[114.42,4.26],[114.63,4.02],[114.77,4.13],[114.85,4.4],[114.79,4.46],[114.74,4.73],[114.95,4.82],[115.02,4.92],[115.09,4.41],[115.35,4.31]]],[[[111.41,2.39],[111.37,2.36],[111.31,2.43],[111.32,2.78],[111.38,2.7],[111.41,2.39]]]]}},{"type":"Feature","properties":{"id":"MYS-07","nome":"Pulau Pinang","pais":"MYS","tipo":"State","lat":5.37,"lng":100.26},"geometry":{"type":"MultiPolygon","coordinates":[[[[100.4,5.12],[100.43,5.29],[100.35,5.57],[100.53,5.55],[100.56,5.14],[100.4,5.12]]],[[[100.31,5.45],[100.34,5.42],[100.29,5.26],[100.18,5.27],[100.18,5.46],[100.31,5.45]]]]}},{"type":"Feature","properties":{"id":"MYS-10","nome":"Selangor","pais":"MYS","tipo":"State","lat":3.31,"lng":101.43},"geometry":{"type":"Polygon","coordinates":[[[101.72,2.6],[101.29,2.85],[101.37,3],[101.3,3.27],[101.04,3.62],[100.81,3.79],[100.84,3.84],[100.94,3.86],[100.97,3.77],[101.09,3.78],[101.08,3.73],[101.24,3.72],[101.27,3.67],[101.34,3.69],[101.36,3.79],[101.51,3.68],[101.63,3.77],[101.77,3.67],[101.81,3.59],[101.76,3.37],[101.93,3.25],[101.96,3.04],[101.88,2.87],[101.76,2.86],[101.72,2.6]],[[101.72,3.21],[101.67,3.23],[101.62,3.18],[101.66,3.04],[101.73,3.03],[101.76,3.18],[101.72,3.21]]]}},{"type":"Feature","properties":{"id":"MYS-05","nome":"Negeri Sembilan","pais":"MYS","tipo":"State","lat":2.71,"lng":102.15},"geometry":{"type":"Polygon","coordinates":[[[101.99,2.39],[101.87,2.39],[101.78,2.58],[101.72,2.6],[101.76,2.86],[101.88,2.87],[101.96,3.03],[101.93,3.28],[102.07,3.17],[102.39,3.12],[102.7,2.84],[102.6,2.42],[102.18,2.49],[101.99,2.39]]]}},{"type":"Feature","properties":{"id":"MYS-04","nome":"Melaka","pais":"MYS","tipo":"State","lat":2.32,"lng":102.29},"geometry":{"type":"Polygon","coordinates":[[[102.49,2.09],[102.15,2.24],[101.99,2.39],[102.18,2.49],[102.6,2.42],[102.52,2.35],[102.48,2.21],[102.54,2.14],[102.49,2.09]]]}},{"type":"Feature","properties":{"id":"MYS-01","nome":"Johor","pais":"MYS","tipo":"State","lat":2.01,"lng":103.41},"geometry":{"type":"Polygon","coordinates":[[[103.64,2.67],[103.77,2.65],[103.95,2.34],[104.26,1.64],[104.28,1.37],[104.11,1.38],[104.06,1.49],[104.15,1.55],[104.05,1.51],[103.97,1.65],[104.01,1.45],[103.7,1.45],[103.6,1.35],[103.55,1.38],[103.52,1.27],[103.37,1.54],[102.93,1.75],[102.84,1.85],[102.7,1.86],[102.49,2.09],[102.54,2.14],[102.48,2.21],[102.52,2.35],[102.62,2.48],[102.7,2.84],[102.81,2.79],[102.99,2.6],[103.15,2.53],[103.36,2.59],[103.62,2.45],[103.6,2.63],[103.64,2.67]]]}},{"type":"Feature","properties":{"id":"MYS-06","nome":"Pahang","pais":"MYS","tipo":"State","lat":3.85,"lng":102.49},"geometry":{"type":"Polygon","coordinates":[[[103.44,4.17],[103.39,4.1],[103.43,3.95],[103.34,3.74],[103.48,3.51],[103.43,3.37],[103.43,2.96],[103.64,2.67],[103.6,2.63],[103.62,2.45],[103.36,2.59],[103.15,2.53],[102.99,2.6],[102.39,3.12],[102.07,3.17],[101.95,3.28],[101.83,3.29],[101.76,3.37],[101.81,3.6],[101.6,3.79],[101.58,4.08],[101.47,4.22],[101.45,4.38],[101.34,4.43],[101.36,4.57],[101.38,4.61],[101.66,4.56],[101.77,4.64],[101.8,4.76],[101.91,4.62],[101.97,4.76],[102.12,4.76],[102.23,4.64],[102.34,4.64],[102.4,4.72],[102.6,4.69],[102.62,4.78],[102.84,4.68],[102.86,4.5],[103.02,4.41],[102.93,4.27],[102.92,4.11],[103.01,4.13],[103.24,4.02],[103.32,3.88],[103.32,4.19],[103.44,4.17]]]}},{"type":"Feature","properties":{"id":"MYS-11","nome":"Terengganu","pais":"MYS","tipo":"State","lat":4.94,"lng":103.01},"geometry":{"type":"Polygon","coordinates":[[[102.54,5.85],[103.12,5.38],[103.45,4.81],[103.5,4.31],[103.45,4.17],[103.32,4.19],[103.32,3.88],[103.24,4.02],[103.01,4.13],[102.92,4.12],[103.01,4.44],[102.88,4.47],[102.84,4.54],[102.87,4.65],[102.69,4.72],[102.64,4.86],[102.51,4.92],[102.53,5.11],[102.41,5.18],[102.44,5.37],[102.39,5.43],[102.39,5.69],[102.54,5.85]]]}},{"type":"Feature","properties":{"id":"MYS-15","nome":"Labuan","pais":"MYS","tipo":"Federal Territory","lat":5.33,"lng":115.22},"geometry":{"type":"Polygon","coordinates":[[[115.25,5.37],[115.26,5.29],[115.16,5.25],[115.25,5.37]]]}},{"type":"Feature","properties":{"id":"MYS-14","nome":"Kuala Lumpur","pais":"MYS","tipo":"Federal Territory","lat":3.14,"lng":101.7},"geometry":{"type":"Polygon","coordinates":[[[101.67,3.23],[101.76,3.19],[101.73,3.03],[101.66,3.04],[101.62,3.14],[101.67,3.23]]]}}]}