{"type":"FeatureCollection","features":[{"type":"Feature","properties":{"id":"NAM-KA","nome":"Karas","pais":"NAM","tipo":"Region","lat":-27.03,"lng":17.49},"geometry":{"type":"Polygon","coordinates":[[[17.25,-28.24],[17.1,-28.03],[16.92,-28.06],[16.82,-28.26],[16.77,-28.27],[16.8,-28.37],[16.74,-28.48],[16.67,-28.46],[16.42,-28.61],[15.68,-27.94],[15.3,-27.32],[15.23,-26.95],[15.16,-26.9],[15.08,-26.7],[15.17,-26.6],[15.13,-26.46],[14.97,-26.34],[14.94,-26.15],[14.98,-26.06],[14.84,-25.75],[14.88,-25.54],[14.8,-25.28],[14.83,-25],[15.76,-25.01],[15.87,-25.59],[15.97,-25.59],[16.19,-25.86],[16.34,-25.85],[16.29,-25.59],[16.38,-25.57],[16.42,-25.66],[16.52,-25.52],[16.58,-25.59],[16.93,-25.67],[16.98,-25.73],[17.15,-25.69],[17.33,-25.76],[17.34,-25.58],[17.41,-25.55],[17.77,-25.57],[18.47,-25.44],[18.64,-25.53],[19.08,-25.56],[19.22,-25.49],[19.34,-25.63],[19.47,-25.6],[19.75,-25.67],[19.98,-25.62],[19.98,-28.42],[19.57,-28.53],[19.46,-28.71],[19.27,-28.74],[19.29,-28.88],[19.12,-28.96],[18.95,-28.87],[18.75,-28.84],[18.17,-28.9],[17.91,-28.78],[17.63,-28.76],[17.58,-28.68],[17.4,-28.7],[17.42,-28.59],[17.32,-28.47],[17.4,-28.35],[17.35,-28.23],[17.25,-28.24]]]}},{"type":"Feature","properties":{"id":"NAM-KU","nome":"Kunene","pais":"NAM","tipo":"Region","lat":-19.88,"lng":13.98},"geometry":{"type":"Polygon","coordinates":[[[13.17,-16.95],[13.48,-17.01],[13.52,-17.12],[13.96,-17.42],[14.22,-17.39],[14.14,-17.57],[14.19,-17.64],[14.15,-17.72],[14.29,-18.08],[14.3,-18.66],[14.39,-18.89],[14.36,-19.1],[14.48,-19.3],[14.45,-19.41],[14.57,-19.42],[14.59,-19.33],[14.54,-19.33],[14.54,-19.25],[15.32,-19.19],[15.31,-19.25],[15.83,-19.28],[16.7,-19.49],[16.71,-19.95],[16.53,-20],[16.55,-20.12],[16.31,-20.22],[16.31,-20.38],[16.04,-20.42],[15.77,-20.58],[15.38,-20.49],[15.12,-20.76],[14.79,-20.98],[14.17,-20.96],[13.63,-21.19],[13.4,-20.85],[13.18,-20.19],[13.04,-20.06],[12.45,-18.9],[12.29,-18.7],[12.03,-18.51],[11.83,-18.1],[11.72,-17.55],[11.76,-17.27],[11.98,-17.16],[12.16,-17.15],[12.24,-17.22],[12.57,-17.23],[12.89,-17.03],[13.17,-16.95]]]}},{"type":"Feature","properties":{"id":"NAM-OS","nome":"Omusati","pais":"NAM","tipo":"Region","lat":-18.31,"lng":14.89},"geometry":{"type":"Polygon","coordinates":[[[14.29,-17.39],[15.56,-17.39],[15.65,-17.68],[15.29,-18.04],[15.5,-18.15],[15.56,-18.62],[15.51,-18.72],[15.56,-18.89],[15.51,-18.98],[15.6,-19.06],[15.21,-19.22],[14.54,-19.25],[14.54,-19.33],[14.59,-19.33],[14.57,-19.42],[14.45,-19.41],[14.48,-19.3],[14.36,-19.1],[14.39,-18.89],[14.3,-18.66],[14.29,-18.08],[14.14,-17.57],[14.22,-17.39],[14.29,-17.39]]]}},{"type":"Feature","properties":{"id":"NAM-OW","nome":"Ohangwena","pais":"NAM","tipo":"Region","lat":-17.58,"lng":16.78},"geometry":{"type":"Polygon","coordinates":[[[15.56,-17.39],[18,-17.39],[18,-17.77],[16.75,-17.77],[16.39,-17.91],[16,-17.7],[15.67,-17.74],[15.56,-17.39]]]}},{"type":"Feature","properties":{"id":"NAM-OK","nome":"Kavango","pais":"NAM","tipo":"Region","lat":-18.52,"lng":19.5},"geometry":{"type":"Polygon","coordinates":[[[18,-17.39],[18.45,-17.39],[18.64,-17.64],[18.89,-17.8],[19.67,-17.84],[19.77,-17.89],[20.34,-17.85],[20.57,-17.99],[20.81,-18.03],[20.99,-17.97],[20.98,-19.17],[19.23,-19.19],[19.24,-18.82],[18.01,-18.75],[18,-17.39]]]}},{"type":"Feature","properties":{"id":"NAM-CA","nome":"Caprivi","pais":"NAM","tipo":"Region","lat":-17.85,"lng":23.12},"geometry":{"type":"Polygon","coordinates":[[[21.39,-18.01],[24.24,-17.48],[24.9,-17.53],[25.04,-17.58],[25.26,-17.79],[25.06,-17.83],[24.95,-17.79],[24.73,-17.89],[24.56,-18.05],[24.35,-17.96],[23.92,-18.2],[23.61,-18.48],[23.5,-18.24],[23.4,-18.19],[23.29,-18],[21.48,-18.3],[20.99,-18.32],[20.99,-17.97],[21.22,-17.93],[21.39,-18.01]]]}},{"type":"Feature","properties":{"id":"NAM-HA","nome":"Hardap","pais":"NAM","tipo":"Region","lat":-24.51,"lng":17.22},"geometry":{"type":"Polygon","coordinates":[[[19.98,-24.75],[19.98,-25.62],[19.75,-25.67],[19.47,-25.6],[19.34,-25.63],[19.22,-25.49],[19.08,-25.56],[18.64,-25.53],[18.47,-25.44],[17.77,-25.57],[17.41,-25.55],[17.34,-25.58],[17.33,-25.76],[17.15,-25.69],[16.98,-25.73],[16.93,-25.67],[16.58,-25.59],[16.52,-25.52],[16.42,-25.66],[16.38,-25.57],[16.29,-25.59],[16.34,-25.85],[16.19,-25.86],[15.97,-25.59],[15.87,-25.59],[15.76,-25.01],[14.83,-25],[14.78,-24.8],[14.6,-24.56],[14.61,-24.45],[14.47,-24.16],[14.45,-23.99],[14.51,-23.89],[14.48,-23.55],[15.45,-23.69],[15.74,-23.81],[15.75,-23.94],[15.81,-23.97],[16.26,-23.86],[16.2,-23.96],[16.32,-24.02],[16.3,-23.91],[16.5,-23.85],[16.27,-23.78],[16.29,-23.71],[16.35,-23.6],[16.38,-23.69],[16.45,-23.69],[16.58,-23.59],[16.49,-23.48],[16.62,-23.24],[16.82,-23.27],[17.12,-23.18],[17.18,-23.2],[17.21,-23.31],[17.48,-23.29],[17.39,-23.42],[17.45,-23.61],[17.86,-23.57],[17.97,-23.65],[18.07,-23.64],[18.41,-23.46],[18.53,-23.68],[18.58,-23.66],[18.69,-23.74],[18.98,-23.68],[19.15,-23.72],[19.23,-23.65],[19.28,-23.85],[19.98,-23.86],[19.98,-24.75]]]}},{"type":"Feature","properties":{"id":"NAM-OD","nome":"Otjozondjupa","pais":"NAM","tipo":"Region","lat":-20,"lng":18.29},"geometry":{"type":"Polygon","coordinates":[[[20.98,-19.17],[20.98,-20.35],[20.72,-20.39],[19.42,-20.24],[18.83,-20.47],[18.58,-20.81],[18.51,-21.04],[18.38,-21.04],[18.36,-21.12],[18.42,-21.12],[18.35,-21.2],[18.37,-21.26],[18.21,-21.25],[18.21,-21.33],[18.28,-21.37],[18.21,-21.65],[17.81,-21.82],[17.61,-21.83],[17.45,-21.97],[17.45,-22.09],[17.4,-22.07],[17.32,-22.14],[17.3,-22.09],[17.25,-22.18],[17.14,-22.24],[17.1,-22.2],[16.84,-22.3],[16.73,-22.23],[16.68,-22.3],[16.73,-22.35],[16.45,-22.37],[16.39,-22.2],[16.47,-22.14],[16.43,-22.08],[16.48,-21.93],[16.39,-21.73],[16.44,-21.52],[16.53,-21.42],[16.51,-21.17],[16.4,-21.16],[16.26,-20.99],[16.19,-21.04],[16.09,-21],[15.83,-20.84],[15.72,-20.7],[15.6,-20.68],[15.6,-20.56],[15.77,-20.58],[16.04,-20.42],[16.31,-20.38],[16.31,-20.22],[16.55,-20.12],[16.53,-20],[16.71,-19.95],[16.71,-19.48],[16.99,-19.34],[17.13,-19.17],[17.3,-19.19],[17.34,-19.27],[17.42,-19.23],[17.4,-19.36],[17.68,-19.5],[17.92,-19.49],[17.89,-19.36],[18,-19.26],[18.02,-19.04],[18.17,-18.95],[18.19,-18.76],[19.24,-18.82],[19.23,-19.19],[20.98,-19.17]]]}},{"type":"Feature","properties":{"id":"NAM-OH","nome":"Omaheke","pais":"NAM","tipo":"Region","lat":-22.05,"lng":19.47},"geometry":{"type":"Polygon","coordinates":[[[20.98,-20.35],[20.97,-22],[19.98,-22],[19.98,-23.86],[19.28,-23.85],[19.23,-23.65],[19.15,-23.72],[18.98,-23.68],[18.77,-23.75],[18.58,-23.66],[18.53,-23.68],[18.44,-23.52],[18.51,-23.34],[18.35,-23.22],[18.45,-23.16],[18.33,-23.03],[18.39,-22.93],[18.3,-22.95],[18.22,-22.48],[18.14,-22.47],[18.18,-22.44],[18.03,-22.34],[17.96,-22.21],[17.98,-22.12],[18.07,-22.09],[18.13,-21.95],[18.07,-21.86],[18.12,-21.71],[18.24,-21.62],[18.28,-21.37],[18.21,-21.33],[18.21,-21.25],[18.37,-21.26],[18.35,-21.2],[18.42,-21.12],[18.36,-21.12],[18.38,-21.04],[18.51,-21.04],[18.58,-20.81],[18.79,-20.5],[19.39,-20.25],[20.72,-20.39],[20.98,-20.35]]]}},{"type":"Feature","properties":{"id":"NAM-ER","nome":"Erongo","pais":"NAM","tipo":"Region","lat":-22.22,"lng":15.08},"geometry":{"type":"Polygon","coordinates":[[[14.48,-23.55],[14.43,-23.42],[14.49,-23.31],[14.41,-22.97],[14.44,-22.88],[14.46,-23],[14.53,-22.9],[14.51,-22.55],[14.29,-22.13],[13.95,-21.78],[13.83,-21.46],[13.63,-21.19],[14.17,-20.96],[14.79,-20.98],[15.12,-20.76],[15.38,-20.49],[15.46,-20.49],[15.6,-20.56],[15.61,-20.69],[15.72,-20.7],[15.83,-20.84],[16.19,-21.04],[16.26,-20.99],[16.4,-21.16],[16.51,-21.17],[16.53,-21.42],[16.44,-21.52],[16.39,-21.73],[16.48,-21.93],[16.43,-22.08],[16.47,-22.14],[16.39,-22.2],[16.45,-22.37],[16.36,-22.42],[16.34,-22.51],[16.16,-22.61],[16.07,-22.59],[15.96,-22.69],[16.06,-22.7],[16.06,-22.82],[15.9,-22.9],[15.87,-23.15],[15.92,-23.21],[15.83,-23.25],[15.85,-23.38],[15.75,-23.48],[15.85,-23.54],[15.83,-23.81],[15.34,-23.67],[15.1,-23.65],[15.05,-23.6],[14.48,-23.55]]]}},{"type":"Feature","properties":{"id":"NAM-KH","nome":"Khomas","pais":"NAM","tipo":"Region","lat":-22.71,"lng":17.12},"geometry":{"type":"Polygon","coordinates":[[[16.33,-22.51],[16.41,-22.39],[16.73,-22.35],[16.68,-22.3],[16.72,-22.23],[16.84,-22.3],[17.1,-22.2],[17.14,-22.24],[17.25,-22.18],[17.3,-22.09],[17.32,-22.14],[17.4,-22.07],[17.45,-22.09],[17.45,-21.97],[17.61,-21.83],[17.81,-21.82],[18.12,-21.71],[18.07,-21.86],[18.13,-21.95],[18.07,-22.09],[17.98,-22.12],[17.97,-22.23],[18.18,-22.44],[18.14,-22.47],[18.22,-22.47],[18.3,-22.95],[18.4,-22.94],[18.33,-23.03],[18.45,-23.16],[18.35,-23.22],[18.5,-23.37],[18.44,-23.5],[18.39,-23.46],[18.09,-23.63],[17.97,-23.65],[17.86,-23.57],[17.45,-23.61],[17.39,-23.42],[17.48,-23.29],[17.21,-23.31],[17.18,-23.2],[17.12,-23.18],[16.82,-23.27],[16.62,-23.24],[16.49,-23.48],[16.58,-23.59],[16.45,-23.69],[16.38,-23.69],[16.35,-23.6],[16.27,-23.76],[16.49,-23.82],[16.49,-23.88],[16.34,-23.88],[16.29,-23.94],[16.32,-24.02],[16.2,-23.96],[16.26,-23.86],[15.81,-23.97],[15.73,-23.89],[15.74,-23.81],[15.85,-23.79],[15.85,-23.54],[15.75,-23.48],[15.85,-23.38],[15.83,-23.25],[15.92,-23.21],[15.87,-23.15],[15.9,-22.9],[16.06,-22.84],[16.06,-22.7],[15.96,-22.69],[16.07,-22.59],[16.16,-22.61],[16.33,-22.51]]]}},{"type":"Feature","properties":{"id":"NAM-ON","nome":"Oshana","pais":"NAM","tipo":"Region","lat":-18.5,"lng":15.66},"geometry":{"type":"Polygon","coordinates":[[[15.65,-17.68],[15.67,-17.74],[16,-17.7],[16.04,-18.14],[15.94,-18.36],[16.04,-18.65],[15.84,-18.87],[15.96,-19.13],[15.92,-19.19],[15.94,-19.33],[15.58,-19.24],[15.31,-19.25],[15.32,-19.16],[15.6,-19.06],[15.51,-18.98],[15.56,-18.89],[15.51,-18.72],[15.56,-18.62],[15.5,-18.15],[15.29,-18.02],[15.65,-17.68]]]}},{"type":"Feature","properties":{"id":"NAM-OT","nome":"Oshikoto","pais":"NAM","tipo":"Region","lat":-18.54,"lng":17.02},"geometry":{"type":"Polygon","coordinates":[[[16.7,-19.49],[15.94,-19.33],[15.92,-19.19],[15.96,-19.13],[15.84,-18.87],[16.04,-18.65],[15.94,-18.36],[16.04,-18.14],[16,-17.7],[16.39,-17.91],[16.75,-17.77],[18,-17.77],[18.01,-18.75],[18.19,-18.76],[18.17,-18.95],[18.02,-19.04],[18,-19.26],[17.89,-19.36],[17.94,-19.47],[17.85,-19.52],[17.55,-19.44],[17.4,-19.36],[17.42,-19.23],[17.34,-19.27],[17.32,-19.2],[17.2,-19.15],[17.13,-19.17],[16.99,-19.34],[16.7,-19.49]]]}}]}