{"type":"FeatureCollection","features":[{"type":"Feature","properties":{"id":"NCL-X03~","nome":"Nord","pais":"NCL","tipo":"Province","lat":-21.01,"lng":165.06},"geometry":{"type":"Polygon","coordinates":[[[165.11,-21.37],[165.03,-21.38],[164.99,-21.3],[164.95,-21.35],[164.79,-21.06],[164.71,-21.09],[164.66,-20.95],[164.38,-20.77],[164.4,-20.73],[164.12,-20.41],[164.17,-20.33],[163.99,-20.26],[164.06,-20.23],[163.99,-20.08],[164.32,-20.32],[164.31,-20.24],[164.5,-20.3],[164.95,-20.68],[165.22,-20.76],[165.28,-20.88],[165.41,-20.95],[165.41,-21.06],[165.59,-21.17],[165.62,-21.27],[165.78,-21.32],[165.86,-21.42],[165.89,-21.36],[165.97,-21.5],[165.97,-21.41],[166.08,-21.52],[166.03,-21.6],[165.87,-21.6],[165.55,-21.42],[165.38,-21.41],[165.28,-21.32],[165.11,-21.37]]]}},{"type":"Feature","properties":{"id":"NCL-X02~","nome":"Sud","pais":"NCL","tipo":"Province","lat":-22.61,"lng":167.49},"geometry":{"type":"Polygon","coordinates":[[[166.08,-21.52],[166.37,-21.66],[166.72,-21.95],[166.69,-21.98],[166.94,-22.08],[166.95,-22.16],[167.03,-22.24],[167,-22.34],[166.89,-22.39],[166.93,-22.37],[166.84,-22.3],[166.84,-22.38],[166.78,-22.39],[166.52,-22.23],[166.44,-22.31],[166.4,-22.23],[166.45,-22.21],[166.43,-22.17],[166.34,-22.23],[166.33,-22.14],[166.11,-22.09],[166.16,-22.02],[166.06,-21.89],[166,-21.96],[165.81,-21.86],[165.73,-21.72],[165.68,-21.76],[165.46,-21.61],[165.29,-21.58],[165.11,-21.37],[165.28,-21.32],[165.38,-21.41],[165.55,-21.42],[165.87,-21.6],[166.03,-21.6],[166.08,-21.52]]]}},{"type":"Feature","properties":{"id":"NCL-X01~","nome":"Îles Loyauté","pais":"NCL","tipo":"Province","lat":-21.53,"lng":167.98},"geometry":{"type":"MultiPolygon","coordinates":[[[[168.14,-21.43],[168.13,-21.62],[167.99,-21.65],[167.86,-21.6],[167.89,-21.54],[167.81,-21.38],[167.99,-21.34],[168.01,-21.45],[168.14,-21.43]]],[[[167.43,-21.03],[167.46,-21.06],[167.39,-21.18],[167.12,-21.05],[167.02,-20.91],[167.12,-20.9],[167.19,-20.81],[167.04,-20.77],[167.06,-20.72],[167.21,-20.67],[167.3,-20.71],[167.28,-20.89],[167.43,-21.03]]]]}}]}