{"type":"FeatureCollection","features":[{"type":"Feature","properties":{"id":"NER-5","nome":"Tahoua","pais":"NER","tipo":"Department","lat":15.6,"lng":5.27},"geometry":{"type":"Polygon","coordinates":[[[6.14,13.64],[5.52,13.88],[5.37,13.86],[5.23,13.74],[4.86,13.77],[4.63,13.72],[4.47,14.06],[4.42,14.44],[4.1,14.91],[4.11,15.09],[3.87,15.72],[4.06,16.3],[4.18,16.42],[4.18,16.81],[4.24,17],[4.23,18.65],[4.86,18.61],[4.72,18.33],[4.72,17.96],[4.87,17.94],[4.91,17.81],[5.25,17.47],[6.03,16.96],[6.12,16.86],[6.36,16.31],[6.63,16.19],[6.67,15.43],[6.53,14.92],[6.47,14.41],[6.52,14.06],[6.33,13.92],[6.28,13.67],[6.14,13.64]]]}},{"type":"Feature","properties":{"id":"NER-3","nome":"Dosso","pais":"NER","tipo":"Department","lat":12.81,"lng":3.55},"geometry":{"type":"Polygon","coordinates":[[[4.12,13.21],[4.09,13],[3.93,12.75],[3.64,12.52],[3.65,11.99],[3.6,11.91],[3.67,11.76],[3.6,11.7],[3.5,11.84],[3.31,11.9],[3.01,12.28],[2.74,12.44],[2.72,12.54],[2.63,12.52],[2.6,12.85],[2.73,12.95],[2.54,13],[2.47,13.14],[2.71,13.27],[2.83,13.27],[2.88,13.51],[2.99,13.6],[3.1,13.62],[3.17,13.8],[3.33,13.75],[3.53,13.84],[3.74,14.03],[3.82,14.26],[4.14,14.44],[4.24,14.54],[4.25,14.66],[4.42,14.44],[4.47,14.06],[4.63,13.72],[4.45,13.67],[4.25,13.49],[4.13,13.47],[4.12,13.21]]]}},{"type":"Feature","properties":{"id":"NER-2","nome":"Diffa","pais":"NER","tipo":"Department","lat":15.77,"lng":13.09},"geometry":{"type":"Polygon","coordinates":[[[13.61,13.7],[13.33,13.71],[13.23,13.55],[12.84,13.49],[12.87,13.46],[12.81,13.37],[12.56,13.24],[12.47,13.06],[12.06,13.12],[11.85,13.25],[11.44,13.36],[10.64,13.37],[10.62,13.53],[10.8,13.71],[10.82,13.81],[11.22,14.17],[11.52,14.21],[11.98,14.44],[11.9,14.52],[12,14.61],[12,17.5],[13,18],[15.57,18],[15.47,16.89],[14.37,15.75],[13.83,15.02],[13.76,14.85],[13.76,14.72],[13.64,14.64],[13.66,14.55],[13.45,14.44],[13.61,13.7]]]}},{"type":"Feature","properties":{"id":"NER-4","nome":"Maradi","pais":"NER","tipo":"Department","lat":14.11,"lng":7.41},"geometry":{"type":"Polygon","coordinates":[[[6.75,13.17],[6.51,13.5],[6.28,13.67],[6.28,13.76],[6.34,13.93],[6.52,14.06],[6.47,14.41],[6.53,14.92],[6.67,15.43],[7.12,15.44],[7.39,15.3],[7.5,14.84],[7.56,14.72],[7.7,14.63],[7.72,14.46],[7.81,14.42],[7.93,14.52],[8.01,14.52],[8.52,14.11],[8.54,13.91],[8.22,13.73],[8.23,13.66],[8.32,13.61],[8.32,13.34],[8.25,13.21],[8.08,13.31],[7.79,13.34],[7.39,13.11],[7.2,13.12],[7.04,12.99],[6.91,13.01],[6.75,13.17]]]}},{"type":"Feature","properties":{"id":"NER-7","nome":"Zinder","pais":"NER","tipo":"Department","lat":14.53,"lng":9.66},"geometry":{"type":"Polygon","coordinates":[[[10.65,13.37],[10.12,13.25],[9.93,13.15],[9.61,12.8],[8.94,12.85],[8.68,12.92],[8.51,13.08],[8.41,13.07],[8.25,13.21],[8.32,13.34],[8.32,13.61],[8.21,13.7],[8.53,13.9],[8.52,14.11],[8.01,14.52],[7.93,14.52],[7.81,14.42],[7.72,14.46],[7.7,14.63],[7.57,14.7],[7.5,14.83],[7.4,15.26],[7.32,15.33],[7.44,15.6],[7.85,15.54],[8.38,15.59],[9.32,16],[10.96,17.03],[11.25,17.11],[11.66,17.38],[12,17.5],[12,14.61],[11.9,14.52],[11.98,14.44],[11.52,14.21],[11.22,14.17],[10.82,13.81],[10.8,13.71],[10.62,13.53],[10.65,13.37]]]}},{"type":"Feature","properties":{"id":"NER-6","nome":"Tillabéri","pais":"NER","tipo":"Department","lat":13.88,"lng":2.2},"geometry":{"type":"Polygon","coordinates":[[[2.84,12.4],[2.66,12.29],[2.37,12.24],[2.46,12],[2.38,11.95],[2.39,11.9],[2.05,12.34],[2.24,12.42],[2.11,12.71],[1.97,12.72],[1.84,12.61],[1.56,12.63],[1.11,13],[0.98,13.03],[0.98,13.37],[1.16,13.31],[1.19,13.36],[1.27,13.35],[1.02,13.47],[0.9,13.61],[0.59,13.69],[0.6,13.77],[0.45,13.91],[0.34,14.13],[0.39,14.25],[0.16,14.5],[0.22,15],[0.67,14.94],[0.95,14.98],[1.33,15.28],[3,15.34],[3.03,15.43],[3.51,15.35],[3.53,15.5],[3.87,15.72],[4.11,15.09],[4.1,14.91],[4.25,14.66],[4.24,14.54],[3.82,14.26],[3.74,14.03],[3.53,13.84],[3.33,13.75],[3.17,13.8],[3.1,13.62],[2.99,13.6],[2.88,13.51],[2.83,13.27],[2.71,13.27],[2.48,13.16],[2.54,13],[2.73,12.95],[2.6,12.85],[2.63,12.52],[2.72,12.54],[2.74,12.44],[2.84,12.4]],[[2.12,13.62],[2,13.61],[1.97,13.53],[2.05,13.43],[2.18,13.41],[2.2,13.37],[2.28,13.57],[2.12,13.62]]]}},{"type":"Feature","properties":{"id":"NER-1","nome":"Agadez","pais":"NER","tipo":"Department","lat":19.45,"lng":10.1},"geometry":{"type":"Polygon","coordinates":[[[11.97,23.52],[13.48,23.18],[14.22,22.62],[14.98,23],[15.17,21.99],[15.18,21.49],[15.3,21.4],[15.61,20.95],[15.54,20.89],[15.57,20.75],[15.97,20.34],[15.74,19.9],[15.57,18],[13,18],[11.66,17.38],[11.25,17.11],[10.96,17.03],[9.32,16],[8.56,15.65],[8.02,15.54],[7.44,15.6],[7.32,15.33],[7.12,15.44],[6.67,15.43],[6.63,16.19],[6.36,16.31],[6.12,16.86],[6.03,16.96],[5.25,17.47],[4.91,17.81],[4.87,17.94],[4.72,17.96],[4.72,18.33],[4.86,18.61],[4.23,18.65],[4.23,19.14],[5.79,19.45],[7.48,20.87],[11.97,23.52]]]}},{"type":"Feature","properties":{"id":"NER-8","nome":"Niamey","pais":"NER","tipo":"Capital District","lat":13.56,"lng":2.12},"geometry":{"type":"Polygon","coordinates":[[[2.07,13.63],[2.28,13.57],[2.2,13.37],[1.99,13.49],[1.98,13.59],[2.07,13.63]]]}}]}