{"type":"FeatureCollection","features":[{"type":"Feature","properties":{"id":"NIC-SJ","nome":"Rio San Juan","pais":"NIC","tipo":"Department","lat":11.17,"lng":-84.52},"geometry":{"type":"Polygon","coordinates":[[[-84.19,10.78],[-84.21,10.86],[-84.36,10.99],[-84.44,10.95],[-84.68,11.07],[-84.88,10.95],[-85.34,11.15],[-85.08,11.67],[-84.8,11.87],[-84.61,11.86],[-84.53,11.65],[-84.55,11.45],[-84.38,11.36],[-84.17,11.14],[-84.01,11.09],[-83.9,11.11],[-83.88,11.05],[-83.69,10.93],[-83.66,10.83],[-83.92,10.71],[-84.01,10.79],[-84.19,10.78]]]}},{"type":"Feature","properties":{"id":"NIC-AN","nome":"Atlántico Norte","pais":"NIC","tipo":"Autonomous Region","lat":14,"lng":-84.15},"geometry":{"type":"Polygon","coordinates":[[[-85.05,14.61],[-85.02,14.73],[-84.9,14.82],[-84.79,14.82],[-84.7,14.67],[-84.48,14.62],[-84.36,14.72],[-84.27,14.68],[-84.26,14.76],[-84.17,14.71],[-84.1,14.74],[-84.11,14.79],[-83.92,14.76],[-83.92,14.8],[-83.71,14.84],[-83.69,14.89],[-83.62,14.87],[-83.51,15.01],[-83.13,15],[-83.29,14.8],[-83.33,14.79],[-83.29,14.83],[-83.32,14.91],[-83.42,14.8],[-83.34,14.73],[-83.36,14.77],[-83.3,14.77],[-83.19,14.35],[-83.42,13.99],[-83.49,13.74],[-83.57,13.29],[-83.53,13.03],[-83.76,13.09],[-83.84,13.16],[-83.81,13.22],[-83.88,13.25],[-84.11,13.2],[-84.16,13.28],[-84.75,13.22],[-84.88,13.38],[-84.97,13.3],[-85.12,13.28],[-85.24,13.15],[-85.43,13.26],[-85.51,13.41],[-85.4,13.49],[-85.37,13.69],[-85.16,13.78],[-85.06,13.74],[-84.85,14.06],[-84.84,14.31],[-84.99,14.37],[-84.97,14.48],[-85.05,14.61]]]}},{"type":"Feature","properties":{"id":"NIC-JI","nome":"Jinotega","pais":"NIC","tipo":"Department","lat":13.7,"lng":-85.54},"geometry":{"type":"Polygon","coordinates":[[[-85.09,14.54],[-85.01,14.6],[-84.99,14.37],[-84.84,14.29],[-84.85,14.06],[-85.05,13.74],[-85.16,13.78],[-85.37,13.69],[-85.4,13.49],[-85.51,13.37],[-85.92,13.02],[-86.01,12.99],[-86.1,13.05],[-86.25,13.19],[-86.21,13.39],[-86.05,13.5],[-85.91,13.49],[-85.84,13.54],[-85.73,13.85],[-85.73,13.96],[-85.53,14.05],[-85.32,14.28],[-85.17,14.32],[-85.21,14.41],[-85.14,14.58],[-85.09,14.54]]]}},{"type":"Feature","properties":{"id":"NIC-NS","nome":"Nueva Segovia","pais":"NIC","tipo":"Department","lat":13.72,"lng":-86.26},"geometry":{"type":"Polygon","coordinates":[[[-86.02,14.06],[-86.03,14],[-85.93,13.91],[-85.74,13.82],[-85.83,13.55],[-85.91,13.49],[-86.06,13.49],[-86.16,13.61],[-86.23,13.55],[-86.56,13.57],[-86.65,13.65],[-86.77,13.65],[-86.73,13.77],[-86.33,13.76],[-86.12,14.03],[-86.02,14.06]]]}},{"type":"Feature","properties":{"id":"NIC-CI","nome":"Chinandega","pais":"NIC","tipo":"Department","lat":12.75,"lng":-87.17},"geometry":{"type":"Polygon","coordinates":[[[-86.75,13.26],[-86.7,13.25],[-86.73,13.15],[-86.66,12.81],[-86.79,12.75],[-87.05,12.48],[-87.12,12.46],[-87.19,12.52],[-87.18,12.49],[-87.46,12.79],[-87.69,12.92],[-87.58,13.08],[-87.39,12.91],[-87.29,12.92],[-87.38,12.94],[-87.31,12.98],[-87.04,12.98],[-86.92,13.09],[-86.91,13.24],[-86.83,13.29],[-86.75,13.26]]]}},{"type":"Feature","properties":{"id":"NIC-MD","nome":"Madriz","pais":"NIC","tipo":"Department","lat":13.5,"lng":-86.41},"geometry":{"type":"Polygon","coordinates":[[[-86.73,13.27],[-86.74,13.66],[-86.56,13.57],[-86.23,13.55],[-86.16,13.61],[-86.06,13.49],[-86.21,13.39],[-86.25,13.44],[-86.52,13.43],[-86.71,13.2],[-86.73,13.27]]]}},{"type":"Feature","properties":{"id":"NIC-RI","nome":"Rivas","pais":"NIC","tipo":"Department","lat":11.35,"lng":-85.76},"geometry":{"type":"Polygon","coordinates":[[[-85.24,11.05],[-85.6,11.21],[-85.7,11.08],[-85.77,11.1],[-86.18,11.52],[-86,11.68],[-85.1,11.63],[-85.34,11.15],[-84.88,10.95],[-85.24,11.05]]]}},{"type":"Feature","properties":{"id":"NIC-AS","nome":"Atlántico Sur","pais":"NIC","tipo":"Autonomous Region","lat":12.23,"lng":-84.21},"geometry":{"type":"Polygon","coordinates":[[[-83.53,13.03],[-83.54,12.58],[-83.48,12.42],[-83.64,12.39],[-83.64,12.56],[-83.56,12.59],[-83.54,12.77],[-83.62,12.82],[-83.65,12.77],[-83.59,12.63],[-83.77,12.53],[-83.68,12.28],[-83.62,12.35],[-83.69,12.14],[-83.67,11.99],[-83.72,12.07],[-83.7,12.14],[-83.78,12.18],[-83.71,12.13],[-83.74,12.05],[-83.8,12.06],[-83.76,11.95],[-83.84,11.87],[-83.77,11.8],[-83.7,11.85],[-83.65,11.67],[-83.87,11.37],[-83.84,11.14],[-83.72,10.94],[-83.88,11.05],[-83.9,11.11],[-84.01,11.09],[-84.17,11.14],[-84.38,11.36],[-84.55,11.45],[-84.53,11.65],[-84.62,11.9],[-84.57,11.92],[-84.71,11.99],[-84.85,12.48],[-85.03,12.76],[-85.1,12.79],[-85.16,12.65],[-85.23,12.79],[-85.14,12.86],[-84.96,12.85],[-84.75,12.95],[-84.7,13.07],[-84.8,13.15],[-84.75,13.22],[-84.16,13.28],[-84.11,13.2],[-83.88,13.25],[-83.81,13.22],[-83.84,13.16],[-83.76,13.09],[-83.53,13.03]]]}},{"type":"Feature","properties":{"id":"NIC-LE","nome":"León","pais":"NIC","tipo":"Department","lat":12.42,"lng":-86.72},"geometry":{"type":"Polygon","coordinates":[[[-86.67,12],[-86.77,12.2],[-87.17,12.47],[-87.1,12.43],[-86.79,12.75],[-86.67,12.78],[-86.72,13.09],[-86.49,13.12],[-86.41,13.03],[-86.42,12.9],[-86.26,12.85],[-86.29,12.64],[-86.35,12.58],[-86.34,12.47],[-86.52,12.29],[-86.52,12.13],[-86.65,12.08],[-86.67,12]]]}},{"type":"Feature","properties":{"id":"NIC-MN","nome":"Managua","pais":"NIC","tipo":"Department","lat":12.3,"lng":-86.25},"geometry":{"type":"Polygon","coordinates":[[[-86.5,11.77],[-86.67,12],[-86.65,12.08],[-86.52,12.13],[-86.52,12.29],[-86.34,12.47],[-86.35,12.59],[-86.29,12.64],[-85.97,12.52],[-85.92,12.35],[-85.83,12.26],[-85.85,12.2],[-86.11,12.13],[-86.19,12.06],[-86.18,11.97],[-86.26,11.99],[-86.5,11.77]]]}},{"type":"Feature","properties":{"id":"NIC-CA","nome":"Carazo","pais":"NIC","tipo":"Department","lat":11.77,"lng":-86.29},"geometry":{"type":"Polygon","coordinates":[[[-86.18,11.52],[-86.5,11.77],[-86.28,11.96],[-86.07,11.86],[-86.1,11.61],[-86.18,11.52]]]}},{"type":"Feature","properties":{"id":"NIC-MT","nome":"Matagalpa","pais":"NIC","tipo":"Department","lat":13.02,"lng":-85.49},"geometry":{"type":"Polygon","coordinates":[[[-85.3,12.65],[-85.41,12.74],[-85.86,12.62],[-85.97,12.52],[-86.29,12.64],[-86.24,12.92],[-86.1,13.05],[-86.01,12.99],[-85.92,13.02],[-85.6,13.33],[-85.51,13.37],[-85.41,13.24],[-85.24,13.15],[-85.12,13.28],[-84.97,13.3],[-84.88,13.38],[-84.75,13.22],[-84.8,13.15],[-84.7,13.07],[-84.75,12.95],[-84.96,12.85],[-85.14,12.86],[-85.23,12.8],[-85.19,12.63],[-85.3,12.65]]]}},{"type":"Feature","properties":{"id":"NIC-BO","nome":"Boaco","pais":"NIC","tipo":"Department","lat":12.52,"lng":-85.47},"geometry":{"type":"Polygon","coordinates":[[[-85.41,12.74],[-85.19,12.63],[-85.08,12.79],[-84.97,12.65],[-85.08,12.44],[-85.59,12.3],[-85.66,12.05],[-85.73,12.04],[-85.84,12.16],[-85.83,12.26],[-85.92,12.35],[-85.97,12.52],[-85.86,12.62],[-85.41,12.74]]]}},{"type":"Feature","properties":{"id":"NIC-CO","nome":"Chontales","pais":"NIC","tipo":"Department","lat":12.03,"lng":-85.12},"geometry":{"type":"Polygon","coordinates":[[[-85.13,12.42],[-85.04,12.48],[-84.97,12.65],[-84.85,12.48],[-84.71,11.99],[-84.57,11.92],[-84.61,11.86],[-84.8,11.87],[-85.1,11.63],[-85.52,11.68],[-85.66,12.05],[-85.6,12.29],[-85.13,12.42]]]}},{"type":"Feature","properties":{"id":"NIC-ES","nome":"Estelí","pais":"NIC","tipo":"Department","lat":13.23,"lng":-86.41},"geometry":{"type":"Polygon","coordinates":[[[-86.1,13.05],[-86.26,12.85],[-86.42,12.9],[-86.4,13.01],[-86.47,13.11],[-86.72,13.09],[-86.73,13.18],[-86.52,13.43],[-86.25,13.44],[-86.21,13.39],[-86.25,13.19],[-86.1,13.05]]]}},{"type":"Feature","properties":{"id":"NIC-GR","nome":"Granada","pais":"NIC","tipo":"Department","lat":11.87,"lng":-85.97},"geometry":{"type":"Polygon","coordinates":[[[-85.85,12.2],[-85.73,12.04],[-85.66,12.05],[-85.52,11.68],[-86,11.68],[-86.1,11.61],[-86.1,11.81],[-85.96,12.09],[-86,12.14],[-85.85,12.2]]]}},{"type":"Feature","properties":{"id":"NIC-MS","nome":"Masaya","pais":"NIC","tipo":"Department","lat":12,"lng":-86.12},"geometry":{"type":"Polygon","coordinates":[[[-86,12.14],[-85.96,12.09],[-86.07,11.86],[-86.28,11.96],[-86.18,11.97],[-86.19,12.06],[-86.11,12.13],[-86,12.14]]]}}]}