{"type":"FeatureCollection","features":[{"type":"Feature","properties":{"id":"NLD-GR","nome":"Groningen","pais":"NLD","tipo":"Province","lat":53.28,"lng":6.73},"geometry":{"type":"Polygon","coordinates":[[[7.19,53.25],[7.18,52.97],[7.07,52.84],[6.94,52.99],[6.53,53.19],[6.41,53.18],[6.33,53.09],[6.18,53.12],[6.29,53.31],[6.17,53.39],[6.83,53.45],[6.9,53.35],[7.19,53.25]]]}},{"type":"Feature","properties":{"id":"NLD-DR","nome":"Drenthe","pais":"NLD","tipo":"Province","lat":52.9,"lng":6.6},"geometry":{"type":"Polygon","coordinates":[[[7.07,52.84],[7.02,52.63],[6.61,52.67],[6.52,52.61],[6.39,52.62],[6.18,52.68],[6.13,52.75],[6.21,52.8],[6.13,52.85],[6.43,52.96],[6.31,53.09],[6.47,53.2],[6.63,53.11],[6.74,53.11],[7.07,52.84]]]}},{"type":"Feature","properties":{"id":"NLD-OV","nome":"Overijssel","pais":"NLD","tipo":"Province","lat":52.43,"lng":6.42},"geometry":{"type":"Polygon","coordinates":[[[6.72,52.63],[6.7,52.48],[6.97,52.45],[7.05,52.37],[7.03,52.23],[6.83,52.11],[6.5,52.18],[6.41,52.24],[6.15,52.23],[6.07,52.32],[6.13,52.4],[6.1,52.47],[6.03,52.51],[5.93,52.48],[5.83,52.59],[6.02,52.64],[5.79,52.8],[6.13,52.85],[6.21,52.8],[6.13,52.75],[6.18,52.68],[6.39,52.62],[6.52,52.61],[6.61,52.67],[6.72,52.63]]]}},{"type":"Feature","properties":{"id":"NLD-GE","nome":"Gelderland","pais":"NLD","tipo":"Province","lat":52.06,"lng":5.96},"geometry":{"type":"Polygon","coordinates":[[[6.77,52.11],[6.67,52.05],[6.81,51.98],[6.74,51.91],[6.34,51.82],[6.13,51.9],[6.09,51.89],[6.16,51.84],[5.93,51.82],[5.94,51.75],[5.5,51.84],[5.32,51.75],[5.13,51.73],[5,51.85],[5.24,51.98],[5.62,51.95],[5.55,52.1],[5.47,52.08],[5.51,52.14],[5.42,52.18],[5.41,52.27],[5.53,52.28],[5.87,52.52],[6.1,52.47],[6.13,52.4],[6.07,52.32],[6.15,52.23],[6.41,52.24],[6.77,52.11]]]}},{"type":"Feature","properties":{"id":"NLD-LI","nome":"Limburg","pais":"NLD","tipo":"Province","lat":51.22,"lng":5.93},"geometry":{"type":"Polygon","coordinates":[[[5.95,51.75],[6.1,51.64],[6.21,51.39],[6.06,51.21],[6.15,51.15],[5.94,51.03],[5.85,51.04],[5.87,50.97],[6,50.97],[6.06,50.91],[5.97,50.79],[5.99,50.75],[5.71,50.75],[5.62,50.85],[5.76,50.96],[5.72,50.96],[5.84,51.14],[5.55,51.22],[5.68,51.32],[5.93,51.38],[5.84,51.57],[6.05,51.57],[5.86,51.77],[5.95,51.75]]]}},{"type":"Feature","properties":{"id":"NLD-ZE","nome":"Zeeland","pais":"NLD","tipo":"Province","lat":51.28,"lng":3.79},"geometry":{"type":"MultiPolygon","coordinates":[[[[3.45,51.24],[3.37,51.26],[3.35,51.38],[3.54,51.42],[3.83,51.34],[3.98,51.41],[4.22,51.37],[4.17,51.3],[3.93,51.21],[3.61,51.29],[3.45,51.24]]],[[[4.28,51.37],[4.23,51.42],[3.96,51.46],[3.83,51.39],[3.54,51.46],[3.45,51.55],[3.85,51.61],[3.91,51.57],[3.87,51.55],[4.02,51.53],[4.1,51.45],[4.26,51.44],[4.28,51.37]]],[[[4.04,51.69],[4.1,51.65],[3.96,51.62],[3.81,51.7],[3.69,51.69],[3.81,51.75],[4.04,51.69]]]]}},{"type":"Feature","properties":{"id":"NLD-NB","nome":"Noord-Brabant","pais":"NLD","tipo":"Province","lat":51.6,"lng":5.16},"geometry":{"type":"Polygon","coordinates":[[[4.82,51.41],[4.78,51.5],[4.63,51.42],[4.52,51.43],[4.51,51.48],[4.38,51.44],[4.41,51.36],[4.28,51.37],[4.29,51.49],[4.19,51.62],[4.4,51.71],[4.68,51.72],[4.91,51.83],[5.13,51.73],[5.32,51.75],[5.5,51.84],[5.88,51.75],[6.05,51.57],[5.84,51.57],[5.93,51.38],[5.68,51.32],[5.55,51.22],[5.49,51.29],[5.22,51.26],[5.07,51.37],[5.03,51.48],[4.93,51.4],[4.76,51.41],[4.82,51.41]]]}},{"type":"Feature","properties":{"id":"NLD-ZH","nome":"Zuid-Holland","pais":"NLD","tipo":"Province","lat":52.01,"lng":4.52},"geometry":{"type":"Polygon","coordinates":[[[4.11,51.65],[4.18,51.69],[3.98,51.81],[3.86,51.82],[4.08,51.84],[4.02,51.99],[4.14,52.01],[4.51,52.34],[4.61,52.31],[4.55,52.22],[4.71,52.23],[4.86,52.17],[4.79,52.12],[4.88,52.07],[4.8,52.02],[4.89,51.94],[5.1,52],[5.18,51.97],[5.12,51.88],[4.79,51.8],[4.68,51.72],[4.11,51.65]]]}},{"type":"Feature","properties":{"id":"NLD-NH","nome":"Noord-Holland","pais":"NLD","tipo":"Province","lat":52.57,"lng":4.9},"geometry":{"type":"Polygon","coordinates":[[[4.51,52.34],[4.75,52.97],[4.91,52.91],[5.18,53.01],[5.37,52.79],[5.36,52.69],[5.1,52.58],[5.19,52.43],[5.1,52.36],[5.37,52.28],[5.26,52.28],[5.2,52.19],[5.05,52.17],[5.07,52.28],[4.99,52.29],[4.57,52.21],[4.61,52.31],[4.51,52.34]]]}},{"type":"Feature","properties":{"id":"NLD-FR","nome":"Friesland","pais":"NLD","tipo":"Province","lat":53.08,"lng":5.77},"geometry":{"type":"Polygon","coordinates":[[[5.18,53.01],[5.38,53.1],[5.45,53.22],[5.59,53.3],[6.19,53.41],[6.18,53.36],[6.29,53.31],[6.17,53.13],[6.31,53.09],[6.43,52.97],[6.03,52.82],[5.37,52.79],[5.18,53.01]]]}},{"type":"Feature","properties":{"id":"NLD-BQ1","nome":"Bonaire","pais":"NLD","tipo":"Special Municipality","lat":12.23,"lng":-68.3},"geometry":{"type":"Polygon","coordinates":[[[-68.21,12.23],[-68.25,12.02],[-68.3,12.2],[-68.42,12.26],[-68.38,12.31],[-68.21,12.23]]]}},{"type":"Feature","properties":{"id":"NLD-FL","nome":"Flevoland","pais":"NLD","tipo":"Province","lat":52.55,"lng":5.56},"geometry":{"type":"Polygon","coordinates":[[[5.74,52.84],[6.02,52.64],[5.83,52.6],[5.87,52.51],[5.82,52.44],[5.5,52.27],[5.1,52.36],[5.19,52.43],[5.1,52.58],[5.36,52.69],[5.37,52.79],[5.74,52.84]]]}},{"type":"Feature","properties":{"id":"NLD-UT","nome":"Utrecht","pais":"NLD","tipo":"Province","lat":52.07,"lng":5.19},"geometry":{"type":"Polygon","coordinates":[[[5.41,52.27],[5.42,52.18],[5.51,52.14],[5.47,52.08],[5.55,52.1],[5.62,51.95],[5.1,52],[4.89,51.94],[4.8,52.02],[4.88,52.07],[4.79,52.12],[4.86,52.17],[4.77,52.22],[5.07,52.28],[5.05,52.17],[5.2,52.19],[5.27,52.28],[5.41,52.27]]]}}]}