{"type":"FeatureCollection","features":[{"type":"Feature","properties":{"id":"OMN-MU","nome":"Musandam","pais":"OMN","tipo":"Province","lat":25.97,"lng":56.29},"geometry":{"type":"Polygon","coordinates":[[[56.15,25.66],[56.18,26.01],[56.16,26.07],[56.08,26.06],[56.09,26.11],[56.21,26.26],[56.21,26.21],[56.4,26.21],[56.31,26.22],[56.36,26.39],[56.5,26.36],[56.4,26.27],[56.49,26.24],[56.43,26.22],[56.48,26.15],[56.39,26.2],[56.33,26.17],[56.34,26.11],[56.36,26.15],[56.36,26.1],[56.47,26.1],[56.38,26.04],[56.45,25.95],[56.38,25.93],[56.28,25.63],[56.15,25.66]]]}},{"type":"Feature","properties":{"id":"OMN-BA","nome":"Al Batnah North","pais":"OMN","tipo":"Region","lat":23.98,"lng":56.82},"geometry":{"type":"Polygon","coordinates":[[[56.08,24.73],[56.38,24.98],[56.61,24.5],[56.94,24.12],[57.18,23.93],[57.53,23.83],[57.42,23.64],[57.16,23.5],[56.87,23.49],[56.76,23.84],[56.31,24.14],[56.21,24.53],[56.08,24.73]]]}},{"type":"Feature","properties":{"id":"OMN-BU","nome":"Al Buraymi","pais":"OMN","tipo":"Province","lat":24.39,"lng":55.99},"geometry":{"type":"Polygon","coordinates":[[[55.94,24.98],[56.01,24.96],[56.03,24.86],[55.96,24.87],[56.21,24.53],[56.31,24.23],[56.28,24.04],[55.96,23.98],[55.96,23.89],[55.85,23.82],[55.89,23.67],[55.82,23.63],[55.58,23.54],[55.45,23.55],[55.54,23.77],[55.46,23.96],[56,24.08],[55.93,24.22],[55.75,24.25],[55.81,24.39],[55.76,24.56],[55.82,24.64],[55.79,24.86],[55.94,24.98]]]}},{"type":"Feature","properties":{"id":"OMN-ZA","nome":"Al Dhahira","pais":"OMN","tipo":"Region","lat":22.91,"lng":55.93},"geometry":{"type":"Polygon","coordinates":[[[55.19,22.7],[55.19,23.03],[55.38,23.47],[55.45,23.55],[55.58,23.54],[55.89,23.67],[55.85,23.82],[55.96,23.89],[55.96,23.98],[56.28,24.04],[56.31,24.14],[56.76,23.84],[56.87,23.49],[56.52,22.25],[56.33,22.02],[55.6,21.87],[55.63,22.02],[55.19,22.7]]]}},{"type":"Feature","properties":{"id":"OMN-ZU","nome":"Dhofar","pais":"OMN","tipo":"Province","lat":18.5,"lng":54.29},"geometry":{"type":"Polygon","coordinates":[[[51.99,18.98],[54.98,20],[55.34,21.1],[56.58,19.17],[57.45,18.95],[57.08,18.88],[56.78,18.73],[56.64,18.56],[56.56,18.15],[56.36,17.94],[56.03,17.94],[55.45,17.84],[55.23,17.54],[55.3,17.42],[55.26,17.23],[55.03,17.01],[54.79,16.95],[54.59,17.04],[54.08,17.01],[53.98,16.91],[53.75,16.87],[53.62,16.76],[53.34,16.73],[53.09,16.64],[52.8,17.27],[52.72,17.3],[51.99,18.98]]]}},{"type":"Feature","properties":{"id":"OMN-WU","nome":"Al Wusta","pais":"OMN","tipo":"Region","lat":20.43,"lng":56.87},"geometry":{"type":"Polygon","coordinates":[[[55.34,21.1],[55.6,21.87],[56.33,22.02],[58.4,21.04],[58.26,20.61],[58.09,20.57],[58.08,20.48],[57.96,20.4],[57.97,20.33],[57.82,20.2],[57.81,19.98],[57.69,19.73],[57.77,19.41],[57.75,19.27],[57.84,19.02],[57.71,18.94],[57.45,18.95],[56.58,19.17],[55.34,21.1]]]}},{"type":"Feature","properties":{"id":"OMN-SH","nome":"Ash Sharqiyah South","pais":"OMN","tipo":"Region","lat":21.6,"lng":58.96},"geometry":{"type":"MultiPolygon","coordinates":[[[[59.48,22.62],[59.52,22.56],[59.63,22.58],[59.75,22.5],[59.75,22.54],[59.8,22.53],[59.84,22.48],[59.81,22.24],[59.69,22.08],[59.65,21.93],[59.5,21.76],[59.34,21.44],[59.05,21.28],[58.85,21.07],[58.66,20.8],[58.73,20.77],[58.59,20.64],[58.52,20.42],[58.45,20.36],[58.2,20.4],[58.4,21.04],[58.29,21.1],[58.08,21.71],[59.05,22.04],[59.39,22.21],[59.44,22.33],[59.43,22.57],[59.48,22.62]]],[[[58.91,20.63],[58.95,20.51],[58.65,20.17],[58.65,20.37],[58.77,20.45],[58.91,20.7],[58.91,20.63]]]]}},{"type":"Feature","properties":{"id":"OMN-SS","nome":"Ash Sharqiyah North","pais":"OMN","tipo":"Region","lat":22.29,"lng":58.57},"geometry":{"type":"Polygon","coordinates":[[[59.26,22.89],[59.48,22.62],[59.43,22.57],[59.44,22.33],[59.39,22.21],[59.05,22.04],[58.08,21.71],[57.83,22.52],[57.93,22.71],[58.16,22.88],[58.54,23.02],[58.84,22.83],[59.17,22.79],[59.26,22.89]]]}},{"type":"Feature","properties":{"id":"OMN-MA","nome":"Muscat","pais":"OMN","tipo":"Province","lat":23.25,"lng":58.68},"geometry":{"type":"Polygon","coordinates":[[[58.13,23.71],[58.32,23.62],[58.58,23.65],[58.76,23.54],[59.09,23.05],[59.26,22.89],[59.17,22.79],[58.84,22.83],[58.54,23.02],[58.59,23.25],[58.33,23.49],[58.12,23.46],[58.13,23.71]]]}},{"type":"Feature","properties":{"id":"OMN-BJ","nome":"Al Batnah South","pais":"OMN","tipo":"Region","lat":23.43,"lng":57.65},"geometry":{"type":"Polygon","coordinates":[[[57.53,23.83],[57.89,23.72],[58.13,23.71],[58.12,23.46],[57.87,23.23],[57.46,23.23],[57.16,23.5],[57.42,23.64],[57.53,23.83]]]}},{"type":"Feature","properties":{"id":"OMN-DA","nome":"Ad Dakhliyah","pais":"OMN","tipo":"Region","lat":22.47,"lng":57.34},"geometry":{"type":"Polygon","coordinates":[[[58.08,21.71],[58.29,21.1],[56.33,22.02],[56.52,22.25],[56.87,23.49],[57.16,23.5],[57.46,23.23],[57.61,23.2],[57.87,23.23],[58.12,23.46],[58.33,23.49],[58.59,23.25],[58.54,23.02],[58.16,22.88],[57.93,22.71],[57.83,22.52],[58.08,21.71]]]}}]}