{"type":"FeatureCollection","features":[{"type":"Feature","properties":{"id":"PAK-GB","nome":"Northern Areas","pais":"PAK","tipo":"Centrally Administered Area","lat":35.79,"lng":74.98},"geometry":{"type":"Polygon","coordinates":[[[75.98,36.46],[76.01,36.23],[75.9,36.11],[75.92,36.03],[76.09,35.98],[76.17,35.81],[76.56,35.9],[76.57,35.75],[76.78,35.65],[77.05,35.11],[77.01,34.99],[76.92,34.92],[76.76,34.92],[76.74,34.82],[76.65,34.75],[76.44,34.76],[76.15,34.66],[76.02,34.68],[75.78,34.5],[75.31,34.57],[75.22,34.64],[75.25,34.76],[75.16,34.86],[74.97,34.81],[74.8,34.85],[74.63,34.94],[74.49,35.12],[74.12,35.1],[73.81,35.23],[73.73,35.21],[73.69,35.36],[73.78,35.45],[73.77,35.52],[73.31,35.6],[73.13,35.72],[73.15,35.82],[73.09,35.88],[72.79,35.84],[72.52,35.9],[72.59,36.02],[72.53,36.1],[72.57,36.24],[72.98,36.47],[73.09,36.6],[73.07,36.7],[73.42,36.75],[73.88,36.71],[73.89,36.77],[73.71,36.89],[74.04,36.82],[74.13,36.9],[74.44,37],[74.54,36.96],[74.54,37.02],[74.66,37.05],[74.82,36.99],[74.87,36.91],[74.92,36.97],[75.1,36.99],[75.35,36.92],[75.43,36.72],[75.57,36.77],[75.73,36.72],[75.98,36.46]]]}},{"type":"Feature","properties":{"id":"PAK-KP","nome":"K.P.","pais":"PAK","tipo":"Province","lat":34.94,"lng":72.64},"geometry":{"type":"Polygon","coordinates":[[[73.64,36.9],[73.88,36.78],[73.89,36.71],[73.42,36.75],[73.07,36.7],[73.09,36.6],[72.98,36.47],[72.57,36.24],[72.53,36.1],[72.59,36.02],[72.52,35.9],[72.79,35.84],[73.09,35.88],[73.15,35.82],[73.13,35.72],[73.31,35.6],[73.77,35.52],[73.78,35.45],[73.69,35.36],[73.72,35.23],[74.1,35.14],[74.06,34.93],[73.71,34.76],[73.62,34.56],[73.45,34.56],[73.4,34.38],[73.47,34.27],[73.52,34.01],[73.36,33.97],[73.31,33.87],[72.93,33.73],[72.84,33.76],[72.88,33.82],[72.78,33.95],[72.66,33.86],[72.62,33.89],[72.65,33.93],[72.53,34.02],[72.43,34.01],[72.24,33.94],[72.23,33.77],[72.09,33.79],[72.02,33.75],[71.88,33.42],[71.72,33.36],[71.7,33.27],[71.75,33.18],[71.7,33.06],[71.57,33.21],[71.42,33.24],[71.46,33.04],[71.19,32.97],[71.11,32.79],[71.17,32.6],[71.26,32.59],[71.26,32.49],[71.33,32.53],[71.35,32.43],[70.9,31.71],[70.87,31.42],[70.78,31.29],[70.56,31.32],[70.4,31.25],[70.17,31.99],[70.07,32.17],[70.2,32.3],[70.34,32.34],[70.46,32.5],[70.59,32.48],[70.38,32.72],[70.38,32.84],[70.5,33.02],[70.73,33.07],[70.87,33.19],[70.58,33.28],[70.49,33.42],[70.73,33.5],[70.76,33.59],[70.99,33.56],[71.1,33.59],[71.14,33.74],[71.35,33.63],[71.64,33.64],[71.56,33.58],[71.61,33.55],[71.84,33.63],[71.79,33.67],[71.85,33.78],[71.74,33.84],[71.65,33.76],[71.52,33.73],[71.38,33.99],[71.34,34.16],[71.49,34.23],[71.69,34.44],[71.64,34.54],[71.8,34.76],[71.6,34.78],[71.45,34.94],[71.64,35.19],[71.53,35.3],[71.62,35.41],[71.59,35.55],[71.49,35.61],[71.52,35.7],[71.36,35.93],[71.17,36.05],[71.32,36.2],[71.56,36.33],[71.61,36.46],[71.78,36.4],[71.77,36.48],[72.17,36.65],[72.17,36.71],[72.63,36.83],[73.64,36.9]]]}},{"type":"Feature","properties":{"id":"PAK-TA","nome":"F.A.T.A.","pais":"PAK","tipo":"Territory","lat":32.61,"lng":69.9},"geometry":{"type":"Polygon","coordinates":[[[71.05,34.55],[71.08,34.67],[71.29,34.88],[71.45,34.94],[71.6,34.78],[71.78,34.78],[71.76,34.66],[71.64,34.54],[71.69,34.44],[71.34,34.14],[71.52,33.73],[71.65,33.76],[71.74,33.84],[71.86,33.78],[71.79,33.67],[71.84,33.63],[71.61,33.55],[71.56,33.58],[71.64,33.64],[71.35,33.63],[71.14,33.74],[71.1,33.59],[70.99,33.56],[70.76,33.59],[70.73,33.5],[70.49,33.42],[70.58,33.28],[70.87,33.19],[70.73,33.07],[70.5,33.02],[70.38,32.84],[70.38,32.72],[70.59,32.48],[70.46,32.5],[70.34,32.34],[70.2,32.3],[70.07,32.17],[70.21,31.89],[70.41,31.2],[70.26,31.16],[70.25,31.07],[70.23,31.48],[70.08,31.42],[70.02,31.33],[70,31.45],[69.91,31.52],[69.94,31.89],[69.84,31.87],[69.82,32.06],[69.66,32.03],[69.54,31.94],[69.3,31.94],[69.23,32.46],[69.43,32.66],[69.38,32.77],[69.48,32.86],[69.51,33.06],[69.99,33.13],[70.29,33.32],[70.15,33.51],[70.17,33.63],[70.12,33.72],[69.96,33.75],[69.85,33.93],[69.87,34.02],[70,34.04],[70.52,33.94],[70.86,33.96],[71.05,34.04],[71.12,34.36],[70.96,34.51],[71.05,34.55]]]}},{"type":"Feature","properties":{"id":"PAK-BA","nome":"Baluchistan","pais":"PAK","tipo":"Province","lat":27.52,"lng":65.55},"geometry":{"type":"Polygon","coordinates":[[[68.98,31.64],[69.3,31.94],[69.54,31.94],[69.66,32.03],[69.82,32.06],[69.84,31.87],[69.94,31.89],[69.91,31.52],[70,31.45],[70.02,31.33],[70.08,31.42],[70.23,31.48],[70.24,30.82],[70.07,30.68],[69.93,30.29],[69.96,30.22],[70.04,30.23],[69.85,29.83],[69.6,29.65],[69.57,29.44],[69.66,29.4],[69.67,29.32],[69.74,29.28],[69.7,29.11],[69.51,28.93],[69.47,28.69],[69.33,28.58],[69.39,28.49],[68.47,28.45],[67.93,28.02],[67.4,27.86],[67.21,27.56],[67.14,27.29],[67.16,26.6],[67.44,26.11],[67.44,25.86],[67.37,25.67],[66.97,25.04],[66.68,24.91],[66.72,25.23],[66.55,25.37],[66.59,25.4],[66.53,25.52],[66.38,25.63],[66.2,25.59],[66.09,25.47],[66.34,25.55],[66.49,25.48],[66.46,25.45],[66.5,25.4],[66.25,25.47],[65.65,25.34],[65.4,25.39],[65.23,25.37],[65.16,25.3],[64.74,25.32],[64.67,25.26],[64.71,25.18],[64.66,25.17],[64.6,25.17],[64.63,25.23],[64.57,25.27],[64.44,25.23],[64.09,25.34],[64.08,25.43],[64.16,25.45],[64.05,25.45],[63.98,25.41],[64.05,25.42],[64.06,25.34],[63.57,25.36],[63.47,25.29],[63.5,25.19],[63.14,25.26],[63.03,25.22],[62.53,25.26],[62.34,25.16],[62.38,25.09],[62.26,25.1],[62.32,25.13],[62.3,25.19],[62.15,25.22],[62.06,25.16],[62.1,25.11],[61.88,25.1],[61.85,25.04],[61.73,25.02],[61.78,25.19],[61.59,25.2],[61.66,25.77],[61.75,25.82],[61.83,26.23],[62.09,26.31],[62.12,26.37],[62.27,26.36],[62.29,26.5],[62.42,26.56],[62.75,26.64],[63.14,26.63],[63.19,26.85],[63.26,26.87],[63.23,27.07],[63.32,27.12],[63.18,27.26],[62.89,27.21],[62.74,27.27],[62.81,27.49],[62.74,27.99],[62.76,28.25],[62.58,28.23],[62.36,28.42],[61.89,28.54],[61.57,28.87],[61.49,29.08],[61.33,29.27],[61.34,29.37],[60.84,29.86],[62.48,29.41],[63.57,29.5],[64.09,29.39],[64.17,29.48],[64.48,29.57],[65.04,29.54],[66.28,29.89],[66.34,29.96],[66.22,30.06],[66.31,30.24],[66.32,30.44],[66.27,30.6],[66.37,30.92],[66.55,30.98],[66.7,31.2],[66.84,31.28],[67,31.32],[67.02,31.24],[67.35,31.21],[67.76,31.33],[67.77,31.39],[67.61,31.41],[67.57,31.53],[67.7,31.52],[67.84,31.62],[67.97,31.64],[68.14,31.82],[68.5,31.73],[68.55,31.75],[68.42,31.78],[68.53,31.82],[68.69,31.77],[68.8,31.6],[68.98,31.64]]]}},{"type":"Feature","properties":{"id":"PAK-PB","nome":"Punjab","pais":"PAK","tipo":"Province","lat":31.36,"lng":72.34},"geometry":{"type":"Polygon","coordinates":[[[75.3,32.33],[75.36,32.26],[75.29,32.15],[74.83,32.03],[74.78,31.94],[74.7,31.95],[74.55,31.83],[74.49,31.71],[74.62,31.46],[74.51,31.18],[74.54,31.12],[74.66,31.08],[74.4,30.89],[74.32,30.89],[74.16,30.66],[74.07,30.61],[74.06,30.53],[73.85,30.37],[73.94,30.19],[73.74,30.05],[73.37,29.93],[73.23,29.54],[72.93,29.05],[72.35,28.77],[72.15,28.35],[71.91,28.14],[71.86,27.95],[70.76,27.71],[70.67,27.79],[70.63,27.93],[70.51,28.03],[70.34,28.01],[70.19,27.89],[70.01,27.97],[69.73,28.47],[69.53,28.53],[69.39,28.49],[69.33,28.56],[69.47,28.69],[69.52,28.94],[69.71,29.13],[69.74,29.31],[69.69,29.29],[69.66,29.4],[69.57,29.44],[69.6,29.65],[69.84,29.81],[70.04,30.21],[69.93,30.29],[70.07,30.7],[70.24,30.82],[70.26,31.15],[70.4,31.19],[70.4,31.25],[70.56,31.32],[70.78,31.29],[70.87,31.42],[70.85,31.55],[70.98,31.88],[71.23,32.18],[71.34,32.42],[71.34,32.53],[71.26,32.49],[71.26,32.59],[71.16,32.61],[71.11,32.79],[71.16,32.93],[71.3,33.01],[71.45,33.02],[71.43,33.25],[71.57,33.21],[71.7,33.06],[71.75,33.18],[71.7,33.27],[71.72,33.36],[71.88,33.42],[72.02,33.75],[72.09,33.79],[72.23,33.77],[72.24,33.94],[72.53,34.02],[72.65,33.93],[72.62,33.89],[72.66,33.86],[72.78,33.95],[72.88,33.82],[72.84,33.76],[72.93,33.75],[72.81,33.66],[72.83,33.59],[73.07,33.62],[73.16,33.49],[73.32,33.69],[73.13,33.8],[73.52,34.01],[73.58,33.91],[73.57,33.63],[73.64,33.54],[73.57,33.39],[73.64,33.1],[73.81,33.02],[73.94,33.02],[74.35,32.77],[74.57,32.75],[74.67,32.84],[74.63,32.59],[74.69,32.47],[75.02,32.47],[75.3,32.33]]]}},{"type":"Feature","properties":{"id":"PAK-SD","nome":"Sind","pais":"PAK","tipo":"Province","lat":26.37,"lng":68.87},"geometry":{"type":"Polygon","coordinates":[[[70.19,27.89],[69.99,27.57],[69.53,27.13],[69.47,26.77],[69.77,26.6],[70.06,26.59],[70.16,26.53],[70.08,25.93],[70.26,25.7],[70.65,25.67],[70.65,25.4],[70.85,25.16],[71.06,24.68],[70.95,24.58],[70.98,24.46],[71.08,24.41],[70.92,24.36],[70.76,24.23],[70.57,24.27],[70.56,24.42],[70.42,24.4],[70.1,24.3],[69.97,24.17],[69.71,24.17],[69.56,24.28],[68.96,24.26],[68.9,24.32],[68.84,24.24],[68.8,24.33],[68.75,24.33],[68.72,23.97],[68.33,23.97],[68.18,23.84],[68.16,23.91],[68.15,23.69],[68.06,23.72],[68.1,23.82],[68.01,23.94],[68.05,23.83],[68.01,23.77],[67.87,23.85],[67.86,23.91],[67.83,23.81],[67.72,23.84],[67.72,23.79],[67.63,23.8],[67.65,23.93],[67.61,23.85],[67.48,23.89],[67.54,23.94],[67.45,23.99],[67.53,24.07],[67.34,24.09],[67.28,24.28],[67.36,24.34],[67.27,24.37],[67.29,24.44],[67.18,24.59],[67.25,24.59],[67.15,24.62],[67.25,24.76],[66.97,24.84],[66.65,24.84],[66.99,25.07],[67.44,25.83],[67.44,26.11],[67.16,26.6],[67.13,27.25],[67.19,27.53],[67.4,27.86],[67.93,28.02],[68.47,28.45],[69.51,28.53],[69.73,28.47],[69.98,28],[70.19,27.89]]]}},{"type":"Feature","properties":{"id":"PAK-JK","nome":"Azad Kashmir","pais":"PAK","tipo":"Centrally Administered Area","lat":33.87,"lng":73.8},"geometry":{"type":"Polygon","coordinates":[[[75.22,34.64],[75.02,34.63],[74.35,34.77],[73.92,34.64],[73.93,34.56],[73.77,34.37],[73.94,34.3],[73.99,34.22],[73.89,34.05],[73.98,34],[74.23,34.01],[74.27,33.96],[73.97,33.75],[73.98,33.65],[74.16,33.49],[73.99,33.21],[74.15,33.04],[74.31,32.99],[74.33,32.85],[73.64,33.1],[73.65,33.18],[73.58,33.24],[73.64,33.54],[73.57,33.63],[73.58,33.91],[73.4,34.38],[73.45,34.56],[73.62,34.56],[73.71,34.76],[74.02,34.88],[74.1,35.09],[74.46,35.12],[74.66,34.92],[74.8,34.85],[74.97,34.81],[75.16,34.86],[75.25,34.76],[75.22,34.64]]]}},{"type":"Feature","properties":{"id":"PAK-IS","nome":"F.C.T.","pais":"PAK","tipo":"Capital Territory","lat":33.7,"lng":73.06},"geometry":{"type":"Polygon","coordinates":[[[72.93,33.73],[73.13,33.8],[73.32,33.68],[73.16,33.49],[73.07,33.62],[72.83,33.59],[72.81,33.66],[72.93,33.73]]]}}]}