{"type":"FeatureCollection","features":[{"type":"Feature","properties":{"id":"PAN-1","nome":"Bocas del Toro","pais":"PAN","tipo":"Province","lat":9.21,"lng":-82.66},"geometry":{"type":"Polygon","coordinates":[[[-82.83,9.6],[-82.63,9.48],[-82.57,9.58],[-82.34,9.43],[-82.39,9.26],[-82.31,9.19],[-82.17,9.2],[-82.18,9.15],[-82.26,9.16],[-82.26,9.02],[-82.02,8.92],[-82.18,8.84],[-82.2,8.95],[-82.32,9.01],[-82.28,9.08],[-82.32,9.13],[-82.44,9],[-82.33,8.92],[-82.36,8.81],[-82.57,8.9],[-82.69,8.89],[-82.94,9.06],[-82.94,9.46],[-82.85,9.49],[-82.88,9.56],[-82.83,9.6]]]}},{"type":"Feature","properties":{"id":"PAN-4","nome":"Chiriquí","pais":"PAN","tipo":"Province","lat":8.31,"lng":-82.1},"geometry":{"type":"Polygon","coordinates":[[[-82.99,8.26],[-83.05,8.33],[-82.84,8.49],[-82.92,8.76],[-82.72,8.92],[-82.15,8.76],[-82.18,8.46],[-82.06,8.46],[-82,8.34],[-81.73,8.26],[-81.55,8.39],[-81.51,8.28],[-81.66,8],[-81.75,8.19],[-81.78,8.12],[-81.95,8.19],[-81.93,8.23],[-81.98,8.19],[-82.12,8.23],[-82.16,8.16],[-82.14,8.21],[-82.22,8.22],[-82.18,8.34],[-82.4,8.29],[-82.43,8.36],[-82.47,8.28],[-82.66,8.32],[-82.81,8.3],[-82.88,8.22],[-82.88,8.02],[-82.99,8.26]]]}},{"type":"Feature","properties":{"id":"PAN-KY","nome":"Kuna Yala","pais":"PAN","tipo":"Indigenous Territory","lat":9.28,"lng":-78.33},"geometry":{"type":"Polygon","coordinates":[[[-77.37,8.66],[-77.47,8.54],[-77.91,9],[-78.16,9.14],[-78.16,9.2],[-78.41,9.24],[-78.51,9.35],[-78.87,9.36],[-79.01,9.28],[-79.28,9.3],[-79.14,9.38],[-79.07,9.46],[-79.07,9.56],[-79.01,9.57],[-78.96,9.55],[-79.05,9.53],[-79.06,9.46],[-78.44,9.4],[-78.04,9.24],[-77.86,9.05],[-77.86,9.11],[-77.72,8.89],[-77.54,8.77],[-77.53,8.7],[-77.37,8.66]]]}},{"type":"Feature","properties":{"id":"PAN-EM","nome":"Emberá","pais":"PAN","tipo":"Indigenous Territory","lat":7.86,"lng":-78.14},"geometry":{"type":"MultiPolygon","coordinates":[[[[-77.47,8.54],[-77.49,8.47],[-77.42,8.46],[-77.37,8.29],[-77.27,8.17],[-77.54,8.08],[-77.73,8.26],[-77.91,8.62],[-77.82,8.73],[-77.69,8.77],[-77.47,8.54]]],[[[-78.18,8.09],[-78.08,7.92],[-78.02,7.93],[-77.95,7.78],[-77.99,7.59],[-78.2,7.68],[-78.33,7.88],[-78.33,7.96],[-78.2,8],[-78.23,8.07],[-78.18,8.09]]]]}},{"type":"Feature","properties":{"id":"PAN-5","nome":"Darién","pais":"PAN","tipo":"Province","lat":7.9,"lng":-77.71},"geometry":{"type":"Polygon","coordinates":[[[-77.27,8.17],[-77.16,7.94],[-77.3,7.9],[-77.38,7.77],[-77.34,7.71],[-77.58,7.53],[-77.76,7.71],[-77.73,7.53],[-77.82,7.48],[-77.92,7.24],[-78.29,7.69],[-78.44,8.06],[-78.25,8.12],[-78.31,8.25],[-78.2,8.27],[-78.13,8.41],[-78,8.24],[-77.89,8.23],[-77.78,8.12],[-77.74,8.13],[-78.02,8.29],[-78.13,8.56],[-78.09,8.41],[-78.16,8.47],[-78.24,8.38],[-78.22,8.54],[-78.22,8.44],[-78.26,8.5],[-78.37,8.42],[-78.41,8.55],[-78.36,8.39],[-78.41,8.35],[-78.45,8.82],[-78.31,8.81],[-78.17,8.87],[-78.02,9.07],[-77.69,8.79],[-77.82,8.73],[-77.91,8.62],[-77.73,8.26],[-77.54,8.08],[-77.27,8.17]],[[-78.08,7.92],[-78.18,8.09],[-78.23,8.07],[-78.2,8],[-78.33,7.95],[-78.2,7.68],[-77.99,7.59],[-77.95,7.78],[-78.02,7.93],[-78.08,7.92]]]}},{"type":"Feature","properties":{"id":"PAN-8","nome":"Panama","pais":"PAN","tipo":"Province","lat":9.09,"lng":-78.93},"geometry":{"type":"Polygon","coordinates":[[[-78.41,8.35],[-78.53,8.58],[-78.48,8.58],[-78.5,8.63],[-78.62,8.68],[-78.61,8.77],[-78.65,8.71],[-78.8,8.86],[-78.84,8.82],[-78.87,8.89],[-79.09,8.99],[-79.11,9.08],[-78.98,9.15],[-79.12,9.08],[-79.12,8.99],[-79.43,9.01],[-79.52,8.97],[-79.51,8.9],[-79.57,8.96],[-79.58,8.88],[-79.7,8.87],[-79.75,8.69],[-79.83,8.64],[-79.7,8.64],[-80.04,8.4],[-80.16,8.83],[-80.14,8.95],[-79.96,9],[-79.91,9.19],[-79.78,9.11],[-79.67,9.13],[-79.57,9.22],[-79.49,9.47],[-79.39,9.46],[-79.39,9.39],[-79.26,9.4],[-79.27,9.28],[-79.01,9.28],[-78.93,9.35],[-78.77,9.37],[-78.61,9.32],[-78.51,9.35],[-78.41,9.24],[-78.16,9.2],[-78.16,9.14],[-78.04,9.07],[-78.08,8.93],[-78.17,8.87],[-78.31,8.81],[-78.45,8.82],[-78.41,8.35]]]}},{"type":"Feature","properties":{"id":"PAN-2","nome":"Coclé","pais":"PAN","tipo":"Province","lat":8.58,"lng":-80.43},"geometry":{"type":"Polygon","coordinates":[[[-80.04,8.4],[-80.22,8.3],[-80.39,8.31],[-80.48,8.2],[-80.48,8.09],[-80.66,8.12],[-80.73,8.16],[-80.69,8.31],[-80.82,8.54],[-80.69,8.64],[-80.65,8.77],[-80.54,8.79],[-80.52,8.92],[-80.34,8.88],[-80.19,9.05],[-80.04,8.4]]]}},{"type":"Feature","properties":{"id":"PAN-9","nome":"Veraguas","pais":"PAN","tipo":"Province","lat":8.23,"lng":-81.14},"geometry":{"type":"MultiPolygon","coordinates":[[[[-81.66,7.4],[-81.59,7.34],[-81.75,7.35],[-81.88,7.49],[-81.76,7.64],[-81.67,7.53],[-81.72,7.45],[-81.66,7.4]]],[[[-81.21,8.79],[-80.86,8.89],[-80.73,8.74],[-80.72,8.65],[-80.82,8.54],[-80.69,8.31],[-80.74,8.18],[-80.69,8.13],[-80.85,8.06],[-80.95,7.79],[-80.72,7.53],[-80.6,7.24],[-80.86,7.21],[-80.93,7.26],[-80.89,7.36],[-80.95,7.56],[-81.04,7.66],[-81.03,7.75],[-81.09,7.78],[-81.02,7.82],[-81.05,7.91],[-81.09,7.84],[-81.22,7.9],[-81.16,7.79],[-81.22,7.73],[-81.25,7.75],[-81.19,7.7],[-81.22,7.61],[-81.57,7.76],[-81.61,7.99],[-81.63,7.95],[-81.66,8],[-81.51,8.25],[-81.49,8.6],[-81.16,8.5],[-81.21,8.59],[-81.21,8.79]]]]}},{"type":"Feature","properties":{"id":"PAN-3","nome":"Colón","pais":"PAN","tipo":"Province","lat":9.17,"lng":-79.97},"geometry":{"type":"Polygon","coordinates":[[[-80.58,9.08],[-80.13,9.21],[-79.98,9.36],[-79.91,9.31],[-79.87,9.4],[-79.79,9.35],[-79.79,9.42],[-79.63,9.61],[-79.07,9.56],[-79.08,9.45],[-79.24,9.32],[-79.27,9.41],[-79.4,9.4],[-79.37,9.43],[-79.44,9.48],[-79.52,9.45],[-79.57,9.22],[-79.7,9.11],[-79.91,9.19],[-79.99,8.98],[-80.14,8.95],[-80.19,9.05],[-80.34,8.88],[-80.52,8.92],[-80.54,8.79],[-80.65,8.77],[-80.74,8.62],[-80.73,8.74],[-80.86,8.89],[-80.58,9.08]]]}},{"type":"Feature","properties":{"id":"PAN-NB","nome":"Ngöbe Buglé","pais":"PAN","tipo":"Indigenous Territory","lat":8.68,"lng":-81.76},"geometry":{"type":"Polygon","coordinates":[[[-82.01,8.95],[-81.78,8.94],[-81.77,9],[-81.93,9.13],[-81.87,9.13],[-81.88,9.18],[-81.54,8.81],[-81.21,8.79],[-81.21,8.59],[-81.16,8.5],[-81.49,8.6],[-81.52,8.38],[-81.59,8.37],[-81.66,8.28],[-81.78,8.26],[-81.83,8.32],[-82,8.34],[-82.06,8.46],[-82.18,8.46],[-82.15,8.76],[-82.36,8.81],[-82.33,8.92],[-82.44,9],[-82.32,9.13],[-82.28,9.08],[-82.32,9.01],[-82.2,8.95],[-82.18,8.84],[-82.01,8.95]]]}},{"type":"Feature","properties":{"id":"PAN-7","nome":"Los Santos","pais":"PAN","tipo":"Province","lat":7.58,"lng":-80.39},"geometry":{"type":"Polygon","coordinates":[[[-80.38,8],[-80.05,7.64],[-79.99,7.5],[-80.14,7.42],[-80.31,7.42],[-80.26,7.42],[-80.36,7.38],[-80.35,7.32],[-80.44,7.25],[-80.6,7.24],[-80.72,7.53],[-80.56,7.71],[-80.58,7.82],[-80.38,8]]]}},{"type":"Feature","properties":{"id":"PAN-6","nome":"Herrera","pais":"PAN","tipo":"Province","lat":7.86,"lng":-80.66},"geometry":{"type":"Polygon","coordinates":[[[-80.48,8.09],[-80.38,8],[-80.58,7.82],[-80.56,7.71],[-80.72,7.53],[-80.94,7.77],[-80.94,7.9],[-80.85,7.98],[-80.85,8.06],[-80.74,8.13],[-80.48,8.09]]]}}]}