{"type":"FeatureCollection","features":[{"type":"Feature","properties":{"id":"PHL-SLU","nome":"Sulu","pais":"PHL","tipo":"Province","lat":5.54,"lng":120.87},"geometry":{"type":"Polygon","coordinates":[[[121.38,6.01],[121.42,5.95],[121.29,5.86],[121.23,5.94],[120.93,5.89],[120.87,5.96],[121.04,6.1],[121.18,6.06],[121.22,6],[121.38,6.01]]]}},{"type":"Feature","properties":{"id":"PHL-DAV","nome":"Davao del Norte","pais":"PHL","tipo":"Province","lat":7.45,"lng":125.65},"geometry":{"type":"MultiPolygon","coordinates":[[[[125.79,6.95],[125.78,6.89],[125.67,7.07],[125.72,7.2],[125.78,7.14],[125.79,6.95]]],[[[125.83,7.35],[125.62,7.24],[125.5,7.24],[125.5,7.59],[125.29,7.6],[125.3,7.68],[125.43,7.71],[125.37,8],[125.68,8],[125.78,7.66],[125.92,7.83],[125.92,7.56],[125.85,7.53],[125.88,7.49],[125.83,7.46],[125.83,7.35]]]]}},{"type":"Feature","properties":{"id":"PHL-ZSI","nome":"Zamboanga Sibugay","pais":"PHL","tipo":"Province","lat":7.71,"lng":122.93},"geometry":{"type":"Polygon","coordinates":[[[123.1,7.71],[123,7.47],[122.92,7.55],[122.86,7.47],[122.79,7.49],[122.83,7.53],[122.81,7.74],[122.7,7.79],[122.51,7.7],[122.43,7.59],[122.49,7.58],[122.44,7.5],[122.44,7.54],[122.26,7.47],[122.37,7.72],[122.71,7.93],[122.92,7.92],[122.92,7.83],[123.09,7.81],[123.1,7.71]]]}},{"type":"Feature","properties":{"id":"PHL-PLW","nome":"Palawan","pais":"PHL","tipo":"Province","lat":9.03,"lng":117.91},"geometry":{"type":"MultiPolygon","coordinates":[[[[117.08,8.06],[117.09,7.87],[117.01,7.8],[116.96,8.06],[117.08,8.06]]],[[[119.95,10.6],[120.01,10.57],[119.98,10.53],[119.91,10.56],[119.91,10.48],[119.79,10.46],[119.75,10.54],[119.84,10.64],[119.95,10.6]]],[[[118.64,9.52],[118.35,9.18],[118.13,9.13],[118.01,8.89],[117.76,8.69],[117.57,8.66],[117.51,8.51],[117.34,8.47],[117.19,8.34],[117.26,8.61],[117.36,8.73],[117.89,9.25],[118,9.23],[118.13,9.34],[118.36,9.66],[118.64,9.52]]],[[[118.99,10.3],[119.03,10.35],[118.98,10.34],[119,10.4],[119.07,10.39],[119.12,10.49],[119.15,10.4],[119.32,10.59],[119.34,10.74],[119.22,10.85],[119.23,10.95],[119.47,10.73],[119.46,10.83],[119.36,10.88],[119.32,11],[119.36,11],[119.33,11.1],[119.42,11.06],[119.39,11.19],[119.5,11.42],[119.57,11.3],[119.52,11.12],[119.57,11.02],[119.52,11.01],[119.5,10.88],[119.53,10.82],[119.6,10.82],[119.59,10.67],[119.65,10.68],[119.66,10.57],[119.73,10.52],[119.56,10.37],[119.36,10.33],[119.2,10.06],[118.99,10.3]]],[[[120.02,11.89],[120.08,11.86],[120.04,11.82],[120.08,11.79],[119.97,11.66],[120,11.78],[119.93,11.78],[119.85,11.95],[119.92,11.98],[120.02,11.89]]],[[[120.35,12.03],[120.24,11.99],[120.14,12.03],[120.11,11.97],[120,12.01],[119.9,12.21],[119.85,12.17],[119.92,12.28],[119.88,12.27],[119.89,12.32],[120.2,12.11],[120.23,12.22],[120.35,12.03]]]]}},{"type":"Feature","properties":{"id":"PHL-SUN","nome":"Surigao del Norte","pais":"PHL","tipo":"Province","lat":9.66,"lng":125.96},"geometry":{"type":"MultiPolygon","coordinates":[[[[125.47,9.44],[125.4,9.7],[125.46,9.82],[125.59,9.75],[125.64,9.61],[125.93,9.49],[125.73,9.31],[125.68,9.44],[125.47,9.44]]],[[[126.17,9.83],[126.18,9.79],[126.05,9.75],[125.97,9.85],[126.01,9.86],[125.98,9.9],[126.07,10.06],[126.14,9.9],[126.11,9.86],[126.17,9.83]]],[[[125.72,9.91],[125.66,9.89],[125.58,10.01],[125.6,10.09],[125.52,10.06],[125.5,10.11],[125.52,10.32],[125.64,10.46],[125.68,10.4],[125.64,10.25],[125.72,9.91]]]]}},{"type":"Feature","properties":{"id":"PHL-SUR","nome":"Surigao del Sur","pais":"PHL","tipo":"Province","lat":8.81,"lng":126.1},"geometry":{"type":"Polygon","coordinates":[[[125.93,9.49],[125.97,9.45],[125.91,9.4],[125.99,9.4],[126.06,9.25],[126.22,9.29],[126.18,9.09],[126.35,8.85],[126.23,8.73],[126.25,8.69],[126.11,8.61],[126.16,8.53],[126.37,8.54],[126.41,8.49],[126.33,8.35],[126.39,8.29],[126.34,8.21],[126.46,8.24],[126.47,8.1],[126.38,7.9],[126.31,7.94],[126.22,8.15],[126.22,8.35],[126.07,8.39],[125.99,8.57],[126.02,8.69],[125.8,8.97],[125.73,9.31],[125.93,9.49]]]}},{"type":"Feature","properties":{"id":"PHL-AGN","nome":"Agusan del Norte","pais":"PHL","tipo":"Province","lat":9.17,"lng":125.56},"geometry":{"type":"MultiPolygon","coordinates":[[[[125.52,9.02],[125.54,9.19],[125.47,9.44],[125.62,9.46],[125.73,9.39],[125.77,9.21],[125.71,9.01],[125.52,9.02]]],[[[125.2,9.08],[125.29,9],[125.44,8.98],[125.51,8.8],[125.67,8.8],[125.7,8.71],[125.53,8.7],[125.43,8.6],[125.32,8.59],[125.32,8.89],[125.2,9.08]]]]}},{"type":"Feature","properties":{"id":"PHL-AGN2","nome":"Butuan","pais":"PHL","tipo":"Highly Urbanized City","lat":8.94,"lng":125.54},"geometry":{"type":"Polygon","coordinates":[[[125.44,8.98],[125.71,9.01],[125.67,8.8],[125.51,8.8],[125.44,8.98]]]}},{"type":"Feature","properties":{"id":"PHL-MSR","nome":"Misamis Oriental","pais":"PHL","tipo":"Province","lat":8.74,"lng":124.99},"geometry":{"type":"MultiPolygon","coordinates":[[[[124.75,8.56],[124.8,9],[124.92,8.99],[125.12,8.83],[125.19,8.88],[125.2,9.08],[125.32,8.89],[125.32,8.59],[124.9,8.59],[124.83,8.52],[124.75,8.56]]],[[[124.26,8.32],[124.41,8.61],[124.47,8.62],[124.57,8.53],[124.44,8.35],[124.26,8.32]]]]}},{"type":"Feature","properties":{"id":"PHL-MSR2","nome":"Cagayan de Oro","pais":"PHL","tipo":"Highly Urbanized City","lat":8.46,"lng":124.69},"geometry":{"type":"Polygon","coordinates":[[[124.57,8.53],[124.66,8.51],[124.64,8.43],[124.75,8.5],[124.75,8.56],[124.83,8.52],[124.83,8.43],[124.62,8.41],[124.57,8.24],[124.44,8.35],[124.57,8.53]]]}},{"type":"Feature","properties":{"id":"PHL-LAN","nome":"Iligan","pais":"PHL","tipo":"Highly Urbanized City","lat":8.26,"lng":124.4},"geometry":{"type":"Polygon","coordinates":[[[124.23,8.21],[124.26,8.32],[124.41,8.37],[124.57,8.24],[124.56,8.12],[124.63,8.01],[124.36,8.23],[124.23,8.21]]]}},{"type":"Feature","properties":{"id":"PHL-LAN2","nome":"Lanao del Norte","pais":"PHL","tipo":"Province","lat":8.06,"lng":124.12},"geometry":{"type":"Polygon","coordinates":[[[123.69,7.97],[124,8.18],[124.3,8.22],[124.29,8.08],[124.06,7.9],[123.99,7.7],[123.79,7.71],[123.61,7.83],[123.7,7.91],[123.69,7.97]]]}},{"type":"Feature","properties":{"id":"PHL-ZAS","nome":"Zamboanga del Sur","pais":"PHL","tipo":"Province","lat":7.84,"lng":123.31},"geometry":{"type":"Polygon","coordinates":[[[123.68,8.01],[123.69,7.89],[123.44,7.8],[123.49,7.66],[123.35,7.57],[123.45,7.45],[123.43,7.37],[123.28,7.52],[123.14,7.51],[123.19,7.63],[123.13,7.73],[123.1,7.71],[123.09,7.81],[122.91,7.87],[122.92,7.92],[123.07,8],[123.18,7.99],[123.19,8.23],[123.56,8.23],[123.56,8.07],[123.68,8.01]]]}},{"type":"Feature","properties":{"id":"PHL-MSC","nome":"Misamis Occidental","pais":"PHL","tipo":"Province","lat":8.34,"lng":123.72},"geometry":{"type":"Polygon","coordinates":[[[123.55,8.62],[123.58,8.58],[123.62,8.67],[123.76,8.61],[123.86,8.41],[123.88,8.16],[123.68,8.01],[123.56,8.07],[123.55,8.62]]]}},{"type":"Feature","properties":{"id":"PHL-ZAN","nome":"Zamboanga del Norte","pais":"PHL","tipo":"Province","lat":8.03,"lng":122.73},"geometry":{"type":"Polygon","coordinates":[[[121.9,7.15],[122.05,7.31],[122.05,7.45],[122.15,7.59],[122.1,7.74],[122.25,7.98],[122.64,8.11],[122.68,8.16],[122.74,8.12],[122.95,8.16],[123.01,8.23],[122.96,8.31],[123.06,8.5],[123.3,8.52],[123.44,8.65],[123.39,8.72],[123.51,8.7],[123.56,8.23],[123.19,8.23],[123.18,7.99],[122.57,7.88],[122.37,7.72],[122.12,7.15],[121.9,7.15]]]}},{"type":"Feature","properties":{"id":"PHL-ZAN2","nome":"Zamboanga","pais":"PHL","tipo":"Highly Urbanized City","lat":7.04,"lng":122.06},"geometry":{"type":"Polygon","coordinates":[[[122.36,7.47],[122.37,7.37],[122.28,7.29],[122.15,6.93],[122.1,6.9],[121.96,6.96],[121.9,7.15],[122.12,7.15],[122.26,7.47],[122.36,7.47]]]}},{"type":"Feature","properties":{"id":"PHL-LAS","nome":"Lanao del Sur","pais":"PHL","tipo":"Province","lat":7.9,"lng":124.34},"geometry":{"type":"Polygon","coordinates":[[[124.17,7.43],[124.07,7.6],[123.87,7.74],[123.99,7.7],[124.06,7.9],[124.16,8.02],[124.25,8.03],[124.3,8.22],[124.36,8.23],[124.67,7.97],[124.6,7.91],[124.81,7.61],[124.59,7.62],[124.51,7.69],[124.17,7.43]]]}},{"type":"Feature","properties":{"id":"PHL-MAG","nome":"Maguindanao","pais":"PHL","tipo":"Province","lat":6.98,"lng":124.44},"geometry":{"type":"Polygon","coordinates":[[[124.22,7.32],[124.25,7.4],[124.17,7.43],[124.46,7.67],[124.49,7.43],[124.33,7.18],[124.49,7.23],[124.45,7.1],[124.68,6.95],[124.72,7],[124.67,7.08],[124.72,7.2],[124.91,6.64],[124.81,6.66],[124.69,6.78],[124.71,6.85],[124.64,6.86],[124.47,6.73],[124.04,6.76],[123.97,6.8],[124.03,7.12],[124.18,7.23],[124.28,7.17],[124.31,7.22],[124.22,7.32]]]}},{"type":"Feature","properties":{"id":"PHL-NCO","nome":"Cotabato","pais":"PHL","tipo":"Independent Component City","lat":7.23,"lng":124.25},"geometry":{"type":"Polygon","coordinates":[[[124.18,7.23],[124.22,7.32],[124.31,7.22],[124.28,7.17],[124.18,7.23]]]}},{"type":"Feature","properties":{"id":"PHL-SUK","nome":"Sultan Kudarat","pais":"PHL","tipo":"Province","lat":6.53,"lng":124.38},"geometry":{"type":"Polygon","coordinates":[[[124.37,6.13],[124.23,6.2],[124.07,6.4],[124.04,6.76],[124.52,6.73],[124.64,6.86],[124.71,6.85],[124.69,6.78],[124.87,6.64],[124.91,6.64],[124.9,6.73],[125.15,6.78],[125.18,6.56],[124.86,6.53],[124.75,6.64],[124.67,6.59],[124.63,6.64],[124.64,6.29],[124.25,6.29],[124.37,6.13]]]}},{"type":"Feature","properties":{"id":"PHL-SAR","nome":"Sarangani","pais":"PHL","tipo":"Province","lat":5.96,"lng":125.3},"geometry":{"type":"MultiPolygon","coordinates":[[[[125.11,5.95],[125.07,5.86],[124.94,5.86],[124.37,6.13],[124.4,6.21],[124.79,6.01],[125.05,6],[125.11,5.95]]],[[[125.31,5.58],[125.29,5.71],[125.18,5.8],[125.28,5.98],[125.23,6.16],[125.27,6.27],[125.08,6.34],[125.14,6.43],[125.26,6.32],[125.45,6.31],[125.51,6.22],[125.48,5.84],[125.31,5.58]]]]}},{"type":"Feature","properties":{"id":"PHL-SCO","nome":"General Santos","pais":"PHL","tipo":"Highly Urbanized City","lat":6.14,"lng":125.14},"geometry":{"type":"Polygon","coordinates":[[[125.24,6.09],[125.16,6.11],[125.11,5.95],[125.05,5.96],[125.04,6.2],[125.12,6.19],[125.14,6.32],[125.27,6.27],[125.24,6.09]]]}},{"type":"Feature","properties":{"id":"PHL-DAS","nome":"Davao del Sur","pais":"PHL","tipo":"Province","lat":6.35,"lng":125.51},"geometry":{"type":"Polygon","coordinates":[[[125.51,7.02],[125.38,6.66],[125.41,6.59],[125.43,6.62],[125.59,6.5],[125.71,6.11],[125.67,5.95],[125.44,5.62],[125.32,5.58],[125.48,5.84],[125.53,6.09],[125.46,6.3],[125.26,6.32],[125.14,6.43],[125.19,6.66],[125.15,6.78],[125.28,7.01],[125.51,7.02]]]}},{"type":"Feature","properties":{"id":"PHL-DAV2","nome":"Davao","pais":"PHL","tipo":"Highly Urbanized City","lat":7.08,"lng":125.59},"geometry":{"type":"Polygon","coordinates":[[[125.68,7.26],[125.6,7.05],[125.3,7.02],[125.3,7.12],[125.22,7.18],[125.27,7.58],[125.5,7.59],[125.5,7.24],[125.68,7.26]]]}},{"type":"Feature","properties":{"id":"PHL-COM","nome":"Compostela Valley","pais":"PHL","tipo":"Province","lat":7.53,"lng":125.98},"geometry":{"type":"Polygon","coordinates":[[[125.95,7.05],[125.83,7.43],[125.88,7.49],[125.85,7.53],[125.92,7.54],[125.94,7.76],[125.92,7.83],[125.78,7.66],[125.68,8],[126.18,7.99],[126.22,7.45],[126.29,7.3],[125.95,7.05]]]}},{"type":"Feature","properties":{"id":"PHL-DAO","nome":"Davao Oriental","pais":"PHL","tipo":"Province","lat":7.06,"lng":126.29},"geometry":{"type":"Polygon","coordinates":[[[126.38,7.9],[126.49,7.75],[126.58,7.72],[126.57,7.3],[126.62,7.28],[126.45,6.98],[126.32,6.98],[126.34,6.79],[126.24,6.92],[126.17,6.9],[126.26,6.74],[126.2,6.28],[126.1,6.51],[126.08,6.84],[125.98,6.92],[125.95,7.05],[126.29,7.3],[126.22,7.45],[126.18,7.99],[126.29,8],[126.38,7.9]]]}},{"type":"Feature","properties":{"id":"PHL-SLE","nome":"Southern Leyte","pais":"PHL","tipo":"Province","lat":10.07,"lng":125.22},"geometry":{"type":"Polygon","coordinates":[[[125.17,10.62],[125.27,10.28],[125.14,10.28],[125.15,10.19],[125.12,10.2],[124.99,10.38],[125.03,10.02],[124.77,10.19],[124.9,10.28],[124.91,10.49],[125.17,10.62]]]}},{"type":"Feature","properties":{"id":"PHL-LEY","nome":"Leyte","pais":"PHL","tipo":"Province","lat":10.99,"lng":124.88},"geometry":{"type":"Polygon","coordinates":[[[124.55,10.98],[124.51,10.87],[124.4,10.93],[124.4,11.3],[124.31,11.47],[124.33,11.56],[124.63,11.3],[124.74,11.33],[124.85,11.43],[124.98,11.38],[124.92,11.32],[124.93,11.24],[125.04,11.2],[125.01,10.75],[125.17,10.62],[124.91,10.49],[124.9,10.28],[124.77,10.19],[124.79,10.33],[124.74,10.45],[124.8,10.72],[124.62,11],[124.67,11.06],[124.6,11.16],[124.5,11.11],[124.55,10.98]]]}},{"type":"Feature","properties":{"id":"PHL-EAS","nome":"Eastern Samar","pais":"PHL","tipo":"Province","lat":10.73,"lng":125.76},"geometry":{"type":"Polygon","coordinates":[[[125.32,12.3],[125.5,12.25],[125.54,12.18],[125.46,12.13],[125.53,12.06],[125.45,11.95],[125.49,11.79],[125.45,11.75],[125.5,11.7],[125.47,11.61],[125.52,11.46],[125.64,11.37],[125.56,11.21],[125.69,11.19],[125.76,11.02],[125.65,11.15],[125.42,11.09],[125.32,11.15],[125.24,11.09],[125.35,11.41],[125.28,11.56],[125.24,11.97],[125.2,12.02],[125.12,12],[125.11,12.13],[125.19,12.37],[125.27,12.28],[125.32,12.3]]]}},{"type":"Feature","properties":{"id":"PHL-BIL","nome":"Biliran","pais":"PHL","tipo":"Province","lat":11.59,"lng":124.49},"geometry":{"type":"Polygon","coordinates":[[[124.6,11.56],[124.61,11.49],[124.47,11.47],[124.35,11.68],[124.52,11.69],[124.6,11.56]]]}},{"type":"Feature","properties":{"id":"PHL-WSA","nome":"Samar","pais":"PHL","tipo":"Province","lat":11.83,"lng":125},"geometry":{"type":"Polygon","coordinates":[[[125.24,11.09],[125.17,11.27],[125,11.29],[125.01,11.43],[124.83,11.51],[124.98,11.59],[125.04,11.76],[124.89,11.76],[124.79,11.86],[124.82,11.91],[124.76,11.9],[124.68,12.03],[124.49,12.1],[124.37,12.29],[124.49,12.33],[124.68,12.23],[124.85,12.23],[125.16,12.32],[125.12,12],[125.2,12.02],[125.24,11.97],[125.28,11.56],[125.35,11.41],[125.24,11.09]]]}},{"type":"Feature","properties":{"id":"PHL-AUR","nome":"Aurora","pais":"PHL","tipo":"Province","lat":16.13,"lng":121.76},"geometry":{"type":"Polygon","coordinates":[[[122.24,16.51],[122.2,16.24],[122.06,16.08],[121.99,16.04],[122.14,16.26],[122.05,16.18],[121.75,16.08],[121.57,15.92],[121.63,15.66],[121.39,15.38],[121.45,15.21],[121.33,15.03],[121.29,15.09],[121.37,15.47],[121.27,15.78],[121.81,16.22],[122.04,16.51],[122.24,16.51]]]}},{"type":"Feature","properties":{"id":"PHL-QUE","nome":"Quezon","pais":"PHL","tipo":"Province","lat":13.87,"lng":122.04},"geometry":{"type":"MultiPolygon","coordinates":[[[[121.45,15.21],[121.59,14.86],[121.72,14.73],[121.61,14.69],[121.61,14.63],[121.78,14.13],[121.94,14],[122.23,13.91],[122.18,13.99],[122.29,13.97],[122.31,14.02],[122.16,14.17],[122.25,14.25],[122.31,14.08],[122.48,14.15],[122.82,13.99],[122.41,13.95],[122.51,13.82],[122.5,13.65],[122.64,13.54],[122.57,13.56],[122.66,13.42],[122.69,13.24],[122.65,13.2],[122.59,13.17],[122.51,13.24],[122.5,13.37],[122.4,13.52],[122.19,13.62],[122.06,13.8],[121.72,13.97],[121.64,13.91],[121.58,14],[121.5,13.96],[121.55,13.88],[121.45,13.82],[121.26,13.96],[121.5,14.07],[121.6,14.25],[121.35,14.79],[121.33,15.03],[121.45,15.21]]],[[[122.01,15.01],[122.06,14.98],[122.01,14.99],[121.97,14.9],[122.02,14.72],[121.94,14.64],[121.83,15.01],[121.93,15.05],[122.01,15.01]]]]}},{"type":"Feature","properties":{"id":"PHL-CAN","nome":"Camarines Norte","pais":"PHL","tipo":"Province","lat":14.19,"lng":122.7},"geometry":{"type":"Polygon","coordinates":[[[122.31,14.1],[122.42,14.32],[122.53,14.35],[122.64,14.28],[122.7,14.35],[123.04,14.1],[123.09,13.89],[123.05,13.82],[122.92,13.96],[122.48,14.15],[122.31,14.1]]]}},{"type":"Feature","properties":{"id":"PHL-CAS","nome":"Camarines Sur","pais":"PHL","tipo":"Province","lat":13.67,"lng":123.37},"geometry":{"type":"Polygon","coordinates":[[[123.05,13.82],[123.11,13.72],[123.27,13.75],[123.34,13.98],[123.29,13.93],[123.22,13.99],[123.33,14.1],[123.42,13.91],[123.44,13.96],[123.68,13.88],[123.71,13.93],[123.97,13.73],[123.86,13.74],[123.8,13.69],[123.57,13.72],[123.53,13.61],[123.59,13.53],[123.55,13.51],[123.58,13.38],[123.45,13.38],[123.29,13.24],[123.17,13.45],[122.86,13.61],[122.81,13.65],[122.86,13.69],[122.77,13.8],[122.65,13.83],[122.56,13.93],[122.82,13.99],[122.92,13.96],[123.05,13.82]],[[123.23,13.57],[123.37,13.62],[123.29,13.66],[123.14,13.62],[123.23,13.57]]]}},{"type":"Feature","properties":{"id":"PHL-ALB","nome":"Albay","pais":"PHL","tipo":"Province","lat":13.23,"lng":123.56},"geometry":{"type":"Polygon","coordinates":[[[123.59,13.53],[123.86,13.23],[123.77,13.22],[123.75,13.06],[123.88,13.15],[123.94,13.12],[123.92,13.07],[123.5,12.97],[123.44,13.04],[123.31,13.01],[123.29,13.24],[123.45,13.38],[123.58,13.38],[123.55,13.51],[123.59,13.53]]]}},{"type":"Feature","properties":{"id":"PHL-SOR","nome":"Sorsogon","pais":"PHL","tipo":"Province","lat":12.74,"lng":124},"geometry":{"type":"Polygon","coordinates":[[[123.94,13.12],[124.08,13.01],[124.13,13.08],[124.19,13.04],[124.12,12.92],[124.13,12.68],[124.05,12.54],[123.88,12.65],[123.79,12.83],[124,12.88],[124.03,12.96],[123.89,12.97],[123.84,12.89],[123.73,12.85],[123.7,12.93],[123.62,12.89],[123.5,12.97],[123.66,13.04],[123.91,13.05],[123.94,13.12]]]}},{"type":"Feature","properties":{"id":"PHL-QUE2","nome":"Lucena","pais":"PHL","tipo":"Highly Urbanized City","lat":13.92,"lng":121.58},"geometry":{"type":"Polygon","coordinates":[[[121.64,13.91],[121.55,13.88],[121.5,13.96],[121.58,14],[121.64,13.91]]]}},{"type":"Feature","properties":{"id":"PHL-BTG","nome":"Batangas","pais":"PHL","tipo":"Province","lat":13.93,"lng":121.08},"geometry":{"type":"Polygon","coordinates":[[[121.45,13.82],[121.46,13.69],[121.28,13.6],[121.04,13.63],[121,13.78],[120.89,13.69],[120.93,13.78],[120.88,13.91],[120.7,13.93],[120.72,13.86],[120.66,13.86],[120.66,13.78],[120.57,14.17],[120.66,14.21],[120.87,14.08],[121.18,14.14],[121.27,13.95],[121.45,13.82]]]}},{"type":"Feature","properties":{"id":"PHL-CAV","nome":"Cavite","pais":"PHL","tipo":"Province","lat":14.26,"lng":120.84},"geometry":{"type":"Polygon","coordinates":[[[120.6,14.22],[120.96,14.5],[121.01,14.33],[121.07,14.32],[121.02,14.13],[120.9,14.08],[120.6,14.22]]]}},{"type":"Feature","properties":{"id":"PHL-MNL","nome":"Las Pinas","pais":"PHL","tipo":"Highly Urbanized City","lat":14.46,"lng":121},"geometry":{"type":"Polygon","coordinates":[[[120.96,14.5],[121.03,14.44],[121.01,14.4],[120.96,14.5]]]}},{"type":"Feature","properties":{"id":"PHL-MNL2","nome":"Paranaque","pais":"PHL","tipo":"Highly Urbanized City","lat":14.49,"lng":121.02},"geometry":{"type":"Polygon","coordinates":[[[120.97,14.51],[121.06,14.5],[121.06,14.45],[120.97,14.51]]]}},{"type":"Feature","properties":{"id":"PHL-MNL3","nome":"Manila","pais":"PHL","tipo":"Highly Urbanized City","lat":14.59,"lng":120.99},"geometry":{"type":"Polygon","coordinates":[[[120.98,14.56],[120.95,14.63],[121.04,14.59],[120.98,14.56]]]}},{"type":"Feature","properties":{"id":"PHL-BUL","nome":"Bulacan","pais":"PHL","tipo":"Province","lat":14.96,"lng":121},"geometry":{"type":"Polygon","coordinates":[[[120.92,14.69],[120.84,14.76],[120.66,14.78],[120.73,14.89],[120.91,15.02],[120.94,15.22],[121.12,15.26],[121.3,15.18],[121.34,14.89],[121.15,14.76],[120.92,14.69]]]}},{"type":"Feature","properties":{"id":"PHL-PAM","nome":"Pampanga","pais":"PHL","tipo":"Province","lat":15.02,"lng":120.65},"geometry":{"type":"Polygon","coordinates":[[[120.66,14.78],[120.62,14.87],[120.59,14.82],[120.6,14.9],[120.55,14.83],[120.48,14.87],[120.37,15.16],[120.58,15.26],[120.75,15.27],[120.85,15.17],[120.94,15.22],[120.91,15.02],[120.73,14.89],[120.66,14.78]]]}},{"type":"Feature","properties":{"id":"PHL-BAN","nome":"Bataan","pais":"PHL","tipo":"Province","lat":14.66,"lng":120.42},"geometry":{"type":"Polygon","coordinates":[[[120.55,14.83],[120.6,14.51],[120.56,14.44],[120.47,14.42],[120.38,14.48],[120.38,14.6],[120.29,14.65],[120.24,14.77],[120.42,14.86],[120.46,14.94],[120.55,14.83]]]}},{"type":"Feature","properties":{"id":"PHL-ZMB","nome":"Olongapo","pais":"PHL","tipo":"Highly Urbanized City","lat":14.86,"lng":120.28},"geometry":{"type":"Polygon","coordinates":[[[120.28,14.81],[120.21,14.88],[120.28,14.93],[120.45,14.91],[120.28,14.81]]]}},{"type":"Feature","properties":{"id":"PHL-ZMB2","nome":"Zambales","pais":"PHL","tipo":"Province","lat":15.05,"lng":120.16},"geometry":{"type":"Polygon","coordinates":[[[120.21,14.88],[120.18,14.76],[120.08,14.8],[120.01,15.27],[119.89,15.43],[119.96,15.51],[119.87,15.74],[120.01,15.85],[120.15,15.81],[120.23,15.65],[120.16,15.34],[120.33,15.25],[120.46,14.94],[120.28,14.93],[120.21,14.88]]]}},{"type":"Feature","properties":{"id":"PHL-PAN","nome":"Pangasinan","pais":"PHL","tipo":"Province","lat":15.87,"lng":120.34},"geometry":{"type":"Polygon","coordinates":[[[119.89,15.8],[119.87,15.94],[119.76,15.94],[119.78,16.32],[119.87,16.39],[119.93,16.36],[119.9,16.25],[120.09,16.16],[120.12,16.06],[120.26,16.05],[120.3,15.98],[120.4,16.04],[120.37,16.11],[120.4,16.21],[120.53,16.23],[120.85,16.17],[120.93,15.98],[120.82,15.79],[120.77,15.84],[120.63,15.82],[120.6,15.87],[120.54,15.74],[120.4,15.75],[120.25,15.61],[120.14,15.82],[120.01,15.85],[119.89,15.8]]]}},{"type":"Feature","properties":{"id":"PHL-PAN2","nome":"Dagupan","pais":"PHL","tipo":"Independent Component City","lat":16.03,"lng":120.34},"geometry":{"type":"Polygon","coordinates":[[[120.26,16.05],[120.3,16.02],[120.37,16.11],[120.4,16.04],[120.3,15.98],[120.26,16.05]]]}},{"type":"Feature","properties":{"id":"PHL-LUN","nome":"La Union","pais":"PHL","tipo":"Province","lat":16.56,"lng":120.44},"geometry":{"type":"Polygon","coordinates":[[[120.4,16.21],[120.34,16.29],[120.28,16.61],[120.33,16.83],[120.4,16.92],[120.52,16.92],[120.6,16.65],[120.47,16.46],[120.53,16.23],[120.4,16.21]]]}},{"type":"Feature","properties":{"id":"PHL-ILS","nome":"Ilocos Sur","pais":"PHL","tipo":"Province","lat":16.98,"lng":120.6},"geometry":{"type":"Polygon","coordinates":[[[120.4,16.92],[120.44,17.39],[120.4,17.52],[120.33,17.56],[120.43,17.89],[120.5,17.9],[120.54,17.7],[120.47,17.5],[120.59,17.48],[120.54,17.34],[120.67,17.26],[120.73,17.16],[120.81,17.21],[120.87,17.18],[120.79,17.11],[120.77,16.92],[120.64,16.86],[120.6,16.65],[120.52,16.91],[120.4,16.92]]]}},{"type":"Feature","properties":{"id":"PHL-ILN","nome":"Ilocos Norte","pais":"PHL","tipo":"Province","lat":18.2,"lng":120.71},"geometry":{"type":"Polygon","coordinates":[[[120.43,17.89],[120.58,18.33],[120.57,18.5],[120.77,18.56],[120.81,18.64],[120.91,18.57],[121,18.61],[120.91,18.24],[120.98,18.17],[120.94,17.97],[120.62,17.82],[120.54,17.7],[120.54,17.87],[120.43,17.89]]]}},{"type":"Feature","properties":{"id":"PHL-CAG","nome":"Cagayan","pais":"PHL","tipo":"Province","lat":17.92,"lng":121.64},"geometry":{"type":"Polygon","coordinates":[[[121,18.61],[121.17,18.63],[121.65,18.31],[121.65,18.37],[121.9,18.28],[122.04,18.32],[122.15,18.52],[122.24,18.52],[122.32,18.34],[122.17,18.1],[122.14,17.74],[122.18,17.54],[121.65,17.52],[121.57,17.56],[121.4,17.79],[121.32,17.82],[121.46,18.1],[121.48,18.27],[121.07,18.54],[120.96,18.45],[121,18.61]]]}},{"type":"Feature","properties":{"id":"PHL-ISA","nome":"Isabela","pais":"PHL","tipo":"Province","lat":17,"lng":121.93},"geometry":{"type":"Polygon","coordinates":[[[122.18,17.54],[122.25,17.36],[122.44,17.29],[122.42,17.15],[122.53,17.11],[122.46,16.9],[122.24,16.51],[122.04,16.51],[121.75,16.4],[121.57,16.61],[121.61,16.71],[121.48,16.83],[121.57,16.91],[121.6,17.4],[121.65,17.52],[122.18,17.54]]]}},{"type":"Feature","properties":{"id":"PHL-TAW","nome":"Tawi-Tawi","pais":"PHL","tipo":"Province","lat":4.81,"lng":119.84},"geometry":{"type":"Polygon","coordinates":[[[120.25,5.27],[120.22,5.11],[120.18,5.2],[120.12,5.22],[119.95,5.08],[119.82,5.06],[119.82,5.13],[120.19,5.35],[120.25,5.27]]]}},{"type":"Feature","properties":{"id":"PHL-BAS","nome":"Basilan","pais":"PHL","tipo":"Province","lat":6.5,"lng":122.06},"geometry":{"type":"Polygon","coordinates":[[[122.05,6.74],[122.34,6.6],[122.24,6.57],[122.19,6.45],[121.96,6.4],[121.81,6.65],[121.92,6.68],[121.97,6.58],[122.1,6.59],[122.05,6.74]]]}},{"type":"Feature","properties":{"id":"PHL-CAM","nome":"Camiguin","pais":"PHL","tipo":"Province","lat":9.17,"lng":124.72},"geometry":{"type":"Polygon","coordinates":[[[124.78,9.2],[124.77,9.08],[124.64,9.18],[124.71,9.25],[124.78,9.2]]]}},{"type":"Feature","properties":{"id":"PHL-SIG","nome":"Siquijor","pais":"PHL","tipo":"Province","lat":9.18,"lng":123.6},"geometry":{"type":"Polygon","coordinates":[[[123.7,9.17],[123.63,9.1],[123.47,9.19],[123.64,9.29],[123.7,9.17]]]}},{"type":"Feature","properties":{"id":"PHL-BOH","nome":"Bohol","pais":"PHL","tipo":"Province","lat":9.85,"lng":124.25},"geometry":{"type":"Polygon","coordinates":[[[124.57,9.87],[124.62,9.8],[124.6,9.74],[124.5,9.77],[124.29,9.61],[123.94,9.62],[123.8,9.76],[123.89,9.91],[124.05,9.98],[124.22,10.15],[124.33,10.16],[124.36,10.11],[124.4,10.15],[124.58,10.03],[124.57,9.87]]]}},{"type":"Feature","properties":{"id":"PHL-GUI","nome":"Guimaras","pais":"PHL","tipo":"Province","lat":10.56,"lng":122.61},"geometry":{"type":"Polygon","coordinates":[[[122.71,10.73],[122.74,10.64],[122.69,10.51],[122.54,10.42],[122.48,10.5],[122.55,10.55],[122.54,10.61],[122.67,10.76],[122.71,10.73]]]}},{"type":"Feature","properties":{"id":"PHL-BCD","nome":"Bacolod","pais":"PHL","tipo":"Highly Urbanized City","lat":10.66,"lng":122.99},"geometry":{"type":"Polygon","coordinates":[[[122.92,10.62],[122.98,10.74],[123.07,10.68],[123.02,10.59],[122.92,10.62]]]}},{"type":"Feature","properties":{"id":"PHL-NEC","nome":"Negros Occidental","pais":"PHL","tipo":"Province","lat":10.41,"lng":122.99},"geometry":{"type":"Polygon","coordinates":[[[122.6,9.44],[122.4,9.7],[122.4,9.84],[122.47,9.97],[122.71,9.99],[122.87,10.1],[122.81,10.52],[122.92,10.62],[123.02,10.59],[123.07,10.68],[122.98,10.74],[122.96,10.86],[123.21,11],[123.52,10.92],[123.57,10.78],[123.47,10.53],[123.37,10.39],[123.14,10.42],[123.18,10.27],[123.01,9.96],[122.6,9.44]]]}},{"type":"Feature","properties":{"id":"PHL-NER","nome":"Negros Oriental","pais":"PHL","tipo":"Province","lat":9.76,"lng":123.03},"geometry":{"type":"Polygon","coordinates":[[[123.37,10.39],[123.29,10.09],[123.16,9.89],[123.14,9.64],[123.18,9.59],[123.14,9.55],[123.32,9.34],[123.32,9.26],[123.23,9.11],[123.03,9.04],[122.96,9.08],[122.84,9.35],[122.6,9.44],[123.01,9.96],[123.18,10.27],[123.14,10.42],[123.37,10.39]]]}},{"type":"Feature","properties":{"id":"PHL-CEB","nome":"Cebu","pais":"PHL","tipo":"Highly Urbanized City","lat":10.3,"lng":123.9},"geometry":{"type":"Polygon","coordinates":[[[123.93,10.31],[123.87,10.25],[123.84,10.35],[123.91,10.44],[123.93,10.31]]]}},{"type":"Feature","properties":{"id":"PHL-MDE","nome":"Mandaue","pais":"PHL","tipo":"Highly Urbanized City","lat":10.34,"lng":123.93},"geometry":{"type":"Polygon","coordinates":[[[123.98,10.38],[123.93,10.31],[123.94,10.4],[123.98,10.38]]]}},{"type":"Feature","properties":{"id":"PHL-CEB2","nome":"Cebu","pais":"PHL","tipo":"Province","lat":10.27,"lng":123.7},"geometry":{"type":"Polygon","coordinates":[[[123.87,10.25],[123.65,10.06],[123.48,9.55],[123.33,9.41],[123.39,9.97],[123.72,10.49],[123.97,11.08],[123.96,11.18],[124.05,11.28],[124,11.08],[124.05,11.06],[124.06,10.98],[124.04,10.48],[123.99,10.36],[123.91,10.44],[123.87,10.41],[123.87,10.25]]]}},{"type":"Feature","properties":{"id":"PHL-PLW2","nome":"Puerto Princesa","pais":"PHL","tipo":"Highly Urbanized City","lat":9.89,"lng":118.67},"geometry":{"type":"Polygon","coordinates":[[[118.38,9.66],[118.53,9.77],[118.77,10.13],[118.76,10.07],[118.81,10.06],[118.82,10.19],[118.95,10.22],[118.95,10.28],[118.99,10.3],[119.2,10.06],[118.77,9.93],[118.78,9.73],[118.7,9.78],[118.76,9.67],[118.64,9.52],[118.38,9.66]]]}},{"type":"Feature","properties":{"id":"PHL-LEY2","nome":"Tacloban","pais":"PHL","tipo":"Highly Urbanized City","lat":11.24,"lng":124.98},"geometry":{"type":"Polygon","coordinates":[[[124.98,11.33],[125.04,11.2],[124.93,11.24],[124.92,11.32],[124.98,11.33]]]}},{"type":"Feature","properties":{"id":"PHL-LEY3","nome":"Ormoc","pais":"PHL","tipo":"Independent Component City","lat":11.02,"lng":124.57},"geometry":{"type":"Polygon","coordinates":[[[124.62,11],[124.55,10.98],[124.5,11.11],[124.6,11.16],[124.67,11.06],[124.62,11]]]}},{"type":"Feature","properties":{"id":"PHL-AKL","nome":"Aklan","pais":"PHL","tipo":"Province","lat":11.56,"lng":122.22},"geometry":{"type":"Polygon","coordinates":[[[121.85,11.77],[121.96,11.93],[122.39,11.73],[122.59,11.55],[122.51,11.46],[122.38,11.46],[122.33,11.34],[122.18,11.32],[122.12,11.48],[122.15,11.75],[121.98,11.83],[121.85,11.77]]]}},{"type":"Feature","properties":{"id":"PHL-ANT","nome":"Antique","pais":"PHL","tipo":"Province","lat":11.85,"lng":121.47},"geometry":{"type":"Polygon","coordinates":[[[122.03,10.46],[121.93,10.47],[121.98,10.62],[121.94,10.78],[122.05,11.02],[122.11,11.66],[122.08,11.72],[121.85,11.77],[121.98,11.83],[122.16,11.73],[122.12,11.48],[122.2,11.2],[122.33,11.05],[122.18,10.77],[122.03,10.64],[122.03,10.46]]]}},{"type":"Feature","properties":{"id":"PHL-ILI","nome":"Iloilo","pais":"PHL","tipo":"Province","lat":10.97,"lng":122.59},"geometry":{"type":"Polygon","coordinates":[[[122.47,10.69],[122.23,10.64],[122.01,10.47],[122.03,10.64],[122.32,11],[122.32,11.08],[122.24,11.16],[122.32,11.22],[122.51,11.18],[122.59,11.24],[122.88,11.2],[123.16,11.6],[123.11,11.15],[123.04,11.16],[122.97,11.05],[122.81,11],[122.74,10.8],[122.61,10.76],[122.53,10.8],[122.47,10.69]]]}},{"type":"Feature","properties":{"id":"PHL-ILI2","nome":"Iloilo","pais":"PHL","tipo":"Highly Urbanized City","lat":10.74,"lng":122.54},"geometry":{"type":"Polygon","coordinates":[[[122.61,10.76],[122.59,10.7],[122.47,10.69],[122.53,10.8],[122.61,10.76]]]}},{"type":"Feature","properties":{"id":"PHL-CAP","nome":"Capiz","pais":"PHL","tipo":"Province","lat":11.37,"lng":122.63},"geometry":{"type":"Polygon","coordinates":[[[122.59,11.55],[122.62,11.51],[122.72,11.61],[122.83,11.61],[122.94,11.52],[122.9,11.44],[123.09,11.53],[122.88,11.2],[122.59,11.24],[122.52,11.19],[122.32,11.22],[122.22,11.17],[122.18,11.32],[122.33,11.34],[122.38,11.46],[122.51,11.46],[122.59,11.55]]]}},{"type":"Feature","properties":{"id":"PHL-ROM","nome":"Romblon","pais":"PHL","tipo":"Province","lat":12.4,"lng":122.56},"geometry":{"type":"MultiPolygon","coordinates":[[[[122.69,12.4],[122.61,12.28],[122.42,12.46],[122.63,12.48],[122.69,12.4]]],[[[122.12,12.67],[122.16,12.63],[122.01,12.1],[121.96,12.18],[122,12.24],[121.92,12.34],[121.99,12.44],[122,12.59],[122.12,12.67]]]]}},{"type":"Feature","properties":{"id":"PHL-NSA","nome":"Northern Samar","pais":"PHL","tipo":"Province","lat":12.38,"lng":124.81},"geometry":{"type":"Polygon","coordinates":[[[124.37,12.29],[124.28,12.53],[124.31,12.58],[124.68,12.52],[124.88,12.53],[124.88,12.59],[125.05,12.53],[125.17,12.58],[125.35,12.4],[125.3,12.29],[125.21,12.38],[125.04,12.26],[124.85,12.23],[124.68,12.23],[124.49,12.33],[124.37,12.29]]]}},{"type":"Feature","properties":{"id":"PHL-MAS","nome":"Masbate","pais":"PHL","tipo":"Province","lat":12.23,"lng":123.61},"geometry":{"type":"MultiPolygon","coordinates":[[[[124.05,11.8],[124.05,11.73],[123.86,11.91],[123.74,11.93],[123.73,12.01],[123.49,12.22],[123.16,11.92],[123.22,12.13],[123.29,12.22],[123.22,12.23],[123.27,12.42],[123.23,12.59],[123.36,12.55],[123.33,12.44],[123.43,12.52],[123.55,12.46],[123.59,12.35],[123.69,12.34],[123.79,12.19],[123.79,12.25],[123.89,12.21],[124.05,11.97],[124,12.01],[124.05,11.8]]],[[[123.79,12.38],[123.79,12.34],[123.58,12.62],[123.61,12.69],[123.73,12.59],[123.79,12.38]]],[[[123.28,12.86],[123.38,12.69],[122.97,13.02],[122.94,13.11],[123.04,13.13],[123.16,12.94],[123.28,12.86]]]]}},{"type":"Feature","properties":{"id":"PHL-MDR","nome":"Mindoro Oriental","pais":"PHL","tipo":"Province","lat":12.85,"lng":121.36},"geometry":{"type":"Polygon","coordinates":[[[120.89,13.5],[120.98,13.53],[121.03,13.42],[121.12,13.37],[121.2,13.44],[121.43,13.22],[121.44,13.15],[121.55,13.11],[121.49,13.04],[121.48,12.86],[121.55,12.61],[121.44,12.52],[121.4,12.29],[121.35,12.32],[121.25,12.22],[121.25,13.03],[120.78,13.26],[120.89,13.4],[120.89,13.5]]]}},{"type":"Feature","properties":{"id":"PHL-MDC","nome":"Mindoro Occidental","pais":"PHL","tipo":"Province","lat":12.66,"lng":121.09},"geometry":{"type":"Polygon","coordinates":[[[121.25,12.22],[121.11,12.25],[121.1,12.33],[121.14,12.31],[120.92,12.51],[120.92,12.62],[120.8,12.73],[120.74,13.03],[120.64,13.18],[120.51,13.23],[120.45,13.42],[120.33,13.4],[120.34,13.51],[120.75,13.47],[120.89,13.5],[120.89,13.4],[120.78,13.26],[121.23,13.06],[121.25,12.22]]]}},{"type":"Feature","properties":{"id":"PHL-MAD","nome":"Marinduque","pais":"PHL","tipo":"Province","lat":13.37,"lng":121.97},"geometry":{"type":"Polygon","coordinates":[[[122.1,13.42],[122.12,13.36],[122.01,13.2],[121.81,13.35],[121.86,13.57],[121.91,13.52],[122,13.55],[122.12,13.46],[122.1,13.42]]]}},{"type":"Feature","properties":{"id":"PHL-CAT","nome":"Catanduanes","pais":"PHL","tipo":"Province","lat":13.83,"lng":124.22},"geometry":{"type":"Polygon","coordinates":[[[124.42,13.87],[124.41,13.67],[124.36,13.66],[124.33,13.56],[124.25,13.6],[124.19,13.52],[124.05,13.61],[124.03,13.67],[124.13,13.82],[124.14,14.08],[124.22,14.09],[124.31,13.91],[124.42,13.87]]]}},{"type":"Feature","properties":{"id":"PHL-LAP","nome":"Lapu-Lapu","pais":"PHL","tipo":"Highly Urbanized City","lat":10.3,"lng":123.96},"geometry":{"type":"Polygon","coordinates":[[[123.99,10.32],[124.04,10.32],[123.93,10.25],[123.99,10.32]]]}},{"type":"Feature","properties":{"id":"PHL-AGS","nome":"Agusan del Sur","pais":"PHL","tipo":"Province","lat":8.58,"lng":125.76},"geometry":{"type":"Polygon","coordinates":[[[125.77,9.21],[125.8,8.97],[126.03,8.67],[125.99,8.57],[126.07,8.39],[126.22,8.35],[126.21,8.21],[126.29,8],[125.37,8],[125.32,8.59],[125.43,8.6],[125.53,8.7],[125.7,8.71],[125.66,8.88],[125.77,9.21]]]}},{"type":"Feature","properties":{"id":"PHL-BUK","nome":"Bukidnon","pais":"PHL","tipo":"Province","lat":7.99,"lng":125},"geometry":{"type":"Polygon","coordinates":[[[125.23,8.59],[125.32,8.59],[125.32,8.21],[125.43,7.71],[125.3,7.68],[125.28,7.58],[125.06,7.42],[124.9,7.41],[124.6,7.91],[124.67,7.96],[124.56,8.12],[124.62,8.41],[124.82,8.41],[124.83,8.53],[124.9,8.59],[125.23,8.59]]]}},{"type":"Feature","properties":{"id":"PHL-NCO2","nome":"Cotabato","pais":"PHL","tipo":"Province","lat":7.27,"lng":124.82},"geometry":{"type":"Polygon","coordinates":[[[124.52,7.69],[124.59,7.62],[124.81,7.61],[124.89,7.42],[124.99,7.39],[125.27,7.58],[125.22,7.18],[125.32,7.03],[125.15,6.78],[124.85,6.76],[124.83,6.98],[124.79,6.98],[124.8,7.07],[124.72,7.2],[124.67,7.08],[124.72,7],[124.68,6.95],[124.45,7.1],[124.49,7.23],[124.33,7.18],[124.49,7.43],[124.45,7.54],[124.46,7.67],[124.52,7.69]]]}},{"type":"Feature","properties":{"id":"PHL-SCO2","nome":"South Cotabato","pais":"PHL","tipo":"Province","lat":6.31,"lng":124.81},"geometry":{"type":"Polygon","coordinates":[[[124.63,6.64],[124.67,6.59],[124.75,6.64],[124.86,6.53],[125.18,6.56],[125.08,6.34],[125.14,6.32],[125.12,6.19],[125.04,6.2],[125.05,6],[124.79,6.01],[124.4,6.21],[124.38,6.16],[124.25,6.29],[124.64,6.29],[124.63,6.64]]]}},{"type":"Feature","properties":{"id":"PHL-MNL4","nome":"Muntinlupa","pais":"PHL","tipo":"Highly Urbanized City","lat":14.43,"lng":121.05},"geometry":{"type":"Polygon","coordinates":[[[121.01,14.36],[121.06,14.46],[121.13,14.45],[121.14,14.39],[121.01,14.36]]]}},{"type":"Feature","properties":{"id":"PHL-MNL5","nome":"Malabon","pais":"PHL","tipo":"Highly Urbanized City","lat":14.66,"lng":120.96},"geometry":{"type":"Polygon","coordinates":[[[120.93,14.69],[121.01,14.66],[120.97,14.64],[120.93,14.69]]]}},{"type":"Feature","properties":{"id":"PHL-MNL6","nome":"Valenzuela","pais":"PHL","tipo":"Highly Urbanized City","lat":14.69,"lng":120.99},"geometry":{"type":"Polygon","coordinates":[[[120.97,14.71],[121.01,14.74],[121.04,14.68],[120.93,14.72],[120.97,14.71]]]}},{"type":"Feature","properties":{"id":"PHL-MNL7","nome":"Quezon City","pais":"PHL","tipo":"Highly Urbanized City","lat":14.67,"lng":121.07},"geometry":{"type":"Polygon","coordinates":[[[121.13,14.76],[121.1,14.58],[121,14.62],[121.03,14.71],[121.13,14.76]]]}},{"type":"Feature","properties":{"id":"PHL-NUE","nome":"Nueva Ecija","pais":"PHL","tipo":"Province","lat":15.69,"lng":121},"geometry":{"type":"Polygon","coordinates":[[[120.86,15.17],[120.74,15.34],[120.76,15.61],[120.66,15.66],[120.63,15.82],[120.77,15.84],[120.82,15.79],[120.92,15.94],[120.89,16.1],[121.01,16.14],[121.18,16.05],[121.37,15.44],[121.3,15.18],[121.12,15.26],[120.86,15.17]]]}},{"type":"Feature","properties":{"id":"PHL-LAG","nome":"Laguna","pais":"PHL","tipo":"Province","lat":14.15,"lng":121.31},"geometry":{"type":"Polygon","coordinates":[[[121.47,14.56],[121.59,14.22],[121.5,14.07],[121.26,13.96],[121.18,14.14],[121.03,14.14],[121.07,14.32],[121.01,14.36],[121.14,14.39],[121.14,14.53],[121.24,14.3],[121.26,14.51],[121.33,14.44],[121.31,14.29],[121.39,14.35],[121.37,14.5],[121.47,14.56]]]}},{"type":"Feature","properties":{"id":"PHL-RIZ","nome":"Rizal","pais":"PHL","tipo":"Province","lat":14.68,"lng":121.28},"geometry":{"type":"Polygon","coordinates":[[[121.34,14.89],[121.35,14.75],[121.46,14.57],[121.37,14.5],[121.39,14.35],[121.31,14.29],[121.33,14.46],[121.25,14.5],[121.24,14.3],[121.12,14.61],[121.21,14.83],[121.34,14.89]]]}},{"type":"Feature","properties":{"id":"PHL-MNL8","nome":"Taguig","pais":"PHL","tipo":"Highly Urbanized City","lat":14.52,"lng":121.06},"geometry":{"type":"Polygon","coordinates":[[[121.13,14.52],[121.13,14.45],[121.06,14.46],[121.03,14.53],[121.13,14.52]]]}},{"type":"Feature","properties":{"id":"PHL-MNL9","nome":"Marikina","pais":"PHL","tipo":"Highly Urbanized City","lat":14.63,"lng":121.12},"geometry":{"type":"Polygon","coordinates":[[[121.13,14.66],[121.15,14.63],[121.09,14.61],[121.13,14.66]]]}},{"type":"Feature","properties":{"id":"PHL-MNL10","nome":"Pasig","pais":"PHL","tipo":"Highly Urbanized City","lat":14.57,"lng":121.1},"geometry":{"type":"Polygon","coordinates":[[[121.12,14.61],[121.13,14.52],[121.06,14.56],[121.12,14.61]]]}},{"type":"Feature","properties":{"id":"PHL-QUI","nome":"Quirino","pais":"PHL","tipo":"Province","lat":16.3,"lng":121.66},"geometry":{"type":"Polygon","coordinates":[[[122.04,16.51],[121.87,16.28],[121.45,15.92],[121.32,16.11],[121.29,16.26],[121.42,16.35],[121.43,16.4],[121.36,16.43],[121.4,16.65],[121.57,16.61],[121.75,16.4],[122.04,16.51]]]}},{"type":"Feature","properties":{"id":"PHL-ISA2","nome":"Santiago","pais":"PHL","tipo":"Independent Component City","lat":16.74,"lng":121.51},"geometry":{"type":"Polygon","coordinates":[[[121.57,16.61],[121.49,16.63],[121.48,16.72],[121.39,16.69],[121.34,16.78],[121.48,16.83],[121.61,16.71],[121.57,16.61]]]}},{"type":"Feature","properties":{"id":"PHL-NUV","nome":"Nueva Vizcaya","pais":"PHL","tipo":"Province","lat":16.37,"lng":121.1},"geometry":{"type":"Polygon","coordinates":[[[121.45,15.92],[121.27,15.78],[121.17,16.08],[121.01,16.14],[120.89,16.1],[120.86,16.16],[120.76,16.2],[120.78,16.29],[120.89,16.39],[120.9,16.6],[121.28,16.66],[121.34,16.76],[121.38,16.71],[121.36,16.43],[121.43,16.36],[121.29,16.26],[121.32,16.11],[121.45,15.92]]]}},{"type":"Feature","properties":{"id":"PHL-BEN","nome":"Benguet","pais":"PHL","tipo":"Province","lat":16.55,"lng":120.69},"geometry":{"type":"Polygon","coordinates":[[[120.53,16.23],[120.48,16.52],[120.62,16.69],[120.66,16.9],[120.77,16.92],[120.88,16.8],[120.89,16.39],[120.78,16.29],[120.76,16.2],[120.53,16.23]],[[120.65,16.35],[120.64,16.43],[120.56,16.43],[120.58,16.36],[120.65,16.35]]]}},{"type":"Feature","properties":{"id":"PHL-IFU","nome":"Ifugao","pais":"PHL","tipo":"Province","lat":16.83,"lng":121.21},"geometry":{"type":"Polygon","coordinates":[[[121.56,17.09],[121.57,16.91],[121.52,16.85],[121.34,16.78],[121.28,16.66],[120.9,16.6],[120.85,16.85],[120.94,16.86],[121.01,16.98],[121.56,17.09]]]}},{"type":"Feature","properties":{"id":"PHL-MOU","nome":"Mountain Province","pais":"PHL","tipo":"Province","lat":17.09,"lng":121.17},"geometry":{"type":"Polygon","coordinates":[[[121.57,17.25],[121.56,17.09],[121.05,17],[120.92,16.84],[120.77,16.92],[120.79,17.11],[120.91,17.25],[121.19,17.17],[121.42,17.3],[121.57,17.25]]]}},{"type":"Feature","properties":{"id":"PHL-TAR","nome":"Tarlac","pais":"PHL","tipo":"Province","lat":15.47,"lng":120.46},"geometry":{"type":"Polygon","coordinates":[[[120.76,15.26],[120.56,15.25],[120.38,15.17],[120.14,15.41],[120.25,15.61],[120.4,15.75],[120.54,15.74],[120.6,15.87],[120.66,15.66],[120.76,15.61],[120.76,15.26]]]}},{"type":"Feature","properties":{"id":"PHL-APA","nome":"Apayao","pais":"PHL","tipo":"Province","lat":18.12,"lng":121.17},"geometry":{"type":"Polygon","coordinates":[[[120.94,17.97],[120.98,18.17],[120.91,18.24],[120.96,18.45],[121.06,18.53],[121.48,18.27],[121.46,18.1],[121.32,17.84],[121.43,17.72],[121.13,17.68],[121.1,17.82],[121.03,17.84],[120.94,17.97]]]}},{"type":"Feature","properties":{"id":"PHL-KAL","nome":"Kalinga","pais":"PHL","tipo":"Province","lat":17.49,"lng":121.32},"geometry":{"type":"Polygon","coordinates":[[[121.43,17.72],[121.67,17.49],[121.57,17.25],[121.42,17.3],[121.19,17.17],[120.91,17.25],[121.01,17.49],[121.12,17.58],[121.1,17.67],[121.43,17.72]]]}},{"type":"Feature","properties":{"id":"PHL-ABR","nome":"Abra","pais":"PHL","tipo":"Province","lat":17.57,"lng":120.8},"geometry":{"type":"Polygon","coordinates":[[[120.89,17.95],[120.96,17.96],[121.03,17.84],[121.1,17.82],[121.12,17.58],[121.01,17.49],[120.9,17.19],[120.81,17.21],[120.73,17.16],[120.67,17.26],[120.54,17.34],[120.59,17.48],[120.47,17.5],[120.48,17.59],[120.62,17.82],[120.89,17.95]]]}},{"type":"Feature","properties":{"id":"PHL-CAS2","nome":"Naga","pais":"PHL","tipo":"Independent Component City","lat":13.62,"lng":123.2},"geometry":{"type":"Polygon","coordinates":[[[123.29,13.66],[123.37,13.62],[123.23,13.57],[123.14,13.62],[123.29,13.66]]]}},{"type":"Feature","properties":{"id":"PHL-PAM2","nome":"Angeles","pais":"PHL","tipo":"Highly Urbanized City","lat":15.15,"lng":120.59},"geometry":{"type":"Polygon","coordinates":[[[120.64,15.18],[120.59,15.1],[120.51,15.14],[120.64,15.18]]]}},{"type":"Feature","properties":{"id":"PHL-BEN2","nome":"Baguio","pais":"PHL","tipo":"Highly Urbanized City","lat":16.41,"lng":120.61},"geometry":{"type":"Polygon","coordinates":[[[120.56,16.43],[120.64,16.43],[120.65,16.35],[120.58,16.36],[120.56,16.43]]]}}]}