{"type":"FeatureCollection","features":[{"type":"Feature","properties":{"id":"PLW-227","nome":"Ngeremlengui","pais":"PLW","tipo":"Estado","lat":7.54,"lng":134.57},"geometry":{"type":"Polygon","coordinates":[[[134.53,7.52],[134.55,7.58],[134.62,7.57],[134.58,7.47],[134.53,7.52]]]}},{"type":"Feature","properties":{"id":"PLW-224","nome":"Ngatpang","pais":"PLW","tipo":"Estado","lat":7.48,"lng":134.55},"geometry":{"type":"Polygon","coordinates":[[[134.49,7.47],[134.54,7.52],[134.58,7.47],[134.57,7.43],[134.49,7.47]]]}},{"type":"Feature","properties":{"id":"PLW-002","nome":"Aimeliik","pais":"PLW","tipo":"Estado","lat":7.43,"lng":134.53},"geometry":{"type":"Polygon","coordinates":[[[134.51,7.4],[134.49,7.47],[134.57,7.43],[134.51,7.4]]]}},{"type":"Feature","properties":{"id":"PLW-004","nome":"Airai","pais":"PLW","tipo":"Estado","lat":7.4,"lng":134.57},"geometry":{"type":"Polygon","coordinates":[[[134.59,7.42],[134.6,7.37],[134.52,7.36],[134.51,7.4],[134.59,7.42]]]}},{"type":"Feature","properties":{"id":"PLW-226","nome":"Ngchesar","pais":"PLW","tipo":"Estado","lat":7.46,"lng":134.6},"geometry":{"type":"Polygon","coordinates":[[[134.63,7.49],[134.57,7.43],[134.59,7.51],[134.63,7.49]]]}},{"type":"Feature","properties":{"id":"PLW-214","nome":"Ngaraard","pais":"PLW","tipo":"Estado","lat":7.65,"lng":134.65},"geometry":{"type":"Polygon","coordinates":[[[134.66,7.69],[134.66,7.59],[134.62,7.63],[134.66,7.69]]]}},{"type":"Feature","properties":{"id":"PLW-222","nome":"Ngardmau","pais":"PLW","tipo":"Estado","lat":7.6,"lng":134.6},"geometry":{"type":"Polygon","coordinates":[[[134.55,7.58],[134.62,7.63],[134.62,7.57],[134.55,7.58]]]}}]}