{"type":"FeatureCollection","features":[{"type":"Feature","properties":{"id":"PRK-07","nome":"Kangwŏn-do","pais":"PRK","tipo":"Province","lat":38.73,"lng":127.52},"geometry":{"type":"Polygon","coordinates":[[[128.36,38.62],[128.28,38.58],[128.25,38.43],[128.11,38.32],[127.16,38.31],[126.94,38.17],[126.87,38.23],[126.88,38.33],[126.79,38.36],[126.71,38.48],[126.68,38.62],[126.8,38.69],[126.88,38.89],[127.01,38.95],[126.98,39.07],[127.06,39.16],[127.03,39.26],[127.11,39.39],[127.25,39.41],[127.44,39.41],[127.38,39.38],[127.47,39.35],[127.39,39.34],[127.39,39.2],[127.76,39.12],[128.01,38.86],[128.21,38.73],[128.28,38.76],[128.36,38.62]]]}},{"type":"Feature","properties":{"id":"PRK-06","nome":"Hwanghae-bukto","pais":"PRK","tipo":"Province","lat":38.6,"lng":126.3},"geometry":{"type":"Polygon","coordinates":[[[126.94,38.17],[126.67,37.94],[126.65,37.8],[126.58,37.78],[126.4,37.89],[126.37,38.11],[126.44,38.14],[126.39,38.2],[126.25,38.24],[125.94,38.17],[125.83,38.32],[125.74,38.31],[125.58,38.78],[125.8,38.84],[126.11,38.71],[126.22,38.78],[126.12,38.91],[126.13,38.97],[126.47,38.91],[126.51,39],[126.66,38.99],[126.58,39.17],[126.98,39.07],[127,38.94],[126.88,38.89],[126.8,38.69],[126.68,38.62],[126.71,38.48],[126.79,38.36],[126.88,38.33],[126.87,38.23],[126.94,38.17]]]}},{"type":"Feature","properties":{"id":"PRK-09","nome":"Hamgyŏng-bukto","pais":"PRK","tipo":"Province","lat":41.87,"lng":129.42},"geometry":{"type":"Polygon","coordinates":[[[129.92,43.01],[130,42.96],[130.12,42.98],[130.1,42.92],[130.24,42.9],[130.24,42.74],[130.43,42.6],[130.43,42.45],[130.26,42.42],[130.2,42.1],[130.07,42.08],[129.96,41.9],[129.9,41.9],[129.85,41.76],[129.77,41.76],[129.69,41.65],[129.66,41.46],[129.81,41.38],[129.71,41.12],[129.76,40.94],[129.72,40.83],[129.57,40.84],[129.35,40.75],[129.3,40.67],[129.23,40.71],[129.17,40.57],[129.09,40.57],[128.92,40.83],[128.94,41.25],[128.83,41.42],[128.91,41.55],[128.78,41.62],[128.78,41.81],[128.73,41.81],[128.7,41.92],[129.21,42.22],[129.19,42.32],[129.34,42.45],[129.54,42.37],[129.59,42.45],[129.7,42.44],[129.79,42.68],[129.76,42.75],[129.92,43.01]]]}},{"type":"Feature","properties":{"id":"PRK-13","nome":"Rasŏn","pais":"PRK","tipo":"Province","lat":42.34,"lng":130.37},"geometry":{"type":"Polygon","coordinates":[[[130.5,42.61],[130.7,42.3],[130.6,42.26],[130.51,42.34],[130.41,42.32],[130.4,42.24],[130.2,42.17],[130.26,42.42],[130.43,42.45],[130.5,42.61]]]}},{"type":"Feature","properties":{"id":"PRK-10","nome":"Ryanggang","pais":"PRK","tipo":"Province","lat":40.96,"lng":127.88},"geometry":{"type":"Polygon","coordinates":[[[128.72,42.05],[128.88,42.03],[128.7,41.92],[128.73,41.81],[128.78,41.81],[128.78,41.62],[128.91,41.55],[128.83,41.42],[128.94,41.25],[128.92,41.09],[128.63,41.17],[128.62,41.1],[128.51,41.02],[128.36,40.99],[128.35,40.77],[128.2,40.57],[127.97,40.57],[127.76,40.41],[127.72,40.46],[127.77,40.58],[127.7,40.6],[127.52,40.84],[127.62,40.92],[127.59,40.99],[127.66,41.02],[127.66,41.13],[127.53,41.15],[127.47,41.06],[127.39,41.07],[127.36,41.18],[127.22,41.1],[127.12,41.12],[127.03,41.18],[126.93,41.45],[126.81,41.47],[126.96,41.57],[127,41.75],[127.06,41.64],[127.18,41.59],[127.13,41.52],[127.54,41.49],[127.64,41.43],[128,41.47],[128.02,41.41],[128.15,41.38],[128.3,41.58],[128.06,41.85],[128.02,41.98],[128.72,42.05]]]}},{"type":"Feature","properties":{"id":"PRK-04","nome":"Chagang-do","pais":"PRK","tipo":"Province","lat":40.65,"lng":126.4},"geometry":{"type":"Polygon","coordinates":[[[126.93,41.8],[127,41.75],[126.97,41.59],[126.83,41.51],[126.82,41.46],[126.93,41.45],[127.06,41.15],[127.2,41.1],[127.38,41.16],[127.39,41.03],[127.3,40.91],[127.36,40.78],[127.22,40.72],[127.17,40.61],[126.99,40.55],[126.8,40.2],[126.43,39.99],[126.19,40.05],[125.98,40.22],[125.81,40.22],[125.63,40.32],[125.58,40.42],[125.6,40.56],[125.42,40.67],[125.57,40.78],[125.68,40.77],[125.64,40.81],[125.76,40.89],[126.01,40.9],[126.12,41.08],[126.27,41.15],[126.44,41.35],[126.52,41.35],[126.57,41.61],[126.73,41.7],[126.68,41.74],[126.79,41.7],[126.93,41.8]]]}},{"type":"Feature","properties":{"id":"PRK-03","nome":"P'yŏngan-bukto","pais":"PRK","tipo":"Province","lat":39.52,"lng":124.7},"geometry":{"type":"Polygon","coordinates":[[[125.41,40.63],[125.59,40.57],[125.58,40.42],[125.63,40.32],[125.81,40.22],[125.98,40.22],[126.14,40.07],[126.36,40.02],[126.37,39.9],[126.1,39.82],[126.02,39.86],[125.77,39.66],[125.29,39.52],[125.23,39.59],[125.12,39.57],[124.91,39.66],[124.75,39.78],[124.74,39.64],[124.64,39.59],[124.65,39.7],[124.58,39.72],[124.56,39.81],[124.42,39.82],[124.32,39.91],[124.41,40.03],[124.5,40.02],[124.37,40.1],[124.9,40.48],[125.04,40.46],[125.03,40.53],[125.29,40.65],[125.41,40.63]]]}},{"type":"Feature","properties":{"id":"PRK-02","nome":"P'yŏngan-namdo","pais":"PRK","tipo":"Province","lat":39.5,"lng":126.16},"geometry":{"type":"Polygon","coordinates":[[[125.63,38.66],[125.45,38.78],[125.28,38.7],[125.24,38.79],[125.19,38.74],[125.14,38.8],[125.2,38.99],[125.27,39.08],[125.34,39.08],[125.28,39.09],[125.29,39.15],[125.41,39.21],[125.44,39.31],[125.4,39.36],[125.46,39.39],[125.34,39.43],[125.41,39.54],[125.77,39.66],[126.02,39.86],[126.1,39.82],[126.36,39.89],[126.36,40.02],[126.55,40.04],[126.91,40.33],[127.1,40.28],[127.11,40.2],[127.18,40.14],[127.06,40.02],[127.11,39.87],[127.01,39.83],[126.94,39.87],[126.78,39.84],[126.67,39.54],[126.74,39.46],[126.71,39.31],[126.91,39.28],[126.93,39.22],[127.06,39.16],[126.93,39.06],[126.58,39.17],[126.66,38.99],[126.51,39],[126.46,38.91],[126.39,38.93],[126.23,39.16],[126.05,39.23],[125.9,39.23],[125.86,39.16],[125.71,39.28],[125.62,39.24],[125.67,39.12],[125.58,39.06],[125.6,38.94],[125.52,38.85],[125.63,38.66]]]}},{"type":"Feature","properties":{"id":"PRK-05","nome":"Hwanghae-namdo","pais":"PRK","tipo":"Province","lat":37.73,"lng":125.28},"geometry":{"type":"Polygon","coordinates":[[[126.4,37.89],[126.18,37.84],[126.16,37.73],[126.11,37.74],[126.06,37.87],[125.96,37.91],[125.99,37.82],[125.92,37.84],[125.8,37.99],[125.6,38.03],[125.74,37.93],[125.63,37.93],[125.62,37.77],[125.53,37.8],[125.35,37.68],[125.36,37.76],[125.44,37.77],[125.39,37.8],[125.52,37.82],[125.48,37.86],[125.51,37.89],[125.42,37.91],[125.38,37.89],[125.44,37.84],[125.35,37.86],[125.31,37.81],[125.24,37.82],[125.31,37.88],[125.26,37.93],[125.18,37.87],[124.98,37.93],[125.18,37.97],[125.11,38.03],[125.25,38.02],[125.26,38.08],[125.01,38.06],[124.89,38.13],[124.67,38.13],[124.86,38.23],[124.92,38.19],[124.99,38.23],[124.87,38.28],[125.02,38.5],[124.98,38.59],[125.13,38.58],[125.12,38.67],[125.16,38.63],[125.46,38.71],[125.65,38.62],[125.7,38.36],[125.83,38.32],[125.93,38.18],[126.25,38.24],[126.41,38.19],[126.4,37.89]]]}},{"type":"Feature","properties":{"id":"PRK-08","nome":"Hamgyŏng-namdo","pais":"PRK","tipo":"Province","lat":40.23,"lng":127.92},"geometry":{"type":"Polygon","coordinates":[[[129.16,40.56],[129.08,40.47],[128.64,40.31],[128.66,40.2],[128.36,40.1],[128.33,40.03],[128.26,40.08],[128.16,40.02],[128.01,40.05],[127.91,39.98],[127.87,39.89],[127.58,39.8],[127.5,39.71],[127.57,39.6],[127.52,39.51],[127.55,39.31],[127.48,39.44],[127.14,39.41],[127.03,39.2],[126.93,39.22],[126.91,39.28],[126.7,39.32],[126.74,39.46],[126.67,39.54],[126.78,39.83],[127.1,39.85],[127.06,40.02],[127.18,40.14],[127.06,40.32],[126.91,40.33],[126.98,40.53],[127.36,40.78],[127.31,40.94],[127.39,41.07],[127.49,41.07],[127.53,41.15],[127.67,41.1],[127.65,41.01],[127.59,40.99],[127.62,40.92],[127.52,40.84],[127.7,40.6],[127.77,40.58],[127.73,40.4],[127.97,40.57],[128.2,40.57],[128.35,40.77],[128.36,40.99],[128.51,41.02],[128.62,41.1],[128.63,41.17],[128.92,41.09],[128.92,40.82],[129.07,40.58],[129.16,40.56]]]}},{"type":"Feature","properties":{"id":"PRK-01","nome":"P'yŏngyang","pais":"PRK","tipo":"Special City","lat":38.98,"lng":125.96},"geometry":{"type":"Polygon","coordinates":[[[125.72,39.28],[125.86,39.16],[125.9,39.23],[126.05,39.23],[126.23,39.16],[126.39,38.93],[126.13,38.97],[126.12,38.91],[126.22,38.78],[126.1,38.71],[125.8,38.84],[125.58,38.78],[125.52,38.85],[125.6,38.94],[125.58,39.06],[125.67,39.12],[125.62,39.24],[125.72,39.28]]]}}]}