{"type":"FeatureCollection","features":[{"type":"Feature","properties":{"id":"PRT-07","nome":"Évora","pais":"PRT","tipo":"District","lat":38.6,"lng":-7.88},"geometry":{"type":"Polygon","coordinates":[[[-7.23,38.77],[-7.36,38.45],[-7.17,38.27],[-7.14,38.18],[-7.29,38.33],[-7.52,38.2],[-8.16,38.32],[-8.31,38.38],[-8.29,38.42],[-8.37,38.54],[-8.57,38.53],[-8.65,38.59],[-8.51,38.71],[-8.55,38.77],[-8.37,38.85],[-8.13,38.79],[-8.26,38.91],[-8.15,39.03],[-7.83,38.9],[-7.64,38.92],[-7.53,39],[-7.39,38.81],[-7.24,38.84],[-7.23,38.77]]]}},{"type":"Feature","properties":{"id":"PRT-12","nome":"Portalegre","pais":"PRT","tipo":"District","lat":39.28,"lng":-7.65},"geometry":{"type":"Polygon","coordinates":[[[-7.1,38.83],[-7.23,38.77],[-7.24,38.84],[-7.37,38.8],[-7.53,39],[-7.64,38.92],[-7.84,38.9],[-7.92,38.97],[-8.1,38.98],[-8.12,39.03],[-8.24,39.01],[-8.33,39.12],[-7.97,39.39],[-8.01,39.47],[-7.97,39.54],[-7.86,39.52],[-7.7,39.65],[-7.57,39.68],[-7.31,39.46],[-7.33,39.34],[-7.17,39.11],[-6.99,39.07],[-7.1,38.83]]]}},{"type":"Feature","properties":{"id":"PRT-16","nome":"Viana do Castelo","pais":"PRT","tipo":"District","lat":41.91,"lng":-8.5},"geometry":{"type":"Polygon","coordinates":[[[-8.22,42.15],[-8.2,42.07],[-8.1,42.04],[-8.23,41.9],[-8.18,41.81],[-8.5,41.73],[-8.55,41.63],[-8.82,41.62],[-8.83,41.68],[-8.7,41.72],[-8.83,41.69],[-8.88,41.74],[-8.87,41.85],[-8.75,41.97],[-8.63,42.05],[-8.22,42.15]]]}},{"type":"Feature","properties":{"id":"PRT-05","nome":"Castelo Branco","pais":"PRT","tipo":"District","lat":40,"lng":-7.58},"geometry":{"type":"Polygon","coordinates":[[[-6.94,40.25],[-7.04,40.18],[-6.88,40.01],[-7.02,39.69],[-7.57,39.68],[-7.8,39.56],[-7.95,39.67],[-7.96,39.74],[-8.04,39.74],[-8.06,39.62],[-8.23,39.66],[-8.26,39.84],[-7.89,40.05],[-7.81,40.04],[-7.74,40.11],[-7.81,40.19],[-7.78,40.23],[-7.45,40.41],[-7.27,40.41],[-7.31,40.28],[-7.11,40.32],[-6.94,40.25]]]}},{"type":"Feature","properties":{"id":"PRT-09","nome":"Guarda","pais":"PRT","tipo":"District","lat":40.29,"lng":-7.32},"geometry":{"type":"Polygon","coordinates":[[[-6.87,40.28],[-6.94,40.25],[-7.11,40.32],[-7.29,40.28],[-7.27,40.41],[-7.45,40.41],[-7.73,40.24],[-7.82,40.26],[-7.77,40.33],[-7.84,40.42],[-7.82,40.5],[-7.58,40.57],[-7.54,40.69],[-7.62,40.8],[-7.56,40.87],[-7.45,40.82],[-7.42,40.92],[-7.34,40.94],[-7.37,41.01],[-7.3,41.16],[-7.11,41.19],[-7.09,41.1],[-6.93,41.05],[-6.82,40.87],[-6.85,40.58],[-6.81,40.51],[-6.86,40.44],[-6.79,40.36],[-6.87,40.28]]]}},{"type":"Feature","properties":{"id":"PRT-04","nome":"Bragança","pais":"PRT","tipo":"District","lat":41.52,"lng":-6.82},"geometry":{"type":"Polygon","coordinates":[[[-6.48,41.3],[-6.65,41.27],[-6.82,41.05],[-7.08,41.09],[-7.11,41.19],[-7.33,41.16],[-7.43,41.22],[-7.32,41.34],[-7.36,41.44],[-7.24,41.53],[-7.25,41.6],[-7.17,41.75],[-7.2,41.96],[-6.57,41.94],[-6.58,41.88],[-6.52,41.87],[-6.58,41.74],[-6.54,41.66],[-6.37,41.66],[-6.21,41.57],[-6.48,41.3]]]}},{"type":"Feature","properties":{"id":"PRT-17","nome":"Vila Real","pais":"PRT","tipo":"District","lat":41.53,"lng":-7.65},"geometry":{"type":"Polygon","coordinates":[[[-8.05,41.82],[-7.91,41.91],[-7.9,41.86],[-7.72,41.9],[-7.61,41.87],[-7.61,41.83],[-7.47,41.85],[-7.44,41.81],[-7.21,41.89],[-7.17,41.75],[-7.25,41.6],[-7.24,41.53],[-7.36,41.44],[-7.32,41.34],[-7.39,41.25],[-7.55,41.18],[-7.9,41.16],[-7.88,41.25],[-7.98,41.37],[-7.81,41.58],[-8,41.61],[-8.03,41.7],[-8.12,41.69],[-8.05,41.82]]]}},{"type":"Feature","properties":{"id":"PRT-03","nome":"Braga","pais":"PRT","tipo":"District","lat":41.57,"lng":-8.32},"geometry":{"type":"Polygon","coordinates":[[[-8.18,41.81],[-8.05,41.81],[-8.12,41.69],[-7.99,41.68],[-8,41.61],[-7.81,41.58],[-8.02,41.33],[-8.22,41.41],[-8.6,41.35],[-8.61,41.41],[-8.78,41.47],[-8.82,41.62],[-8.55,41.63],[-8.5,41.73],[-8.18,41.81]]]}},{"type":"Feature","properties":{"id":"PRT-08","nome":"Faro","pais":"PRT","tipo":"District","lat":37.17,"lng":-7.94},"geometry":{"type":"Polygon","coordinates":[[[-7.51,37.53],[-7.4,37.17],[-7.51,37.17],[-7.82,37],[-7.98,36.99],[-8.18,37.09],[-8.58,37.12],[-9,37.02],[-8.81,37.45],[-8.47,37.38],[-8.31,37.43],[-8.07,37.33],[-7.79,37.47],[-7.51,37.53]]]}},{"type":"Feature","properties":{"id":"PRT-02","nome":"Beja","pais":"PRT","tipo":"District","lat":37.85,"lng":-7.89},"geometry":{"type":"Polygon","coordinates":[[[-6.95,38.2],[-7.02,38.02],[-7.12,38.04],[-7.27,37.98],[-7.51,37.53],[-7.79,37.47],[-8.07,37.33],[-8.31,37.43],[-8.47,37.38],[-8.81,37.45],[-8.83,37.6],[-8.75,37.73],[-8.81,37.72],[-8.8,37.83],[-8.61,37.75],[-8.52,37.85],[-8.33,37.85],[-8.29,37.98],[-8.4,38.08],[-8.14,38.22],[-8.16,38.33],[-7.52,38.2],[-7.29,38.33],[-7.15,38.18],[-6.95,38.2]]]}},{"type":"Feature","properties":{"id":"PRT-15","nome":"Setúbal","pais":"PRT","tipo":"District","lat":38.21,"lng":-8.57},"geometry":{"type":"Polygon","coordinates":[[[-8.8,37.83],[-8.82,37.93],[-8.89,37.95],[-8.77,38.19],[-8.8,38.36],[-8.94,38.48],[-8.61,38.42],[-8.74,38.45],[-8.77,38.57],[-8.79,38.48],[-8.91,38.51],[-9.23,38.42],[-9.18,38.55],[-9.25,38.67],[-9.11,38.66],[-8.93,38.78],[-8.76,38.74],[-8.7,38.83],[-8.61,38.83],[-8.59,38.77],[-8.5,38.75],[-8.65,38.61],[-8.64,38.55],[-8.37,38.54],[-8.29,38.42],[-8.31,38.38],[-8.16,38.32],[-8.13,38.23],[-8.39,38.1],[-8.29,37.98],[-8.33,37.85],[-8.52,37.85],[-8.61,37.75],[-8.8,37.83]]]}},{"type":"Feature","properties":{"id":"PRT-11","nome":"Lisboa","pais":"PRT","tipo":"District","lat":38.98,"lng":-9.13},"geometry":{"type":"Polygon","coordinates":[[[-8.79,39.08],[-8.94,39.04],[-9.1,38.83],[-9.11,38.71],[-9.32,38.67],[-9.49,38.71],[-9.35,39.29],[-9.23,39.32],[-9.17,39.22],[-9.07,39.31],[-8.87,39.25],[-8.82,39.2],[-8.9,39.17],[-8.79,39.08]]]}},{"type":"Feature","properties":{"id":"PRT-14","nome":"Santarém","pais":"PRT","tipo":"District","lat":39.29,"lng":-8.4},"geometry":{"type":"Polygon","coordinates":[[[-8.79,39.07],[-8.77,39.1],[-8.9,39.17],[-8.82,39.2],[-8.98,39.26],[-9,39.35],[-8.89,39.47],[-8.75,39.48],[-8.67,39.57],[-8.67,39.77],[-8.47,39.84],[-8.44,39.74],[-8.28,39.79],[-8.22,39.65],[-8.14,39.62],[-8.06,39.62],[-8.04,39.74],[-7.96,39.74],[-7.95,39.67],[-7.8,39.56],[-7.97,39.54],[-8.01,39.47],[-7.97,39.39],[-8.33,39.12],[-8.2,39],[-8.26,38.91],[-8.18,38.87],[-8.15,38.77],[-8.3,38.86],[-8.55,38.77],[-8.7,38.84],[-8.76,38.74],[-8.91,38.74],[-8.96,38.84],[-8.79,39.07]]]}},{"type":"Feature","properties":{"id":"PRT-10","nome":"Leiria","pais":"PRT","tipo":"District","lat":39.76,"lng":-8.76},"geometry":{"type":"Polygon","coordinates":[[[-9.35,39.29],[-9.41,39.38],[-9.21,39.42],[-8.9,40.05],[-8.63,40],[-8.57,40.03],[-8.54,39.96],[-8.42,40.01],[-8.39,39.93],[-8.27,39.98],[-8.24,40.06],[-8.15,40.07],[-8.11,39.97],[-8.15,39.89],[-8.33,39.77],[-8.44,39.74],[-8.47,39.84],[-8.67,39.77],[-8.67,39.57],[-8.75,39.48],[-8.91,39.46],[-8.99,39.3],[-9.07,39.31],[-9.17,39.22],[-9.23,39.32],[-9.35,39.29]]]}},{"type":"Feature","properties":{"id":"PRT-06","nome":"Coimbra","pais":"PRT","tipo":"District","lat":40.16,"lng":-8.32},"geometry":{"type":"Polygon","coordinates":[[[-8.9,40.05],[-8.85,40.14],[-8.78,40.12],[-8.91,40.2],[-8.79,40.52],[-8.68,40.43],[-8.61,40.48],[-8.57,40.4],[-8.5,40.42],[-8.52,40.3],[-8.46,40.29],[-8.35,40.37],[-8.12,40.34],[-7.85,40.49],[-7.8,40.46],[-7.84,40.42],[-7.77,40.33],[-7.82,40.26],[-7.74,40.11],[-7.81,40.04],[-7.87,40.06],[-8.13,39.92],[-8.17,40.09],[-8.39,39.93],[-8.42,40.01],[-8.54,39.96],[-8.57,40.03],[-8.63,40],[-8.9,40.05]]]}},{"type":"Feature","properties":{"id":"PRT-01","nome":"Aveiro","pais":"PRT","tipo":"District","lat":40.67,"lng":-8.44},"geometry":{"type":"Polygon","coordinates":[[[-8.79,40.52],[-8.75,40.64],[-8.57,40.76],[-8.67,40.75],[-8.66,40.84],[-8.75,40.65],[-8.66,41.02],[-8.45,41.06],[-8.39,41.01],[-8.29,41.08],[-8.22,41.01],[-8.09,41.01],[-8.12,40.85],[-8.25,40.86],[-8.32,40.73],[-8.25,40.62],[-8.3,40.59],[-8.25,40.51],[-8.33,40.48],[-8.37,40.34],[-8.52,40.29],[-8.5,40.42],[-8.57,40.4],[-8.61,40.48],[-8.68,40.43],[-8.79,40.52]]]}},{"type":"Feature","properties":{"id":"PRT-13","nome":"Porto","pais":"PRT","tipo":"District","lat":41.21,"lng":-8.33},"geometry":{"type":"Polygon","coordinates":[[[-8.66,41.02],[-8.65,41.15],[-8.74,41.25],[-8.78,41.47],[-8.61,41.41],[-8.6,41.35],[-8.22,41.41],[-8.04,41.33],[-7.98,41.37],[-7.88,41.25],[-7.94,41.14],[-8.22,41.1],[-8.39,41.01],[-8.45,41.06],[-8.66,41.02]]]}},{"type":"Feature","properties":{"id":"PRT-30","nome":"Madeira","pais":"PRT","tipo":"Autonomous region","lat":32.74,"lng":-16.95},"geometry":{"type":"Polygon","coordinates":[[[-16.79,32.69],[-16.98,32.65],[-17.18,32.73],[-17.25,32.81],[-17.18,32.87],[-16.67,32.76],[-16.79,32.69]]]}},{"type":"Feature","properties":{"id":"PRT-20","nome":"Azores","pais":"PRT","tipo":"Autonomous region","lat":38.64,"lng":-28.04},"geometry":{"type":"MultiPolygon","coordinates":[[[[-25.2,37.86],[-25.14,37.82],[-25.16,37.75],[-25.51,37.71],[-25.7,37.74],[-25.86,37.85],[-25.84,37.91],[-25.76,37.91],[-25.55,37.83],[-25.2,37.86]]],[[[-28.11,38.45],[-28.04,38.41],[-28.46,38.41],[-28.55,38.53],[-28.37,38.55],[-28.11,38.45]]],[[[-28.61,38.6],[-28.62,38.52],[-28.73,38.51],[-28.84,38.6],[-28.72,38.65],[-28.61,38.6]]],[[[-27.02,38.69],[-27.09,38.63],[-27.23,38.64],[-27.35,38.68],[-27.39,38.76],[-27.14,38.8],[-27.02,38.69]]]]}},{"type":"Feature","properties":{"id":"PRT-18","nome":"Viseu","pais":"PRT","tipo":"District","lat":40.84,"lng":-7.83},"geometry":{"type":"Polygon","coordinates":[[[-7.6,41.18],[-7.42,41.22],[-7.3,41.16],[-7.37,41.01],[-7.34,40.94],[-7.42,40.92],[-7.45,40.82],[-7.56,40.87],[-7.62,40.8],[-7.54,40.69],[-7.58,40.57],[-8.12,40.34],[-8.35,40.37],[-8.33,40.48],[-8.25,40.51],[-8.3,40.59],[-8.25,40.62],[-8.32,40.73],[-8.25,40.86],[-8.12,40.85],[-8.09,41],[-8.22,41.01],[-8.29,41.08],[-7.84,41.18],[-7.6,41.18]]]}}]}