{"type":"FeatureCollection","features":[{"type":"Feature","properties":{"id":"PRY-19","nome":"Boquerón","pais":"PRY","tipo":"Department","lat":-22.09,"lng":-60.98},"geometry":{"type":"Polygon","coordinates":[[[-62.28,-22.51],[-62.63,-22.31],[-62.65,-22.23],[-62.28,-21.07],[-62.27,-20.55],[-61.92,-20.07],[-59.86,-20.7],[-59.87,-20.79],[-59.74,-21.07],[-59.7,-21.33],[-59.85,-21.47],[-59.96,-21.9],[-59.94,-22.04],[-59.42,-22.05],[-59.34,-22.08],[-59.3,-22.2],[-59.59,-22.3],[-59.62,-22.41],[-59.74,-22.44],[-59.74,-22.53],[-59.94,-22.82],[-59.97,-23.21],[-60.06,-23.5],[-60.75,-23.65],[-60.79,-23.87],[-60.97,-23.82],[-61.12,-23.67],[-61.11,-23.61],[-61.5,-23.41],[-61.52,-23.34],[-61.73,-23.24],[-61.96,-23.03],[-62.28,-22.51]]]}},{"type":"Feature","properties":{"id":"PRY-15","nome":"Presidente Hayes","pais":"PRY","tipo":"Department","lat":-23.42,"lng":-58.94},"geometry":{"type":"Polygon","coordinates":[[[-60.69,-23.89],[-60.79,-23.87],[-60.75,-23.65],[-60.06,-23.5],[-59.97,-23.21],[-59.93,-22.8],[-59.74,-22.53],[-59.73,-22.43],[-59.62,-22.41],[-59.61,-22.31],[-59.31,-22.2],[-59.34,-22.08],[-59.17,-22.16],[-58.26,-22.2],[-58.19,-22.28],[-57.85,-22.42],[-57.78,-22.66],[-57.94,-22.72],[-57.79,-22.86],[-57.79,-23.02],[-57.64,-23.1],[-57.48,-23.27],[-57.45,-23.57],[-57.28,-23.73],[-57.34,-23.92],[-57.23,-24.09],[-57.16,-24.12],[-57.22,-24.22],[-57.09,-24.68],[-57.25,-24.89],[-57.2,-24.98],[-57.29,-24.98],[-57.42,-25.11],[-57.52,-25.11],[-57.57,-25.22],[-57.67,-25.29],[-57.87,-25.09],[-58.22,-24.94],[-58.34,-24.99],[-58.45,-24.86],[-58.81,-24.78],[-59.3,-24.51],[-60.03,-24.01],[-60.34,-24.02],[-60.69,-23.89]]]}},{"type":"Feature","properties":{"id":"PRY-11","nome":"Central","pais":"PRY","tipo":"Department","lat":-25.67,"lng":-57.53},"geometry":{"type":"Polygon","coordinates":[[[-57.64,-25.62],[-57.56,-25.46],[-57.58,-25.23],[-57.52,-25.11],[-57.45,-25.11],[-57.25,-25.39],[-57.16,-25.43],[-57.4,-25.68],[-57.41,-25.9],[-57.5,-26.01],[-57.7,-25.81],[-57.82,-25.85],[-57.75,-25.67],[-57.64,-25.62]]]}},{"type":"Feature","properties":{"id":"PRY-ASU","nome":"Asunción","pais":"PRY","tipo":"Capital District","lat":-25.31,"lng":-57.57},"geometry":{"type":"Polygon","coordinates":[[[-57.6,-25.4],[-57.67,-25.29],[-57.58,-25.23],[-57.54,-25.32],[-57.6,-25.4]]]}},{"type":"Feature","properties":{"id":"PRY-10","nome":"Alto Paraná","pais":"PRY","tipo":"Department","lat":-25.38,"lng":-54.94},"geometry":{"type":"Polygon","coordinates":[[[-54.6,-25.57],[-54.58,-25.64],[-54.64,-25.69],[-54.59,-25.83],[-54.61,-25.95],[-54.66,-25.98],[-54.66,-26.24],[-54.79,-26.17],[-54.88,-26.19],[-54.89,-26.14],[-55.03,-26.24],[-55.24,-26.2],[-55.29,-26.08],[-55.23,-26.02],[-55.51,-25.97],[-55.53,-25.85],[-55.4,-25.62],[-55.43,-25.55],[-55.49,-25.56],[-55.26,-25.26],[-55.22,-25.23],[-55.11,-25.28],[-55.12,-25.24],[-55.02,-25.34],[-54.95,-25.34],[-55.01,-25.19],[-55.33,-24.96],[-55.29,-24.58],[-55.23,-24.5],[-55.1,-24.47],[-55.08,-24.55],[-54.92,-24.56],[-54.79,-24.67],[-54.67,-24.64],[-54.63,-24.69],[-54.36,-24.73],[-54.46,-25.04],[-54.43,-25.15],[-54.6,-25.4],[-54.6,-25.57]]]}},{"type":"Feature","properties":{"id":"PRY-7","nome":"Itapúa","pais":"PRY","tipo":"Department","lat":-26.85,"lng":-55.68},"geometry":{"type":"Polygon","coordinates":[[[-54.66,-26.24],[-54.81,-26.66],[-54.92,-26.67],[-54.98,-26.79],[-55.13,-26.86],[-55.14,-26.95],[-55.41,-26.98],[-55.46,-27.1],[-55.6,-27.17],[-55.59,-27.33],[-55.75,-27.44],[-55.89,-27.33],[-56.12,-27.3],[-56.28,-27.39],[-56.37,-27.58],[-56.55,-27.46],[-56.64,-27.45],[-56.69,-27.26],[-56.53,-27.12],[-56.57,-26.72],[-56.41,-26.78],[-56.1,-26.67],[-55.98,-26.5],[-55.38,-26.23],[-55.31,-26.08],[-55.24,-26.2],[-55.03,-26.24],[-54.89,-26.14],[-54.88,-26.19],[-54.79,-26.17],[-54.66,-26.24]]]}},{"type":"Feature","properties":{"id":"PRY-12","nome":"Ñeembucú","pais":"PRY","tipo":"Department","lat":-26.66,"lng":-57.93},"geometry":{"type":"Polygon","coordinates":[[[-58.12,-26.2],[-58.09,-26.13],[-57.87,-26.01],[-57.88,-25.88],[-57.77,-25.81],[-57.56,-25.92],[-57.48,-26.17],[-57.71,-26.41],[-57.62,-26.82],[-57.42,-27.04],[-57.2,-27.1],[-57.31,-27.43],[-58.02,-27.26],[-58.6,-27.32],[-58.65,-27.16],[-58.51,-27.06],[-58.48,-26.94],[-58.32,-26.87],[-58.34,-26.81],[-58.25,-26.76],[-58.24,-26.65],[-58.18,-26.65],[-58.21,-26.42],[-58.12,-26.2]]]}},{"type":"Feature","properties":{"id":"PRY-8","nome":"Misiones","pais":"PRY","tipo":"Department","lat":-26.99,"lng":-57.12},"geometry":{"type":"Polygon","coordinates":[[[-57.11,-27.49],[-57.31,-27.43],[-57.2,-27.1],[-57.42,-27.04],[-57.62,-26.82],[-57.71,-26.41],[-57.56,-26.54],[-57.34,-26.62],[-57.19,-26.58],[-57.09,-26.43],[-57.01,-26.4],[-56.57,-26.68],[-56.53,-27.12],[-56.69,-27.26],[-56.64,-27.45],[-56.77,-27.51],[-56.9,-27.42],[-57.11,-27.49]]]}},{"type":"Feature","properties":{"id":"PRY-16","nome":"Alto Paraguay","pais":"PRY","tipo":"Department","lat":-21.8,"lng":-59.87},"geometry":{"type":"Polygon","coordinates":[[[-58.16,-20.17],[-58.12,-20.21],[-58.16,-20.26],[-58.1,-20.27],[-58.08,-20.38],[-57.99,-20.43],[-57.98,-20.69],[-57.92,-20.67],[-57.86,-20.73],[-57.94,-20.79],[-57.86,-20.83],[-57.91,-20.91],[-57.82,-20.95],[-57.83,-21.17],[-57.9,-21.27],[-57.86,-21.33],[-57.95,-21.51],[-57.9,-21.69],[-57.99,-22.05],[-57.97,-22.26],[-57.89,-22.29],[-57.85,-22.42],[-58.19,-22.28],[-58.26,-22.2],[-59.17,-22.16],[-59.42,-22.05],[-59.94,-22.04],[-59.96,-21.9],[-59.85,-21.47],[-59.7,-21.33],[-59.74,-21.07],[-59.87,-20.79],[-59.86,-20.7],[-61.92,-20.07],[-61.74,-19.64],[-60.01,-19.3],[-59.09,-19.29],[-58.18,-19.82],[-58.16,-20.17]]]}},{"type":"Feature","properties":{"id":"PRY-1","nome":"Concepción","pais":"PRY","tipo":"Department","lat":-22.85,"lng":-57.05},"geometry":{"type":"Polygon","coordinates":[[[-57.97,-22.08],[-57.84,-22.14],[-57.66,-22.1],[-57.61,-22.18],[-57.38,-22.21],[-56.9,-22.24],[-56.88,-22.29],[-56.58,-22.36],[-56.72,-22.53],[-56.65,-22.82],[-56.69,-22.88],[-56.54,-22.88],[-56.49,-22.79],[-56.28,-22.7],[-56.13,-23.05],[-56.19,-23.21],[-56.38,-23.4],[-56.53,-23.44],[-56.86,-23.42],[-57.27,-23.5],[-57.45,-23.47],[-57.48,-23.27],[-57.64,-23.1],[-57.79,-23.02],[-57.79,-22.86],[-57.94,-22.72],[-57.78,-22.66],[-57.83,-22.56],[-57.83,-22.38],[-57.97,-22.23],[-57.97,-22.08]]]}},{"type":"Feature","properties":{"id":"PRY-13","nome":"Amambay","pais":"PRY","tipo":"Department","lat":-23.23,"lng":-56.18},"geometry":{"type":"Polygon","coordinates":[[[-56.42,-22.07],[-56.21,-22.28],[-55.86,-22.29],[-55.76,-22.39],[-55.72,-22.57],[-55.62,-22.64],[-55.66,-22.86],[-55.54,-23.23],[-55.53,-23.53],[-55.6,-23.66],[-55.93,-23.85],[-56.06,-23.85],[-55.98,-23.76],[-55.93,-23.53],[-56.11,-23.59],[-56.15,-23.52],[-56.04,-23.42],[-56.08,-23.33],[-56.3,-23.34],[-56.13,-23.06],[-56.28,-22.7],[-56.48,-22.78],[-56.54,-22.88],[-56.69,-22.88],[-56.65,-22.82],[-56.72,-22.53],[-56.58,-22.36],[-56.84,-22.29],[-56.72,-22.22],[-56.65,-22.26],[-56.52,-22.1],[-56.42,-22.07]]]}},{"type":"Feature","properties":{"id":"PRY-14","nome":"Canindeyú","pais":"PRY","tipo":"Department","lat":-24.26,"lng":-55.2},"geometry":{"type":"Polygon","coordinates":[[[-55.53,-23.53],[-55.43,-23.93],[-55.37,-23.99],[-55.2,-24.02],[-54.94,-23.97],[-54.64,-23.8],[-54.25,-24.05],[-54.33,-24.15],[-54.26,-24.36],[-54.33,-24.5],[-54.36,-24.73],[-54.63,-24.69],[-54.67,-24.64],[-54.79,-24.67],[-54.92,-24.56],[-55.08,-24.55],[-55.12,-24.47],[-55.51,-24.55],[-55.75,-24.78],[-55.81,-24.75],[-56.11,-24.36],[-56.15,-24.16],[-55.99,-24.03],[-56.06,-23.85],[-55.91,-23.84],[-55.6,-23.66],[-55.53,-23.53]]]}},{"type":"Feature","properties":{"id":"PRY-2","nome":"San Pedro","pais":"PRY","tipo":"Department","lat":-24.2,"lng":-56.61},"geometry":{"type":"Polygon","coordinates":[[[-55.75,-24.78],[-55.95,-24.84],[-56.05,-24.97],[-56.24,-24.78],[-56.49,-25.02],[-56.7,-24.92],[-57,-24.97],[-57.06,-25.04],[-57.21,-24.99],[-57.25,-24.89],[-57.09,-24.68],[-57.22,-24.22],[-57.16,-24.12],[-57.23,-24.09],[-57.34,-23.92],[-57.28,-23.73],[-57.43,-23.62],[-57.45,-23.47],[-57.27,-23.5],[-56.86,-23.42],[-56.58,-23.45],[-56.24,-23.32],[-56.08,-23.32],[-56.04,-23.42],[-56.15,-23.52],[-56.13,-23.57],[-56.09,-23.61],[-55.94,-23.53],[-55.93,-23.6],[-56.06,-23.85],[-55.99,-24.03],[-56.15,-24.14],[-56.16,-24.26],[-55.91,-24.64],[-55.75,-24.78]]]}},{"type":"Feature","properties":{"id":"PRY-5","nome":"Caaguazú","pais":"PRY","tipo":"Department","lat":-25.22,"lng":-55.88},"geometry":{"type":"Polygon","coordinates":[[[-56.05,-24.97],[-55.97,-24.86],[-55.75,-24.78],[-55.52,-24.56],[-55.23,-24.5],[-55.29,-24.58],[-55.33,-24.96],[-55.01,-25.19],[-54.95,-25.34],[-55.23,-25.23],[-55.6,-25.66],[-55.83,-25.68],[-55.92,-25.61],[-56.36,-25.58],[-56.65,-25.71],[-56.75,-25.65],[-56.81,-25.51],[-56.56,-25.35],[-56.49,-25.02],[-56.24,-24.78],[-56.05,-24.97]]]}},{"type":"Feature","properties":{"id":"PRY-3","nome":"Cordillera","pais":"PRY","tipo":"Department","lat":-25.25,"lng":-56.97},"geometry":{"type":"Polygon","coordinates":[[[-56.49,-25.02],[-56.56,-25.35],[-56.81,-25.51],[-56.75,-25.65],[-56.9,-25.66],[-56.9,-25.54],[-57.1,-25.52],[-57.45,-25.11],[-57.29,-24.98],[-57.06,-25.04],[-57,-24.97],[-56.7,-24.92],[-56.49,-25.02]]]}},{"type":"Feature","properties":{"id":"PRY-6","nome":"Caazapá","pais":"PRY","tipo":"Department","lat":-26.2,"lng":-56},"geometry":{"type":"Polygon","coordinates":[[[-55.6,-25.66],[-55.43,-25.56],[-55.4,-25.62],[-55.53,-25.85],[-55.51,-25.97],[-55.23,-26.03],[-55.32,-26.08],[-55.38,-26.23],[-55.74,-26.36],[-55.85,-26.46],[-56,-26.51],[-56.1,-26.67],[-56.41,-26.78],[-56.57,-26.72],[-56.58,-26.67],[-56.78,-26.54],[-56.59,-26.18],[-56.51,-26.17],[-56.48,-26.09],[-56.27,-25.99],[-56.17,-26.04],[-56.1,-26.02],[-56.03,-25.89],[-55.6,-25.66]]]}},{"type":"Feature","properties":{"id":"PRY-9","nome":"Paraguarí","pais":"PRY","tipo":"Department","lat":-25.98,"lng":-57.15},"geometry":{"type":"Polygon","coordinates":[[[-56.75,-25.65],[-56.65,-25.71],[-56.67,-25.81],[-56.6,-25.95],[-56.67,-26],[-56.59,-26.18],[-56.78,-26.54],[-57.04,-26.4],[-57.19,-26.58],[-57.37,-26.62],[-57.56,-26.54],[-57.71,-26.41],[-57.48,-26.17],[-57.5,-26.01],[-57.41,-25.9],[-57.41,-25.7],[-57.2,-25.45],[-57.16,-25.43],[-57.09,-25.53],[-56.9,-25.54],[-56.9,-25.66],[-56.75,-25.65]]]}},{"type":"Feature","properties":{"id":"PRY-4","nome":"Guairá","pais":"PRY","tipo":"Department","lat":-25.81,"lng":-56.15},"geometry":{"type":"Polygon","coordinates":[[[-56.36,-25.58],[-55.92,-25.61],[-55.83,-25.68],[-55.62,-25.65],[-55.67,-25.73],[-56.03,-25.89],[-56.1,-26.02],[-56.36,-26.01],[-56.48,-26.09],[-56.51,-26.17],[-56.59,-26.18],[-56.66,-26.04],[-56.6,-25.94],[-56.67,-25.74],[-56.36,-25.58]]]}}]}