{"type":"FeatureCollection","features":[{"type":"Feature","properties":{"id":"PSX-GZZ","nome":"Gaza Strip","pais":"PSX","tipo":"Estado","lat":31.43,"lng":34.37},"geometry":{"type":"Polygon","coordinates":[[[34.48,31.58],[34.56,31.54],[34.37,31.39],[34.35,31.29],[34.25,31.21],[34.2,31.31],[34.48,31.58]]]}},{"type":"Feature","properties":{"id":"PSX-WBK","nome":"West Bank","pais":"PSX","tipo":"Estado","lat":32,"lng":35.29},"geometry":{"type":"Polygon","coordinates":[[[35.21,32.54],[35.39,32.49],[35.41,32.41],[35.56,32.38],[35.52,32.06],[35.56,31.77],[35.46,31.49],[35.16,31.36],[34.9,31.35],[34.87,31.4],[34.96,31.61],[35.13,31.73],[35.24,31.71],[35.26,31.75],[35.22,31.88],[35.19,31.81],[34.98,31.83],[35.04,31.91],[34.96,32.19],[35,32.34],[35.06,32.46],[35.21,32.54]]]}}]}