{"type":"FeatureCollection","features":[{"type":"Feature","properties":{"id":"PYF-X01~","nome":"Windward Islands","pais":"PYF","tipo":"Estado","lat":-17.75,"lng":-149.52},"geometry":{"type":"Polygon","coordinates":[[[-149.18,-17.73],[-149.15,-17.8],[-149.19,-17.87],[-149.28,-17.84],[-149.35,-17.72],[-149.58,-17.74],[-149.63,-17.55],[-149.52,-17.5],[-149.39,-17.52],[-149.3,-17.71],[-149.18,-17.73]]]}},{"type":"Feature","properties":{"id":"PYF-X05~","nome":"Marquesas Islands","pais":"PYF","tipo":"Estado","lat":-9.76,"lng":-139.04},"geometry":{"type":"MultiPolygon","coordinates":[[[[-138.84,-9.74],[-138.89,-9.8],[-139.05,-9.8],[-139.06,-9.85],[-139.17,-9.77],[-139.02,-9.69],[-138.84,-9.74]]],[[[-140.05,-8.82],[-140.02,-8.9],[-140.18,-8.95],[-140.26,-8.82],[-140.22,-8.78],[-140.03,-8.79],[-140.05,-8.82]]]]}}]}