{"type":"FeatureCollection","features":[{"type":"Feature","properties":{"id":"QAT-RA","nome":"Ar Rayyān","pais":"QAT","tipo":"Municipality","lat":25.16,"lng":51.16},"geometry":{"type":"Polygon","coordinates":[[[51.04,24.56],[50.93,24.59],[50.81,24.75],[50.85,24.77],[50.85,24.89],[50.76,25.19],[50.75,25.49],[50.8,25.53],[50.85,25.47],[50.79,25.6],[50.85,25.65],[50.89,25.53],[50.96,25.6],[50.98,25.65],[50.89,25.67],[50.93,25.81],[51.21,25.73],[51.3,25.38],[51.45,25.36],[51.54,25.22],[51.43,25.2],[51.46,25.16],[51.4,25.06],[51.33,25.09],[51.33,25.01],[51.22,25.01],[51.22,24.63],[51.04,24.56]]]}},{"type":"Feature","properties":{"id":"QAT-WA","nome":"Al Wakrah","pais":"QAT","tipo":"Municipality","lat":24.97,"lng":51.47},"geometry":{"type":"Polygon","coordinates":[[[51.61,25.24],[51.59,24.95],[51.34,24.57],[51.34,24.65],[51.22,24.64],[51.22,25.01],[51.33,25.01],[51.33,25.09],[51.4,25.06],[51.44,25.14],[51.61,25.24]]]}},{"type":"Feature","properties":{"id":"QAT-ZA","nome":"Al Daayen","pais":"QAT","tipo":"Municipality","lat":25.46,"lng":51.47},"geometry":{"type":"Polygon","coordinates":[[[51.54,25.62],[51.49,25.62],[51.47,25.52],[51.52,25.38],[51.45,25.36],[51.41,25.61],[51.45,25.66],[51.54,25.62]]]}},{"type":"Feature","properties":{"id":"QAT-KH","nome":"Al Khawr","pais":"QAT","tipo":"Municipality","lat":25.75,"lng":51.42},"geometry":{"type":"Polygon","coordinates":[[[51.42,25.95],[51.56,25.91],[51.59,25.76],[51.54,25.74],[51.58,25.69],[51.51,25.69],[51.55,25.63],[51.45,25.66],[51.4,25.55],[51.3,25.55],[51.21,25.73],[50.95,25.78],[50.97,25.83],[51.1,25.82],[51.1,25.93],[51.24,25.93],[51.35,25.83],[51.42,25.83],[51.42,25.95]]]}},{"type":"Feature","properties":{"id":"QAT-MS","nome":"Madinat ach Shamal","pais":"QAT","tipo":"Municipality","lat":26.01,"lng":51.18},"geometry":{"type":"Polygon","coordinates":[[[50.97,25.83],[50.98,25.98],[51.05,26.05],[51.25,26.16],[51.35,26.1],[51.42,25.83],[51.35,25.83],[51.24,25.93],[51.1,25.93],[51.1,25.82],[50.97,25.83]]]}},{"type":"Feature","properties":{"id":"QAT-US","nome":"Umm Salal","pais":"QAT","tipo":"Municipality","lat":25.46,"lng":51.36},"geometry":{"type":"Polygon","coordinates":[[[51.29,25.57],[51.4,25.55],[51.45,25.36],[51.3,25.38],[51.29,25.57]]]}}]}