{"type":"FeatureCollection","features":[{"type":"Feature","properties":{"id":"ROU-SM","nome":"Satu Mare","pais":"ROU","tipo":"County","lat":47.66,"lng":22.9},"geometry":{"type":"Polygon","coordinates":[[[22.56,47.76],[22.75,47.83],[22.92,48],[23.06,48.01],[23.14,48.1],[23.49,47.97],[23.63,47.84],[23.45,47.74],[23.24,47.74],[23.36,47.64],[23.27,47.54],[23.13,47.58],[22.97,47.44],[23.11,47.38],[23.05,47.31],[22.8,47.39],[22.58,47.32],[22.48,47.41],[22.35,47.41],[22.17,47.59],[22.27,47.72],[22.45,47.79],[22.56,47.76]]]}},{"type":"Feature","properties":{"id":"ROU-AR","nome":"Arad","pais":"ROU","tipo":"County","lat":46.3,"lng":21.73},"geometry":{"type":"Polygon","coordinates":[[[21.37,46.62],[21.42,46.66],[21.83,46.66],[22.09,46.61],[22.42,46.39],[22.76,46.33],[22.62,46.22],[22.45,46.2],[22.4,45.99],[22.23,45.89],[21.96,45.98],[21.82,45.9],[21.72,45.95],[21.67,45.9],[21.46,46.04],[21.36,45.97],[21.19,46.02],[21.11,45.98],[20.7,46.17],[20.8,46.27],[21.03,46.23],[21.14,46.28],[21.18,46.38],[21.28,46.42],[21.25,46.48],[21.3,46.6],[21.37,46.62]]]}},{"type":"Feature","properties":{"id":"ROU-BH","nome":"Bihor","pais":"ROU","tipo":"County","lat":47.09,"lng":22.12},"geometry":{"type":"Polygon","coordinates":[[[21.42,46.66],[21.65,46.94],[21.63,47.02],[22,47.39],[22.01,47.52],[22.17,47.59],[22.35,47.41],[22.56,47.36],[22.49,47.18],[22.72,46.98],[22.69,46.92],[22.76,46.87],[22.67,46.78],[22.81,46.62],[22.8,46.56],[22.7,46.53],[22.71,46.37],[22.66,46.37],[22.42,46.39],[22.09,46.61],[21.42,46.66]]]}},{"type":"Feature","properties":{"id":"ROU-TM","nome":"Timis","pais":"ROU","tipo":"County","lat":45.6,"lng":21.39},"geometry":{"type":"Polygon","coordinates":[[[20.61,46.13],[20.72,46.16],[21.12,45.97],[21.19,46.02],[21.36,45.97],[21.49,46.04],[21.67,45.9],[21.72,45.95],[21.82,45.9],[21.93,45.98],[22.22,45.89],[22.35,45.95],[22.54,45.77],[22.45,45.67],[22.04,45.57],[22.06,45.53],[22.01,45.5],[21.9,45.56],[21.59,45.55],[21.49,45.45],[21.47,45.37],[21.55,45.28],[21.48,45.15],[20.98,45.33],[20.77,45.48],[20.79,45.75],[20.69,45.74],[20.57,45.89],[20.35,45.98],[20.24,46.11],[20.47,46.17],[20.61,46.13]]]}},{"type":"Feature","properties":{"id":"ROU-MH","nome":"Mehedinti","pais":"ROU","tipo":"County","lat":44.58,"lng":22.93},"geometry":{"type":"Polygon","coordinates":[[[23.01,44.1],[22.69,44.23],[22.68,44.31],[22.51,44.4],[22.48,44.5],[22.58,44.57],[22.76,44.56],[22.7,44.63],[22.43,44.73],[22.3,44.68],[22.17,44.51],[22.03,44.6],[22.17,44.61],[22.23,44.81],[22.43,44.76],[22.64,45.09],[22.84,45.03],[23.03,44.77],[23.49,44.55],[23.29,44.52],[23.21,44.42],[23.27,44.37],[23.17,44.34],[23.14,44.17],[23.01,44.1]]]}},{"type":"Feature","properties":{"id":"ROU-DJ","nome":"Dolj","pais":"ROU","tipo":"County","lat":44.22,"lng":23.57},"geometry":{"type":"Polygon","coordinates":[[[22.92,43.83],[22.85,43.87],[22.87,43.97],[23.02,44.03],[23.01,44.1],[23.14,44.17],[23.17,44.34],[23.28,44.38],[23.21,44.4],[23.22,44.45],[23.3,44.52],[23.73,44.62],[23.74,44.73],[23.96,44.53],[23.91,44.46],[24.26,44.21],[24.28,44.1],[24.2,44.05],[24.29,43.99],[24.15,43.75],[23.48,43.88],[22.92,43.83]]]}},{"type":"Feature","properties":{"id":"ROU-CL","nome":"Calarasi","pais":"ROU","tipo":"County","lat":44.31,"lng":27.15},"geometry":{"type":"Polygon","coordinates":[[[27.23,44.12],[27.03,44.18],[26.42,44.06],[26.45,44.21],[26.28,44.32],[26.46,44.46],[26.42,44.51],[26.71,44.56],[27.1,44.49],[27.61,44.49],[28.02,44.35],[27.93,44.27],[27.23,44.12]]]}},{"type":"Feature","properties":{"id":"ROU-TR","nome":"Teleorman","pais":"ROU","tipo":"County","lat":44.08,"lng":25.18},"geometry":{"type":"Polygon","coordinates":[[[25.73,43.72],[25.4,43.65],[24.96,43.75],[24.71,43.74],[24.66,43.76],[24.75,43.81],[24.63,44.01],[24.84,44.12],[24.85,44.39],[25.33,44.44],[25.4,44.53],[25.51,44.51],[25.53,44.35],[25.72,44.26],[25.64,44.05],[25.73,43.72]]]}},{"type":"Feature","properties":{"id":"ROU-GR","nome":"Giurgiu","pais":"ROU","tipo":"County","lat":44.11,"lng":25.98},"geometry":{"type":"Polygon","coordinates":[[[26.33,44.05],[26.12,44],[25.73,43.72],[25.64,44.05],[25.72,44.26],[25.53,44.35],[25.51,44.51],[25.91,44.57],[25.91,44.37],[26.15,44.26],[26.28,44.32],[26.44,44.23],[26.42,44.06],[26.33,44.05]]]}},{"type":"Feature","properties":{"id":"ROU-CT","nome":"Constanta","pais":"ROU","tipo":"County","lat":44.51,"lng":28.48},"geometry":{"type":"Polygon","coordinates":[[[27.38,44.02],[27.25,44.12],[27.93,44.27],[28.11,44.44],[28,44.54],[28.03,44.64],[27.9,44.71],[27.89,44.77],[28.15,44.78],[28.28,44.71],[28.4,44.76],[28.79,44.64],[28.9,44.72],[28.98,44.69],[28.96,44.64],[28.95,44.7],[28.77,44.63],[28.79,44.59],[28.73,44.57],[28.77,44.55],[28.76,44.47],[28.92,44.62],[28.64,44.32],[28.67,44],[28.58,43.74],[28.22,43.76],[28.01,43.83],[27.91,43.99],[27.72,43.95],[27.63,44.03],[27.38,44.02]]]}},{"type":"Feature","properties":{"id":"ROU-OT","nome":"Olt","pais":"ROU","tipo":"County","lat":44.33,"lng":24.38},"geometry":{"type":"Polygon","coordinates":[[[24.16,43.75],[24.29,43.99],[24.2,44.05],[24.28,44.1],[24.26,44.21],[23.91,44.48],[24.28,44.62],[24.33,44.58],[24.29,44.75],[24.35,44.86],[24.43,44.91],[24.47,44.82],[24.56,44.89],[24.63,44.76],[24.73,44.73],[24.69,44.71],[24.77,44.42],[24.85,44.39],[24.84,44.12],[24.63,44.01],[24.75,43.81],[24.66,43.76],[24.47,43.8],[24.16,43.75]]]}},{"type":"Feature","properties":{"id":"ROU-CS","nome":"Caras-Severin","pais":"ROU","tipo":"County","lat":45.06,"lng":22.02},"geometry":{"type":"Polygon","coordinates":[[[21.45,44.87],[21.53,44.92],[21.35,45],[21.53,45.2],[21.55,45.31],[21.47,45.39],[21.59,45.55],[21.9,45.56],[22.01,45.5],[22.06,45.53],[22.04,45.57],[22.45,45.66],[22.68,45.49],[22.7,45.31],[22.56,45.15],[22.64,45.09],[22.43,44.76],[22.22,44.81],[22.16,44.6],[22.03,44.6],[21.87,44.7],[21.66,44.69],[21.58,44.78],[21.34,44.83],[21.45,44.87]]]}},{"type":"Feature","properties":{"id":"ROU-BT","nome":"Botosani","pais":"ROU","tipo":"County","lat":47.87,"lng":26.77},"geometry":{"type":"Polygon","coordinates":[[[26.69,48.27],[27.04,48.13],[27.1,48.01],[27.17,47.98],[27.28,47.69],[27.43,47.57],[27.23,47.49],[27.09,47.52],[27.06,47.44],[26.73,47.49],[26.62,47.43],[26.53,47.61],[26.12,47.92],[26.1,47.98],[26.26,48.07],[26.3,48.21],[26.69,48.27]]]}},{"type":"Feature","properties":{"id":"ROU-IS","nome":"Iasi","pais":"ROU","tipo":"County","lat":47.21,"lng":27.3},"geometry":{"type":"Polygon","coordinates":[[[27.43,47.57],[27.81,47.14],[28.03,47.03],[28.12,46.84],[27.83,46.84],[27.83,46.92],[27.79,46.88],[27.63,46.97],[27.65,46.88],[27.2,46.86],[27.14,46.94],[27.24,46.99],[27.16,47.07],[26.87,47.01],[26.65,47.08],[26.48,47.25],[26.58,47.28],[26.5,47.35],[26.66,47.35],[26.72,47.49],[27.04,47.43],[27.09,47.52],[27.23,47.49],[27.43,47.57]]]}},{"type":"Feature","properties":{"id":"ROU-VS","nome":"Vaslui","pais":"ROU","tipo":"County","lat":46.52,"lng":27.73},"geometry":{"type":"Polygon","coordinates":[[[28.12,46.84],[28.24,46.64],[28.25,46.44],[28.11,46.23],[28.14,46.18],[28.11,46.1],[27.63,46.13],[27.61,46],[27.53,46.12],[27.48,46.4],[27.32,46.67],[27.23,46.74],[27.2,46.86],[27.65,46.88],[27.63,46.97],[27.79,46.88],[27.83,46.92],[27.83,46.84],[28.12,46.84]]]}},{"type":"Feature","properties":{"id":"ROU-GL","nome":"Galati","pais":"ROU","tipo":"County","lat":45.79,"lng":27.73},"geometry":{"type":"Polygon","coordinates":[[[28.11,46.1],[28.08,46.01],[28.17,45.63],[28.06,45.59],[28.16,45.53],[28.22,45.45],[28.18,45.41],[27.86,45.41],[27.58,45.49],[27.25,45.97],[27.31,46.05],[27.48,46.11],[27.53,46.12],[27.62,46],[27.63,46.13],[28.11,46.1]]]}},{"type":"Feature","properties":{"id":"ROU-SV","nome":"Suceava","pais":"ROU","tipo":"County","lat":47.21,"lng":25.81},"geometry":{"type":"Polygon","coordinates":[[[25.97,47.96],[26.1,47.98],[26.13,47.91],[26.53,47.61],[26.57,47.47],[26.67,47.41],[26.66,47.35],[26.5,47.35],[26.58,47.28],[26.48,47.25],[26.38,47.3],[25.89,47.23],[25.78,47.28],[25.82,47.21],[25.67,47.06],[25.57,47.05],[25.39,47.14],[25.27,47.07],[25.07,47.1],[25.06,47.32],[25,47.39],[25.09,47.48],[24.96,47.58],[25.03,47.61],[24.94,47.72],[25.08,47.74],[25.26,47.9],[25.97,47.96]]]}},{"type":"Feature","properties":{"id":"ROU-MM","nome":"Maramures","pais":"ROU","tipo":"County","lat":47.64,"lng":24},"geometry":{"type":"Polygon","coordinates":[[[23.56,48.01],[24.21,47.9],[24.56,47.94],[25.03,47.61],[24.76,47.54],[24.37,47.56],[24.13,47.46],[24.01,47.32],[23.76,47.3],[23.66,47.36],[22.97,47.43],[23.12,47.58],[23.25,47.53],[23.32,47.59],[23.36,47.67],[23.25,47.71],[23.26,47.74],[23.45,47.74],[23.62,47.82],[23.49,47.97],[23.56,48.01]]]}},{"type":"Feature","properties":{"id":"ROU-TL","nome":"Tulcea","pais":"ROU","tipo":"County","lat":45.03,"lng":28.62},"geometry":{"type":"Polygon","coordinates":[[[28.24,45.45],[28.33,45.32],[28.71,45.23],[28.8,45.24],[28.76,45.27],[28.79,45.32],[28.93,45.28],[29.32,45.44],[29.57,45.39],[29.65,45.35],[29.67,45.23],[29.62,45.21],[29.7,45.16],[29.62,44.86],[29.16,44.78],[29,44.69],[28.97,44.74],[29.14,44.83],[29.1,44.88],[29.05,44.85],[29.04,44.93],[29.1,44.98],[28.98,45.01],[28.86,44.92],[28.95,44.77],[28.8,44.68],[28.53,44.7],[28.4,44.76],[28.28,44.71],[28.05,44.78],[28.18,45.13],[28.1,45.18],[28.12,45.25],[27.99,45.29],[28.04,45.41],[28.24,45.45]]]}},{"type":"Feature","properties":{"id":"ROU-CJ","nome":"Cluj","pais":"ROU","tipo":"County","lat":46.75,"lng":23.53},"geometry":{"type":"Polygon","coordinates":[[[24.01,47.32],[23.94,47.25],[23.96,47.16],[24.13,47.08],[24.16,46.95],[24.24,46.9],[24.11,46.72],[24.12,46.64],[24.05,46.62],[23.97,46.49],[23.99,46.44],[23.65,46.4],[23.62,46.47],[23.4,46.53],[23.07,46.46],[23,46.53],[22.8,46.56],[22.8,46.63],[22.67,46.78],[22.76,46.87],[22.69,46.92],[22.72,46.98],[22.87,46.97],[23.02,46.88],[23.2,46.87],[23.24,46.94],[23.35,46.89],[23.34,46.96],[23.48,46.99],[23.45,47.07],[23.51,47.13],[23.8,47.22],[23.84,47.33],[24.01,47.32]]]}},{"type":"Feature","properties":{"id":"ROU-BN","nome":"Bistrita-Nasaud","pais":"ROU","tipo":"County","lat":47.18,"lng":24.51},"geometry":{"type":"Polygon","coordinates":[[[24.2,46.78],[24.23,46.91],[24.16,46.95],[24.13,47.08],[23.96,47.15],[23.94,47.23],[24.13,47.46],[24.38,47.56],[24.76,47.54],[24.87,47.58],[25.08,47.49],[25,47.39],[25.06,47.32],[25.07,47.1],[24.82,47.02],[24.74,46.89],[24.58,46.89],[24.48,46.77],[24.2,46.78]]]}},{"type":"Feature","properties":{"id":"ROU-SJ","nome":"Salaj","pais":"ROU","tipo":"County","lat":47.15,"lng":23.16},"geometry":{"type":"Polygon","coordinates":[[[23.81,47.32],[23.8,47.22],[23.51,47.13],[23.45,47.07],[23.48,46.99],[23.34,46.96],[23.36,46.9],[23.23,46.94],[23.2,46.87],[23.02,46.88],[22.87,46.97],[22.72,46.98],[22.49,47.18],[22.58,47.32],[22.78,47.39],[23.05,47.31],[23.14,47.42],[23.81,47.32]]]}},{"type":"Feature","properties":{"id":"ROU-DB","nome":"Dâmbovita","pais":"ROU","tipo":"County","lat":44.85,"lng":25.6},"geometry":{"type":"Polygon","coordinates":[[[26.03,44.74],[25.91,44.57],[25.4,44.53],[25.28,44.44],[25.32,44.57],[25.19,44.65],[25.24,45.02],[25.16,45.13],[25.19,45.19],[25.27,45.19],[25.31,45.39],[25.43,45.45],[25.71,44.96],[25.79,44.95],[25.83,44.84],[26.03,44.74]]]}},{"type":"Feature","properties":{"id":"ROU-IF","nome":"Ilfov","pais":"ROU","tipo":"County","lat":44.65,"lng":26.21},"geometry":{"type":"Polygon","coordinates":[[[25.91,44.57],[26.04,44.75],[26.33,44.75],[26.44,44.64],[26.37,44.56],[26.46,44.47],[26.15,44.26],[25.89,44.38],[25.91,44.57]],[[26.2,44.4],[26.19,44.51],[26.11,44.53],[26.1,44.59],[25.99,44.51],[26.04,44.47],[25.98,44.43],[26.04,44.38],[26.14,44.33],[26.15,44.41],[26.2,44.4]]]}},{"type":"Feature","properties":{"id":"ROU-AG","nome":"Arges","pais":"ROU","tipo":"County","lat":44.99,"lng":24.89},"geometry":{"type":"Polygon","coordinates":[[[25.31,45.39],[25.27,45.19],[25.19,45.19],[25.16,45.13],[25.24,45.02],[25.19,44.67],[25.32,44.57],[25.3,44.47],[24.97,44.39],[24.77,44.41],[24.69,44.71],[24.73,44.73],[24.63,44.76],[24.56,44.89],[24.47,44.82],[24.44,44.85],[24.51,44.91],[24.53,45.56],[24.77,45.6],[25.1,45.57],[25.31,45.39]]]}},{"type":"Feature","properties":{"id":"ROU-GJ","nome":"Gorj","pais":"ROU","tipo":"County","lat":44.98,"lng":23.2},"geometry":{"type":"Polygon","coordinates":[[[23.44,45.3],[23.59,45.35],[23.84,45.31],[23.74,44.63],[23.49,44.55],[23.34,44.66],[23.1,44.72],[22.94,44.84],[22.92,44.97],[22.56,45.15],[22.67,45.24],[22.88,45.29],[23.01,45.26],[23.44,45.3]]]}},{"type":"Feature","properties":{"id":"ROU-HD","nome":"Hunedoara","pais":"ROU","tipo":"County","lat":45.74,"lng":22.98},"geometry":{"type":"Polygon","coordinates":[[[23.59,45.35],[22.67,45.24],[22.68,45.49],[22.45,45.64],[22.54,45.77],[22.35,45.95],[22.42,46.03],[22.44,46.19],[22.62,46.22],[22.76,46.33],[22.91,46.32],[23.32,45.88],[23.41,45.6],[23.58,45.5],[23.59,45.35]]]}},{"type":"Feature","properties":{"id":"ROU-VL","nome":"Vâlcea","pais":"ROU","tipo":"County","lat":45.01,"lng":24.06},"geometry":{"type":"Polygon","coordinates":[[[23.59,45.35],[23.58,45.45],[23.79,45.51],[24.53,45.56],[24.51,44.91],[24.44,44.85],[24.4,44.91],[24.29,44.75],[24.33,44.58],[24.28,44.62],[24.08,44.52],[23.96,44.53],[23.79,44.68],[23.84,45.31],[23.59,45.35]]]}},{"type":"Feature","properties":{"id":"ROU-PH","nome":"Prahova","pais":"ROU","tipo":"County","lat":45.11,"lng":26.02},"geometry":{"type":"Polygon","coordinates":[[[26.21,44.76],[26.02,44.74],[25.83,44.84],[25.81,44.92],[25.71,44.96],[25.53,45.22],[25.43,45.45],[25.65,45.49],[25.85,45.44],[25.95,45.51],[26.16,45.4],[26.26,45.22],[26.42,45.2],[26.6,44.87],[26.53,44.81],[26.21,44.76]]]}},{"type":"Feature","properties":{"id":"ROU-CV","nome":"Covasna","pais":"ROU","tipo":"County","lat":45.89,"lng":25.97},"geometry":{"type":"Polygon","coordinates":[[[26.48,46.02],[26.4,45.92],[26.33,45.62],[26.1,45.56],[25.89,45.72],[25.67,45.75],[25.56,45.85],[25.57,46.04],[25.45,46.09],[25.69,46.29],[25.9,46.12],[26.33,46.18],[26.48,46.02]]]}},{"type":"Feature","properties":{"id":"ROU-VN","nome":"Vrancea","pais":"ROU","tipo":"County","lat":45.8,"lng":26.98},"geometry":{"type":"Polygon","coordinates":[[[26.38,45.8],[26.48,46.02],[26.6,46.01],[26.67,46.08],[27.11,46.08],[27.31,46.17],[27.52,46.16],[27.53,46.12],[27.33,46.07],[27.25,45.97],[27.58,45.49],[27.42,45.39],[27.06,45.45],[26.98,45.53],[26.84,45.52],[26.57,45.62],[26.38,45.8]]]}},{"type":"Feature","properties":{"id":"ROU-BZ","nome":"Buzau","pais":"ROU","tipo":"County","lat":45.21,"lng":26.73},"geometry":{"type":"Polygon","coordinates":[[[26.3,45.6],[26.38,45.8],[26.57,45.62],[26.84,45.52],[26.98,45.53],[27.05,45.45],[27.42,45.39],[27.3,45.23],[27.06,45.2],[27.08,45.16],[27.15,45.18],[27.21,45.06],[27.27,45.05],[27.25,44.95],[27.17,44.91],[27.2,44.78],[26.66,44.84],[26.55,44.92],[26.58,44.98],[26.49,45.02],[26.42,45.2],[26.26,45.22],[26.17,45.39],[26.05,45.48],[26.22,45.62],[26.3,45.6]]]}},{"type":"Feature","properties":{"id":"ROU-BV","nome":"Brasov","pais":"ROU","tipo":"County","lat":45.77,"lng":25.37},"geometry":{"type":"Polygon","coordinates":[[[25.43,45.45],[25.31,45.39],[25.1,45.57],[24.71,45.6],[24.65,45.78],[24.75,45.82],[24.72,45.91],[24.84,45.95],[25.03,46.13],[25.33,46.16],[25.57,46.04],[25.56,45.85],[25.67,45.75],[25.89,45.72],[26.1,45.56],[26.05,45.48],[25.92,45.51],[25.85,45.44],[25.65,45.49],[25.43,45.45]]]}},{"type":"Feature","properties":{"id":"ROU-SB","nome":"Sibiu","pais":"ROU","tipo":"County","lat":45.9,"lng":24.3},"geometry":{"type":"Polygon","coordinates":[[[24.71,45.6],[23.63,45.45],[23.61,45.69],[23.76,45.85],[23.71,45.93],[23.84,45.93],[23.87,46.02],[24.01,46],[24.19,46.16],[24.19,46.24],[24.67,46.27],[24.71,46.08],[24.98,46.06],[24.72,45.91],[24.75,45.82],[24.65,45.78],[24.71,45.6]]]}},{"type":"Feature","properties":{"id":"ROU-MS","nome":"Mures","pais":"ROU","tipo":"County","lat":46.59,"lng":24.63},"geometry":{"type":"Polygon","coordinates":[[[24,46.45],[23.97,46.49],[24.05,46.62],[24.12,46.64],[24.17,46.78],[24.48,46.77],[24.58,46.89],[24.74,46.89],[24.82,47.02],[25.07,47.1],[25.2,47.08],[25.26,46.98],[25.28,46.67],[24.87,46.33],[25.19,46.14],[25.03,46.13],[24.98,46.06],[24.72,46.08],[24.67,46.27],[24.19,46.24],[24,46.45]]]}},{"type":"Feature","properties":{"id":"ROU-HR","nome":"Harghita","pais":"ROU","tipo":"County","lat":46.64,"lng":25.59},"geometry":{"type":"Polygon","coordinates":[[[25.99,46.11],[25.85,46.14],[25.69,46.29],[25.45,46.11],[25.31,46.17],[25.19,46.14],[24.88,46.32],[25.03,46.51],[25.28,46.67],[25.27,46.97],[25.2,47.08],[25.39,47.14],[25.57,47.05],[25.74,47.04],[25.87,46.91],[25.82,46.87],[25.83,46.69],[25.9,46.63],[25.92,46.68],[26.01,46.67],[26.07,46.49],[26.02,46.41],[26.15,46.38],[26.17,46.31],[26.3,46.31],[26.25,46.15],[25.99,46.11]]]}},{"type":"Feature","properties":{"id":"ROU-NT","nome":"Neamt","pais":"ROU","tipo":"County","lat":46.97,"lng":26.46},"geometry":{"type":"Polygon","coordinates":[[[25.86,46.88],[25.67,47.06],[25.82,47.21],[25.78,47.28],[25.89,47.23],[26.42,47.29],[26.66,47.07],[26.91,47.01],[27.15,47.08],[27.24,46.99],[27.14,46.94],[27.23,46.74],[26.97,46.74],[26.89,46.81],[26.83,46.72],[26.71,46.74],[26.39,46.63],[26.3,46.63],[26.25,46.7],[26.12,46.66],[25.93,46.68],[25.89,46.63],[25.83,46.69],[25.82,46.87],[25.86,46.88]]]}},{"type":"Feature","properties":{"id":"ROU-BC","nome":"Bacau","pais":"ROU","tipo":"County","lat":46.41,"lng":26.76},"geometry":{"type":"Polygon","coordinates":[[[26.48,46.02],[26.34,46.18],[26.25,46.15],[26.29,46.32],[26.17,46.31],[26.15,46.38],[26.02,46.41],[26.07,46.49],[26.01,46.67],[26.25,46.7],[26.3,46.63],[26.41,46.64],[26.71,46.74],[26.83,46.72],[26.89,46.81],[26.97,46.74],[27.23,46.74],[27.32,46.67],[27.5,46.34],[27.52,46.16],[27.31,46.17],[27.11,46.08],[26.67,46.08],[26.6,46.01],[26.48,46.02]]]}},{"type":"Feature","properties":{"id":"ROU-AB","nome":"Alba","pais":"ROU","tipo":"County","lat":46.15,"lng":23.57},"geometry":{"type":"Polygon","coordinates":[[[22.81,46.31],[22.69,46.42],[22.74,46.57],[23,46.53],[23.08,46.46],[23.4,46.53],[23.62,46.47],[23.65,46.4],[24.03,46.45],[24.02,46.38],[24.14,46.31],[24.2,46.18],[24.01,46],[23.87,46.02],[23.84,45.93],[23.7,45.92],[23.76,45.85],[23.61,45.71],[23.65,45.48],[23.58,45.45],[23.57,45.5],[23.41,45.6],[23.32,45.88],[23.07,46.1],[23.07,46.18],[22.97,46.22],[22.91,46.32],[22.81,46.31]]]}},{"type":"Feature","properties":{"id":"ROU-BR","nome":"Braila","pais":"ROU","tipo":"County","lat":45.13,"lng":27.62},"geometry":{"type":"Polygon","coordinates":[[[27.42,45.39],[27.58,45.49],[28.03,45.4],[27.99,45.29],[28.12,45.25],[28.1,45.18],[28.18,45.13],[28.05,44.78],[27.2,44.82],[27.17,44.91],[27.25,44.95],[27.27,45.05],[27.21,45.06],[27.15,45.18],[27.08,45.16],[27.06,45.2],[27.3,45.23],[27.42,45.39]]]}},{"type":"Feature","properties":{"id":"ROU-IL","nome":"Ialomita","pais":"ROU","tipo":"County","lat":44.63,"lng":27.19},"geometry":{"type":"Polygon","coordinates":[[[26.43,44.52],[26.37,44.56],[26.44,44.64],[26.27,44.76],[26.6,44.87],[27.05,44.82],[27.13,44.76],[27.2,44.82],[27.83,44.81],[27.91,44.78],[27.9,44.71],[28.03,44.64],[28,44.54],[28.11,44.44],[28.02,44.35],[27.47,44.51],[27.1,44.49],[26.71,44.56],[26.43,44.52]]]}},{"type":"Feature","properties":{"id":"ROU-B","nome":"Bucharest","pais":"ROU","tipo":"City","lat":44.47,"lng":26.1},"geometry":{"type":"Polygon","coordinates":[[[26.1,44.59],[26.21,44.43],[26.15,44.41],[26.14,44.33],[25.98,44.43],[26.04,44.47],[25.99,44.51],[26.1,44.59]]]}}]}