{"type":"FeatureCollection","features":[{"type":"Feature","properties":{"id":"RWA-02","nome":"Eastern","pais":"RWA","tipo":"Province","lat":-1.69,"lng":30.42},"geometry":{"type":"Polygon","coordinates":[[[30.42,-2.31],[30.21,-2.34],[30.12,-2.43],[29.96,-2.33],[30.02,-2.07],[30.17,-2.03],[30.21,-2.07],[30.27,-1.94],[30.26,-1.7],[30.07,-1.39],[30.26,-1.22],[30.34,-1.07],[30.45,-1.06],[30.56,-1.32],[30.74,-1.41],[30.74,-1.49],[30.83,-1.59],[30.8,-1.93],[30.89,-2.08],[30.84,-2.33],[30.79,-2.37],[30.52,-2.4],[30.42,-2.31]]]}},{"type":"Feature","properties":{"id":"RWA-05","nome":"Southern","pais":"RWA","tipo":"Province","lat":-2.38,"lng":29.64},"geometry":{"type":"Polygon","coordinates":[[[29.96,-2.33],[29.84,-2.75],[29.34,-2.83],[29.31,-2.69],[29.36,-2.61],[29.27,-2.47],[29.34,-2.3],[29.61,-2.18],[29.62,-1.97],[29.67,-1.95],[29.66,-1.73],[29.98,-1.91],[30.02,-2.11],[29.96,-2.33]]]}},{"type":"Feature","properties":{"id":"RWA-04","nome":"Western","pais":"RWA","tipo":"Province","lat":-2.13,"lng":29.26},"geometry":{"type":"Polygon","coordinates":[[[29.31,-2.69],[29.11,-2.59],[29.03,-2.62],[29.02,-2.72],[28.94,-2.69],[28.86,-2.42],[29.13,-2.2],[29.15,-1.8],[29.34,-1.52],[29.45,-1.5],[29.63,-1.59],[29.67,-1.95],[29.62,-1.97],[29.61,-2.18],[29.33,-2.31],[29.27,-2.47],[29.36,-2.61],[29.31,-2.69]]]}},{"type":"Feature","properties":{"id":"RWA-03","nome":"Northern","pais":"RWA","tipo":"Province","lat":-1.61,"lng":29.86},"geometry":{"type":"Polygon","coordinates":[[[29.92,-1.48],[30.08,-1.39],[30.18,-1.52],[30.27,-1.82],[30.13,-1.78],[30,-1.84],[29.98,-1.91],[29.82,-1.85],[29.63,-1.71],[29.63,-1.59],[29.45,-1.5],[29.54,-1.4],[29.82,-1.32],[29.92,-1.48]]]}},{"type":"Feature","properties":{"id":"RWA-01","nome":"Kigali City","pais":"RWA","tipo":"Province","lat":-1.93,"lng":30.13},"geometry":{"type":"Polygon","coordinates":[[[30.02,-2.07],[30,-1.84],[30.13,-1.78],[30.25,-1.84],[30.27,-1.94],[30.21,-2.07],[30.17,-2.03],[30.02,-2.07]]]}}]}