{"type":"FeatureCollection","features":[{"type":"Feature","properties":{"id":"SAH-X01~","nome":"Western Sahara","pais":"SAH","tipo":"Estado","lat":23.81,"lng":-12.89},"geometry":{"type":"Polygon","coordinates":[[[-9.08,27.09],[-8.75,27.15],[-8.82,27.66],[-8.68,27.66],[-8.69,26],[-12.02,25.99],[-12.02,23.46],[-12.62,23.27],[-13.02,23.02],[-13.15,22.82],[-13.02,21.33],[-16.96,21.33],[-17.08,20.9],[-17.06,20.77],[-17.1,20.86],[-17.01,21.42],[-16.04,21.5],[-14.97,21.44],[-14.75,21.5],[-14.61,21.75],[-14.63,21.86],[-14.22,22.31],[-14.1,23.1],[-13.89,23.69],[-13.77,23.79],[-13.31,23.98],[-12.99,24.47],[-12.43,24.83],[-12.06,25.99],[-11.72,26.1],[-11.51,26.47],[-11.34,26.63],[-11.32,26.74],[-11.39,26.88],[-10.76,27.02],[-10.25,26.86],[-10.03,26.91],[-9.82,26.85],[-9.41,27.09],[-9.08,27.09]]]}}]}