{"type":"FeatureCollection","features":[{"type":"Feature","properties":{"id":"SAU-04","nome":"Ash Sharqiyah","pais":"SAU","tipo":"Region","lat":22.99,"lng":50.17},"geometry":{"type":"Polygon","coordinates":[[[50.81,24.75],[50.98,24.57],[51.27,24.62],[51.3,24.52],[51.4,24.63],[51.5,24.58],[51.34,24.45],[51.28,24.31],[51.41,24.32],[51.57,24.26],[51.59,24.08],[52.56,22.94],[55.11,22.62],[55.19,22.7],[55.64,21.98],[54.98,20],[51.98,19],[49.04,18.58],[48.16,18.15],[47.59,17.46],[47.43,17.09],[48.3,23.65],[48.29,24],[48.14,24.27],[47.5,24.79],[47.43,26.26],[47.06,26.41],[46.83,26.62],[46.59,26.61],[46.23,26.82],[45.93,26.85],[45.69,27.05],[45.25,27.23],[45.13,27.44],[44.95,27.58],[44.97,27.74],[45.7,28.76],[45.94,28.91],[46.43,29.08],[47.43,28.99],[47.67,28.53],[48.43,28.54],[48.5,28.49],[48.47,28.39],[48.54,28.41],[48.52,28.32],[48.62,28.22],[48.65,28.05],[48.79,28.01],[48.74,27.96],[48.88,27.83],[48.84,27.73],[48.86,27.8],[48.81,27.76],[48.81,27.83],[48.78,27.72],[48.88,27.69],[48.83,27.61],[48.9,27.63],[48.91,27.57],[48.97,27.62],[49.06,27.54],[49.24,27.55],[49.31,27.45],[49.12,27.44],[49.26,27.41],[49.22,27.33],[49.31,27.34],[49.32,27.21],[49.41,27.2],[49.37,27.15],[49.52,27.13],[49.49,27.17],[49.57,27.19],[49.57,27.1],[49.7,26.96],[49.97,26.84],[50.16,26.66],[49.99,26.72],[50.03,26.49],[50.19,26.4],[50.22,26.32],[50.14,26.04],[50.03,26.2],[49.98,26.14],[49.99,26],[50.02,26.04],[50.1,25.99],[50.26,25.63],[50.15,25.7],[50.35,25.48],[50.38,25.51],[50.47,25.44],[50.56,25.05],[50.73,24.88],[50.76,24.74],[50.81,24.75]]]}},{"type":"Feature","properties":{"id":"SAU-08","nome":"Al Hudud ash Shamaliyah","pais":"SAU","tipo":"Region","lat":29.23,"lng":43.31},"geometry":{"type":"Polygon","coordinates":[[[39.16,32.12],[40.42,31.92],[42.08,31.08],[44.69,29.2],[46.43,29.08],[45.8,28.84],[45.62,28.68],[45.21,28.02],[44.97,27.74],[44.94,27.62],[44.99,27.53],[44.9,27.46],[44.53,27.75],[44.09,27.84],[43.72,28.42],[43.47,28.32],[43.12,28.38],[43.03,28.43],[42.97,28.6],[42.67,28.53],[42.39,28.74],[42,28.83],[41.69,28.8],[41.34,28.88],[40.74,28.76],[40.54,28.82],[40.71,28.98],[40.79,29.42],[41.75,29.96],[41.9,30.12],[41.68,30.28],[41.53,30.5],[41.18,30.56],[40.92,30.72],[40.18,30.74],[39.87,30.87],[39.19,30.96],[38.26,30.89],[38.15,30.93],[37.88,31.21],[37.87,31.37],[37.99,31.75],[38.96,31.99],[39.16,32.12]]]}},{"type":"Feature","properties":{"id":"SAU-12","nome":"Al Jawf","pais":"SAU","tipo":"Region","lat":29.56,"lng":38.37},"geometry":{"type":"Polygon","coordinates":[[[36.02,29.19],[36.48,29.49],[36.73,29.85],[37.47,29.99],[37.65,30.33],[37.98,30.5],[36.96,31.49],[37.99,31.75],[37.87,31.24],[38.19,30.9],[39.19,30.96],[39.87,30.87],[40.18,30.74],[40.88,30.73],[41.18,30.56],[41.53,30.5],[41.68,30.28],[41.9,30.1],[41.75,29.96],[40.79,29.42],[40.71,28.98],[40.54,28.82],[40.08,28.69],[39.16,28.3],[39,28.17],[38.9,28.21],[38.66,28.14],[38.6,28.23],[38.13,28.25],[37.91,28.31],[37.78,28.46],[37.77,28.81],[37.72,28.87],[37.55,28.75],[37.43,28.57],[36.85,28.64],[36.49,28.56],[36.41,28.58],[36.12,28.91],[35.86,28.98],[35.37,28.93],[35.22,28.86],[34.83,28.89],[34.95,29.35],[36.02,29.19]]]}},{"type":"Feature","properties":{"id":"SAU-10","nome":"Najran","pais":"SAU","tipo":"Region","lat":18.29,"lng":45.69},"geometry":{"type":"Polygon","coordinates":[[[47.43,17.09],[47.16,16.95],[46.98,16.95],[46.71,17.28],[46.32,17.22],[45.43,17.31],[45.17,17.43],[44.15,17.4],[43.92,17.3],[43.89,17.35],[43.75,17.35],[43.64,17.44],[43.68,18],[43.64,18.19],[44.08,18.71],[44.37,18.85],[44.4,19],[44.36,19.19],[44.51,19.33],[44.52,19.51],[44.92,19.3],[45.27,19.26],[47.75,19.53],[47.43,17.09]]]}},{"type":"Feature","properties":{"id":"SAU-14","nome":"`Asir","pais":"SAU","tipo":"Region","lat":19.35,"lng":42.95},"geometry":{"type":"Polygon","coordinates":[[[43.64,17.44],[43.49,17.52],[43.34,17.48],[42.96,17.87],[42.93,17.99],[42.77,17.93],[42.68,17.68],[42.63,17.66],[42.42,17.89],[42.19,17.91],[42.1,18.03],[41.94,18.05],[41.93,18.3],[41.77,18.31],[41.81,18.5],[41.72,18.74],[41.4,18.84],[41.4,19.18],[41.47,19.15],[41.86,19.28],[41.87,19.74],[41.8,19.81],[41.7,19.8],[41.84,20.18],[42.03,20.33],[41.98,20.47],[42.03,20.62],[42.15,20.4],[42.26,20.35],[42.92,20.8],[43.22,20.86],[43.37,20.84],[43.67,20.98],[44.06,20.56],[43.94,20.11],[44.11,19.87],[44.52,19.51],[44.51,19.35],[44.37,19.22],[44.37,18.85],[44.08,18.71],[43.65,18.22],[43.64,17.44]]]}},{"type":"Feature","properties":{"id":"SAU-09","nome":"Jizan","pais":"SAU","tipo":"Region","lat":17.3,"lng":42.73},"geometry":{"type":"MultiPolygon","coordinates":[[[[43.19,16.68],[43.08,16.67],[43.04,16.54],[42.79,16.37],[42.71,16.73],[42.58,16.83],[42.54,17],[42.36,17.18],[42.36,17.02],[42.31,17.44],[41.72,17.91],[41.59,18.1],[41.64,18.2],[41.77,18.31],[41.92,18.31],[41.93,18.06],[42.1,18.03],[42.19,17.91],[42.42,17.89],[42.63,17.66],[42.68,17.68],[42.77,17.93],[42.93,17.99],[42.96,17.87],[43.34,17.48],[43.17,17.33],[43.25,17.27],[43.16,17.21],[43.12,17.09],[43.11,16.91],[43.21,16.8],[43.19,16.68]]],[[[42.19,16.71],[42.18,16.58],[42.07,16.64],[42.12,16.66],[42.09,16.69],[41.96,16.67],[41.78,16.81],[41.76,16.9],[41.91,16.75],[42.03,16.72],[42.06,16.81],[42.19,16.71]]]]}},{"type":"Feature","properties":{"id":"SAU-07","nome":"Tabuk","pais":"SAU","tipo":"Region","lat":27.91,"lng":36.8},"geometry":{"type":"Polygon","coordinates":[[[37.38,24.54],[37.15,24.85],[37.26,24.87],[37.24,25.18],[36.94,25.65],[36.82,25.76],[36.79,25.72],[36.7,25.78],[36.66,25.88],[36.7,26.02],[36.51,26.11],[36.03,26.91],[35.56,27.46],[35.32,27.88],[35.16,28.01],[35.22,28.05],[35.05,28.12],[34.85,28.07],[34.84,28.12],[34.8,28.07],[34.82,28.11],[34.71,28.14],[34.61,28.03],[34.57,28.09],[34.66,28.17],[34.8,28.53],[34.78,28.66],[34.84,28.88],[35.22,28.86],[35.37,28.93],[35.86,28.98],[36.12,28.91],[36.41,28.58],[36.49,28.56],[36.85,28.64],[37.43,28.57],[37.55,28.75],[37.74,28.86],[37.78,28.46],[37.91,28.31],[38.13,28.25],[38.6,28.23],[38.69,28.14],[38.93,28.21],[39.47,28.02],[39.79,27.8],[39.93,27.34],[40.17,27.19],[39.96,26.94],[39.82,26.66],[39.72,26.73],[39.15,26.68],[38.83,26.83],[38.76,26.93],[38.7,26.83],[38.53,26.88],[38.32,26.79],[38.2,27.03],[37.94,27.1],[37.75,27.39],[37.5,27.29],[37.22,27.38],[36.79,27.22],[36.99,27.12],[37.02,26.71],[37.25,26.59],[37.17,26.34],[37.27,26.08],[37.37,26.11],[37.56,26.01],[37.79,25.75],[37.88,25.5],[38.02,25.45],[37.99,24.84],[37.43,24.66],[37.38,24.54]]]}},{"type":"Feature","properties":{"id":"SAU-03","nome":"Al Madinah","pais":"SAU","tipo":"Region","lat":24.93,"lng":39.44},"geometry":{"type":"Polygon","coordinates":[[[38.64,23.42],[38.44,23.8],[37.94,24.14],[37.98,24.17],[37.94,24.16],[37.95,24.21],[37.87,24.15],[37.68,24.29],[37.63,24.25],[37.52,24.27],[37.43,24.37],[37.46,24.42],[37.38,24.54],[37.43,24.66],[37.99,24.84],[38.02,25.45],[37.88,25.5],[37.79,25.75],[37.56,26.01],[37.37,26.11],[37.27,26.08],[37.17,26.34],[37.26,26.57],[37.02,26.71],[36.99,27.12],[36.92,27.18],[36.78,27.18],[36.8,27.23],[37.22,27.38],[37.5,27.29],[37.75,27.39],[37.94,27.1],[38.2,27.03],[38.32,26.79],[38.53,26.88],[38.7,26.83],[38.74,26.93],[38.83,26.83],[39.15,26.68],[39.74,26.73],[39.84,26.59],[39.79,26.36],[39.96,26.31],[39.9,25.92],[39.99,25.34],[40.09,25.31],[40.61,25.41],[40.87,25.59],[41.61,25.49],[41.66,25.41],[41.65,25.1],[41.87,25],[41.98,24.7],[42.1,24.61],[42,24.41],[41.99,23.95],[41.75,23.94],[41.76,23.73],[41.72,23.64],[41.28,23.38],[41.45,23.25],[41.44,23.2],[41.23,23.09],[40.64,22.58],[40.44,22.62],[40.24,22.5],[40.1,22.5],[40.07,22.72],[39.89,22.82],[39.95,23.05],[39.91,23.15],[39.49,23.07],[39.42,23.18],[39.18,23.18],[38.93,23.44],[38.64,23.42]]]}},{"type":"Feature","properties":{"id":"SAU-02","nome":"Makkah","pais":"SAU","tipo":"Region","lat":21.43,"lng":40.25},"geometry":{"type":"Polygon","coordinates":[[[41.6,18.12],[41.49,18.22],[41.43,18.47],[41.21,18.7],[41.25,18.83],[41.14,18.94],[41.18,19.07],[41.07,19.13],[41.04,19.26],[40.96,19.34],[40.94,19.51],[40.76,19.61],[40.8,19.69],[40.74,19.78],[40.66,19.76],[40.53,19.96],[40.08,20.28],[39.9,20.31],[39.94,20.26],[39.76,20.35],[39.57,20.57],[39.51,20.75],[39.42,20.77],[39.45,20.83],[39.3,20.92],[39.17,21.11],[39.08,21.32],[39.17,21.4],[39.09,21.58],[39.11,21.75],[39.07,21.73],[38.93,22.01],[39.01,22],[39.04,22.24],[39.14,22.4],[39.07,22.37],[39.08,22.55],[38.99,22.72],[39.01,22.77],[38.95,22.83],[38.97,22.75],[38.9,22.84],[38.85,22.94],[38.91,22.86],[38.96,22.87],[38.89,22.97],[38.8,23],[38.8,23.15],[38.64,23.42],[38.93,23.44],[39.18,23.18],[39.42,23.18],[39.49,23.07],[39.91,23.15],[39.95,23.05],[39.89,22.82],[40.07,22.72],[40.08,22.51],[40.21,22.49],[40.41,22.62],[40.66,22.59],[41.23,23.09],[41.42,23.19],[41.45,23.25],[41.3,23.34],[41.29,23.4],[41.72,23.64],[41.76,23.73],[41.75,23.94],[41.99,23.95],[41.99,23.77],[42.11,23.66],[42.38,22.97],[42.94,22.89],[43.01,22.84],[42.99,22.63],[43.04,22.55],[43.49,22.5],[43.51,21.96],[43.43,21.8],[43.39,21.38],[43.67,20.98],[43.37,20.84],[43.22,20.86],[42.92,20.8],[42.26,20.35],[42.17,20.38],[41.98,20.67],[41.51,20.57],[41.41,20.73],[41.31,20.76],[41.23,20.69],[41.26,20.5],[41.14,20.26],[40.91,20.19],[40.8,20.08],[40.95,19.95],[40.98,19.56],[41.22,19.37],[41.35,19.4],[41.51,19.77],[41.79,19.82],[41.86,19.76],[41.83,19.55],[41.89,19.38],[41.85,19.26],[41.39,19.15],[41.41,18.82],[41.71,18.76],[41.81,18.5],[41.75,18.27],[41.6,18.12]]]}},{"type":"Feature","properties":{"id":"SAU-01","nome":"Ar Riyad","pais":"SAU","tipo":"Region","lat":23.34,"lng":45.14},"geometry":{"type":"Polygon","coordinates":[[[44.67,25.57],[44.74,25.66],[44.68,26],[44.38,26.36],[44.39,26.63],[44.84,26.99],[44.82,27.1],[44.61,27.27],[44.67,27.43],[44.8,27.52],[44.9,27.46],[45,27.53],[45.15,27.42],[45.25,27.23],[45.69,27.05],[45.91,26.86],[46.23,26.82],[46.59,26.61],[46.83,26.62],[47.06,26.41],[47.45,26.23],[47.5,24.79],[48.14,24.27],[48.27,24.07],[48.3,23.88],[47.75,19.53],[45.27,19.26],[44.92,19.3],[44.52,19.51],[44.11,19.87],[43.94,20.11],[44.06,20.56],[43.67,20.98],[43.39,21.36],[43.43,21.8],[43.51,21.96],[43.49,22.5],[43.31,22.55],[43.06,22.54],[42.99,22.6],[43.01,22.82],[42.96,22.88],[42.46,22.93],[42.35,23],[42.11,23.66],[41.98,23.79],[42,24.41],[42.18,24.74],[42.27,24.79],[42.51,24.7],[43.05,24.69],[43.13,24.78],[43.11,24.96],[43.3,25.17],[43.72,25.28],[44.02,25.57],[44.67,25.57]]]}},{"type":"Feature","properties":{"id":"SAU-05","nome":"Al Quassim","pais":"SAU","tipo":"Region","lat":25.95,"lng":43.27},"geometry":{"type":"Polygon","coordinates":[[[44.63,27.22],[44.8,27.12],[44.84,26.99],[44.39,26.65],[44.38,26.39],[44.68,26],[44.71,25.58],[44.02,25.57],[43.72,25.28],[43.3,25.17],[43.11,24.96],[43.13,24.78],[43.05,24.69],[42.51,24.7],[42.27,24.79],[42.1,24.61],[41.99,24.69],[41.87,25],[41.65,25.1],[41.64,25.45],[41.41,25.54],[41.95,25.73],[41.9,25.92],[41.96,25.97],[42.14,25.94],[42.14,26.12],[42.2,26.24],[42.35,26.27],[42.54,26.51],[42.92,26.77],[43.18,26.88],[43.42,27.13],[43.87,27.33],[44.27,27.09],[44.48,27.07],[44.63,27.22]]]}},{"type":"Feature","properties":{"id":"SAU-06","nome":"Ha'il","pais":"SAU","tipo":"Region","lat":27.27,"lng":41.71},"geometry":{"type":"Polygon","coordinates":[[[44.46,27.07],[44.24,27.09],[43.94,27.32],[43.8,27.3],[43.34,27.09],[43.18,26.88],[42.92,26.77],[42.54,26.51],[42.35,26.27],[42.2,26.24],[42.14,26.12],[42.14,25.94],[41.96,25.97],[41.9,25.92],[41.93,25.71],[41.41,25.54],[40.84,25.59],[40.61,25.41],[40.04,25.31],[39.95,25.42],[39.9,25.92],[39.96,26.31],[39.81,26.35],[39.78,26.41],[39.84,26.55],[39.82,26.66],[39.92,26.88],[40.17,27.19],[39.93,27.34],[39.81,27.75],[39.73,27.85],[39.43,28.04],[39,28.17],[39.16,28.3],[40.46,28.83],[40.74,28.76],[41.34,28.88],[41.69,28.8],[42,28.83],[42.39,28.74],[42.67,28.53],[42.97,28.6],[43.09,28.39],[43.47,28.32],[43.68,28.41],[43.76,28.39],[44.09,27.84],[44.53,27.75],[44.79,27.55],[44.62,27.36],[44.63,27.22],[44.46,27.07]]]}},{"type":"Feature","properties":{"id":"SAU-11","nome":"Al Bahah","pais":"SAU","tipo":"Region","lat":20.16,"lng":41.42},"geometry":{"type":"Polygon","coordinates":[[[42.03,20.62],[41.98,20.47],[42.03,20.33],[41.84,20.18],[41.7,19.8],[41.5,19.76],[41.35,19.4],[41.19,19.38],[40.97,19.58],[40.95,19.95],[40.8,20.08],[40.91,20.19],[41.14,20.26],[41.25,20.47],[41.23,20.68],[41.29,20.75],[41.41,20.73],[41.51,20.57],[41.93,20.68],[42.03,20.62]]]}}]}