{"type":"FeatureCollection","features":[{"type":"Feature","properties":{"id":"SDS-EE","nome":"Eastern Equatoria","pais":"SDS","tipo":"State","lat":4.8,"lng":33.54},"geometry":{"type":"Polygon","coordinates":[[[35.27,5.49],[35.25,5.44],[35.32,5.35],[35.47,5.43],[35.8,5.32],[35.75,4.85],[35.92,4.62],[35.78,4.62],[35.74,4.68],[35.7,4.59],[35.61,4.62],[35.52,4.78],[35.57,4.9],[35.4,4.93],[35.41,5.03],[34.38,4.62],[33.49,3.75],[33.16,3.76],[33,3.89],[32.76,3.77],[32.37,3.73],[32.19,3.62],[32.16,3.51],[31.93,3.6],[31.8,3.81],[31.91,4.08],[32.09,4.24],[32.33,4.79],[32.19,5.16],[32.21,5.9],[34.19,5.78],[34.97,6.01],[34.97,5.86],[35.1,5.62],[35.27,5.49]]]}},{"type":"Feature","properties":{"id":"SDS-BW","nome":"Western Bahr el Ghazal","pais":"SDS","tipo":"State","lat":7.31,"lng":26.38},"geometry":{"type":"Polygon","coordinates":[[[24.26,8.27],[24.12,8.37],[24.25,8.58],[24.24,8.68],[24.18,8.71],[24.38,8.84],[24.56,8.89],[24.68,9.37],[24.79,9.52],[24.8,9.82],[24.98,9.97],[25.07,10.27],[25.84,10.42],[25.9,10.19],[26.1,9.99],[26.07,8.91],[26.15,8.29],[26.25,8.09],[26.73,7.81],[27.7,8.25],[27.96,7.89],[28.19,7.83],[28.55,7.62],[28.61,7.41],[28.64,6.74],[28.12,6.69],[27.94,6.82],[26.38,6.63],[26.09,6.83],[26.03,7],[25.35,7.35],[25.16,7.57],[25.28,7.66],[25.23,7.85],[25.03,7.92],[24.83,8.17],[24.26,8.27]]]}},{"type":"Feature","properties":{"id":"SDS-EW","nome":"Western Equatoria","pais":"SDS","tipo":"State","lat":5.41,"lng":28.62},"geometry":{"type":"Polygon","coordinates":[[[26.46,6.22],[26.27,6.47],[26.38,6.63],[27.94,6.82],[28.12,6.69],[28.64,6.74],[28.62,6.29],[28.94,5.86],[29.15,5.74],[29.65,5.7],[29.91,6.11],[29.92,6.46],[30.18,6.48],[30.44,6.12],[30.94,5.63],[30.96,5.54],[30.88,5.34],[30.86,5.01],[30.56,4.87],[30.35,4.69],[30.16,4.79],[30.09,4.78],[29.79,4.54],[29.46,4.67],[29.39,4.49],[29.22,4.34],[28.99,4.5],[28.79,4.49],[28.76,4.55],[28.38,4.28],[28.3,4.35],[28.18,4.35],[28.1,4.44],[28.05,4.42],[28.01,4.55],[27.77,4.6],[27.75,4.78],[27.64,4.89],[27.51,4.92],[27.26,5.26],[27.22,5.43],[27.26,5.58],[27.18,5.71],[26.98,5.86],[26.82,5.89],[26.78,5.98],[26.54,6.03],[26.48,6.1],[26.42,6.07],[26.51,6.19],[26.46,6.22]]]}},{"type":"Feature","properties":{"id":"SDS-EC","nome":"Central Equatoria","pais":"SDS","tipo":"State","lat":4.68,"lng":31.29},"geometry":{"type":"Polygon","coordinates":[[[29.81,4.35],[29.78,4.53],[30.09,4.78],[30.16,4.79],[30.35,4.69],[30.56,4.87],[30.86,5.01],[30.88,5.34],[30.96,5.58],[30.44,6.12],[30.87,6.19],[31.18,5.98],[31.58,5.89],[31.67,5.93],[32.21,5.9],[32.19,5.16],[32.33,4.79],[32.09,4.24],[31.91,4.08],[31.8,3.81],[31.69,3.71],[31.52,3.66],[31.17,3.79],[30.94,3.68],[30.84,3.49],[30.75,3.67],[30.54,3.61],[30.53,3.87],[30.19,3.96],[30.12,4.1],[29.92,4.25],[29.93,4.31],[29.81,4.35]]]}},{"type":"Feature","properties":{"id":"SDS-NU","nome":"Upper Nile","pais":"SDS","tipo":"State","lat":10.36,"lng":32.53},"geometry":{"type":"Polygon","coordinates":[[[34.11,8.6],[33.97,8.45],[33.75,8.37],[33.62,8.46],[33.24,8.46],[33.16,8.36],[33.19,8.14],[33.01,7.94],[32.84,8.03],[32.88,8.36],[32.61,8.57],[32.36,9.02],[31.95,8.87],[31.53,9.36],[31.41,9.35],[30.94,9.52],[30.95,9.75],[31.23,9.79],[31.8,10.38],[31.94,10.66],[32.43,11.08],[32.35,11.31],[32.35,11.7],[32.08,12],[32.75,12],[32.73,12.22],[33.21,12.21],[33.08,11.6],[33.18,10.84],[33.14,10.74],[33.38,10.65],[33.92,10.17],[33.97,9.85],[33.88,9.5],[33.9,9.46],[34.07,9.45],[34.11,8.6]]]}},{"type":"Feature","properties":{"id":"SDS-JG","nome":"Jonglei","pais":"SDS","tipo":"State","lat":7.25,"lng":32.58},"geometry":{"type":"Polygon","coordinates":[[[33.01,7.94],[33.05,7.8],[33.35,7.72],[33.46,7.75],[33.88,7.54],[34.02,7.38],[34.03,7.25],[34.18,7.17],[34.21,7.05],[34.5,6.89],[34.54,6.74],[34.7,6.68],[34.97,6.01],[34.19,5.78],[31.65,5.94],[31.24,6.74],[31.06,6.92],[30.85,7.03],[30.54,7.51],[30.57,7.56],[30.49,7.66],[30.55,7.8],[30.38,8.12],[30.31,8.15],[30.36,8.46],[30.28,8.56],[30.31,8.69],[30.23,8.76],[30.19,8.99],[30.36,9.2],[30.32,9.35],[30.5,9.54],[30.96,9.51],[31.41,9.35],[31.53,9.36],[31.95,8.87],[32.34,9.03],[32.61,8.57],[32.88,8.36],[32.84,8.03],[33.01,7.94]]]}},{"type":"Feature","properties":{"id":"SDS-UY","nome":"Unity","pais":"SDS","tipo":"State","lat":9,"lng":29.89},"geometry":{"type":"Polygon","coordinates":[[[30.78,9.72],[30.95,9.75],[30.94,9.52],[30.49,9.53],[30.32,9.35],[30.36,9.2],[30.19,8.99],[30.23,8.76],[30.31,8.69],[30.28,8.56],[30.36,8.46],[30.31,8.15],[30.38,8.12],[30.55,7.8],[30.49,7.66],[30.57,7.56],[30.54,7.51],[30.82,7.08],[30.33,7.09],[30.21,7.13],[29.88,7.8],[29.7,7.82],[29.64,8.45],[29.35,8.64],[29.1,9.03],[28.83,9.03],[28.89,9.2],[29,9.27],[28.84,9.32],[28.83,9.43],[29.13,9.67],[29.48,9.76],[29.61,9.91],[29.62,10.06],[30.01,10.27],[30.78,9.72]]]}},{"type":"Feature","properties":{"id":"SDS-BN","nome":"Northern Bahr el Ghazal","pais":"SDS","tipo":"State","lat":8.9,"lng":27.54},"geometry":{"type":"Polygon","coordinates":[[[27.9,9.6],[28.05,9.33],[28.84,9.32],[29,9.27],[28.89,9.2],[28.83,9.03],[27.93,8.97],[27.7,8.25],[26.79,7.82],[26.63,7.83],[26.25,8.09],[26.15,8.29],[26.07,8.91],[26.1,9.99],[26.63,9.48],[27.08,9.61],[27.9,9.6]]]}},{"type":"Feature","properties":{"id":"SDS-LK","nome":"Lakes","pais":"SDS","tipo":"State","lat":6.88,"lng":30.14},"geometry":{"type":"Polygon","coordinates":[[[29.7,7.82],[29.9,7.78],[30.21,7.13],[30.82,7.08],[31.06,6.92],[31.32,6.62],[31.67,5.93],[31.58,5.89],[31.18,5.98],[30.87,6.19],[30.44,6.12],[30.18,6.48],[29.92,6.46],[29.91,6.11],[29.65,5.7],[29.15,5.74],[28.94,5.86],[28.62,6.29],[28.64,6.74],[28.84,6.63],[29,6.68],[29.18,7.17],[29.7,7.82]]]}},{"type":"Feature","properties":{"id":"SDS-WR","nome":"Warrap","pais":"SDS","tipo":"State","lat":7.86,"lng":28.7},"geometry":{"type":"Polygon","coordinates":[[[28.37,8.99],[29.1,9.03],[29.35,8.64],[29.66,8.4],[29.7,7.82],[29.18,7.17],[29.02,6.71],[28.91,6.64],[28.8,6.64],[28.64,6.74],[28.61,7.41],[28.55,7.62],[28.19,7.83],[27.96,7.89],[27.7,8.25],[27.91,8.96],[28.37,8.99]]]}}]}