{"type":"FeatureCollection","features":[{"type":"Feature","properties":{"id":"SEN-KE","nome":"Kédougou","pais":"SEN","tipo":"Region","lat":12.84,"lng":-12.19},"geometry":{"type":"Polygon","coordinates":[[[-11.9,13.38],[-11.82,13.31],[-11.74,13.41],[-11.61,13.36],[-11.53,13.11],[-11.45,13.08],[-11.44,12.96],[-11.39,12.98],[-11.47,12.54],[-11.38,12.48],[-11.39,12.4],[-12.1,12.41],[-12.36,12.31],[-12.47,12.38],[-12.59,12.36],[-12.65,12.43],[-12.77,12.44],[-12.91,12.54],[-13.05,12.47],[-13.08,12.64],[-13.34,12.64],[-13.48,12.71],[-13.47,12.89],[-13.62,13.24],[-13.58,13.32],[-13.36,13.34],[-13.31,13.02],[-12.98,13.06],[-12.85,12.98],[-12.74,13.05],[-12.69,13.17],[-12.53,13.18],[-12.45,13.28],[-12.37,13.25],[-12.27,13.31],[-12.28,13.44],[-12.07,13.32],[-11.9,13.38]]]}},{"type":"Feature","properties":{"id":"SEN-TC","nome":"Tambacounda","pais":"SEN","tipo":"Region","lat":13.93,"lng":-13.29},"geometry":{"type":"Polygon","coordinates":[[[-12.26,14.77],[-12.17,14.64],[-12.24,14.52],[-12.22,14.39],[-12.12,14.36],[-12,14.17],[-12.03,13.99],[-11.96,13.83],[-12.1,13.7],[-11.89,13.47],[-11.9,13.38],[-12.07,13.32],[-12.28,13.44],[-12.27,13.31],[-12.37,13.25],[-12.45,13.28],[-12.53,13.18],[-12.69,13.17],[-12.74,13.05],[-12.85,12.98],[-12.98,13.06],[-13.31,13.02],[-13.36,13.34],[-13.58,13.32],[-13.64,13.24],[-13.7,13.37],[-13.77,13.37],[-13.73,13.46],[-13.81,13.47],[-13.8,13.53],[-13.88,13.5],[-13.99,13.58],[-14.37,13.45],[-14.59,13.66],[-14.8,13.64],[-14.86,13.77],[-14.59,14.02],[-14.63,14.51],[-14.4,14.63],[-13.78,14.39],[-13.51,14.4],[-13.22,14.59],[-12.76,14.57],[-12.57,14.89],[-12.69,15.09],[-12.63,15.11],[-12.26,14.77]]]}},{"type":"Feature","properties":{"id":"SEN-KD","nome":"Kolda","pais":"SEN","tipo":"Region","lat":12.96,"lng":-14.42},"geometry":{"type":"Polygon","coordinates":[[[-13.36,12.65],[-15.15,12.68],[-15.13,12.88],[-15.28,13.17],[-15.36,13.21],[-15.34,13.36],[-15.25,13.4],[-15.14,13.59],[-14.7,13.35],[-14.2,13.23],[-13.85,13.34],[-13.82,13.43],[-13.88,13.5],[-13.8,13.54],[-13.81,13.47],[-13.73,13.46],[-13.77,13.37],[-13.69,13.37],[-13.51,13],[-13.48,12.71],[-13.36,12.65]]]}},{"type":"Feature","properties":{"id":"SEN-SE","nome":"Sédhiou","pais":"SEN","tipo":"Region","lat":12.88,"lng":-15.62},"geometry":{"type":"Polygon","coordinates":[[[-15.15,12.68],[-15.68,12.44],[-15.88,12.44],[-15.96,12.6],[-15.59,12.56],[-15.51,12.64],[-15.53,12.78],[-15.39,12.84],[-15.55,12.79],[-15.54,12.65],[-15.64,12.56],[-15.7,12.61],[-15.9,12.6],[-15.98,12.65],[-16.02,12.74],[-15.99,12.93],[-15.92,13.12],[-15.83,13.16],[-15.82,13.33],[-15.34,13.36],[-15.36,13.21],[-15.28,13.17],[-15.13,12.88],[-15.15,12.68]]]}},{"type":"Feature","properties":{"id":"SEN-ZG","nome":"Ziguinchor","pais":"SEN","tipo":"Region","lat":12.48,"lng":-16.34},"geometry":{"type":"MultiPolygon","coordinates":[[[[-15.97,12.44],[-16.22,12.46],[-16.41,12.36],[-16.73,12.33],[-16.8,12.49],[-16.58,12.63],[-16.53,12.57],[-16.5,12.6],[-16.37,12.55],[-16.01,12.63],[-15.88,12.44],[-15.97,12.44]]],[[[-16.67,13.16],[-15.9,13.16],[-16.05,12.66],[-16.37,12.56],[-16.49,12.63],[-16.5,12.71],[-16.51,12.63],[-16.57,12.69],[-16.63,12.67],[-16.6,12.8],[-16.65,12.63],[-16.77,12.58],[-16.76,12.71],[-16.7,12.74],[-16.8,12.72],[-16.8,12.81],[-16.75,13.1],[-16.67,13.16]]]]}},{"type":"Feature","properties":{"id":"SEN-SL","nome":"Saint-Louis","pais":"SEN","tipo":"Region","lat":16.31,"lng":-14.99},"geometry":{"type":"Polygon","coordinates":[[[-14.95,16.67],[-14.34,16.64],[-13.98,16.34],[-13.96,16.23],[-13.84,16.13],[-13.73,16.19],[-13.72,16.14],[-13.76,16.05],[-14.3,15.64],[-14.5,15.75],[-14.7,15.95],[-14.85,16],[-15.43,16],[-15.43,15.93],[-15.59,15.92],[-15.84,16.18],[-16.26,15.84],[-16.54,15.81],[-16.46,16.19],[-16.39,16.23],[-16.27,16.52],[-16.13,16.55],[-16.05,16.5],[-15.67,16.48],[-15.46,16.58],[-15.13,16.58],[-15.11,16.67],[-15.04,16.63],[-14.95,16.67]]]}},{"type":"Feature","properties":{"id":"SEN-MT","nome":"Matam","pais":"SEN","tipo":"Region","lat":15.46,"lng":-13.51},"geometry":{"type":"Polygon","coordinates":[[[-13.72,16.14],[-13.48,16.15],[-13.5,16.1],[-13.44,16.1],[-13.32,15.93],[-13.24,15.62],[-13.11,15.6],[-13.08,15.49],[-12.96,15.51],[-12.92,15.37],[-12.83,15.28],[-12.89,15.25],[-12.79,15.21],[-12.78,15.15],[-12.58,14.95],[-12.73,14.58],[-12.95,14.55],[-13.22,14.59],[-13.51,14.4],[-13.78,14.39],[-14.27,14.56],[-14.36,14.64],[-14.63,14.51],[-14.64,14.56],[-14.84,14.62],[-14.73,14.85],[-14.8,15.04],[-14.54,15.1],[-14.58,15.12],[-14.53,15.37],[-14.78,15.44],[-14.74,15.68],[-14.54,15.8],[-14.3,15.64],[-13.76,16.05],[-13.72,16.14]]]}},{"type":"Feature","properties":{"id":"SEN-KA","nome":"Kaffrine","pais":"SEN","tipo":"Region","lat":14.24,"lng":-15.2},"geometry":{"type":"Polygon","coordinates":[[[-14.86,13.77],[-15.1,13.82],[-15.27,13.74],[-15.58,13.83],[-15.67,13.77],[-15.7,13.9],[-15.85,14.04],[-15.8,14.38],[-15.59,14.54],[-15.43,14.57],[-15.38,14.7],[-15.06,14.6],[-14.9,14.68],[-14.64,14.56],[-14.59,14.02],[-14.86,13.77]]]}},{"type":"Feature","properties":{"id":"SEN-KL","nome":"Kaolack","pais":"SEN","tipo":"Region","lat":13.88,"lng":-15.98},"geometry":{"type":"Polygon","coordinates":[[[-15.5,13.64],[-15.52,13.58],[-16.09,13.59],[-16.24,13.81],[-16.2,13.9],[-16.24,14.1],[-16.38,14.17],[-16.31,14.29],[-16.26,14.34],[-15.8,14.38],[-15.85,14.04],[-15.7,13.9],[-15.67,13.77],[-15.58,13.83],[-15.39,13.77],[-15.5,13.64]]]}},{"type":"Feature","properties":{"id":"SEN-FK","nome":"Fatick","pais":"SEN","tipo":"Region","lat":13.87,"lng":-16.42},"geometry":{"type":"MultiPolygon","coordinates":[[[[-16.09,13.59],[-16.56,13.59],[-16.51,13.74],[-16.6,13.65],[-16.63,13.76],[-16.56,13.85],[-16.49,13.8],[-16.49,14],[-16.55,13.87],[-16.7,13.77],[-16.74,13.96],[-16.58,13.99],[-16.54,14.04],[-16.59,14.04],[-16.44,14.16],[-16.3,14.16],[-16.24,14.1],[-16.2,13.91],[-16.24,13.81],[-16.09,13.59]]],[[[-16.38,14.17],[-16.47,14.19],[-16.65,14],[-16.72,14.02],[-16.65,14.1],[-16.73,14.06],[-16.78,13.84],[-16.81,14.12],[-16.69,14.43],[-16.59,14.47],[-16.52,14.6],[-15.93,14.54],[-15.82,14.61],[-15.77,14.74],[-15.45,14.61],[-15.43,14.57],[-15.59,14.54],[-15.83,14.37],[-16.26,14.34],[-16.38,14.17]]]]}},{"type":"Feature","properties":{"id":"SEN-LG","nome":"Louga","pais":"SEN","tipo":"Region","lat":15.42,"lng":-15.52},"geometry":{"type":"Polygon","coordinates":[[[-16.74,15.48],[-16.54,15.81],[-16.26,15.84],[-15.84,16.18],[-15.59,15.92],[-15.43,15.93],[-15.43,16],[-14.85,16],[-14.59,15.88],[-14.54,15.8],[-14.74,15.68],[-14.78,15.44],[-14.53,15.37],[-14.58,15.12],[-14.54,15.1],[-14.8,15.04],[-14.73,14.85],[-14.82,14.67],[-15.1,14.6],[-15.42,14.72],[-15.46,14.84],[-15.7,14.85],[-15.82,15],[-16.18,14.99],[-16.34,15.32],[-16.45,15.32],[-16.61,15.13],[-16.72,15.28],[-16.69,15.43],[-16.74,15.48]]]}},{"type":"Feature","properties":{"id":"SEN-TH","nome":"Thiès","pais":"SEN","tipo":"Region","lat":14.69,"lng":-16.87},"geometry":{"type":"Polygon","coordinates":[[[-17.18,14.9],[-16.88,15.23],[-16.74,15.48],[-16.69,15.43],[-16.72,15.28],[-16.61,15.13],[-16.45,15.32],[-16.34,15.32],[-16.2,15.01],[-16.13,14.97],[-16.23,14.92],[-16.4,15.01],[-16.66,14.93],[-16.59,14.69],[-16.62,14.62],[-16.53,14.58],[-16.59,14.47],[-16.69,14.43],[-16.81,14.12],[-16.88,14.17],[-16.96,14.39],[-17.11,14.53],[-17.18,14.9]]]}},{"type":"Feature","properties":{"id":"SEN-DK","nome":"Dakar","pais":"SEN","tipo":"Region","lat":14.78,"lng":-17.33},"geometry":{"type":"Polygon","coordinates":[[[-17.15,14.61],[-17.33,14.74],[-17.44,14.72],[-17.44,14.65],[-17.54,14.76],[-17.18,14.9],[-17.15,14.61]]]}},{"type":"Feature","properties":{"id":"SEN-DB","nome":"Diourbel","pais":"SEN","tipo":"Region","lat":14.75,"lng":-16.19},"geometry":{"type":"Polygon","coordinates":[[[-15.62,14.86],[-15.46,14.83],[-15.38,14.7],[-15.43,14.57],[-15.77,14.74],[-15.82,14.61],[-15.93,14.54],[-16.53,14.58],[-16.62,14.62],[-16.59,14.69],[-16.68,14.88],[-16.64,14.94],[-16.4,15.01],[-16.22,14.92],[-16.08,15],[-15.83,15],[-15.7,14.85],[-15.62,14.86]]]}}]}