{"type":"FeatureCollection","features":[{"type":"Feature","properties":{"id":"SGP-05","nome":"South West","pais":"SGP","tipo":"Estado","lat":1.34,"lng":103.71},"geometry":{"type":"Polygon","coordinates":[[[103.85,1.27],[103.65,1.31],[103.68,1.41],[103.76,1.43],[103.85,1.27]]]}},{"type":"Feature","properties":{"id":"SGP-01","nome":"Central Singapore","pais":"SGP","tipo":"Estado","lat":1.32,"lng":103.85},"geometry":{"type":"Polygon","coordinates":[[[103.9,1.31],[103.81,1.29],[103.84,1.42],[103.91,1.41],[103.9,1.31]]]}},{"type":"Feature","properties":{"id":"SGP-04","nome":"South East","pais":"SGP","tipo":"Estado","lat":1.34,"lng":103.93},"geometry":{"type":"Polygon","coordinates":[[[103.97,1.39],[103.99,1.35],[103.9,1.31],[103.88,1.37],[103.97,1.39]]]}},{"type":"Feature","properties":{"id":"SGP-02","nome":"North East","pais":"SGP","tipo":"Estado","lat":1.38,"lng":103.93},"geometry":{"type":"Polygon","coordinates":[[[103.91,1.41],[103.97,1.39],[103.94,1.35],[103.91,1.41]]]}},{"type":"Feature","properties":{"id":"SGP-03","nome":"North West","pais":"SGP","tipo":"Estado","lat":1.42,"lng":103.81},"geometry":{"type":"Polygon","coordinates":[[[103.76,1.43],[103.88,1.43],[103.81,1.32],[103.76,1.43]]]}}]}