{"type":"FeatureCollection","features":[{"type":"Feature","properties":{"id":"SGS-X01~","nome":"South Georgia and the South Sandwich Islands","pais":"SGS","tipo":"Estado","lat":-59.45,"lng":-27.19},"geometry":{"type":"Polygon","coordinates":[[[-35.91,-54.69],[-35.78,-54.76],[-35.94,-54.81],[-36.11,-54.76],[-35.92,-54.85],[-36.12,-54.88],[-36.5,-54.51],[-36.81,-54.45],[-36.88,-54.34],[-37.01,-54.34],[-37.15,-54.26],[-37.41,-54.26],[-37.32,-54.23],[-37.41,-54.18],[-37.24,-54.15],[-37.69,-54.17],[-37.72,-54.13],[-37.66,-54.1],[-37.72,-54.09],[-37.61,-54.04],[-38.03,-54.05],[-38.03,-54.01],[-37.38,-53.98],[-37.46,-54.03],[-37.22,-54.07],[-37.12,-54.03],[-37.15,-54.11],[-37.01,-54.05],[-36.97,-54.07],[-37.02,-54.12],[-36.91,-54.07],[-36.81,-54.09],[-36.8,-54.14],[-36.78,-54.1],[-36.66,-54.11],[-36.64,-54.15],[-36.72,-54.17],[-36.49,-54.18],[-36.68,-54.28],[-36.49,-54.23],[-36.5,-54.35],[-36.44,-54.31],[-36.35,-54.36],[-36.39,-54.24],[-36.26,-54.29],[-36.26,-54.37],[-36.16,-54.37],[-36.18,-54.42],[-36.02,-54.5],[-36.1,-54.55],[-36.07,-54.57],[-35.89,-54.55],[-35.94,-54.62],[-35.91,-54.69]]]}}]}