{"type":"FeatureCollection","features":[{"type":"Feature","properties":{"id":"SHN-HL","nome":"Saint Helena","pais":"SHN","tipo":"Estado","lat":-15.93,"lng":-5.71},"geometry":{"type":"Polygon","coordinates":[[[-5.72,-15.91],[-5.67,-15.9],[-5.66,-15.98],[-5.78,-16.01],[-5.72,-15.91]]]}},{"type":"Feature","properties":{"id":"SHN-AC","nome":"Ascension","pais":"SHN","tipo":"Estado","lat":-7.92,"lng":-14.37},"geometry":{"type":"Polygon","coordinates":[[[-14.36,-7.88],[-14.29,-7.95],[-14.41,-7.97],[-14.36,-7.88]]]}}]}