{"type":"FeatureCollection","features":[{"type":"Feature","properties":{"id":"SLB-RB","nome":"Rennell and Bellona","pais":"SLB","tipo":"Province","lat":-11.62,"lng":160.27},"geometry":{"type":"Polygon","coordinates":[[[160.5,-11.74],[160.58,-11.79],[160.48,-11.84],[160.27,-11.63],[160.02,-11.6],[159.97,-11.5],[160,-11.46],[160.09,-11.49],[160.5,-11.74]]]}},{"type":"Feature","properties":{"id":"SLB-MK","nome":"Makira","pais":"SLB","tipo":"Province","lat":-10.28,"lng":161.74},"geometry":{"type":"Polygon","coordinates":[[[162.37,-10.82],[162.11,-10.82],[161.79,-10.73],[161.52,-10.56],[161.51,-10.36],[161.28,-10.32],[161.3,-10.21],[161.5,-10.25],[161.84,-10.45],[162.11,-10.46],[162.29,-10.69],[162.27,-10.81],[162.37,-10.82]]]}},{"type":"Feature","properties":{"id":"SLB-TE","nome":"Temotu","pais":"SLB","tipo":"Province","lat":-12.28,"lng":168.81},"geometry":{"type":"Polygon","coordinates":[[[166.15,-10.69],[165.93,-10.78],[165.86,-10.87],[165.84,-10.81],[165.76,-10.81],[165.75,-10.75],[165.8,-10.71],[165.82,-10.76],[165.88,-10.66],[166.15,-10.69]]]}},{"type":"Feature","properties":{"id":"SLB-ML","nome":"Malaita","pais":"SLB","tipo":"Province","lat":-9.76,"lng":161.96},"geometry":{"type":"MultiPolygon","coordinates":[[[[161.39,-9.41],[161.35,-9.34],[161.55,-9.6],[161.56,-9.79],[161.49,-9.69],[161.45,-9.73],[161.4,-9.67],[161.39,-9.41]]],[[[161.36,-9.62],[161.18,-9.38],[160.87,-9.15],[160.69,-8.75],[160.65,-8.6],[160.72,-8.55],[160.6,-8.33],[160.7,-8.36],[160.71,-8.31],[160.76,-8.32],[161,-8.6],[160.95,-8.81],[161.15,-8.95],[161.2,-9.14],[161.28,-9.19],[161.24,-9.21],[161.28,-9.29],[161.24,-9.28],[161.38,-9.51],[161.36,-9.62]]]]}},{"type":"Feature","properties":{"id":"SLB-CT","nome":"Capital Territory (Honiara)","pais":"SLB","tipo":"Province","lat":-9.45,"lng":160.02},"geometry":{"type":"Polygon","coordinates":[[[159.94,-9.43],[160.04,-9.43],[160.02,-9.47],[159.94,-9.43]]]}},{"type":"Feature","properties":{"id":"SLB-GU","nome":"Guadalcanal","pais":"SLB","tipo":"Province","lat":-9.62,"lng":160.21},"geometry":{"type":"Polygon","coordinates":[[[160.03,-9.42],[160.37,-9.41],[160.63,-9.58],[160.67,-9.7],[160.79,-9.73],[160.82,-9.87],[160.64,-9.94],[160.32,-9.82],[159.84,-9.79],[159.6,-9.52],[159.59,-9.36],[159.71,-9.25],[159.95,-9.45],[160.02,-9.47],[160.03,-9.42]]]}},{"type":"Feature","properties":{"id":"SLB-CH","nome":"Western","pais":"SLB","tipo":"Province","lat":-8.73,"lng":157.55},"geometry":{"type":"MultiPolygon","coordinates":[[[[158.06,-8.53],[158.13,-8.55],[158.06,-8.61],[158.12,-8.62],[158.11,-8.69],[157.96,-8.76],[157.88,-8.68],[157.9,-8.56],[157.96,-8.58],[158.01,-8.5],[158.01,-8.55],[158.06,-8.53]]],[[[157.36,-8.58],[157.33,-8.65],[157.41,-8.73],[157.31,-8.7],[157.2,-8.57],[157.35,-8.41],[157.41,-8.5],[157.36,-8.58]]],[[[157.8,-8.56],[157.82,-8.62],[157.58,-8.44],[157.56,-8.32],[157.63,-8.39],[157.55,-8.26],[157.23,-8.32],[157.22,-8.22],[157.32,-8.19],[157.44,-7.98],[157.61,-8.01],[157.64,-8.24],[157.75,-8.23],[157.84,-8.34],[157.91,-8.49],[157.89,-8.58],[157.8,-8.56]]],[[[157.1,-8.12],[157,-8.09],[156.95,-7.98],[157,-7.88],[157.09,-7.85],[157.2,-8],[157.17,-8.14],[157.1,-8.12]]],[[[156.81,-7.72],[156.72,-7.93],[156.66,-7.94],[156.5,-7.63],[156.61,-7.57],[156.72,-7.7],[156.81,-7.72]]]]}},{"type":"Feature","properties":{"id":"SLB-IS","nome":"Isabel","pais":"SLB","tipo":"Province","lat":-8.45,"lng":159.62},"geometry":{"type":"Polygon","coordinates":[[[159.86,-8.51],[159.89,-8.56],[159.63,-8.36],[158.95,-8.05],[158.58,-7.75],[158.58,-7.67],[158.45,-7.53],[158.75,-7.59],[159.09,-7.9],[159.4,-7.98],[159.84,-8.33],[159.76,-8.39],[159.86,-8.51]]]}},{"type":"Feature","properties":{"id":"SLB-CH2","nome":"Choiseul","pais":"SLB","tipo":"Province","lat":-7.41,"lng":157.55},"geometry":{"type":"Polygon","coordinates":[[[157.53,-7.33],[157.45,-7.43],[157.33,-7.39],[157.32,-7.34],[157.28,-7.37],[157.01,-7.28],[156.69,-6.9],[156.46,-6.73],[156.45,-6.63],[156.55,-6.61],[157.04,-6.9],[157.19,-7.18],[157.39,-7.32],[157.53,-7.33]]]}}]}