{"type":"FeatureCollection","features":[{"type":"Feature","properties":{"id":"SLE-N","nome":"Northern","pais":"SLE","tipo":"Province","lat":9.14,"lng":-11.95},"geometry":{"type":"Polygon","coordinates":[[[-11.27,10],[-11.19,9.97],[-11.16,9.87],[-11.01,9.74],[-10.85,9.51],[-10.83,9.39],[-10.68,9.31],[-10.75,9.08],[-10.59,9.04],[-10.71,9],[-10.69,8.96],[-10.81,8.95],[-10.95,9.05],[-11.09,9.06],[-11.34,8.78],[-11.35,8.53],[-11.52,8.55],[-11.7,8.49],[-11.84,8.35],[-12.04,8.36],[-12.04,8.25],[-12.21,8.35],[-12.36,8.34],[-12.45,8.26],[-12.81,8.37],[-12.9,8.27],[-12.92,8.34],[-13.13,8.45],[-13.01,8.56],[-12.87,8.57],[-12.93,8.58],[-12.88,8.69],[-12.94,8.61],[-13.06,8.58],[-13.03,8.65],[-13.08,8.62],[-13.16,8.67],[-13.11,8.58],[-13.16,8.52],[-13.24,8.67],[-13.24,8.83],[-12.99,8.86],[-13.13,8.86],[-13.14,8.92],[-13.08,8.94],[-13.27,8.95],[-13.3,9.04],[-13.12,9.04],[-12.96,9.18],[-12.96,9.27],[-12.84,9.28],[-12.76,9.35],[-12.52,9.73],[-12.51,9.86],[-12.28,9.93],[-12.14,9.87],[-11.92,9.92],[-11.91,9.99],[-11.27,10]]]}},{"type":"Feature","properties":{"id":"SLE-E","nome":"Eastern","pais":"SLE","tipo":"Province","lat":8.27,"lng":-10.93},"geometry":{"type":"Polygon","coordinates":[[[-10.59,9.04],[-10.6,8.82],[-10.48,8.67],[-10.63,8.53],[-10.74,8.29],[-10.66,8.33],[-10.55,8.31],[-10.34,8.5],[-10.28,8.48],[-10.32,8.18],[-10.53,8.12],[-10.61,8.03],[-10.62,7.77],[-10.89,7.52],[-11.14,7.35],[-11.35,7.42],[-11.33,7.59],[-11.38,7.62],[-11.48,7.55],[-11.52,7.68],[-11.42,7.71],[-11.45,7.83],[-11.34,7.97],[-11.34,8.1],[-11.58,8.51],[-11.35,8.53],[-11.34,8.78],[-11.09,9.06],[-10.95,9.05],[-10.8,8.94],[-10.69,8.95],[-10.71,9],[-10.59,9.04]]]}},{"type":"Feature","properties":{"id":"SLE-S","nome":"Southern","pais":"SLE","tipo":"Province","lat":7.85,"lng":-12.05},"geometry":{"type":"MultiPolygon","coordinates":[[[[-11.14,7.35],[-11.32,7.21],[-11.48,6.92],[-11.84,7.15],[-12.51,7.39],[-12.37,7.39],[-12.49,7.45],[-12.43,7.53],[-12.3,7.53],[-12.18,7.6],[-12.44,7.55],[-12.49,7.65],[-12.54,7.65],[-12.47,7.79],[-12.6,7.68],[-12.78,7.76],[-12.76,7.82],[-12.88,7.83],[-12.96,7.91],[-12.82,7.92],[-12.89,7.98],[-12.88,8.1],[-12.98,8.19],[-12.98,8.24],[-12.81,8.37],[-12.45,8.26],[-12.36,8.34],[-12.21,8.35],[-12.04,8.25],[-12.04,8.36],[-11.83,8.35],[-11.72,8.48],[-11.58,8.51],[-11.34,8.08],[-11.34,7.96],[-11.44,7.87],[-11.42,7.71],[-11.52,7.68],[-11.49,7.56],[-11.36,7.61],[-11.36,7.42],[-11.14,7.35]]],[[[-12.49,7.57],[-12.55,7.39],[-12.61,7.48],[-12.95,7.58],[-12.62,7.64],[-12.49,7.57]]]]}},{"type":"Feature","properties":{"id":"SLE-W","nome":"Western","pais":"SLE","tipo":"Province","lat":8.31,"lng":-13.09},"geometry":{"type":"Polygon","coordinates":[[[-12.98,8.25],[-13.16,8.17],[-13.16,8.27],[-13.29,8.42],[-13.29,8.5],[-12.92,8.34],[-12.9,8.27],[-12.98,8.25]]]}}]}