{"type":"FeatureCollection","features":[{"type":"Feature","properties":{"id":"SLV-AH","nome":"Ahuachapán","pais":"SLV","tipo":"Department","lat":13.87,"lng":-89.91},"geometry":{"type":"Polygon","coordinates":[[[-90.1,13.73],[-90.11,13.84],[-90.01,13.95],[-89.84,14.06],[-89.72,14.03],[-89.82,13.68],[-89.91,13.71],[-89.95,13.67],[-90.1,13.73]]]}},{"type":"Feature","properties":{"id":"SLV-SA","nome":"Santa Ana","pais":"SLV","tipo":"Department","lat":14.1,"lng":-89.5},"geometry":{"type":"Polygon","coordinates":[[[-89.75,14.04],[-89.69,14.17],[-89.52,14.23],[-89.6,14.33],[-89.57,14.41],[-89.54,14.38],[-89.4,14.45],[-89.25,14.32],[-89.41,14.14],[-89.42,14.05],[-89.37,14.04],[-89.46,13.78],[-89.63,13.83],[-89.72,13.91],[-89.7,13.99],[-89.75,14.04]]]}},{"type":"Feature","properties":{"id":"SLV-CH","nome":"Chalatenango","pais":"SLV","tipo":"Department","lat":14.19,"lng":-89.06},"geometry":{"type":"Polygon","coordinates":[[[-89.35,14.41],[-89.15,14.35],[-89.11,14.4],[-88.97,14.19],[-88.88,14.18],[-88.84,14.1],[-88.75,14.11],[-88.69,14.01],[-88.93,13.95],[-89.12,14.08],[-89.41,14.04],[-89.41,14.14],[-89.25,14.32],[-89.35,14.41]]]}},{"type":"Feature","properties":{"id":"SLV-CA","nome":"Cabañas","pais":"SLV","tipo":"Department","lat":13.91,"lng":-88.73},"geometry":{"type":"Polygon","coordinates":[[[-88.69,14.01],[-88.5,13.98],[-88.53,13.76],[-88.74,13.81],[-88.89,13.76],[-88.97,13.9],[-88.69,14.01]]]}},{"type":"Feature","properties":{"id":"SLV-MO","nome":"Morazán","pais":"SLV","tipo":"Department","lat":13.77,"lng":-88.11},"geometry":{"type":"Polygon","coordinates":[[[-88.24,13.99],[-88.1,13.99],[-88.02,13.87],[-87.95,13.89],[-87.94,13.7],[-88.01,13.55],[-88.2,13.6],[-88.26,13.69],[-88.21,13.75],[-88.26,13.81],[-88.24,13.99]]]}},{"type":"Feature","properties":{"id":"SLV-SM","nome":"San Miguel","pais":"SLV","tipo":"Department","lat":13.49,"lng":-88.2},"geometry":{"type":"Polygon","coordinates":[[[-88.33,13.89],[-88.26,13.88],[-88.21,13.75],[-88.26,13.69],[-88.21,13.6],[-88.01,13.55],[-88.03,13.3],[-88.08,13.27],[-88.09,13.17],[-88.34,13.35],[-88.39,13.46],[-88.36,13.65],[-88.53,13.74],[-88.5,13.85],[-88.33,13.89]]]}},{"type":"Feature","properties":{"id":"SLV-UN","nome":"La Unión","pais":"SLV","tipo":"Department","lat":13.3,"lng":-87.93},"geometry":{"type":"Polygon","coordinates":[[[-87.82,13.92],[-87.7,13.81],[-87.79,13.53],[-87.72,13.46],[-87.87,13.39],[-87.79,13.29],[-87.91,13.2],[-87.89,13.17],[-88.09,13.17],[-87.94,13.7],[-87.95,13.89],[-87.82,13.92]]]}},{"type":"Feature","properties":{"id":"SLV-SO","nome":"Sonsonate","pais":"SLV","tipo":"Department","lat":13.72,"lng":-89.69},"geometry":{"type":"Polygon","coordinates":[[[-89.61,13.51],[-89.81,13.53],[-89.95,13.67],[-89.91,13.71],[-89.82,13.68],[-89.77,13.89],[-89.67,13.91],[-89.61,13.81],[-89.58,13.84],[-89.44,13.77],[-89.61,13.51]]]}},{"type":"Feature","properties":{"id":"SLV-LI","nome":"La Libertad","pais":"SLV","tipo":"Department","lat":13.77,"lng":-89.36},"geometry":{"type":"Polygon","coordinates":[[[-89.14,13.41],[-89.61,13.51],[-89.44,13.76],[-89.43,13.92],[-89.32,14.07],[-89.2,13.94],[-89.26,13.74],[-89.2,13.65],[-89.21,13.53],[-89.11,13.46],[-89.14,13.41]]]}},{"type":"Feature","properties":{"id":"SLV-PA","nome":"La Paz","pais":"SLV","tipo":"Department","lat":13.49,"lng":-88.96},"geometry":{"type":"Polygon","coordinates":[[[-88.83,13.27],[-89.14,13.41],[-89.13,13.6],[-89.02,13.67],[-88.9,13.66],[-88.81,13.55],[-88.78,13.41],[-88.83,13.27]]]}},{"type":"Feature","properties":{"id":"SLV-SV","nome":"San Vicente","pais":"SLV","tipo":"Department","lat":13.63,"lng":-88.69},"geometry":{"type":"Polygon","coordinates":[[[-88.82,13.26],[-88.81,13.55],[-88.9,13.66],[-88.85,13.78],[-88.74,13.81],[-88.53,13.76],[-88.49,13.69],[-88.66,13.56],[-88.73,13.34],[-88.82,13.26]]]}},{"type":"Feature","properties":{"id":"SLV-US","nome":"Usulután","pais":"SLV","tipo":"Department","lat":13.41,"lng":-88.53},"geometry":{"type":"Polygon","coordinates":[[[-88.11,13.17],[-88.32,13.17],[-88.36,13.23],[-88.34,13.19],[-88.41,13.17],[-88.45,13.25],[-88.45,13.22],[-88.6,13.28],[-88.72,13.27],[-88.58,13.26],[-88.54,13.22],[-88.6,13.23],[-88.46,13.17],[-88.82,13.26],[-88.73,13.34],[-88.66,13.56],[-88.43,13.69],[-88.36,13.65],[-88.35,13.37],[-88.23,13.31],[-88.11,13.17]]]}},{"type":"Feature","properties":{"id":"SLV-CU","nome":"Cuscatlán","pais":"SLV","tipo":"Department","lat":13.82,"lng":-89.01},"geometry":{"type":"Polygon","coordinates":[[[-88.93,13.95],[-88.97,13.88],[-88.85,13.75],[-88.94,13.64],[-89.02,13.67],[-89.13,13.87],[-89.14,14.07],[-88.93,13.95]]]}},{"type":"Feature","properties":{"id":"SLV-SS","nome":"San Salvador","pais":"SLV","tipo":"Department","lat":13.71,"lng":-89.15},"geometry":{"type":"Polygon","coordinates":[[[-89.14,14.07],[-89.14,13.88],[-89.02,13.67],[-89.18,13.49],[-89.26,13.74],[-89.2,13.93],[-89.27,14],[-89.27,14.05],[-89.14,14.07]]]}}]}