{"type":"FeatureCollection","features":[{"type":"Feature","properties":{"id":"SOL-99","nome":"Somaliland","pais":"SOL","tipo":"Estado","lat":9.64,"lng":45.79},"geometry":{"type":"Polygon","coordinates":[[[48.94,9.56],[48.94,9.45],[47.98,8],[46.98,8],[43.98,9.01],[43.62,9.34],[43.42,9.41],[43.37,9.54],[43.25,9.65],[43.19,9.88],[43.07,9.92],[42.98,10.09],[42.84,10.21],[42.65,10.63],[43.28,11.5],[43.38,11.39],[43.49,11.38],[43.49,11.24],[43.83,10.8],[44.35,10.41],[44.59,10.38],[44.96,10.42],[45.32,10.66],[45.49,10.68],[45.77,10.88],[46.1,10.77],[46.24,10.79],[46.45,10.69],[46.66,10.75],[47.39,11.18],[47.52,11.19],[47.71,11.1],[48.13,11.14],[48.34,11.28],[48.65,11.33],[48.94,11.25],[48.94,9.56]]]}}]}