{"type":"FeatureCollection","features":[{"type":"Feature","properties":{"id":"SRB-01","nome":"Severno-Backi","pais":"SRB","tipo":"District","lat":45.93,"lng":19.58},"geometry":{"type":"Polygon","coordinates":[[[19.71,46.16],[19.88,46.14],[19.76,45.9],[19.86,45.77],[19.75,45.74],[19.74,45.64],[19.68,45.62],[19.59,45.66],[19.58,45.74],[19.44,45.77],[19.3,46.02],[19.53,46.16],[19.71,46.16]]]}},{"type":"Feature","properties":{"id":"SRB-05","nome":"Zapadno-Backi","pais":"SRB","tipo":"District","lat":45.71,"lng":19.23},"geometry":{"type":"Polygon","coordinates":[[[19.24,45.98],[19.3,46.02],[19.34,45.99],[19.35,45.86],[19.61,45.68],[19.5,45.54],[19.39,45.54],[19.36,45.44],[19.19,45.43],[19.02,45.49],[19.11,45.51],[19.02,45.57],[18.93,45.55],[18.91,45.62],[18.97,45.67],[18.84,45.82],[18.9,45.93],[18.99,45.92],[19.07,46.01],[19.24,45.98]]]}},{"type":"Feature","properties":{"id":"SRB-03","nome":"Severno-Banatski","pais":"SRB","tipo":"District","lat":45.96,"lng":20.2},"geometry":{"type":"Polygon","coordinates":[[[19.93,46.16],[20.24,46.11],[20.35,45.98],[20.64,45.83],[20.62,45.7],[20.51,45.68],[20.53,45.61],[20.36,45.6],[20.33,45.67],[20.42,45.7],[20.35,45.79],[20.16,45.79],[20.11,45.72],[19.86,45.77],[19.76,45.9],[19.85,46.12],[19.93,46.16]]]}},{"type":"Feature","properties":{"id":"SRB-24","nome":"Pcinjski","pais":"SRB","tipo":"District","lat":42.55,"lng":22.03},"geometry":{"type":"Polygon","coordinates":[[[22.35,42.31],[22.27,42.37],[22.06,42.3],[21.93,42.34],[21.68,42.23],[21.56,42.25],[21.51,42.32],[21.62,42.39],[21.82,42.77],[22.1,42.82],[22.29,42.75],[22.43,42.82],[22.48,42.73],[22.43,42.57],[22.53,42.46],[22.42,42.33],[22.35,42.31]]]}},{"type":"Feature","properties":{"id":"SRB-14","nome":"Borski","pais":"SRB","tipo":"District","lat":44.38,"lng":22.27},"geometry":{"type":"Polygon","coordinates":[[[22.69,44.23],[22.61,44.17],[22.59,44.06],[22.5,44.02],[22.45,44.03],[22.47,44.11],[22.23,44.17],[22.19,44.12],[22.24,44.02],[22.12,43.88],[22.03,43.95],[21.77,43.99],[21.82,44.07],[21.96,44.11],[21.96,44.22],[21.81,44.31],[21.82,44.39],[21.92,44.43],[21.93,44.51],[22.04,44.59],[22.17,44.51],[22.3,44.68],[22.43,44.73],[22.77,44.58],[22.58,44.57],[22.48,44.49],[22.55,44.35],[22.68,44.31],[22.69,44.23]]]}},{"type":"Feature","properties":{"id":"SRB-15","nome":"Zajecarski","pais":"SRB","tipo":"District","lat":43.68,"lng":22.15},"geometry":{"type":"Polygon","coordinates":[[[22.47,44.02],[22.4,43.99],[22.35,43.81],[22.52,43.47],[22.66,43.4],[22.58,43.33],[22.34,43.38],[22.3,43.46],[22.05,43.49],[21.97,43.57],[21.99,43.52],[21.91,43.51],[21.69,43.67],[21.7,43.76],[21.65,43.8],[21.77,43.99],[22.03,43.95],[22.12,43.88],[22.24,44.02],[22.19,44.12],[22.23,44.17],[22.47,44.11],[22.47,44.02]]]}},{"type":"Feature","properties":{"id":"SRB-22","nome":"Pirotski","pais":"SRB","tipo":"District","lat":43.1,"lng":22.55},"geometry":{"type":"Polygon","coordinates":[[[22.66,43.4],[22.98,43.2],[22.96,43.11],[22.73,42.89],[22.44,42.88],[22.36,42.93],[22.39,42.96],[22.2,43.01],[22.3,43.11],[22.11,43.2],[22.17,43.27],[22.14,43.34],[22.32,43.32],[22.34,43.38],[22.58,43.33],[22.66,43.4]]]}},{"type":"Feature","properties":{"id":"SRB-23","nome":"Jablanicki","pais":"SRB","tipo":"District","lat":42.96,"lng":21.96},"geometry":{"type":"Polygon","coordinates":[[[22.54,42.87],[22.29,42.75],[21.99,42.82],[21.82,42.77],[21.74,42.68],[21.38,42.74],[21.45,42.98],[21.9,43.16],[22.16,43.06],[22.23,43.07],[22.2,43.01],[22.54,42.87]]]}},{"type":"Feature","properties":{"id":"SRB-18","nome":"Raški","pais":"SRB","tipo":"District","lat":43.38,"lng":20.58},"geometry":{"type":"Polygon","coordinates":[[[20.81,43.26],[20.6,43.2],[20.66,43.09],[20.46,42.95],[20.48,42.86],[20.35,42.83],[20.34,42.91],[20.05,43.02],[20.17,43.14],[20.28,43.16],[20.2,43.22],[20.27,43.3],[20.33,43.26],[20.41,43.33],[20.4,43.45],[20.31,43.53],[20.62,43.86],[20.72,43.78],[20.86,43.84],[20.96,43.73],[20.88,43.64],[20.95,43.61],[20.91,43.57],[20.95,43.51],[20.76,43.51],[20.76,43.4],[20.83,43.38],[20.81,43.26]]]}},{"type":"Feature","properties":{"id":"SRB-19","nome":"Pomoravski","pais":"SRB","tipo":"District","lat":43.52,"lng":21.16},"geometry":{"type":"Polygon","coordinates":[[[20.86,43.22],[20.81,43.26],[20.83,43.38],[20.76,43.4],[20.76,43.51],[20.95,43.51],[20.91,43.57],[20.95,43.61],[20.88,43.64],[20.92,43.73],[21.15,43.69],[21.14,43.75],[21.24,43.77],[21.26,43.84],[21.27,43.76],[21.5,43.72],[21.48,43.59],[21.57,43.52],[21.55,43.4],[21.21,43.35],[21.11,43.24],[20.97,43.25],[20.91,43.14],[20.83,43.18],[20.86,43.22]]]}},{"type":"Feature","properties":{"id":"SRB-21","nome":"Toplicki","pais":"SRB","tipo":"District","lat":43.12,"lng":21.36},"geometry":{"type":"Polygon","coordinates":[[[20.99,43.1],[20.91,43.14],[20.97,43.25],[21.1,43.24],[21.21,43.35],[21.34,43.39],[21.59,43.35],[21.61,43.24],[21.77,43.25],[21.81,43.12],[21.45,42.98],[21.41,42.84],[21.26,42.89],[21.11,43.08],[20.99,43.1]]]}},{"type":"Feature","properties":{"id":"SRB-16","nome":"Zlatiborski","pais":"SRB","tipo":"District","lat":43.63,"lng":19.73},"geometry":{"type":"Polygon","coordinates":[[[19.55,43.22],[19.18,43.48],[19.25,43.59],[19.49,43.56],[19.51,43.65],[19.46,43.76],[19.23,43.96],[19.24,44],[19.55,43.98],[19.62,44.04],[19.52,44.09],[19.63,44.14],[19.79,44.05],[19.79,44.12],[20.06,44.09],[20.06,43.98],[20.16,43.88],[20.09,43.84],[20.17,43.66],[19.89,43.53],[20,43.48],[20.12,43.3],[20.26,43.31],[20.2,43.22],[20.28,43.16],[20.17,43.14],[20.05,43.02],[19.93,43.11],[19.81,43.09],[19.55,43.22]]]}},{"type":"Feature","properties":{"id":"SRB-07","nome":"Sremski","pais":"SRB","tipo":"District","lat":45.04,"lng":19.67},"geometry":{"type":"Polygon","coordinates":[[[19.2,44.91],[18.99,44.89],[19.13,44.95],[19.04,45.14],[19.14,45.15],[19.12,45.2],[19.6,45.14],[20.19,45.18],[20.36,45.03],[20.29,44.98],[20.32,44.93],[20.16,44.89],[20.08,44.78],[20.09,44.71],[19.94,44.63],[20.01,44.69],[19.72,44.76],[19.75,44.92],[19.2,44.91]]]}},{"type":"Feature","properties":{"id":"SRB-08","nome":"Macvanski","pais":"SRB","tipo":"District","lat":44.6,"lng":19.49},"geometry":{"type":"Polygon","coordinates":[[[19.26,44.27],[19.16,44.29],[19.11,44.38],[19.13,44.52],[19.33,44.73],[19.38,44.86],[19.32,44.92],[19.75,44.92],[19.72,44.76],[20.01,44.69],[19.92,44.65],[19.97,44.64],[19.97,44.56],[19.85,44.54],[19.83,44.39],[19.49,44.43],[19.45,44.36],[19.49,44.32],[19.43,44.25],[19.56,44.21],[19.6,44.12],[19.52,44.09],[19.26,44.27]]]}},{"type":"Feature","properties":{"id":"SRB-06","nome":"Južno-Backi","pais":"SRB","tipo":"District","lat":45.39,"lng":19.65},"geometry":{"type":"Polygon","coordinates":[[[19,45.44],[19.01,45.5],[19.36,45.44],[19.39,45.54],[19.5,45.54],[19.59,45.66],[19.74,45.64],[19.77,45.75],[20.07,45.75],[20.11,45.72],[20.06,45.6],[20.12,45.6],[20.1,45.54],[20.23,45.44],[20.2,45.4],[20.32,45.2],[20.28,45.14],[19.99,45.19],[19.91,45.14],[19.43,45.15],[19.4,45.22],[18.98,45.37],[19.03,45.42],[19,45.44]]]}},{"type":"Feature","properties":{"id":"SRB-02","nome":"Srednje-Banatski","pais":"SRB","tipo":"District","lat":45.44,"lng":20.54},"geometry":{"type":"Polygon","coordinates":[[[20.64,45.8],[20.7,45.74],[20.79,45.75],[20.77,45.48],[21.01,45.31],[20.82,45.26],[20.72,45.15],[20.49,45.2],[20.4,45.07],[20.34,45.08],[20.28,45.14],[20.32,45.21],[20.2,45.4],[20.23,45.44],[20.1,45.54],[20.12,45.6],[20.06,45.6],[20.09,45.72],[20.16,45.79],[20.35,45.79],[20.42,45.7],[20.34,45.67],[20.32,45.61],[20.52,45.61],[20.51,45.68],[20.62,45.7],[20.64,45.8]]]}},{"type":"Feature","properties":{"id":"SRB-04","nome":"Južno-Banatski","pais":"SRB","tipo":"District","lat":45.01,"lng":20.97},"geometry":{"type":"Polygon","coordinates":[[[21.02,45.32],[21.46,45.17],[21.49,45.12],[21.35,44.99],[21.54,44.89],[20.76,44.67],[20.4,45.07],[20.48,45.2],[20.58,45.22],[20.72,45.15],[20.82,45.26],[21.02,45.32]]]}},{"type":"Feature","properties":{"id":"SRB-11","nome":"Branicevski","pais":"SRB","tipo":"District","lat":44.46,"lng":21.54},"geometry":{"type":"Polygon","coordinates":[[[21.36,44.83],[21.58,44.78],[21.66,44.69],[22,44.65],[22.04,44.59],[21.79,44.36],[21.9,44.22],[21.96,44.22],[21.95,44.1],[21.69,44.08],[21.49,44.18],[21.36,44.18],[21.29,44.28],[21.26,44.24],[21.12,44.29],[21.17,44.48],[21.04,44.72],[21.36,44.83]]]}},{"type":"Feature","properties":{"id":"SRB-00","nome":"Grad Beograd","pais":"SRB","tipo":"City","lat":44.64,"lng":20.4},"geometry":{"type":"Polygon","coordinates":[[[19.97,44.64],[20.09,44.71],[20.08,44.78],[20.16,44.89],[20.32,44.93],[20.29,44.98],[20.36,45.08],[20.64,44.85],[20.63,44.77],[20.79,44.66],[20.81,44.56],[20.74,44.53],[20.84,44.43],[20.73,44.38],[20.79,44.35],[20.77,44.3],[20.44,44.42],[20.39,44.29],[20.27,44.24],[20.19,44.32],[20.23,44.41],[20.19,44.54],[20.13,44.5],[19.99,44.52],[19.97,44.64]]]}},{"type":"Feature","properties":{"id":"SRB-10","nome":"Podunavski","pais":"SRB","tipo":"District","lat":44.48,"lng":20.95},"geometry":{"type":"Polygon","coordinates":[[[20.79,44.66],[21.06,44.7],[21.17,44.48],[21.11,44.37],[21.17,44.26],[21.14,44.18],[20.77,44.3],[20.79,44.35],[20.73,44.38],[20.84,44.44],[20.74,44.53],[20.81,44.56],[20.79,44.66]]]}},{"type":"Feature","properties":{"id":"SRB-20","nome":"Nišavski","pais":"SRB","tipo":"District","lat":43.34,"lng":21.91},"geometry":{"type":"Polygon","coordinates":[[[21.49,43.35],[21.57,43.42],[21.57,43.52],[21.48,43.59],[21.51,43.7],[21.47,43.75],[21.65,43.8],[21.77,43.58],[21.91,43.51],[21.99,43.52],[21.97,43.57],[22.05,43.49],[22.35,43.42],[22.32,43.32],[22.14,43.34],[22.17,43.27],[22.11,43.2],[22.3,43.11],[22.2,43.05],[21.99,43.15],[21.8,43.14],[21.77,43.25],[21.69,43.21],[21.61,43.24],[21.59,43.35],[21.49,43.35]]]}},{"type":"Feature","properties":{"id":"SRB-13","nome":"Pomoravski","pais":"SRB","tipo":"District","lat":43.98,"lng":21.36},"geometry":{"type":"Polygon","coordinates":[[[20.96,43.73],[20.91,43.81],[21.01,43.85],[21.04,43.98],[21.1,44],[21.05,44.05],[21.14,44.09],[21.13,44.29],[21.26,44.24],[21.29,44.28],[21.36,44.18],[21.82,44.07],[21.63,43.8],[21.38,43.72],[21.37,43.77],[21.26,43.77],[21.26,43.84],[21.24,43.77],[21.14,43.75],[21.15,43.69],[20.96,43.73]]]}},{"type":"Feature","properties":{"id":"SRB-12","nome":"Šumadijski","pais":"SRB","tipo":"District","lat":44.1,"lng":20.81},"geometry":{"type":"Polygon","coordinates":[[[20.73,43.78],[20.53,43.95],[20.64,44.02],[20.46,44.16],[20.39,44.29],[20.44,44.42],[21.14,44.18],[21.01,43.85],[20.94,43.8],[20.79,43.83],[20.73,43.78]]]}},{"type":"Feature","properties":{"id":"SRB-17","nome":"Moravicki","pais":"SRB","tipo":"District","lat":43.71,"lng":20.27},"geometry":{"type":"Polygon","coordinates":[[[20.62,43.86],[20.31,43.53],[20.4,43.45],[20.42,43.35],[20.33,43.26],[20.24,43.32],[20.1,43.31],[20,43.48],[19.89,43.53],[20.17,43.66],[20.09,43.84],[20.16,43.88],[20.06,43.98],[20.06,44.09],[20.29,44.12],[20.42,44.24],[20.64,44.02],[20.53,43.95],[20.62,43.86]]]}},{"type":"Feature","properties":{"id":"SRB-09","nome":"Kolubarski","pais":"SRB","tipo":"District","lat":44.32,"lng":19.92},"geometry":{"type":"Polygon","coordinates":[[[19.73,44.11],[19.43,44.25],[19.49,44.32],[19.45,44.36],[19.49,44.44],[19.56,44.45],[19.83,44.39],[19.9,44.56],[20.13,44.5],[20.18,44.54],[20.23,44.45],[20.19,44.31],[20.27,44.24],[20.39,44.29],[20.42,44.25],[20.29,44.12],[20.12,44.07],[19.86,44.13],[19.77,44.12],[19.79,44.05],[19.73,44.11]]]}}]}