{"type":"FeatureCollection","features":[{"type":"Feature","properties":{"id":"SUR-SI","nome":"Sipaliwini","pais":"SUR","tipo":"District","lat":3.53,"lng":-55.99},"geometry":{"type":"Polygon","coordinates":[[[-54.08,3.31],[-54.21,3.13],[-54.17,2.85],[-54.38,2.48],[-54.53,2.34],[-54.7,2.32],[-54.7,2.45],[-54.88,2.45],[-54.98,2.54],[-54.96,2.61],[-55.12,2.52],[-55.14,2.56],[-55.25,2.5],[-55.32,2.52],[-55.4,2.43],[-55.72,2.4],[-55.97,2.53],[-56.01,2.4],[-56.15,2.26],[-56.07,2.24],[-55.92,2.05],[-55.95,1.85],[-56.43,1.92],[-56.68,2.02],[-56.88,2.29],[-56.95,2.52],[-57,2.51],[-57.09,2.77],[-57.2,2.85],[-57.18,2.94],[-57.23,2.97],[-57.23,3.14],[-57.29,3.14],[-57.31,3.39],[-57.48,3.34],[-57.65,3.39],[-57.64,3.52],[-57.83,3.66],[-57.88,3.81],[-58.03,3.99],[-58.07,4.17],[-57.95,4.3],[-57.84,4.65],[-57.92,4.83],[-57.69,5.01],[-57.28,5.03],[-57.32,5.07],[-57.29,5.17],[-57.23,5.14],[-57.18,5.18],[-57.23,5.26],[-56.72,5.33],[-56.39,5.32],[-56.29,5.39],[-56.06,5.39],[-55.92,5.54],[-56,5.1],[-55.75,5.09],[-55.68,4.98],[-55.5,5.08],[-55.38,4.85],[-55.31,4.07],[-55.26,4.01],[-55.01,4.17],[-54.95,4.13],[-54.9,4.23],[-54.9,4.44],[-54.82,4.54],[-54.74,4.88],[-54.85,4.98],[-54.8,5.17],[-54.67,5.38],[-54.47,5.31],[-54.32,5.21],[-54.49,4.9],[-54.41,4.21],[-54.34,4.15],[-54.35,4.04],[-54.29,3.95],[-53.99,3.61],[-54.08,3.31]]]}},{"type":"Feature","properties":{"id":"SUR-NI","nome":"Nickerie","pais":"SUR","tipo":"District","lat":5.65,"lng":-56.9},"geometry":{"type":"Polygon","coordinates":[[[-57.33,5.31],[-57.16,5.56],[-57.07,5.95],[-56.96,6.01],[-56.6,5.95],[-56.6,5.75],[-56.5,5.54],[-56.57,5.52],[-56.55,5.38],[-56.49,5.4],[-56.48,5.32],[-57.26,5.27],[-57.27,5.22],[-57.29,5.31],[-57.33,5.31]]]}},{"type":"Feature","properties":{"id":"SUR-MA","nome":"Marowijne","pais":"SUR","tipo":"District","lat":5.58,"lng":-54.37},"geometry":{"type":"Polygon","coordinates":[[[-54.17,5.35],[-54.32,5.21],[-54.65,5.37],[-54.61,5.49],[-54.74,5.77],[-54.7,5.97],[-54.02,5.83],[-53.99,5.75],[-54.17,5.35]]]}},{"type":"Feature","properties":{"id":"SUR-CR","nome":"Coronie","pais":"SUR","tipo":"District","lat":5.64,"lng":-56.25},"geometry":{"type":"Polygon","coordinates":[[[-56.6,5.95],[-55.94,5.8],[-55.9,5.68],[-55.97,5.63],[-55.92,5.54],[-56.06,5.39],[-56.48,5.32],[-56.49,5.4],[-56.55,5.38],[-56.57,5.52],[-56.5,5.54],[-56.6,5.75],[-56.6,5.95]]]}},{"type":"Feature","properties":{"id":"SUR-SA","nome":"Saramacca","pais":"SUR","tipo":"District","lat":5.7,"lng":-55.61},"geometry":{"type":"Polygon","coordinates":[[[-55.9,5.68],[-55.9,5.84],[-55.95,5.88],[-55.87,5.97],[-55.39,5.97],[-55.25,5.92],[-55.44,5.43],[-55.9,5.41],[-55.89,5.5],[-55.97,5.63],[-55.9,5.68]]]}},{"type":"Feature","properties":{"id":"SUR-WA","nome":"Wanica","pais":"SUR","tipo":"District","lat":5.73,"lng":-55.19},"geometry":{"type":"Polygon","coordinates":[[[-55.25,5.92],[-55.21,5.8],[-55.03,5.67],[-55.35,5.67],[-55.25,5.92]]]}},{"type":"Feature","properties":{"id":"SUR-PM","nome":"Paramaribo","pais":"SUR","tipo":"District","lat":5.84,"lng":-55.17},"geometry":{"type":"Polygon","coordinates":[[[-55.23,5.9],[-55.11,5.88],[-55.14,5.77],[-55.21,5.8],[-55.23,5.9]]]}},{"type":"Feature","properties":{"id":"SUR-CM","nome":"Commewijne","pais":"SUR","tipo":"District","lat":5.71,"lng":-54.9},"geometry":{"type":"Polygon","coordinates":[[[-55.13,5.82],[-55.09,5.88],[-54.86,5.86],[-55.13,5.92],[-55.16,5.96],[-55.12,5.99],[-54.7,5.97],[-54.74,5.77],[-54.63,5.56],[-55.05,5.54],[-55.09,5.63],[-55.03,5.68],[-55.13,5.74],[-55.13,5.82]]]}},{"type":"Feature","properties":{"id":"SUR-PR","nome":"Para","pais":"SUR","tipo":"District","lat":5.49,"lng":-55.3},"geometry":{"type":"Polygon","coordinates":[[[-55.04,5.67],[-55.09,5.63],[-55.05,5.54],[-54.63,5.56],[-54.61,5.52],[-54.86,4.98],[-54.9,5.15],[-55.03,5.32],[-55.35,5.31],[-55.39,5.19],[-55.63,4.99],[-55.82,5.11],[-56,5.1],[-55.92,5.54],[-55.9,5.41],[-55.45,5.43],[-55.38,5.49],[-55.35,5.67],[-55.04,5.67]]]}},{"type":"Feature","properties":{"id":"SUR-BR","nome":"Brokopondo","pais":"SUR","tipo":"District","lat":4.71,"lng":-55.12},"geometry":{"type":"Polygon","coordinates":[[[-55.03,5.32],[-54.9,5.15],[-54.87,4.98],[-54.74,4.88],[-54.82,4.54],[-54.9,4.44],[-54.87,4.3],[-54.94,4.14],[-55.01,4.17],[-55.27,4.01],[-55.37,4.49],[-55.38,4.85],[-55.5,5.08],[-55.39,5.19],[-55.35,5.31],[-55.03,5.32]]]}}]}