{"type":"FeatureCollection","features":[{"type":"Feature","properties":{"id":"SVK-ZI","nome":"Žilinský","pais":"SVK","tipo":"Region","lat":49.17,"lng":19.21},"geometry":{"type":"Polygon","coordinates":[[[19.44,49.6],[19.63,49.4],[19.77,49.39],[19.81,49.27],[19.76,49.19],[19.87,49.2],[19.91,49.13],[20.02,49.12],[19.97,49.01],[20.05,48.93],[19.75,48.9],[19.56,48.94],[19.31,48.86],[19.04,48.88],[19,48.75],[18.83,48.74],[18.71,48.85],[18.71,48.95],[18.47,48.96],[18.6,49.07],[18.36,49.33],[18.39,49.39],[18.56,49.49],[18.83,49.51],[18.96,49.49],[18.96,49.39],[19.14,49.39],[19.23,49.51],[19.44,49.6]]]}},{"type":"Feature","properties":{"id":"SVK-PV","nome":"Prešov","pais":"SVK","tipo":"Region","lat":49.14,"lng":21.2},"geometry":{"type":"Polygon","coordinates":[[[21.26,49.45],[21.62,49.42],[21.76,49.35],[21.82,49.38],[21.96,49.31],[22.04,49.2],[22.54,49.07],[22.52,48.99],[22.37,48.86],[22.26,48.86],[22.21,48.92],[22.12,48.84],[21.79,48.9],[21.8,48.8],[21.69,48.76],[21.54,48.79],[21.48,48.88],[21.28,48.81],[21.26,48.87],[20.77,49],[20.65,48.95],[20.43,49],[20.3,48.94],[20.34,48.92],[20.27,48.87],[20,48.91],[20.05,48.93],[19.97,49.01],[20.03,49.11],[19.91,49.13],[19.87,49.2],[20.05,49.17],[20.14,49.31],[20.32,49.39],[20.69,49.4],[20.92,49.29],[21.07,49.36],[21.05,49.41],[21.19,49.4],[21.26,49.45]]]}},{"type":"Feature","properties":{"id":"SVK-KI","nome":"Košický","pais":"SVK","tipo":"Region","lat":48.66,"lng":21.28},"geometry":{"type":"Polygon","coordinates":[[[22.37,48.86],[22.31,48.68],[22.14,48.57],[22.13,48.4],[21.76,48.33],[21.59,48.49],[21.42,48.56],[21.11,48.49],[20.78,48.57],[20.33,48.46],[20.35,48.6],[20.18,48.75],[20.34,48.92],[20.3,48.94],[20.52,49.01],[20.63,48.95],[20.77,49],[20.98,48.96],[21.03,48.9],[21.26,48.87],[21.28,48.81],[21.48,48.88],[21.54,48.79],[21.69,48.76],[21.8,48.8],[21.79,48.9],[22.12,48.84],[22.21,48.92],[22.26,48.86],[22.37,48.86]]]}},{"type":"Feature","properties":{"id":"SVK-BL","nome":"Bratislavský","pais":"SVK","tipo":"Region","lat":48.29,"lng":17.19},"geometry":{"type":"Polygon","coordinates":[[[17.15,48.01],[17.07,48.04],[17.08,48.1],[16.85,48.36],[16.86,48.46],[16.95,48.54],[17.23,48.57],[17.34,48.66],[17.38,48.62],[17.31,48.56],[17.36,48.51],[17.32,48.46],[17.48,48.36],[17.53,48.2],[17.31,48.13],[17.35,48.09],[17.26,48.01],[17.15,48.01]]]}},{"type":"Feature","properties":{"id":"SVK-TA","nome":"Trnavský","pais":"SVK","tipo":"Region","lat":48.34,"lng":17.7},"geometry":{"type":"Polygon","coordinates":[[[16.95,48.54],[17.03,48.75],[17.21,48.87],[17.41,48.83],[17.36,48.78],[17.47,48.76],[17.53,48.63],[17.71,48.68],[17.99,48.62],[17.85,48.52],[17.97,48.46],[17.84,48.3],[17.88,48.21],[17.76,48.15],[17.88,48.05],[17.89,47.92],[17.72,47.77],[17.26,48.01],[17.35,48.09],[17.31,48.13],[17.53,48.2],[17.48,48.36],[17.32,48.46],[17.36,48.65],[17.23,48.57],[16.95,48.54]]]}},{"type":"Feature","properties":{"id":"SVK-TC","nome":"Trenciansky","pais":"SVK","tipo":"Region","lat":48.88,"lng":18.1},"geometry":{"type":"Polygon","coordinates":[[[18.01,49.02],[18.1,49.07],[18.16,49.26],[18.36,49.33],[18.59,49.11],[18.6,49.03],[18.48,48.95],[18.71,48.95],[18.71,48.85],[18.83,48.74],[18.72,48.63],[18.37,48.49],[18.24,48.56],[18.24,48.62],[18.04,48.72],[17.99,48.62],[17.71,48.68],[17.53,48.63],[17.47,48.76],[17.36,48.78],[17.43,48.84],[17.73,48.86],[17.88,48.93],[17.91,49.01],[18.01,49.02]]]}},{"type":"Feature","properties":{"id":"SVK-BC","nome":"Banskobystrický","pais":"SVK","tipo":"Region","lat":48.52,"lng":19.48},"geometry":{"type":"Polygon","coordinates":[[[20.47,48.46],[20.3,48.26],[20.13,48.25],[19.93,48.13],[19.62,48.23],[19.51,48.2],[19.43,48.09],[19.02,48.07],[19.07,48.2],[18.81,48.17],[18.85,48.31],[18.75,48.41],[18.54,48.32],[18.57,48.39],[18.49,48.55],[18.72,48.63],[18.88,48.76],[19,48.75],[19.04,48.88],[19.31,48.86],[19.56,48.94],[20.27,48.87],[20.18,48.73],[20.35,48.6],[20.33,48.46],[20.47,48.46]]]}},{"type":"Feature","properties":{"id":"SVK-NI","nome":"Nitriansky","pais":"SVK","tipo":"Region","lat":48.14,"lng":18.4},"geometry":{"type":"Polygon","coordinates":[[[19.02,48.07],[18.74,47.97],[18.75,47.87],[18.82,47.83],[18.69,47.78],[17.72,47.77],[17.89,47.92],[17.88,48.05],[17.76,48.15],[17.88,48.21],[17.84,48.3],[17.97,48.46],[17.85,48.52],[18.02,48.63],[18.02,48.72],[18.24,48.62],[18.23,48.57],[18.31,48.5],[18.49,48.55],[18.57,48.39],[18.54,48.32],[18.75,48.41],[18.85,48.31],[18.81,48.17],[19.07,48.2],[19.02,48.07]]]}}]}