{"type":"FeatureCollection","features":[{"type":"Feature","properties":{"id":"SVN-090","nome":"Piran","pais":"SVN","tipo":"Commune|Municipality","lat":45.48,"lng":13.63},"geometry":{"type":"Polygon","coordinates":[[[13.64,45.46],[13.57,45.54],[13.69,45.5],[13.64,45.46]]]}},{"type":"Feature","properties":{"id":"SVN-078","nome":"Moravske Toplice","pais":"SVN","tipo":"Commune|Municipality","lat":46.72,"lng":16.27},"geometry":{"type":"Polygon","coordinates":[[[16.3,46.78],[16.36,46.68],[16.31,46.65],[16.19,46.67],[16.18,46.72],[16.3,46.78]]]}},{"type":"Feature","properties":{"id":"SVN-033","nome":"Šalovci","pais":"SVN","tipo":"Commune|Municipality","lat":46.85,"lng":16.24},"geometry":{"type":"Polygon","coordinates":[[[16.31,46.8],[16.26,46.78],[16.18,46.86],[16.28,46.86],[16.31,46.8]]]}},{"type":"Feature","properties":{"id":"SVN-031","nome":"Gornji Petrovci","pais":"SVN","tipo":"Commune|Municipality","lat":46.81,"lng":16.21},"geometry":{"type":"Polygon","coordinates":[[[16.14,46.86],[16.26,46.78],[16.21,46.75],[16.14,46.86]]]}},{"type":"Feature","properties":{"id":"SVN-056","nome":"Kuzma","pais":"SVN","tipo":"Commune|Municipality","lat":46.85,"lng":16.09},"geometry":{"type":"Polygon","coordinates":[[[16.09,46.86],[16.13,46.83],[16.06,46.82],[16.09,46.86]]]}},{"type":"Feature","properties":{"id":"SVN-059","nome":"Lendava","pais":"SVN","tipo":"Commune|Municipality","lat":46.57,"lng":16.42},"geometry":{"type":"Polygon","coordinates":[[[16.37,46.64],[16.52,46.5],[16.33,46.55],[16.4,46.58],[16.37,46.64]]]}},{"type":"Feature","properties":{"id":"SVN-156","nome":"Dobrovnik","pais":"SVN","tipo":"Commune|Municipality","lat":46.65,"lng":16.36},"geometry":{"type":"Polygon","coordinates":[[[16.4,46.66],[16.35,46.62],[16.31,46.65],[16.34,46.69],[16.4,46.66]]]}},{"type":"Feature","properties":{"id":"SVN-053","nome":"Kranjska Gora","pais":"SVN","tipo":"Commune|Municipality","lat":46.45,"lng":13.85},"geometry":{"type":"Polygon","coordinates":[[[13.69,46.46],[13.7,46.52],[14.01,46.48],[13.85,46.38],[13.69,46.46]]]}},{"type":"Feature","properties":{"id":"SVN-006","nome":"Bovec","pais":"SVN","tipo":"Commune|Municipality","lat":46.37,"lng":13.62},"geometry":{"type":"Polygon","coordinates":[[[13.66,46.45],[13.84,46.38],[13.73,46.3],[13.4,46.31],[13.66,46.45]]]}},{"type":"Feature","properties":{"id":"SVN-046","nome":"Kobarid","pais":"SVN","tipo":"Commune|Municipality","lat":46.25,"lng":13.55},"geometry":{"type":"Polygon","coordinates":[[[13.41,46.21],[13.4,46.31],[13.74,46.29],[13.63,46.18],[13.41,46.21]]]}},{"type":"Feature","properties":{"id":"SVN-128","nome":"Tolmin","pais":"SVN","tipo":"Commune|Municipality","lat":46.15,"lng":13.81},"geometry":{"type":"Polygon","coordinates":[[[13.64,46.17],[13.62,46.22],[13.73,46.29],[14.01,46.23],[13.89,46.15],[13.87,46.01],[13.8,46.1],[13.64,46.17]]]}},{"type":"Feature","properties":{"id":"SVN-044","nome":"Kanal","pais":"SVN","tipo":"Commune|Municipality","lat":46.11,"lng":13.65},"geometry":{"type":"Polygon","coordinates":[[[13.52,46.08],[13.67,46.18],[13.77,46.1],[13.64,46],[13.52,46.08]]]}},{"type":"Feature","properties":{"id":"SVN-007","nome":"Brda","pais":"SVN","tipo":"Commune|Municipality","lat":46.02,"lng":13.54},"geometry":{"type":"Polygon","coordinates":[[[13.46,46.01],[13.52,46.08],[13.63,46],[13.51,45.97],[13.46,46.01]]]}},{"type":"Feature","properties":{"id":"SVN-084","nome":"Nova Goriška","pais":"SVN","tipo":"Statistical Region","lat":45.88,"lng":13.73},"geometry":{"type":"Polygon","coordinates":[[[13.62,45.95],[13.6,46.01],[13.78,46.11],[13.87,46.01],[13.73,45.91],[13.83,45.84],[13.63,45.88],[13.69,45.92],[13.62,45.95]]]}},{"type":"Feature","properties":{"id":"SVN-075","nome":"Miren-Kostanjevica","pais":"SVN","tipo":"Commune|Municipality","lat":45.85,"lng":13.64},"geometry":{"type":"Polygon","coordinates":[[[13.57,45.82],[13.6,45.91],[13.71,45.87],[13.57,45.82]]]}},{"type":"Feature","properties":{"id":"SVN-049","nome":"Komen","pais":"SVN","tipo":"Commune|Municipality","lat":45.82,"lng":13.74},"geometry":{"type":"Polygon","coordinates":[[[13.59,45.81],[13.71,45.87],[13.9,45.81],[13.7,45.77],[13.59,45.81]]]}},{"type":"Feature","properties":{"id":"SVN-111","nome":"Sežana","pais":"SVN","tipo":"Commune|Municipality","lat":45.73,"lng":13.84},"geometry":{"type":"Polygon","coordinates":[[[13.89,45.63],[13.71,45.78],[13.9,45.81],[13.98,45.77],[13.89,45.63]]]}},{"type":"Feature","properties":{"id":"SVN-035","nome":"Hrpelje-Kozina","pais":"SVN","tipo":"Commune|Municipality","lat":45.57,"lng":13.99},"geometry":{"type":"Polygon","coordinates":[[[13.87,45.6],[13.91,45.64],[14.09,45.61],[14.12,45.47],[13.87,45.6]]]}},{"type":"Feature","properties":{"id":"SVN-050","nome":"Koper","pais":"SVN","tipo":"Commune|Municipality","lat":45.51,"lng":13.82},"geometry":{"type":"Polygon","coordinates":[[[13.8,45.58],[13.87,45.6],[13.98,45.48],[13.89,45.42],[13.66,45.46],[13.68,45.54],[13.75,45.55],[13.71,45.59],[13.8,45.58]]]}},{"type":"Feature","properties":{"id":"SVN-105","nome":"Rogašovci","pais":"SVN","tipo":"Commune|Municipality","lat":46.8,"lng":16.02},"geometry":{"type":"Polygon","coordinates":[[[16.03,46.84],[16.06,46.76],[15.97,46.78],[16.03,46.84]]]}},{"type":"Feature","properties":{"id":"SVN-152","nome":"Cankova","pais":"SVN","tipo":"Commune|Municipality","lat":46.71,"lng":16.05},"geometry":{"type":"Polygon","coordinates":[[[16.02,46.67],[15.97,46.78],[16.06,46.76],[16.12,46.64],[16.02,46.67]]]}},{"type":"Feature","properties":{"id":"SVN-029","nome":"Gornja Radgona","pais":"SVN","tipo":"Commune|Municipality","lat":46.63,"lng":15.97},"geometry":{"type":"Polygon","coordinates":[[[15.97,46.69],[16.04,46.66],[16.01,46.59],[15.89,46.65],[15.97,46.69]]]}},{"type":"Feature","properties":{"id":"SVN-195","nome":"Apace","pais":"SVN","tipo":"Commune|Municipality","lat":46.69,"lng":15.89},"geometry":{"type":"Polygon","coordinates":[[[15.85,46.72],[15.97,46.69],[15.89,46.66],[15.78,46.71],[15.85,46.72]]]}},{"type":"Feature","properties":{"id":"SVN-118","nome":"Šentilj","pais":"SVN","tipo":"Commune|Municipality","lat":46.69,"lng":15.71},"geometry":{"type":"Polygon","coordinates":[[[15.73,46.7],[15.8,46.7],[15.8,46.65],[15.62,46.67],[15.64,46.72],[15.73,46.7]]]}},{"type":"Feature","properties":{"id":"SVN-055","nome":"Kungota","pais":"SVN","tipo":"Commune|Municipality","lat":46.65,"lng":15.59},"geometry":{"type":"Polygon","coordinates":[[[15.6,46.67],[15.66,46.6],[15.52,46.65],[15.6,46.67]]]}},{"type":"Feature","properties":{"id":"SVN-070","nome":"Maribor","pais":"SVN","tipo":"Commune|Municipality","lat":46.56,"lng":15.64},"geometry":{"type":"Polygon","coordinates":[[[15.51,46.63],[15.77,46.56],[15.73,46.5],[15.56,46.51],[15.51,46.63]]]}},{"type":"Feature","properties":{"id":"SVN-178","nome":"Selnica ob Dravi","pais":"SVN","tipo":"Commune|Municipality","lat":46.58,"lng":15.5},"geometry":{"type":"Polygon","coordinates":[[[15.46,46.61],[15.51,46.63],[15.56,46.56],[15.46,46.54],[15.46,46.61]]]}},{"type":"Feature","properties":{"id":"SVN-101","nome":"Radlje ob Dravi","pais":"SVN","tipo":"Commune|Municipality","lat":46.6,"lng":15.25},"geometry":{"type":"Polygon","coordinates":[[[15.17,46.64],[15.33,46.64],[15.2,46.53],[15.17,46.64]]]}},{"type":"Feature","properties":{"id":"SVN-081","nome":"Muta","pais":"SVN","tipo":"Commune|Municipality","lat":46.62,"lng":15.13},"geometry":{"type":"Polygon","coordinates":[[[15.11,46.65],[15.18,46.62],[15.13,46.6],[15.11,46.65]]]}},{"type":"Feature","properties":{"id":"SVN-025","nome":"Dravograd","pais":"SVN","tipo":"Commune|Municipality","lat":46.59,"lng":15.02},"geometry":{"type":"Polygon","coordinates":[[[15.06,46.65],[15.13,46.6],[15.06,46.54],[14.92,46.62],[15.06,46.65]]]}},{"type":"Feature","properties":{"id":"SVN-093","nome":"Podvelka","pais":"SVN","tipo":"Commune|Municipality","lat":46.6,"lng":15.36},"geometry":{"type":"Polygon","coordinates":[[[15.39,46.65],[15.44,46.58],[15.37,46.59],[15.32,46.51],[15.27,46.57],[15.39,46.65]]]}},{"type":"Feature","properties":{"id":"SVN-103","nome":"Ravne na Koroškem","pais":"SVN","tipo":"Commune|Municipality","lat":46.55,"lng":14.95},"geometry":{"type":"Polygon","coordinates":[[[14.89,46.61],[15.01,46.57],[14.99,46.5],[14.92,46.5],[14.95,46.56],[14.89,46.61]]]}},{"type":"Feature","properties":{"id":"SVN-175","nome":"Prevalje","pais":"SVN","tipo":"Commune|Municipality","lat":46.57,"lng":14.88},"geometry":{"type":"Polygon","coordinates":[[[14.88,46.6],[14.95,46.56],[14.92,46.5],[14.81,46.55],[14.88,46.6]]]}},{"type":"Feature","properties":{"id":"SVN-074","nome":"Mežica","pais":"SVN","tipo":"Commune|Municipality","lat":46.53,"lng":14.85},"geometry":{"type":"Polygon","coordinates":[[[14.8,46.52],[14.85,46.55],[14.9,46.52],[14.8,46.52]]]}},{"type":"Feature","properties":{"id":"SVN-016","nome":"Črna na Koroškem","pais":"SVN","tipo":"Commune|Municipality","lat":46.47,"lng":14.82},"geometry":{"type":"Polygon","coordinates":[[[14.74,46.49],[14.97,46.49],[14.89,46.42],[14.75,46.42],[14.67,46.46],[14.74,46.49]]]}},{"type":"Feature","properties":{"id":"SVN-131","nome":"Tržič","pais":"SVN","tipo":"Commune|Municipality","lat":46.39,"lng":14.34},"geometry":{"type":"Polygon","coordinates":[[[14.24,46.44],[14.44,46.42],[14.41,46.35],[14.3,46.32],[14.24,46.44]]]}},{"type":"Feature","properties":{"id":"SVN-192","nome":"Žirovnica","pais":"SVN","tipo":"Commune|Municipality","lat":46.41,"lng":14.18},"geometry":{"type":"Polygon","coordinates":[[[14.15,46.44],[14.24,46.44],[14.14,46.37],[14.15,46.44]]]}},{"type":"Feature","properties":{"id":"SVN-041","nome":"Jesenice","pais":"SVN","tipo":"Commune|Municipality","lat":46.45,"lng":14.07},"geometry":{"type":"Polygon","coordinates":[[[14.03,46.48],[14.15,46.44],[14.1,46.4],[13.99,46.44],[14.03,46.48]]]}},{"type":"Feature","properties":{"id":"SVN-180","nome":"Solcava","pais":"SVN","tipo":"Commune|Municipality","lat":46.41,"lng":14.66},"geometry":{"type":"Polygon","coordinates":[[[14.67,46.46],[14.74,46.39],[14.57,46.37],[14.67,46.46]]]}},{"type":"Feature","properties":{"id":"SVN-163","nome":"Jezersko","pais":"SVN","tipo":"Commune|Municipality","lat":46.39,"lng":14.49},"geometry":{"type":"Polygon","coordinates":[[[14.54,46.38],[14.41,46.35],[14.44,46.42],[14.54,46.38]]]}},{"type":"Feature","properties":{"id":"SVN-015","nome":"Črenšovci","pais":"SVN","tipo":"Commune|Municipality","lat":46.56,"lng":16.29},"geometry":{"type":"Polygon","coordinates":[[[16.34,46.54],[16.25,46.55],[16.3,46.6],[16.34,46.54]]]}},{"type":"Feature","properties":{"id":"SVN-063","nome":"Ljutomer","pais":"SVN","tipo":"Commune|Municipality","lat":46.51,"lng":16.17},"geometry":{"type":"Polygon","coordinates":[[[16.31,46.53],[16.2,46.47],[16.02,46.51],[16.17,46.53],[16.22,46.58],[16.31,46.53]]]}},{"type":"Feature","properties":{"id":"SVN-087","nome":"Ormož","pais":"SVN","tipo":"Commune|Municipality","lat":46.44,"lng":16.15},"geometry":{"type":"Polygon","coordinates":[[[16.23,46.48],[16.28,46.38],[16.09,46.37],[16.01,46.51],[16.23,46.48]]]}},{"type":"Feature","properties":{"id":"SVN-143","nome":"Zavrc","pais":"SVN","tipo":"Commune|Municipality","lat":46.38,"lng":16.06},"geometry":{"type":"Polygon","coordinates":[[[16.09,46.37],[16.05,46.32],[16.04,46.38],[16.09,46.37]]]}},{"type":"Feature","properties":{"id":"SVN-028","nome":"Gorišnica","pais":"SVN","tipo":"Commune|Municipality","lat":46.37,"lng":16.02},"geometry":{"type":"Polygon","coordinates":[[[16.05,46.32],[15.99,46.3],[16,46.43],[16.08,46.38],[16.05,46.32]]]}},{"type":"Feature","properties":{"id":"SVN-135","nome":"Videm","pais":"SVN","tipo":"Commune|Municipality","lat":46.37,"lng":15.9},"geometry":{"type":"Polygon","coordinates":[[[15.99,46.29],[15.92,46.27],[15.91,46.34],[15.83,46.31],[15.8,46.35],[15.93,46.39],[15.99,46.29]]]}},{"type":"Feature","properties":{"id":"SVN-172","nome":"Podlehnik","pais":"SVN","tipo":"Commune|Municipality","lat":46.31,"lng":15.87},"geometry":{"type":"Polygon","coordinates":[[[15.92,46.27],[15.83,46.34],[15.91,46.34],[15.92,46.27]]]}},{"type":"Feature","properties":{"id":"SVN-191","nome":"Žetale","pais":"SVN","tipo":"Commune|Municipality","lat":46.28,"lng":15.82},"geometry":{"type":"Polygon","coordinates":[[[15.88,46.26],[15.76,46.26],[15.8,46.32],[15.88,46.26]]]}},{"type":"Feature","properties":{"id":"SVN-106","nome":"Rogaška Slatina","pais":"SVN","tipo":"Commune|Municipality","lat":46.24,"lng":15.65},"geometry":{"type":"Polygon","coordinates":[[[15.68,46.21],[15.63,46.2],[15.57,46.27],[15.74,46.27],[15.68,46.21]]]}},{"type":"Feature","properties":{"id":"SVN-149","nome":"Bistrica ob Sotli","pais":"SVN","tipo":"Commune|Municipality","lat":46.15,"lng":15.58},"geometry":{"type":"Polygon","coordinates":[[[15.63,46.2],[15.61,46.07],[15.54,46.13],[15.63,46.2]]]}},{"type":"Feature","properties":{"id":"SVN-009","nome":"Brežice","pais":"SVN","tipo":"Commune|Municipality","lat":45.91,"lng":15.6},"geometry":{"type":"Polygon","coordinates":[[[15.69,46.04],[15.68,45.84],[15.55,45.82],[15.52,45.89],[15.69,46.04]]]}},{"type":"Feature","properties":{"id":"SVN-054","nome":"Krško","pais":"SVN","tipo":"Statistical Region","lat":45.94,"lng":15.47},"geometry":{"type":"Polygon","coordinates":[[[15.55,45.82],[15.43,45.78],[15.35,45.89],[15.42,46.06],[15.52,46.06],[15.58,45.99],[15.51,45.88],[15.55,45.82]]]}},{"type":"Feature","properties":{"id":"SVN-119","nome":"Šentjernej","pais":"SVN","tipo":"Commune|Municipality","lat":45.81,"lng":15.35},"geometry":{"type":"Polygon","coordinates":[[[15.43,45.78],[15.33,45.75],[15.27,45.84],[15.39,45.88],[15.43,45.78]]]}},{"type":"Feature","properties":{"id":"SVN-085","nome":"Novo Mesto","pais":"SVN","tipo":"Commune|Municipality","lat":45.78,"lng":15.19},"geometry":{"type":"Polygon","coordinates":[[[15.33,45.75],[15.13,45.68],[15.06,45.78],[15.24,45.92],[15.31,45.88],[15.27,45.84],[15.33,45.75]]]}},{"type":"Feature","properties":{"id":"SVN-073","nome":"Metlika","pais":"SVN","tipo":"Commune|Municipality","lat":45.65,"lng":15.3},"geometry":{"type":"Polygon","coordinates":[[[15.25,45.71],[15.37,45.64],[15.28,45.57],[15.22,45.6],[15.28,45.64],[15.25,45.71]]]}},{"type":"Feature","properties":{"id":"SVN-017","nome":"Crnomelj","pais":"SVN","tipo":"Commune|Municipality","lat":45.52,"lng":15.21},"geometry":{"type":"Polygon","coordinates":[[[15.28,45.57],[15.36,45.48],[15.33,45.45],[15.18,45.43],[15.07,45.47],[15.12,45.51],[15.07,45.52],[15.07,45.6],[15.28,45.57]]]}},{"type":"Feature","properties":{"id":"SVN-048","nome":"Kocevje","pais":"SVN","tipo":"Commune|Municipality","lat":45.64,"lng":14.92},"geometry":{"type":"Polygon","coordinates":[[[15.07,45.47],[14.94,45.53],[14.82,45.5],[14.71,45.63],[14.78,45.65],[14.81,45.76],[14.98,45.77],[14.98,45.7],[15.1,45.55],[15.07,45.52],[15.12,45.52],[15.07,45.47]]]}},{"type":"Feature","properties":{"id":"SVN-165","nome":"Kostel","pais":"SVN","tipo":"Commune|Municipality","lat":45.48,"lng":14.82},"geometry":{"type":"Polygon","coordinates":[[[14.98,45.49],[14.8,45.47],[14.66,45.57],[14.72,45.6],[14.82,45.5],[14.98,45.49]]]}},{"type":"Feature","properties":{"id":"SVN-066","nome":"Loški Potok","pais":"SVN","tipo":"Commune|Municipality","lat":45.65,"lng":14.64},"geometry":{"type":"Polygon","coordinates":[[[14.66,45.57],[14.54,45.73],[14.73,45.67],[14.66,45.57]]]}},{"type":"Feature","properties":{"id":"SVN-065","nome":"Loška dolina","pais":"SVN","tipo":"Commune|Municipality","lat":45.66,"lng":14.48},"geometry":{"type":"Polygon","coordinates":[[[14.57,45.66],[14.44,45.58],[14.39,45.71],[14.54,45.73],[14.57,45.66]]]}},{"type":"Feature","properties":{"id":"SVN-038","nome":"Ilirska Bistrica","pais":"SVN","tipo":"Commune|Municipality","lat":45.57,"lng":14.29},"geometry":{"type":"Polygon","coordinates":[[[14.49,45.58],[14.37,45.48],[14.12,45.47],[14.09,45.52],[14.09,45.62],[14.33,45.67],[14.49,45.58]]]}},{"type":"Feature","properties":{"id":"SVN-040","nome":"Izola","pais":"SVN","tipo":"Commune|Municipality","lat":45.52,"lng":13.64},"geometry":{"type":"Polygon","coordinates":[[[13.61,45.54],[13.67,45.52],[13.65,45.49],[13.61,45.54]]]}},{"type":"Feature","properties":{"id":"SVN-089","nome":"Pesnica","pais":"SVN","tipo":"Commune|Municipality","lat":46.63,"lng":15.71},"geometry":{"type":"Polygon","coordinates":[[[15.74,46.57],[15.65,46.59],[15.65,46.64],[15.74,46.67],[15.74,46.57]]]}},{"type":"Feature","properties":{"id":"SVN-026","nome":"Duplek","pais":"SVN","tipo":"Commune|Municipality","lat":46.51,"lng":15.77},"geometry":{"type":"Polygon","coordinates":[[[15.73,46.5],[15.75,46.55],[15.82,46.51],[15.78,46.47],[15.73,46.5]]]}},{"type":"Feature","properties":{"id":"SVN-160","nome":"Hoce-Slivnica","pais":"SVN","tipo":"Commune|Municipality","lat":46.49,"lng":15.62},"geometry":{"type":"Polygon","coordinates":[[[15.61,46.52],[15.7,46.51],[15.71,46.46],[15.54,46.5],[15.61,46.52]]]}},{"type":"Feature","properties":{"id":"SVN-058","nome":"Lenart","pais":"SVN","tipo":"Commune|Municipality","lat":46.56,"lng":15.85},"geometry":{"type":"Polygon","coordinates":[[[15.78,46.65],[15.96,46.59],[15.82,46.5],[15.75,46.55],[15.78,46.65]]]}},{"type":"Feature","properties":{"id":"SVN-181","nome":"Sveta Ana","pais":"SVN","tipo":"Commune|Municipality","lat":46.65,"lng":15.84},"geometry":{"type":"Polygon","coordinates":[[[15.8,46.65],[15.8,46.7],[15.89,46.66],[15.86,46.61],[15.8,46.65]]]}},{"type":"Feature","properties":{"id":"SVN-167","nome":"Lovrenc na Pohorju","pais":"SVN","tipo":"Commune|Municipality","lat":46.53,"lng":15.39},"geometry":{"type":"Polygon","coordinates":[[[15.38,46.59],[15.46,46.55],[15.41,46.48],[15.32,46.48],[15.38,46.59]]]}},{"type":"Feature","properties":{"id":"SVN-177","nome":"Ribnica na Pohorju","pais":"SVN","tipo":"Commune|Municipality","lat":46.53,"lng":15.26},"geometry":{"type":"Polygon","coordinates":[[[15.27,46.57],[15.31,46.49],[15.19,46.52],[15.27,46.57]]]}},{"type":"Feature","properties":{"id":"SVN-112","nome":"Slovenj Gradec","pais":"SVN","tipo":"Statistical Region","lat":46.49,"lng":15.08},"geometry":{"type":"Polygon","coordinates":[[[14.97,46.49],[15.1,46.57],[15.2,46.51],[15.12,46.42],[14.97,46.49]]]}},{"type":"Feature","properties":{"id":"SVN-141","nome":"Vuzenica","pais":"SVN","tipo":"Commune|Municipality","lat":46.57,"lng":15.16},"geometry":{"type":"Polygon","coordinates":[[[15.18,46.62],[15.19,46.52],[15.1,46.57],[15.18,46.62]]]}},{"type":"Feature","properties":{"id":"SVN-095","nome":"Preddvor","pais":"SVN","tipo":"Commune|Municipality","lat":46.33,"lng":14.46},"geometry":{"type":"Polygon","coordinates":[[[14.47,46.29],[14.37,46.3],[14.44,46.37],[14.55,46.35],[14.47,46.29]]]}},{"type":"Feature","properties":{"id":"SVN-117","nome":"Šenčur","pais":"SVN","tipo":"Commune|Municipality","lat":46.24,"lng":14.43},"geometry":{"type":"Polygon","coordinates":[[[14.42,46.29],[14.47,46.29],[14.46,46.19],[14.38,46.22],[14.42,46.29]]]}},{"type":"Feature","properties":{"id":"SVN-012","nome":"Cerklje na Gorenjskem","pais":"SVN","tipo":"Commune|Municipality","lat":46.25,"lng":14.51},"geometry":{"type":"Polygon","coordinates":[[[14.47,46.29],[14.54,46.31],[14.57,46.25],[14.46,46.21],[14.47,46.29]]]}},{"type":"Feature","properties":{"id":"SVN-043","nome":"Kamnik","pais":"SVN","tipo":"Commune|Municipality","lat":46.23,"lng":14.73},"geometry":{"type":"Polygon","coordinates":[[[14.54,46.31],[14.54,46.36],[14.64,46.37],[14.71,46.26],[14.93,46.22],[14.59,46.19],[14.54,46.31]]]}},{"type":"Feature","properties":{"id":"SVN-071","nome":"Medvode","pais":"SVN","tipo":"Commune|Municipality","lat":46.12,"lng":14.4},"geometry":{"type":"Polygon","coordinates":[[[14.39,46.16],[14.46,46.19],[14.47,46.14],[14.41,46.08],[14.33,46.1],[14.39,46.16]]]}},{"type":"Feature","properties":{"id":"SVN-052","nome":"Kranj","pais":"SVN","tipo":"Commune|Municipality","lat":46.24,"lng":14.29},"geometry":{"type":"Polygon","coordinates":[[[14.41,46.19],[14.17,46.28],[14.33,46.25],[14.33,46.34],[14.41,46.35],[14.37,46.3],[14.42,46.29],[14.41,46.19]]]}},{"type":"Feature","properties":{"id":"SVN-122","nome":"Škofja Loka","pais":"SVN","tipo":"Commune|Municipality","lat":46.16,"lng":14.28},"geometry":{"type":"Polygon","coordinates":[[[14.25,46.24],[14.39,46.16],[14.21,46.09],[14.22,46.17],[14.16,46.18],[14.25,46.24]]]}},{"type":"Feature","properties":{"id":"SVN-146","nome":"Železniki","pais":"SVN","tipo":"Commune|Municipality","lat":46.23,"lng":14.12},"geometry":{"type":"Polygon","coordinates":[[[14.17,46.28],[14.25,46.24],[14.23,46.21],[13.99,46.18],[14.01,46.25],[14.17,46.28]]]}},{"type":"Feature","properties":{"id":"SVN-004","nome":"Bohinj","pais":"SVN","tipo":"Commune|Municipality","lat":46.3,"lng":13.95},"geometry":{"type":"Polygon","coordinates":[[[14.18,46.28],[13.88,46.23],[13.73,46.3],[13.84,46.38],[14.18,46.28]]]}},{"type":"Feature","properties":{"id":"SVN-082","nome":"Naklo","pais":"SVN","tipo":"Commune|Municipality","lat":46.29,"lng":14.3},"geometry":{"type":"Polygon","coordinates":[[[14.33,46.32],[14.33,46.26],[14.27,46.27],[14.27,46.33],[14.33,46.32]]]}},{"type":"Feature","properties":{"id":"SVN-102","nome":"Radovljica","pais":"SVN","tipo":"Statistical Region","lat":46.34,"lng":14.19},"geometry":{"type":"Polygon","coordinates":[[[14.23,46.27],[14.11,46.31],[14.24,46.43],[14.27,46.27],[14.23,46.27]]]}},{"type":"Feature","properties":{"id":"SVN-126","nome":"Šoštanj","pais":"SVN","tipo":"Commune|Municipality","lat":46.42,"lng":14.99},"geometry":{"type":"Polygon","coordinates":[[[14.96,46.46],[15.09,46.43],[15.07,46.35],[14.9,46.39],[14.96,46.46]]]}},{"type":"Feature","properties":{"id":"SVN-062","nome":"Ljubno","pais":"SVN","tipo":"Commune|Municipality","lat":46.37,"lng":14.84},"geometry":{"type":"Polygon","coordinates":[[[14.89,46.42],[14.87,46.32],[14.78,46.34],[14.8,46.43],[14.89,46.42]]]}},{"type":"Feature","properties":{"id":"SVN-067","nome":"Luce","pais":"SVN","tipo":"Commune|Municipality","lat":46.34,"lng":14.72},"geometry":{"type":"Polygon","coordinates":[[[14.8,46.43],[14.78,46.34],[14.68,46.29],[14.64,46.37],[14.8,46.43]]]}},{"type":"Feature","properties":{"id":"SVN-068","nome":"Lukovica","pais":"SVN","tipo":"Commune|Municipality","lat":46.18,"lng":14.78},"geometry":{"type":"Polygon","coordinates":[[[14.77,46.2],[14.9,46.19],[14.65,46.16],[14.77,46.2]]]}},{"type":"Feature","properties":{"id":"SVN-148","nome":"Benedikt","pais":"SVN","tipo":"Commune|Municipality","lat":46.61,"lng":15.9},"geometry":{"type":"Polygon","coordinates":[[[15.9,46.58],[15.89,46.65],[15.93,46.64],[15.9,46.58]]]}},{"type":"Feature","properties":{"id":"SVN-057","nome":"Laško","pais":"SVN","tipo":"Commune|Municipality","lat":46.14,"lng":15.25},"geometry":{"type":"Polygon","coordinates":[[[15.37,46.14],[15.37,46.07],[15.2,46.06],[15.11,46.18],[15.36,46.18],[15.37,46.14]]]}},{"type":"Feature","properties":{"id":"SVN-108","nome":"Ruše","pais":"SVN","tipo":"Commune|Municipality","lat":46.52,"lng":15.49},"geometry":{"type":"Polygon","coordinates":[[[15.56,46.51],[15.41,46.48],[15.46,46.55],[15.56,46.56],[15.56,46.51]]]}},{"type":"Feature","properties":{"id":"SVN-138","nome":"Vodice","pais":"SVN","tipo":"Commune|Municipality","lat":46.17,"lng":14.5},"geometry":{"type":"Polygon","coordinates":[[[14.47,46.14],[14.46,46.21],[14.54,46.17],[14.47,46.14]]]}},{"type":"Feature","properties":{"id":"SVN-164","nome":"Komenda","pais":"SVN","tipo":"Commune|Municipality","lat":46.21,"lng":14.54},"geometry":{"type":"Polygon","coordinates":[[[14.54,46.17],[14.5,46.2],[14.55,46.24],[14.58,46.2],[14.54,46.17]]]}},{"type":"Feature","properties":{"id":"SVN-072","nome":"Mengeš","pais":"SVN","tipo":"Commune|Municipality","lat":46.16,"lng":14.55},"geometry":{"type":"Polygon","coordinates":[[[14.51,46.15],[14.59,46.19],[14.59,46.15],[14.51,46.15]]]}},{"type":"Feature","properties":{"id":"SVN-140","nome":"Vrhnika","pais":"SVN","tipo":"Commune|Municipality","lat":45.95,"lng":14.29},"geometry":{"type":"Polygon","coordinates":[[[14.24,46.02],[14.4,46.02],[14.33,45.94],[14.38,45.87],[14.21,45.95],[14.19,46.02],[14.24,46.02]]]}},{"type":"Feature","properties":{"id":"SVN-162","nome":"Horjul","pais":"SVN","tipo":"Commune|Municipality","lat":46.02,"lng":14.29},"geometry":{"type":"Polygon","coordinates":[[[14.27,45.99],[14.25,46.04],[14.34,46.03],[14.27,45.99]]]}},{"type":"Feature","properties":{"id":"SVN-097","nome":"Puconci","pais":"SVN","tipo":"Commune|Municipality","lat":46.75,"lng":16.13},"geometry":{"type":"Polygon","coordinates":[[[16.1,46.76],[16.14,46.83],[16.21,46.75],[16.11,46.69],[16.05,46.72],[16.1,46.76]]]}},{"type":"Feature","properties":{"id":"SVN-158","nome":"Grad","pais":"SVN","tipo":"Commune|Municipality","lat":46.8,"lng":16.09},"geometry":{"type":"Polygon","coordinates":[[[16.14,46.83],[16.11,46.77],[16.05,46.77],[16.06,46.82],[16.14,46.83]]]}},{"type":"Feature","properties":{"id":"SVN-080","nome":"Murska Sobota","pais":"SVN","tipo":"Statistical Region","lat":46.65,"lng":16.17},"geometry":{"type":"Polygon","coordinates":[[[16.15,46.69],[16.24,46.65],[16.11,46.62],[16.11,46.69],[16.15,46.69]]]}},{"type":"Feature","properties":{"id":"SVN-182","nome":"Sveti Andraž v Slovenskih Goricah","pais":"SVN","tipo":"Commune|Municipality","lat":46.52,"lng":15.97},"geometry":{"type":"Polygon","coordinates":[[[15.92,46.53],[16.01,46.52],[15.95,46.49],[15.92,46.53]]]}},{"type":"Feature","properties":{"id":"SVN-008","nome":"Brezovica","pais":"SVN","tipo":"Commune|Municipality","lat":45.95,"lng":14.43},"geometry":{"type":"Polygon","coordinates":[[[14.41,46.04],[14.49,45.88],[14.44,45.86],[14.37,45.97],[14.41,46.04]]]}},{"type":"Feature","properties":{"id":"SVN-021","nome":"Dobrova-Polhov Gradec","pais":"SVN","tipo":"Commune|Municipality","lat":46.07,"lng":14.31},"geometry":{"type":"Polygon","coordinates":[[[14.43,46.03],[14.19,46.04],[14.27,46.11],[14.42,46.08],[14.43,46.03]]]}},{"type":"Feature","properties":{"id":"SVN-027","nome":"Gorenja vas-Poljane","pais":"SVN","tipo":"Commune|Municipality","lat":46.12,"lng":14.12},"geometry":{"type":"Polygon","coordinates":[[[14.21,46.09],[14.19,46.04],[14.02,46.08],[14.07,46.16],[14.2,46.18],[14.21,46.09]]]}},{"type":"Feature","properties":{"id":"SVN-064","nome":"Logatec","pais":"SVN","tipo":"Commune|Municipality","lat":45.94,"lng":14.2},"geometry":{"type":"Polygon","coordinates":[[[14.19,46.04],[14.3,45.89],[14.28,45.85],[14.1,45.91],[14.19,46.04]]]}},{"type":"Feature","properties":{"id":"SVN-185","nome":"Trnovska vas","pais":"SVN","tipo":"Commune|Municipality","lat":46.52,"lng":15.89},"geometry":{"type":"Polygon","coordinates":[[[15.89,46.55],[15.93,46.5],[15.85,46.51],[15.89,46.55]]]}},{"type":"Feature","properties":{"id":"SVN-018","nome":"Destrnik","pais":"SVN","tipo":"Commune|Municipality","lat":46.48,"lng":15.89},"geometry":{"type":"Polygon","coordinates":[[[15.82,46.49],[15.95,46.49],[15.89,46.45],[15.82,46.49]]]}},{"type":"Feature","properties":{"id":"SVN-098","nome":"Race-Fram","pais":"SVN","tipo":"Commune|Municipality","lat":46.45,"lng":15.64},"geometry":{"type":"Polygon","coordinates":[[[15.71,46.46],[15.73,46.43],[15.69,46.41],[15.55,46.48],[15.71,46.46]]]}},{"type":"Feature","properties":{"id":"SVN-115","nome":"Starše","pais":"SVN","tipo":"Statistical Region","lat":46.45,"lng":15.77},"geometry":{"type":"Polygon","coordinates":[[[15.73,46.5],[15.8,46.43],[15.73,46.43],[15.73,46.5]]]}},{"type":"Feature","properties":{"id":"SVN-189","nome":"Vransko","pais":"SVN","tipo":"Commune|Municipality","lat":46.23,"lng":14.95},"geometry":{"type":"Polygon","coordinates":[[[14.91,46.21],[14.9,46.26],[15.01,46.26],[14.97,46.2],[14.91,46.21]]]}},{"type":"Feature","properties":{"id":"SVN-133","nome":"Velenje","pais":"SVN","tipo":"Commune|Municipality","lat":46.37,"lng":15.14},"geometry":{"type":"Polygon","coordinates":[[[15.09,46.43],[15.18,46.41],[15.2,46.33],[15.07,46.35],[15.09,46.43]]]}},{"type":"Feature","properties":{"id":"SVN-173","nome":"Polzela","pais":"SVN","tipo":"Commune|Municipality","lat":46.3,"lng":15.09},"geometry":{"type":"Polygon","coordinates":[[[15.07,46.35],[15.12,46.32],[15.1,46.26],[15.07,46.35]]]}},{"type":"Feature","properties":{"id":"SVN-125","nome":"Šmartno ob Paki","pais":"SVN","tipo":"Commune|Municipality","lat":46.34,"lng":15.03},"geometry":{"type":"Polygon","coordinates":[[[15,46.38],[15.07,46.35],[15.05,46.31],[15,46.38]]]}},{"type":"Feature","properties":{"id":"SVN-079","nome":"Mozirje","pais":"SVN","tipo":"Commune|Municipality","lat":46.36,"lng":14.94},"geometry":{"type":"Polygon","coordinates":[[[14.87,46.32],[14.9,46.39],[15,46.39],[14.97,46.3],[14.87,46.32]]]}},{"type":"Feature","properties":{"id":"SVN-137","nome":"Vitanje","pais":"SVN","tipo":"Commune|Municipality","lat":46.41,"lng":15.3},"geometry":{"type":"Polygon","coordinates":[[[15.33,46.37],[15.23,46.39],[15.32,46.45],[15.33,46.37]]]}},{"type":"Feature","properties":{"id":"SVN-139","nome":"Vojnik","pais":"SVN","tipo":"Commune|Municipality","lat":46.32,"lng":15.31},"geometry":{"type":"Polygon","coordinates":[[[15.27,46.37],[15.37,46.33],[15.36,46.26],[15.24,46.32],[15.27,46.37]]]}},{"type":"Feature","properties":{"id":"SVN-144","nome":"Zrece","pais":"SVN","tipo":"Commune|Municipality","lat":46.39,"lng":15.37},"geometry":{"type":"Polygon","coordinates":[[[15.33,46.37],[15.32,46.48],[15.42,46.42],[15.41,46.35],[15.33,46.37]]]}},{"type":"Feature","properties":{"id":"SVN-076","nome":"Mislinja","pais":"SVN","tipo":"Commune|Municipality","lat":46.44,"lng":15.23},"geometry":{"type":"Polygon","coordinates":[[[15.31,46.49],[15.32,46.45],[15.23,46.39],[15.12,46.42],[15.2,46.51],[15.31,46.49]]]}},{"type":"Feature","properties":{"id":"SVN-05","nome":"Zasavska","pais":"SVN","tipo":"Statistical Region","lat":46.15,"lng":14.92},"geometry":{"type":"Polygon","coordinates":[[[14.91,46.09],[14.82,46.17],[15,46.2],[15.03,46.13],[14.91,46.09]]]}},{"type":"Feature","properties":{"id":"SVN-060","nome":"Litija","pais":"SVN","tipo":"Commune|Municipality","lat":46.08,"lng":14.92},"geometry":{"type":"Polygon","coordinates":[[[14.83,46.14],[14.91,46.09],[15,46.12],[15,46.06],[15.07,46.06],[15.12,46],[15,45.96],[14.87,46.07],[14.71,46.08],[14.83,46.14]]]}},{"type":"Feature","properties":{"id":"SVN-030","nome":"Gornji Grad","pais":"SVN","tipo":"Commune|Municipality","lat":46.3,"lng":14.79},"geometry":{"type":"Polygon","coordinates":[[[14.8,46.34],[14.88,46.3],[14.85,46.25],[14.7,46.27],[14.8,46.34]]]}},{"type":"Feature","properties":{"id":"SVN-013","nome":"Cerknica","pais":"SVN","tipo":"Commune|Municipality","lat":45.79,"lng":14.38},"geometry":{"type":"Polygon","coordinates":[[[14.44,45.86],[14.5,45.87],[14.44,45.8],[14.49,45.76],[14.41,45.71],[14.26,45.79],[14.31,45.89],[14.44,45.86]]]}},{"type":"Feature","properties":{"id":"SVN-134","nome":"Velike Lašče","pais":"SVN","tipo":"Commune|Municipality","lat":45.84,"lng":14.59},"geometry":{"type":"Polygon","coordinates":[[[14.51,45.84],[14.49,45.88],[14.6,45.91],[14.69,45.82],[14.56,45.79],[14.51,45.84]]]}},{"type":"Feature","properties":{"id":"SVN-005","nome":"Borovnica","pais":"SVN","tipo":"Commune|Municipality","lat":45.91,"lng":14.38},"geometry":{"type":"Polygon","coordinates":[[[14.39,45.86],[14.34,45.96],[14.41,45.92],[14.39,45.86]]]}},{"type":"Feature","properties":{"id":"SVN-094","nome":"Postojna","pais":"SVN","tipo":"Commune|Municipality","lat":45.79,"lng":14.18},"geometry":{"type":"Polygon","coordinates":[[[14.28,45.85],[14.26,45.79],[14.32,45.75],[14.26,45.73],[14.13,45.7],[14.04,45.76],[14.05,45.84],[14.13,45.87],[14.28,45.85]]]}},{"type":"Feature","properties":{"id":"SVN-091","nome":"Pivka","pais":"SVN","tipo":"Statistical Region","lat":45.68,"lng":14.24},"geometry":{"type":"Polygon","coordinates":[[[14.32,45.75],[14.43,45.64],[14.08,45.63],[14.09,45.71],[14.32,45.75]]]}},{"type":"Feature","properties":{"id":"SVN-155","nome":"Dobrna","pais":"SVN","tipo":"Commune|Municipality","lat":46.36,"lng":15.23},"geometry":{"type":"Polygon","coordinates":[[[15.27,46.37],[15.23,46.32],[15.19,46.39],[15.27,46.37]]]}},{"type":"Feature","properties":{"id":"SVN-011","nome":"Celje","pais":"SVN","tipo":"Commune|Municipality","lat":46.24,"lng":15.29},"geometry":{"type":"Polygon","coordinates":[[[15.23,46.32],[15.36,46.26],[15.31,46.19],[15.22,46.19],[15.23,46.32]]]}},{"type":"Feature","properties":{"id":"SVN-083","nome":"Nazarje","pais":"SVN","tipo":"Commune|Municipality","lat":46.29,"lng":14.91},"geometry":{"type":"Polygon","coordinates":[[[14.88,46.24],[14.88,46.3],[14.97,46.32],[14.88,46.24]]]}},{"type":"Feature","properties":{"id":"SVN-023","nome":"Domžale","pais":"SVN","tipo":"Commune|Municipality","lat":46.15,"lng":14.63},"geometry":{"type":"Polygon","coordinates":[[[14.59,46.15],[14.59,46.19],[14.68,46.2],[14.69,46.12],[14.59,46.1],[14.59,46.15]]]}},{"type":"Feature","properties":{"id":"SVN-039","nome":"Ivancna Gorica","pais":"SVN","tipo":"Commune|Municipality","lat":45.9,"lng":14.82},"geometry":{"type":"Polygon","coordinates":[[[14.74,46],[14.93,45.96],[14.85,45.8],[14.76,45.84],[14.74,46]]]}},{"type":"Feature","properties":{"id":"SVN-061","nome":"Ljubljana","pais":"SVN","tipo":"Statistical Region","lat":46.06,"lng":14.58},"geometry":{"type":"Polygon","coordinates":[[[14.75,46],[14.45,45.97],[14.41,46.08],[14.51,46.15],[14.72,46.07],[14.75,46]]]}},{"type":"Feature","properties":{"id":"SVN-194","nome":"Šmartno in Litiji","pais":"SVN","tipo":"Commune|Municipality","lat":46.02,"lng":14.87},"geometry":{"type":"Polygon","coordinates":[[[14.75,46],[14.74,46.07],[14.84,46.07],[14.95,45.98],[14.75,46]]]}},{"type":"Feature","properties":{"id":"SVN-037","nome":"Ig","pais":"SVN","tipo":"Commune|Municipality","lat":45.94,"lng":14.52},"geometry":{"type":"Polygon","coordinates":[[[14.51,46],[14.57,45.87],[14.47,45.91],[14.45,45.97],[14.51,46]]]}},{"type":"Feature","properties":{"id":"SVN-174","nome":"Prebold","pais":"SVN","tipo":"Commune|Municipality","lat":46.22,"lng":15.09},"geometry":{"type":"Polygon","coordinates":[[[15.1,46.26],[15.13,46.2],[15.05,46.19],[15.1,46.26]]]}},{"type":"Feature","properties":{"id":"SVN-077","nome":"Moravce","pais":"SVN","tipo":"Commune|Municipality","lat":46.13,"lng":14.76},"geometry":{"type":"Polygon","coordinates":[[[14.83,46.14],[14.73,46.1],[14.67,46.14],[14.83,46.14]]]}},{"type":"Feature","properties":{"id":"SVN-020","nome":"Dobrepolje","pais":"SVN","tipo":"Commune|Municipality","lat":45.83,"lng":14.73},"geometry":{"type":"Polygon","coordinates":[[[14.75,45.88],[14.8,45.74],[14.64,45.85],[14.75,45.88]]]}},{"type":"Feature","properties":{"id":"SVN-099","nome":"Radece","pais":"SVN","tipo":"Commune|Municipality","lat":46.07,"lng":15.16},"geometry":{"type":"Polygon","coordinates":[[[15.09,46.04],[15.11,46.09],[15.16,46.09],[15.24,46.03],[15.09,46.04]]]}},{"type":"Feature","properties":{"id":"SVN-127","nome":"Štore","pais":"SVN","tipo":"Commune|Municipality","lat":46.2,"lng":15.33},"geometry":{"type":"Polygon","coordinates":[[[15.33,46.23],[15.36,46.18],[15.29,46.17],[15.33,46.23]]]}},{"type":"Feature","properties":{"id":"SVN-114","nome":"Slovenske Konjice","pais":"SVN","tipo":"Commune|Municipality","lat":46.32,"lng":15.46},"geometry":{"type":"Polygon","coordinates":[[[15.38,46.31],[15.43,46.37],[15.53,46.35],[15.56,46.29],[15.38,46.31]]]}},{"type":"Feature","properties":{"id":"SVN-147","nome":"Žiri","pais":"SVN","tipo":"Commune|Municipality","lat":46.05,"lng":14.11},"geometry":{"type":"Polygon","coordinates":[[[14.05,46.09],[14.19,46.04],[14.11,46.01],[14.05,46.09]]]}},{"type":"Feature","properties":{"id":"SVN-171","nome":"Oplotnica","pais":"SVN","tipo":"Commune|Municipality","lat":46.38,"lng":15.46},"geometry":{"type":"Polygon","coordinates":[[[15.46,46.36],[15.42,46.42],[15.49,46.39],[15.46,46.36]]]}},{"type":"Feature","properties":{"id":"SVN-014","nome":"Cerkno","pais":"SVN","tipo":"Commune|Municipality","lat":46.13,"lng":13.98},"geometry":{"type":"Polygon","coordinates":[[[14.07,46.16],[14.03,46.07],[13.89,46.07],[13.91,46.16],[14.07,46.16]]]}},{"type":"Feature","properties":{"id":"SVN-003","nome":"Bled","pais":"SVN","tipo":"Commune|Municipality","lat":46.39,"lng":14},"geometry":{"type":"Polygon","coordinates":[[[13.88,46.37],[13.99,46.44],[14.13,46.41],[14.15,46.35],[14.1,46.3],[13.88,46.37]]]}},{"type":"Feature","properties":{"id":"SVN-001","nome":"Ajdovščina","pais":"SVN","tipo":"Commune|Municipality","lat":45.9,"lng":13.93},"geometry":{"type":"Polygon","coordinates":[[[14.12,45.88],[13.86,45.83],[13.73,45.91],[13.85,46],[14.12,45.88]]]}},{"type":"Feature","properties":{"id":"SVN-019","nome":"Divaca","pais":"SVN","tipo":"Commune|Municipality","lat":45.69,"lng":14.01},"geometry":{"type":"Polygon","coordinates":[[[14.04,45.76],[14.09,45.71],[14.06,45.6],[13.94,45.64],[13.96,45.74],[14.04,45.76]]]}},{"type":"Feature","properties":{"id":"SVN-036","nome":"Idrija","pais":"SVN","tipo":"Commune|Municipality","lat":45.99,"lng":14},"geometry":{"type":"Polygon","coordinates":[[[14.14,46.01],[14.12,45.88],[13.85,46],[13.86,46.06],[13.96,46.09],[14.14,46.01]]]}},{"type":"Feature","properties":{"id":"SVN-136","nome":"Vipava","pais":"SVN","tipo":"Commune|Municipality","lat":45.83,"lng":13.97},"geometry":{"type":"Polygon","coordinates":[[[14.05,45.84],[14.04,45.76],[13.89,45.83],[13.97,45.88],[14.05,45.84]]]}},{"type":"Feature","properties":{"id":"SVN-150","nome":"Bloke","pais":"SVN","tipo":"Commune|Municipality","lat":45.78,"lng":14.51},"geometry":{"type":"Polygon","coordinates":[[[14.51,45.84],[14.58,45.74],[14.44,45.8],[14.51,45.84]]]}},{"type":"Feature","properties":{"id":"SVN-120","nome":"Šentjur pri Celju","pais":"SVN","tipo":"Commune|Municipality","lat":46.18,"lng":15.44},"geometry":{"type":"Polygon","coordinates":[[[15.36,46.18],[15.38,46.31],[15.53,46.28],[15.45,46.23],[15.55,46.16],[15.49,46.07],[15.37,46.07],[15.44,46.13],[15.36,46.18]]]}},{"type":"Feature","properties":{"id":"SVN-051","nome":"Kozje","pais":"SVN","tipo":"Commune|Municipality","lat":46.07,"lng":15.57},"geometry":{"type":"Polygon","coordinates":[[[15.5,46.11],[15.56,46.12],[15.67,46.03],[15.58,45.99],[15.5,46.11]]]}},{"type":"Feature","properties":{"id":"SVN-124","nome":"Šmarje pri Jelšah","pais":"SVN","tipo":"Commune|Municipality","lat":46.22,"lng":15.53},"geometry":{"type":"Polygon","coordinates":[[[15.51,46.16],[15.45,46.23],[15.57,46.27],[15.61,46.2],[15.51,46.16]]]}},{"type":"Feature","properties":{"id":"SVN-110","nome":"Sevnica","pais":"SVN","tipo":"Commune|Municipality","lat":46.01,"lng":15.26},"geometry":{"type":"Polygon","coordinates":[[[15.37,46.07],[15.43,46.01],[15.36,45.93],[15.24,45.92],[15.09,46.03],[15.24,46.03],[15.2,46.08],[15.37,46.07]]]}},{"type":"Feature","properties":{"id":"SVN-170","nome":"Mirna Pec","pais":"SVN","tipo":"Commune|Municipality","lat":45.85,"lng":15.09},"geometry":{"type":"Polygon","coordinates":[[[15.14,45.87],[15.09,45.81],[15.04,45.84],[15.14,45.87]]]}},{"type":"Feature","properties":{"id":"SVN-130","nome":"Trebnje","pais":"SVN","tipo":"Commune|Municipality","lat":45.94,"lng":15.05},"geometry":{"type":"Polygon","coordinates":[[[15.14,45.87],[15.03,45.84],[14.87,45.89],[14.93,45.96],[15.1,46.01],[15.24,45.92],[15.14,45.87]]]}},{"type":"Feature","properties":{"id":"SVN-193","nome":"Žužemberk","pais":"SVN","tipo":"Commune|Municipality","lat":45.82,"lng":14.94},"geometry":{"type":"Polygon","coordinates":[[[15.04,45.84],[15.06,45.78],[14.88,45.74],[14.8,45.78],[14.88,45.87],[15.04,45.84]]]}},{"type":"Feature","properties":{"id":"SVN-132","nome":"Turnišče","pais":"SVN","tipo":"Commune|Municipality","lat":46.61,"lng":16.33},"geometry":{"type":"Polygon","coordinates":[[[16.35,46.62],[16.33,46.58],[16.29,46.64],[16.35,46.62]]]}},{"type":"Feature","properties":{"id":"SVN-100","nome":"Radenci","pais":"SVN","tipo":"Commune|Municipality","lat":46.63,"lng":16.06},"geometry":{"type":"Polygon","coordinates":[[[16.01,46.59],[16.04,46.66],[16.11,46.62],[16.01,46.59]]]}},{"type":"Feature","properties":{"id":"SVN-116","nome":"Sveti Jurij","pais":"SVN","tipo":"Commune|Municipality","lat":46.56,"lng":16.03},"geometry":{"type":"Polygon","coordinates":[[[15.98,46.59],[16.09,46.57],[16.02,46.51],[15.98,46.59]]]}},{"type":"Feature","properties":{"id":"SVN-002","nome":"Beltinci","pais":"SVN","tipo":"Commune|Municipality","lat":46.61,"lng":16.23},"geometry":{"type":"Polygon","coordinates":[[[16.16,46.61],[16.3,46.65],[16.25,46.55],[16.16,46.61]]]}},{"type":"Feature","properties":{"id":"SVN-188","nome":"Veržej","pais":"SVN","tipo":"Commune|Municipality","lat":46.58,"lng":16.18},"geometry":{"type":"Polygon","coordinates":[[[16.16,46.61],[16.22,46.58],[16.18,46.56],[16.16,46.61]]]}},{"type":"Feature","properties":{"id":"SVN-032","nome":"Grosuplje","pais":"SVN","tipo":"Commune|Municipality","lat":45.94,"lng":14.67},"geometry":{"type":"Polygon","coordinates":[[[14.74,46],[14.75,45.88],[14.6,45.91],[14.6,45.99],[14.74,46]]]}},{"type":"Feature","properties":{"id":"SVN-123","nome":"Škofljica","pais":"SVN","tipo":"Commune|Municipality","lat":45.96,"lng":14.57},"geometry":{"type":"Polygon","coordinates":[[[14.6,45.91],[14.54,46.01],[14.62,46],[14.6,45.91]]]}},{"type":"Feature","properties":{"id":"SVN-034","nome":"Hrastnik","pais":"SVN","tipo":"Commune|Municipality","lat":46.13,"lng":15.13},"geometry":{"type":"Polygon","coordinates":[[[15.13,46.09],[15.07,46.14],[15.11,46.18],[15.19,46.12],[15.13,46.09]]]}},{"type":"Feature","properties":{"id":"SVN-190","nome":"Žalec","pais":"SVN","tipo":"Statistical Region","lat":46.26,"lng":15.17},"geometry":{"type":"Polygon","coordinates":[[[15.23,46.32],[15.22,46.2],[15.11,46.18],[15.13,46.33],[15.23,46.32]]]}},{"type":"Feature","properties":{"id":"SVN-129","nome":"Trbovlje","pais":"SVN","tipo":"Statistical Region","lat":46.08,"lng":15.04},"geometry":{"type":"Polygon","coordinates":[[[15.11,46.09],[15,46.06],[15,46.2],[15.11,46.19],[15.07,46.14],[15.11,46.09]]]}},{"type":"Feature","properties":{"id":"SVN-151","nome":"Braslovce","pais":"SVN","tipo":"Commune|Municipality","lat":46.29,"lng":15.03},"geometry":{"type":"Polygon","coordinates":[[[15.01,46.26],[14.97,46.28],[15.01,46.34],[15.1,46.26],[15.01,46.26]]]}},{"type":"Feature","properties":{"id":"SVN-184","nome":"Tabor","pais":"SVN","tipo":"Commune|Municipality","lat":46.23,"lng":15.01},"geometry":{"type":"Polygon","coordinates":[[[14.97,46.2],[15.01,46.26],[15.05,46.23],[14.97,46.2]]]}},{"type":"Feature","properties":{"id":"SVN-096","nome":"Ptuj","pais":"SVN","tipo":"Commune|Municipality","lat":46.43,"lng":15.87},"geometry":{"type":"Polygon","coordinates":[[[15.82,46.5],[15.94,46.48],[15.94,46.41],[15.87,46.38],[15.78,46.47],[15.82,46.5]]]}},{"type":"Feature","properties":{"id":"SVN-069","nome":"Majšperk","pais":"SVN","tipo":"Commune|Municipality","lat":46.31,"lng":15.75},"geometry":{"type":"Polygon","coordinates":[[[15.76,46.26],[15.68,46.27],[15.72,46.34],[15.68,46.37],[15.8,46.35],[15.76,46.26]]]}},{"type":"Feature","properties":{"id":"SVN-113","nome":"Slovenska Bistrica","pais":"SVN","tipo":"Commune|Municipality","lat":46.42,"lng":15.53},"geometry":{"type":"Polygon","coordinates":[[[15.55,46.28],[15.49,46.39],[15.34,46.48],[15.54,46.5],[15.69,46.41],[15.71,46.3],[15.55,46.28]]]}},{"type":"Feature","properties":{"id":"SVN-168","nome":"Markovci","pais":"SVN","tipo":"Commune|Municipality","lat":46.39,"lng":15.95},"geometry":{"type":"Polygon","coordinates":[[[15.97,46.36],[15.9,46.39],[15.98,46.42],[15.97,46.36]]]}},{"type":"Feature","properties":{"id":"SVN-045","nome":"Kidricevo","pais":"SVN","tipo":"Commune|Municipality","lat":46.4,"lng":15.75},"geometry":{"type":"Polygon","coordinates":[[[15.69,46.41],[15.78,46.43],[15.83,46.39],[15.8,46.35],[15.68,46.37],[15.69,46.41]]]}},{"type":"Feature","properties":{"id":"SVN-024","nome":"Dornava","pais":"SVN","tipo":"Commune|Municipality","lat":46.44,"lng":15.99},"geometry":{"type":"Polygon","coordinates":[[[16.03,46.43],[15.94,46.42],[16.02,46.49],[16.03,46.43]]]}},{"type":"Feature","properties":{"id":"SVN-166","nome":"Križevci","pais":"SVN","tipo":"Commune|Municipality","lat":46.57,"lng":16.13},"geometry":{"type":"Polygon","coordinates":[[[16.11,46.62],[16.17,46.53],[16.08,46.54],[16.11,46.62]]]}},{"type":"Feature","properties":{"id":"SVN-042","nome":"Juršinci","pais":"SVN","tipo":"Commune|Municipality","lat":46.48,"lng":15.98},"geometry":{"type":"Polygon","coordinates":[[[15.95,46.49],[16.02,46.51],[15.98,46.45],[15.95,46.49]]]}},{"type":"Feature","properties":{"id":"SVN-109","nome":"Semic","pais":"SVN","tipo":"Commune|Municipality","lat":45.65,"lng":15.16},"geometry":{"type":"Polygon","coordinates":[[[15.17,45.68],[15.24,45.7],[15.28,45.64],[15.11,45.59],[15.04,45.63],[15.07,45.68],[15.17,45.68]]]}},{"type":"Feature","properties":{"id":"SVN-157","nome":"Dolenjske Toplice","pais":"SVN","tipo":"Statistical Region","lat":45.72,"lng":15.05},"geometry":{"type":"Polygon","coordinates":[[[15.06,45.78],[15.12,45.71],[15.04,45.63],[14.97,45.71],[15,45.78],[15.06,45.78]]]}},{"type":"Feature","properties":{"id":"SVN-179","nome":"Sodražica","pais":"SVN","tipo":"Commune|Municipality","lat":45.75,"lng":14.62},"geometry":{"type":"Polygon","coordinates":[[[14.56,45.79],[14.68,45.77],[14.66,45.71],[14.58,45.74],[14.56,45.79]]]}},{"type":"Feature","properties":{"id":"SVN-104","nome":"Ribnica","pais":"SVN","tipo":"Commune|Municipality","lat":45.74,"lng":14.7},"geometry":{"type":"Polygon","coordinates":[[[14.59,45.79],[14.69,45.82],[14.82,45.73],[14.75,45.64],[14.65,45.71],[14.68,45.77],[14.59,45.79]]]}},{"type":"Feature","properties":{"id":"SVN-121","nome":"Škocjan","pais":"SVN","tipo":"Commune|Municipality","lat":45.92,"lng":15.3},"geometry":{"type":"Polygon","coordinates":[[[15.3,45.86],[15.24,45.93],[15.34,45.95],[15.36,45.88],[15.3,45.86]]]}}]}