{"type":"FeatureCollection","features":[{"type":"Feature","properties":{"id":"SWZ-LU","nome":"Lubombo","pais":"SWZ","tipo":"District","lat":-26.52,"lng":31.8},"geometry":{"type":"Polygon","coordinates":[[[31.95,-25.96],[32.07,-26.01],[32.04,-26.28],[32.12,-26.58],[32.11,-26.84],[31.99,-26.81],[31.94,-27.16],[31.54,-26.96],[31.5,-26.9],[31.56,-26.77],[31.49,-26.76],[31.6,-26.62],[31.61,-26.41],[31.69,-26.3],[31.67,-25.94],[31.86,-25.99],[31.95,-25.96]]]}},{"type":"Feature","properties":{"id":"SWZ-HH","nome":"Hhohho","pais":"SWZ","tipo":"District","lat":-26.03,"lng":31.32},"geometry":{"type":"Polygon","coordinates":[[[31.4,-25.74],[31.75,-25.93],[31.67,-25.95],[31.68,-26.14],[31.29,-26.31],[31.26,-26.45],[31.08,-26.42],[30.9,-26.29],[31.12,-25.91],[31.4,-25.74]]]}},{"type":"Feature","properties":{"id":"SWZ-MA","nome":"Manzini","pais":"SWZ","tipo":"District","lat":-26.63,"lng":31.24},"geometry":{"type":"Polygon","coordinates":[[[30.8,-26.81],[30.78,-26.47],[30.9,-26.29],[31.08,-26.42],[31.25,-26.46],[31.29,-26.31],[31.67,-26.15],[31.7,-26.25],[31.61,-26.41],[31.6,-26.62],[31.49,-26.76],[31.07,-26.88],[31.04,-26.77],[30.8,-26.81]]]}},{"type":"Feature","properties":{"id":"SWZ-SH","nome":"Shiselweni","pais":"SWZ","tipo":"District","lat":-27.02,"lng":31.43},"geometry":{"type":"Polygon","coordinates":[[[31.24,-27.23],[30.98,-27.04],[30.9,-26.77],[31.04,-26.77],[31.07,-26.88],[31.55,-26.76],[31.52,-26.94],[31.94,-27.16],[31.97,-27.32],[31.53,-27.31],[31.24,-27.23]]]}}]}