{"type":"FeatureCollection","features":[{"type":"Feature","properties":{"id":"SYR-X01~","nome":"UNDOF","pais":"SYR","tipo":"Estado","lat":33.15,"lng":35.86},"geometry":{"type":"Polygon","coordinates":[[[35.76,32.74],[35.89,32.94],[35.76,33.33],[35.87,33.43],[35.82,33.28],[35.91,33.17],[35.86,33.08],[35.92,32.97],[35.76,32.74]]]}},{"type":"Feature","properties":{"id":"SYR-HI","nome":"Homs (Hims)","pais":"SYR","tipo":"Province","lat":34.15,"lng":38.14},"geometry":{"type":"Polygon","coordinates":[[[36.39,34.62],[36.31,34.69],[36.26,34.63],[36.11,34.63],[36.29,34.89],[36.42,34.85],[36.5,34.95],[36.56,34.9],[36.87,34.98],[36.97,34.86],[37.19,34.94],[37.25,34.91],[37.35,34.98],[37.5,34.96],[37.51,35.05],[37.74,35.12],[37.99,34.9],[38.06,35.01],[38.24,35.1],[38.3,35.38],[38.68,35.37],[39.24,35.25],[39.34,35.18],[39.44,34.94],[40.17,34.07],[38.32,33.13],[37.65,33.53],[37.26,33.94],[37.07,34.01],[36.87,34.23],[36.6,34.2],[36.53,34.42],[36.32,34.51],[36.44,34.6],[36.39,34.62]]]}},{"type":"Feature","properties":{"id":"SYR-TA","nome":"Tartus","pais":"SYR","tipo":"Province","lat":34.93,"lng":36.09},"geometry":{"type":"Polygon","coordinates":[[[36.06,34.63],[35.97,34.65],[35.87,34.92],[35.89,35.11],[35.96,35.2],[35.93,35.26],[36.25,35.22],[36.26,35.05],[36.14,35],[36.31,34.9],[36.11,34.63],[36.06,34.63]]]}},{"type":"Feature","properties":{"id":"SYR-RD","nome":"Rif Dimashq","pais":"SYR","tipo":"Province","lat":33.53,"lng":37.07},"geometry":{"type":"Polygon","coordinates":[[[36.45,34.05],[36.6,34.2],[36.87,34.23],[37.07,34.01],[37.26,33.94],[37.65,33.53],[38.32,33.13],[37.49,32.69],[37.28,32.86],[37.26,32.95],[36.96,33.08],[36.82,33.22],[36.57,33.19],[36.51,33.29],[36.38,33.2],[36.23,33.29],[36.21,33.23],[36.03,33.18],[35.96,33.25],[35.89,33.24],[35.83,33.38],[36.04,33.59],[35.92,33.64],[35.95,33.71],[36.14,33.85],[36.36,33.82],[36.27,33.91],[36.45,34.05]],[[36.32,33.46],[36.33,33.56],[36.18,33.53],[36.32,33.46]]]}},{"type":"Feature","properties":{"id":"SYR-HA","nome":"Hasaka (Al Haksa)","pais":"SYR","tipo":"Province","lat":36.35,"lng":40.91},"geometry":{"type":"Polygon","coordinates":[[[42.21,37.32],[42.35,37.24],[42.38,37.06],[41.82,36.6],[41.39,36.52],[41.28,36.35],[41.24,36.06],[41.36,35.79],[41.31,35.55],[40.77,35.63],[39.9,36.32],[39.78,36.5],[39.54,36.56],[39.44,36.69],[39.98,36.81],[40.71,37.1],[41.48,37.08],[42.01,37.18],[42.21,37.32]]]}},{"type":"Feature","properties":{"id":"SYR-RA","nome":"Ar Raqqah","pais":"SYR","tipo":"Province","lat":36.01,"lng":38.91},"geometry":{"type":"Polygon","coordinates":[[[39.19,36.66],[39.44,36.69],[39.54,36.56],[39.8,36.46],[39.64,35.86],[39.67,35.77],[39.24,35.25],[38.68,35.37],[38.3,35.38],[38.03,35.62],[38.05,35.77],[38.18,35.96],[38.06,36.14],[38.15,36.25],[38.43,36.29],[38.59,36.38],[38.67,36.56],[38.67,36.64],[38.57,36.65],[38.64,36.68],[38.64,36.74],[38.73,36.69],[39.19,36.66]]]}},{"type":"Feature","properties":{"id":"SYR-HL","nome":"Aleppo","pais":"SYR","tipo":"Province","lat":36.11,"lng":37.6},"geometry":{"type":"Polygon","coordinates":[[[38.22,36.91],[38.53,36.83],[38.65,36.7],[38.57,36.66],[38.58,36.62],[38.67,36.63],[38.58,36.37],[38.15,36.25],[38.06,36.14],[38.18,35.96],[38.02,35.63],[38.23,35.44],[37.72,35.45],[37.13,35.59],[37.06,35.71],[37.1,35.77],[37,35.82],[36.88,36.03],[36.73,36.13],[36.84,36.25],[36.77,36.33],[36.59,36.32],[36.53,36.46],[36.64,36.83],[36.96,36.75],[37.05,36.62],[37.45,36.63],[38.22,36.91]]]}},{"type":"Feature","properties":{"id":"SYR-ID","nome":"Idlib","pais":"SYR","tipo":"Province","lat":35.85,"lng":36.68},"geometry":{"type":"Polygon","coordinates":[[[36.59,36.22],[36.67,36.24],[36.65,36.31],[36.76,36.33],[36.84,36.25],[36.73,36.13],[36.88,36.03],[36.99,35.83],[37.1,35.76],[37.06,35.71],[37.09,35.63],[37.22,35.55],[37.08,35.4],[37.14,35.4],[37.14,35.35],[37.01,35.32],[37,35.43],[36.9,35.36],[36.83,35.42],[36.43,35.44],[36.41,35.71],[36.27,35.74],[36.28,35.8],[36.15,35.79],[36.2,35.95],[36.36,35.99],[36.36,36.22],[36.59,36.22]]]}},{"type":"Feature","properties":{"id":"SYR-LA","nome":"Lattakia","pais":"SYR","tipo":"Province","lat":35.55,"lng":36.01},"geometry":{"type":"Polygon","coordinates":[[[36.14,35.82],[36.29,35.79],[36.2,35.67],[36.25,35.22],[36.03,35.22],[35.93,35.26],[35.92,35.42],[35.72,35.58],[35.84,35.75],[35.8,35.85],[35.87,35.85],[35.91,35.92],[35.98,35.93],[36.14,35.82]]]}},{"type":"Feature","properties":{"id":"SYR-SU","nome":"As Suwayda'","pais":"SYR","tipo":"Province","lat":32.76,"lng":36.92},"geometry":{"type":"Polygon","coordinates":[[[37.49,32.69],[36.82,32.32],[36.52,32.36],[36.51,32.55],[36.4,32.58],[36.45,32.67],[36.36,32.71],[36.34,32.94],[36.54,33],[36.47,33.12],[36.5,33.19],[36.82,33.22],[36.96,33.08],[37.26,32.95],[37.28,32.86],[37.49,32.69]]]}},{"type":"Feature","properties":{"id":"SYR-DR","nome":"Dar`a","pais":"SYR","tipo":"Province","lat":32.87,"lng":36.17},"geometry":{"type":"Polygon","coordinates":[[[35.93,32.69],[35.77,32.75],[35.93,32.96],[35.99,32.95],[35.96,33.2],[36.15,33.2],[36.23,33.29],[36.38,33.2],[36.51,33.29],[36.57,33.19],[36.48,33.17],[36.47,33.12],[36.54,33],[36.42,33],[36.34,32.9],[36.36,32.71],[36.45,32.67],[36.4,32.58],[36.51,32.55],[36.52,32.36],[36.37,32.39],[36.18,32.53],[36.07,32.52],[36,32.66],[35.93,32.69]]]}},{"type":"Feature","properties":{"id":"SYR-DY","nome":"Dayr Az Zawr","pais":"SYR","tipo":"Province","lat":35.07,"lng":40.28},"geometry":{"type":"Polygon","coordinates":[[[41.31,35.55],[41.19,35.18],[41.2,34.79],[40.99,34.43],[40.17,34.07],[39.44,34.94],[39.37,35.15],[39.24,35.25],[39.67,35.77],[39.64,35.86],[39.8,36.46],[39.9,36.32],[40.77,35.63],[41.31,35.55]]]}},{"type":"Feature","properties":{"id":"SYR-QU","nome":"Quneitra","pais":"SYR","tipo":"Province","lat":33.05,"lng":35.91},"geometry":{"type":"Polygon","coordinates":[[[35.85,32.84],[35.92,32.97],[35.88,32.99],[35.91,33.17],[35.82,33.28],[35.84,33.32],[35.89,33.24],[35.96,33.25],[35.99,32.95],[35.93,32.96],[35.85,32.84]]]}},{"type":"Feature","properties":{"id":"SYR-HM","nome":"Hamah","pais":"SYR","tipo":"Province","lat":35.24,"lng":37.22},"geometry":{"type":"Polygon","coordinates":[[[37.22,35.55],[37.81,35.43],[38.23,35.44],[38.3,35.38],[38.3,35.24],[38.24,35.09],[38.06,35.01],[37.99,34.9],[37.74,35.12],[37.51,35.05],[37.5,34.96],[37.35,34.98],[37.25,34.91],[37.19,34.94],[36.97,34.86],[36.88,34.98],[36.56,34.9],[36.5,34.95],[36.43,34.85],[36.34,34.85],[36.26,34.97],[36.14,34.98],[36.27,35.07],[36.2,35.43],[36.2,35.68],[36.25,35.76],[36.41,35.71],[36.39,35.5],[36.43,35.44],[36.54,35.41],[36.83,35.42],[36.9,35.36],[37,35.43],[37.01,35.32],[37.08,35.32],[37.14,35.35],[37.14,35.41],[37.08,35.39],[37.1,35.44],[37.22,35.55]]]}},{"type":"Feature","properties":{"id":"SYR-DI","nome":"Damascus","pais":"SYR","tipo":"Province","lat":33.51,"lng":36.29},"geometry":{"type":"Polygon","coordinates":[[[36.31,33.56],[36.35,33.54],[36.32,33.46],[36.18,33.53],[36.31,33.56]]]}}]}