{"type":"FeatureCollection","features":[{"type":"Feature","properties":{"id":"TCA-X01~","nome":"Middle Caicos","pais":"TCA","tipo":"Estado","lat":21.82,"lng":-71.77},"geometry":{"type":"Polygon","coordinates":[[[-71.8,21.79],[-71.85,21.86],[-71.68,21.84],[-71.63,21.77],[-71.68,21.82],[-71.65,21.75],[-71.8,21.79]]]}},{"type":"Feature","properties":{"id":"TCA-X02~","nome":"North Caicos","pais":"TCA","tipo":"Estado","lat":21.89,"lng":-71.93},"geometry":{"type":"Polygon","coordinates":[[[-72.02,21.9],[-72.02,21.96],[-71.91,21.95],[-71.86,21.84],[-71.95,21.87],[-71.95,21.94],[-72.02,21.9]]]}}]}