{"type":"FeatureCollection","features":[{"type":"Feature","properties":{"id":"TGO-S","nome":"Savanes","pais":"TGO","tipo":"Region","lat":10.51,"lng":0.42},"geometry":{"type":"Polygon","coordinates":[[[-0.1,11.09],[-0.17,11.13],[0.49,11],[0.49,10.93],[0.9,10.99],[0.86,10.8],[0.78,10.69],[0.76,10.38],[1,10.22],[0.74,10.17],[0.68,9.88],[0.55,9.88],[0.42,9.96],[0.35,10.12],[0.4,10.28],[0.31,10.3],[0.27,10.41],[0.18,10.39],[0.03,10.58],[-0.09,10.63],[0.02,11.03],[0,11.09],[-0.1,11.09]]]}},{"type":"Feature","properties":{"id":"TGO-K","nome":"Kara","pais":"TGO","tipo":"Region","lat":9.59,"lng":0.82},"geometry":{"type":"Polygon","coordinates":[[[0.38,10.03],[0.55,9.88],[0.68,9.88],[0.74,10.17],[1,10.22],[1.33,10],[1.32,9.54],[1.42,9.29],[1,9.21],[0.95,9.02],[0.73,9.05],[0.48,8.83],[0.43,9.03],[0.53,9.4],[0.41,9.49],[0.23,9.43],[0.3,9.51],[0.23,9.58],[0.38,9.59],[0.28,9.61],[0.26,9.66],[0.35,9.66],[0.38,10.03]]]}},{"type":"Feature","properties":{"id":"TGO-C","nome":"Centre","pais":"TGO","tipo":"Region","lat":8.59,"lng":1},"geometry":{"type":"Polygon","coordinates":[[[0.46,8.79],[0.73,9.05],[0.95,9.02],[1,9.21],[1.42,9.29],[1.6,9.08],[1.64,8.48],[1.6,8.37],[1.24,8.37],[1.26,8.16],[1.21,7.98],[0.84,7.97],[0.6,7.89],[0.57,8.2],[0.71,8.3],[0.62,8.49],[0.4,8.66],[0.37,8.77],[0.46,8.79]]]}},{"type":"Feature","properties":{"id":"TGO-P","nome":"Plateaux","pais":"TGO","tipo":"Region","lat":7.38,"lng":1.06},"geometry":{"type":"Polygon","coordinates":[[[0.61,7.7],[0.6,7.89],[1.24,8],[1.24,8.37],[1.61,8.37],[1.63,7],[1.53,6.99],[1.56,6.9],[1.52,6.85],[1.37,6.83],[1.24,6.72],[1.12,6.81],[0.93,6.81],[0.88,6.64],[0.71,6.53],[0.52,6.83],[0.55,6.91],[0.49,6.97],[0.6,7.03],[0.64,7.3],[0.63,7.39],[0.55,7.38],[0.5,7.5],[0.61,7.7]]]}},{"type":"Feature","properties":{"id":"TGO-M","nome":"Maritime","pais":"TGO","tipo":"Region","lat":6.43,"lng":1.25},"geometry":{"type":"Polygon","coordinates":[[[1.19,6.1],[1.18,6.15],[1.03,6.22],[0.98,6.32],[0.77,6.42],[0.71,6.53],[0.88,6.64],[0.92,6.81],[1.12,6.81],[1.24,6.72],[1.56,6.9],[1.6,6.75],[1.57,6.68],[1.74,6.43],[1.78,6.28],[1.19,6.1]]]}}]}