{"type":"FeatureCollection","features":[{"type":"Feature","properties":{"id":"THA-32","nome":"Surin","pais":"THA","tipo":"Province","lat":14.94,"lng":103.59},"geometry":{"type":"Polygon","coordinates":[[[103.79,14.36],[103.67,14.39],[103.65,14.44],[103.24,14.34],[103.23,14.6],[103.29,14.77],[103.44,14.93],[103.44,15.19],[103.5,15.3],[103.37,15.35],[103.26,15.31],[103.1,15.43],[103.12,15.48],[103.34,15.4],[103.89,15.47],[104.06,15.4],[104.07,15.35],[103.98,15.26],[104.02,15.03],[103.92,14.86],[104,14.8],[104.06,14.65],[104.05,14.36],[103.79,14.36]]]}},{"type":"Feature","properties":{"id":"THA-33","nome":"Si Sa Ket","pais":"THA","tipo":"Province","lat":14.82,"lng":104.42},"geometry":{"type":"Polygon","coordinates":[[[104.84,14.41],[104.69,14.43],[104.45,14.36],[104.18,14.4],[104.05,14.36],[104.06,14.65],[104,14.8],[103.92,14.86],[104.02,15.04],[103.98,15.26],[104.08,15.35],[103.99,15.41],[104.08,15.54],[104.13,15.56],[104.29,15.34],[104.47,15.26],[104.67,15.25],[104.74,15.17],[104.69,15.13],[104.69,14.97],[104.81,14.89],[104.92,14.65],[104.86,14.65],[104.83,14.56],[104.85,14.45],[104.92,14.4],[104.84,14.41]]]}},{"type":"Feature","properties":{"id":"THA-34","nome":"Ubon Ratchathani","pais":"THA","tipo":"Province","lat":15.01,"lng":105.02},"geometry":{"type":"Polygon","coordinates":[[[105.05,14.21],[104.97,14.38],[104.85,14.45],[104.85,14.63],[104.91,14.65],[104.81,14.89],[104.69,14.97],[104.69,15.13],[104.74,15.17],[104.67,15.25],[104.42,15.28],[104.44,15.39],[104.38,15.43],[104.4,15.53],[104.51,15.58],[104.63,15.56],[104.66,15.64],[104.81,15.51],[104.92,15.49],[105.06,15.9],[105.03,16],[105.11,16.1],[105.42,16.01],[105.36,15.92],[105.41,15.8],[105.61,15.72],[105.65,15.63],[105.6,15.44],[105.48,15.35],[105.56,15.27],[105.44,15.13],[105.59,14.99],[105.49,14.79],[105.51,14.56],[105.42,14.43],[105.16,14.33],[105.05,14.21]]]}},{"type":"Feature","properties":{"id":"THA-27","nome":"Sa Kaeo","pais":"THA","tipo":"Province","lat":13.86,"lng":102.38},"geometry":{"type":"Polygon","coordinates":[[[102.91,14.16],[102.7,13.76],[102.54,13.67],[102.6,13.61],[102.31,13.54],[102.33,13.27],[102.27,13.2],[102.17,13.24],[102.04,13.16],[101.95,13.45],[101.99,13.58],[101.92,13.59],[101.91,13.81],[101.86,13.84],[101.91,14.04],[101.99,14.07],[102.05,14.19],[102.15,14.14],[102.19,14.19],[102.29,14.13],[102.49,14.14],[102.52,14.09],[102.59,14.15],[102.91,14.16]]]}},{"type":"Feature","properties":{"id":"THA-31","nome":"Buri Ram","pais":"THA","tipo":"Province","lat":14.7,"lng":102.97},"geometry":{"type":"Polygon","coordinates":[[[103.02,14.24],[102.88,14.16],[102.59,14.15],[102.62,14.29],[102.49,14.56],[102.51,14.65],[102.44,14.85],[102.57,14.81],[102.52,14.97],[102.71,14.95],[102.85,15.15],[102.98,15.19],[103,15.36],[102.95,15.39],[103.02,15.45],[102.83,15.51],[102.79,15.61],[102.87,15.64],[102.95,15.79],[103.17,15.37],[103.26,15.31],[103.37,15.35],[103.5,15.3],[103.44,15.19],[103.44,14.93],[103.29,14.77],[103.23,14.6],[103.24,14.34],[103.02,14.24]]]}},{"type":"Feature","properties":{"id":"THA-23","nome":"Trat","pais":"THA","tipo":"Province","lat":12.39,"lng":102.54},"geometry":{"type":"Polygon","coordinates":[[[102.77,12.04],[102.91,11.77],[102.91,11.65],[102.77,12.01],[102.61,12.22],[102.56,12.18],[102.58,12.05],[102.5,12.13],[102.29,12.2],[102.26,12.29],[102.34,12.31],[102.37,12.39],[102.33,12.56],[102.41,12.57],[102.4,12.67],[102.44,12.73],[102.5,12.75],[102.49,12.66],[102.76,12.44],[102.69,12.18],[102.77,12.04]]]}},{"type":"Feature","properties":{"id":"THA-22","nome":"Chanthaburi","pais":"THA","tipo":"Province","lat":12.81,"lng":102.14},"geometry":{"type":"Polygon","coordinates":[[[102.49,13],[102.5,12.75],[102.4,12.68],[102.41,12.57],[102.33,12.56],[102.37,12.39],[102.29,12.32],[102.3,12.43],[102.27,12.39],[102.27,12.44],[102.2,12.43],[102.26,12.31],[102.09,12.46],[102.11,12.54],[102.01,12.56],[102.06,12.47],[101.95,12.61],[101.95,12.53],[101.79,12.7],[101.83,12.89],[101.69,13.11],[102,13.34],[102.04,13.16],[102.17,13.24],[102.27,13.2],[102.33,13.27],[102.49,13]]]}},{"type":"Feature","properties":{"id":"THA-91","nome":"Satun","pais":"THA","tipo":"Province","lat":6.86,"lng":99.96},"geometry":{"type":"Polygon","coordinates":[[[100.2,6.7],[100.13,6.44],[100.1,6.53],[100.06,6.51],[99.87,6.76],[99.69,6.88],[99.68,7.03],[99.75,7.13],[99.82,7.14],[99.88,7.07],[99.93,7.14],[100.06,7.06],[100.12,6.93],[100.21,6.89],[100.2,6.7]]]}},{"type":"Feature","properties":{"id":"THA-90","nome":"Songkhla","pais":"THA","tipo":"Province","lat":6.81,"lng":100.57},"geometry":{"type":"MultiPolygon","coordinates":[[[[100.23,6.69],[100.21,6.89],[100.12,6.93],[100.03,7.09],[100.28,7.21],[100.38,7.31],[100.44,7.16],[100.56,7.14],[100.59,7.22],[100.78,6.97],[101.07,6.86],[101.04,6.73],[101.11,6.6],[101.03,6.48],[100.93,6.44],[100.91,6.32],[100.82,6.3],[100.73,6.49],[100.63,6.44],[100.39,6.52],[100.27,6.7],[100.23,6.69]]],[[[100.34,7.94],[100.44,7.48],[100.57,7.19],[100.43,7.27],[100.39,7.57],[100.27,7.53],[100.33,7.66],[100.29,7.79],[100.13,7.8],[100.16,7.87],[100.34,7.94]]]]}},{"type":"Feature","properties":{"id":"THA-95","nome":"Yala","pais":"THA","tipo":"Province","lat":6.14,"lng":101.22},"geometry":{"type":"Polygon","coordinates":[[[100.83,6.24],[100.82,6.3],[100.91,6.32],[100.93,6.43],[101.03,6.48],[101.1,6.64],[101.22,6.6],[101.3,6.68],[101.33,6.55],[101.51,6.6],[101.61,6.54],[101.44,6.42],[101.38,6.2],[101.49,6.05],[101.5,5.89],[101.25,5.79],[101.15,5.64],[100.97,5.79],[101.08,5.94],[101.08,6.25],[100.83,6.24]]]}},{"type":"Feature","properties":{"id":"THA-96","nome":"Narathiwat","pais":"THA","tipo":"Province","lat":6.18,"lng":101.73},"geometry":{"type":"Polygon","coordinates":[[[102.07,6.26],[102.06,6.09],[101.78,5.74],[101.67,5.77],[101.58,5.91],[101.5,5.89],[101.49,6.05],[101.38,6.2],[101.44,6.42],[101.55,6.46],[101.62,6.63],[102.07,6.26]]]}},{"type":"Feature","properties":{"id":"THA-57","nome":"Chiang Rai","pais":"THA","tipo":"Province","lat":19.96,"lng":99.91},"geometry":{"type":"Polygon","coordinates":[[[99.94,20.45],[100.13,20.24],[100.24,20.37],[100.34,20.39],[100.46,20.19],[100.55,20.17],[100.48,19.88],[100.35,19.68],[100.18,19.61],[100.08,19.43],[99.94,19.38],[99.91,19.48],[99.69,19.43],[99.61,19.5],[99.56,19.12],[99.4,19],[99.31,19.18],[99.32,19.54],[99.26,19.64],[99.42,19.81],[99.42,19.96],[99.5,19.97],[99.55,19.92],[99.59,20.01],[99.5,20.06],[99.56,20.12],[99.42,20.38],[99.65,20.31],[99.94,20.45]]]}},{"type":"Feature","properties":{"id":"THA-50","nome":"Chiang Mai","pais":"THA","tipo":"Province","lat":18.84,"lng":98.7},"geometry":{"type":"Polygon","coordinates":[[[99.3,20.06],[99.51,20.15],[99.57,20.12],[99.51,20.06],[99.59,20.01],[99.55,19.92],[99.5,19.97],[99.42,19.96],[99.42,19.81],[99.26,19.64],[99.32,19.54],[99.31,19.18],[99.4,19],[99.32,18.86],[99.35,18.59],[99.3,18.54],[99.14,18.7],[99.01,18.67],[98.93,18.53],[98.7,18.42],[98.68,18.3],[98.79,18.24],[98.8,18],[98.91,17.83],[98.9,17.75],[98.66,17.73],[98.62,17.59],[98.54,17.51],[98.57,17.29],[98.41,17.25],[98.34,17.3],[98.32,17.52],[98.26,17.58],[98.3,17.7],[98.23,17.73],[98.24,17.84],[98.08,18.01],[98.13,18.1],[98.1,18.35],[98.21,18.45],[98.12,18.54],[98.1,18.64],[98.12,19.08],[98.2,19.16],[98.35,19.03],[98.64,19.06],[98.59,19.2],[98.61,19.48],[98.48,19.71],[98.53,19.68],[98.81,19.81],[98.9,19.75],[99,19.82],[99.04,20.08],[99.16,20.12],[99.3,20.06]]]}},{"type":"Feature","properties":{"id":"THA-58","nome":"Mae Hong Son","pais":"THA","tipo":"Province","lat":18.4,"lng":97.89},"geometry":{"type":"Polygon","coordinates":[[[98.05,19.81],[98.24,19.66],[98.48,19.71],[98.61,19.48],[98.59,19.2],[98.65,19.1],[98.62,19.04],[98.46,19.01],[98.34,19.03],[98.21,19.16],[98.12,19.09],[98.1,18.64],[98.12,18.54],[98.21,18.45],[98.1,18.35],[98.13,18.1],[98.08,18.01],[98.24,17.84],[98.23,17.73],[98.3,17.7],[97.91,17.55],[97.68,17.83],[97.75,17.97],[97.62,18.24],[97.64,18.31],[97.49,18.29],[97.35,18.55],[97.51,18.49],[97.75,18.57],[97.72,18.85],[97.66,18.93],[97.81,19.11],[97.77,19.4],[97.85,19.57],[98.01,19.64],[98.05,19.81]]]}},{"type":"Feature","properties":{"id":"THA-63","nome":"Tak","pais":"THA","tipo":"Province","lat":17,"lng":98.84},"geometry":{"type":"Polygon","coordinates":[[[98.52,16.85],[98.44,17.01],[98.3,17.06],[97.92,17.57],[98.3,17.7],[98.26,17.59],[98.32,17.52],[98.34,17.3],[98.43,17.25],[98.57,17.29],[98.54,17.51],[98.71,17.76],[98.72,17.49],[98.83,17.5],[98.9,17.63],[98.97,17.64],[99.01,17.61],[99.04,17.38],[99.17,17.33],[99.27,17.39],[99.32,17.12],[99.27,16.95],[99.35,16.89],[99.25,16.56],[98.99,16.46],[99.03,16.03],[99.12,15.72],[98.98,15.22],[98.66,15.62],[98.54,15.68],[98.58,15.98],[98.55,16.05],[98.68,16.13],[98.81,16.11],[98.9,16.36],[98.84,16.47],[98.66,16.29],[98.63,16.46],[98.46,16.72],[98.52,16.85]]]}},{"type":"Feature","properties":{"id":"THA-71","nome":"Kanchanaburi","pais":"THA","tipo":"Province","lat":14.33,"lng":99.3},"geometry":{"type":"Polygon","coordinates":[[[98.53,15.33],[98.54,15.68],[98.66,15.62],[98.98,15.22],[99,15.08],[99.07,15.01],[99.28,15],[99.29,14.84],[99.44,14.77],[99.46,14.69],[99.54,14.8],[99.66,14.8],[99.87,14.64],[99.89,14.56],[99.83,14.52],[99.82,14.25],[99.77,14.16],[99.88,13.94],[99.8,13.82],[99.15,13.72],[98.94,14.09],[98.59,14.32],[98.24,14.81],[98.16,15.11],[98.18,15.22],[98.28,15.29],[98.39,15.26],[98.4,15.36],[98.47,15.38],[98.53,15.33]]]}},{"type":"Feature","properties":{"id":"THA-77","nome":"Prachuap Khiri Khan","pais":"THA","tipo":"Province","lat":12.31,"lng":99.73},"geometry":{"type":"Polygon","coordinates":[[[99.47,12.13],[99.4,12.57],[99.62,12.55],[99.96,12.64],[100.02,12.18],[99.83,11.92],[99.82,11.74],[99.64,11.52],[99.57,11.33],[99.59,11.2],[99.5,11.13],[99.5,11],[99.27,10.96],[99.14,11.04],[99.36,11.38],[99.45,11.61],[99.54,11.64],[99.63,11.82],[99.52,12.03],[99.54,12.14],[99.47,12.13]]]}},{"type":"Feature","properties":{"id":"THA-76","nome":"Phetchaburi","pais":"THA","tipo":"Province","lat":12.87,"lng":99.6},"geometry":{"type":"Polygon","coordinates":[[[99.4,12.57],[99.21,12.73],[99.16,12.98],[99.09,13.06],[99.11,13.19],[99.19,13.21],[99.28,13.14],[99.35,13.23],[99.46,13.18],[99.64,13.2],[99.77,13.33],[99.86,13.33],[99.89,13.24],[99.96,13.29],[100.1,13.06],[99.96,12.64],[99.62,12.55],[99.4,12.57]]]}},{"type":"Feature","properties":{"id":"THA-70","nome":"Ratchaburi","pais":"THA","tipo":"Province","lat":13.5,"lng":99.61},"geometry":{"type":"Polygon","coordinates":[[[99.19,13.21],[99.15,13.72],[99.8,13.82],[99.87,13.94],[99.94,13.93],[99.95,13.74],[100.03,13.74],[100.08,13.64],[100.04,13.5],[99.92,13.51],[99.86,13.33],[99.7,13.31],[99.64,13.2],[99.46,13.18],[99.35,13.23],[99.28,13.14],[99.19,13.21]]]}},{"type":"Feature","properties":{"id":"THA-86","nome":"Chumphon","pais":"THA","tipo":"Province","lat":10.38,"lng":99.08},"geometry":{"type":"Polygon","coordinates":[[[99.06,10.95],[99.14,11.04],[99.27,10.96],[99.5,11],[99.52,10.88],[99.44,10.87],[99.37,10.68],[99.24,10.54],[99.29,10.36],[99.15,10.36],[99.25,10.23],[99.15,10.1],[99.14,9.79],[98.79,9.69],[98.75,9.6],[98.66,9.66],[98.64,9.77],[98.93,10.07],[98.89,10.21],[98.95,10.35],[98.9,10.46],[98.98,10.6],[98.88,10.79],[98.98,10.83],[99,10.96],[99.06,10.95]]]}},{"type":"Feature","properties":{"id":"THA-85","nome":"Ranong","pais":"THA","tipo":"Province","lat":9.52,"lng":98.58},"geometry":{"type":"Polygon","coordinates":[[[98.75,10.35],[98.79,10.52],[98.76,10.67],[98.88,10.79],[98.98,10.6],[98.9,10.46],[98.95,10.35],[98.89,10.21],[98.93,10.07],[98.64,9.79],[98.66,9.66],[98.78,9.55],[98.66,9.42],[98.67,9.36],[98.51,9.31],[98.4,9.38],[98.46,9.55],[98.53,9.57],[98.46,9.6],[98.51,9.65],[98.49,9.71],[98.57,9.74],[98.51,9.77],[98.58,9.84],[98.51,9.84],[98.63,9.95],[98.6,9.99],[98.75,10.35]]]}},{"type":"Feature","properties":{"id":"THA-56","nome":"Phayao","pais":"THA","tipo":"Province","lat":19.19,"lng":100.16},"geometry":{"type":"Polygon","coordinates":[[[100.39,19.72],[100.46,19.54],[100.59,19.49],[100.51,19.37],[100.6,19.33],[100.63,19.13],[100.56,19.09],[100.57,19.03],[100.48,19.05],[100.5,18.97],[100.42,18.94],[100.35,18.82],[100.08,18.82],[99.94,18.98],[99.78,19.07],[99.69,19.43],[99.91,19.48],[99.93,19.39],[100.08,19.43],[100.18,19.61],[100.39,19.72]]]}},{"type":"Feature","properties":{"id":"THA-55","nome":"Nan","pais":"THA","tipo":"Province","lat":18.83,"lng":100.84},"geometry":{"type":"Polygon","coordinates":[[[100.88,19.61],[101.25,19.56],[101.17,19.38],[101.24,19.13],[101.33,19.02],[101.22,18.87],[101.24,18.67],[101.07,18.51],[101.03,18.43],[101.07,18.37],[100.92,18.25],[100.84,18.09],[100.76,18.03],[100.43,18.01],[100.41,18.13],[100.54,18.45],[100.41,18.49],[100.4,18.74],[100.35,18.8],[100.42,18.94],[100.5,18.97],[100.48,19.05],[100.57,19.03],[100.56,19.09],[100.63,19.14],[100.6,19.33],[100.51,19.39],[100.61,19.54],[100.75,19.48],[100.88,19.61]]]}},{"type":"Feature","properties":{"id":"THA-53","nome":"Uttaradit","pais":"THA","tipo":"Province","lat":17.72,"lng":100.53},"geometry":{"type":"Polygon","coordinates":[[[101.07,18.37],[101.16,18.32],[101.17,18.05],[101,17.88],[100.95,17.71],[100.87,17.7],[100.58,17.42],[100.29,17.37],[100.21,17.2],[99.98,17.17],[100.04,17.44],[99.93,17.57],[99.98,17.68],[99.9,17.8],[99.96,17.78],[100.27,17.96],[100.34,17.9],[100.42,18.02],[100.76,18.03],[101.07,18.37]]]}},{"type":"Feature","properties":{"id":"THA-65","nome":"Phitsanulok","pais":"THA","tipo":"Province","lat":16.97,"lng":100.49},"geometry":{"type":"Polygon","coordinates":[[[100.96,17.71],[100.89,17.6],[100.94,17.56],[100.88,17.46],[100.91,17.34],[101.09,17.23],[101.02,17],[101.07,16.91],[100.9,16.79],[100.93,16.69],[100.86,16.64],[100.79,16.46],[100.67,16.35],[100.53,16.54],[100.29,16.51],[100.23,16.59],[100.03,16.5],[99.92,16.59],[99.94,16.71],[99.89,16.76],[99.96,16.87],[100.12,16.9],[100.13,16.96],[99.92,17.16],[100.21,17.2],[100.29,17.37],[100.58,17.42],[100.87,17.7],[100.96,17.71]]]}},{"type":"Feature","properties":{"id":"THA-42","nome":"Loei","pais":"THA","tipo":"Province","lat":17.41,"lng":101.52},"geometry":{"type":"Polygon","coordinates":[[[100.94,17.56],[101.13,17.46],[101.39,17.73],[101.47,17.72],[101.58,17.87],[101.73,17.91],[101.79,18.07],[101.9,18.04],[102.11,18.21],[102.02,17.98],[102.02,17.74],[102.14,17.51],[101.98,17.44],[102.02,17.32],[101.95,17.2],[102.15,17.02],[102.03,16.95],[102.05,16.87],[101.73,16.76],[101.64,17.05],[101.56,16.99],[101.46,17.08],[101.21,17.12],[101.07,16.91],[101.02,17],[101.09,17.23],[100.91,17.34],[100.88,17.47],[100.94,17.56]]]}},{"type":"Feature","properties":{"id":"THA-38","nome":"Bueng Kan","pais":"THA","tipo":"Province","lat":18.16,"lng":103.75},"geometry":{"type":"Polygon","coordinates":[[[103.39,18.44],[103.87,18.28],[104,18.32],[104.2,18.02],[104.12,18],[104.11,17.87],[104.01,17.92],[103.97,17.77],[103.9,17.87],[103.79,17.85],[103.76,17.94],[103.74,17.91],[103.63,17.97],[103.59,18.04],[103.51,18.06],[103.44,17.99],[103.36,18.04],[103.32,18.12],[103.36,18.22],[103.23,18.36],[103.39,18.44]]]}},{"type":"Feature","properties":{"id":"THA-43","nome":"Nong Khai","pais":"THA","tipo":"Province","lat":17.76,"lng":102.75},"geometry":{"type":"Polygon","coordinates":[[[103.09,18.13],[103.17,18.25],[103.3,18.3],[103.37,18.19],[103.32,18.08],[103.44,17.99],[103.38,17.98],[103.4,17.87],[103.31,17.83],[103.26,17.88],[103.17,17.8],[103.06,17.89],[102.98,17.82],[102.89,17.89],[102.85,17.7],[102.67,17.6],[102.33,17.95],[102.2,18.02],[102.15,17.99],[102.06,18.09],[102.11,18.21],[102.15,18.21],[102.31,18.05],[102.6,17.96],[102.6,17.84],[102.68,17.81],[102.67,17.87],[102.85,17.97],[103.04,17.99],[103.09,18.13]]]}},{"type":"Feature","properties":{"id":"THA-48","nome":"Nakhon Phanom","pais":"THA","tipo":"Province","lat":17.22,"lng":104.63},"geometry":{"type":"Polygon","coordinates":[[[104.2,18.02],[104.45,17.67],[104.7,17.53],[104.82,17.37],[104.74,16.75],[104.67,16.83],[104.24,16.9],[104.39,17.02],[104.36,17.08],[104.44,17.25],[104.42,17.42],[104.05,17.39],[104.01,17.48],[104.08,17.68],[103.99,17.87],[104.04,17.93],[104.11,17.86],[104.12,18],[104.2,18.02]]]}},{"type":"Feature","properties":{"id":"THA-49","nome":"Mukdahan","pais":"THA","tipo":"Province","lat":16.56,"lng":104.53},"geometry":{"type":"Polygon","coordinates":[[[104.76,16.82],[104.75,16.53],[104.99,16.29],[104.84,16.19],[104.63,16.22],[104.5,16.34],[104.33,16.33],[104.31,16.47],[104.24,16.43],[104.18,16.67],[104.07,16.83],[104.24,16.9],[104.67,16.83],[104.73,16.75],[104.76,16.82]]]}},{"type":"Feature","properties":{"id":"THA-37","nome":"Amnat Charoen","pais":"THA","tipo":"Province","lat":15.86,"lng":104.77},"geometry":{"type":"Polygon","coordinates":[[[104.99,16.29],[105.11,16.1],[105.03,16],[105.06,15.9],[104.92,15.49],[104.81,15.51],[104.67,15.64],[104.63,15.56],[104.47,15.6],[104.44,15.82],[104.57,16.09],[104.8,16.16],[104.99,16.29]]]}},{"type":"Feature","properties":{"id":"THA-82","nome":"Phangnga","pais":"THA","tipo":"Province","lat":8.58,"lng":98.39},"geometry":{"type":"Polygon","coordinates":[[[98.65,8.37],[98.6,8.4],[98.43,8.32],[98.46,8.22],[98.39,8.14],[98.28,8.23],[98.2,8.53],[98.21,8.58],[98.25,8.53],[98.22,8.73],[98.26,8.85],[98.39,9.04],[98.33,9.03],[98.38,9.07],[98.32,9.21],[98.42,9.36],[98.53,9.28],[98.51,8.98],[98.45,8.94],[98.46,8.89],[98.61,8.79],[98.55,8.66],[98.71,8.63],[98.65,8.37]]]}},{"type":"Feature","properties":{"id":"THA-81","nome":"Krabi","pais":"THA","tipo":"Province","lat":8.13,"lng":98.98},"geometry":{"type":"Polygon","coordinates":[[[99.26,7.66],[99.13,7.77],[99.06,7.7],[99.01,7.82],[99.07,7.92],[99.03,7.9],[98.92,8.05],[98.77,8.02],[98.7,8.3],[98.62,8.28],[98.66,8.56],[98.76,8.67],[98.93,8.56],[98.88,8.51],[98.91,8.32],[99.27,8.34],[99.32,8.29],[99.29,8.1],[99.35,7.92],[99.29,7.84],[99.34,7.75],[99.26,7.66]]]}},{"type":"Feature","properties":{"id":"THA-92","nome":"Trang","pais":"THA","tipo":"Province","lat":7.57,"lng":99.65},"geometry":{"type":"Polygon","coordinates":[[[99.75,7.13],[99.68,7.12],[99.67,7.17],[99.61,7.14],[99.56,7.2],[99.6,7.38],[99.55,7.3],[99.51,7.38],[99.47,7.28],[99.34,7.38],[99.29,7.62],[99.25,7.63],[99.34,7.74],[99.29,7.84],[99.34,7.94],[99.51,7.87],[99.61,7.98],[99.75,7.98],[99.8,7.6],[100.05,7.06],[99.93,7.14],[99.88,7.07],[99.82,7.14],[99.75,7.13]]]}},{"type":"Feature","properties":{"id":"THA-94","nome":"Pattani","pais":"THA","tipo":"Province","lat":6.74,"lng":101.38},"geometry":{"type":"Polygon","coordinates":[[[101.07,6.86],[101.35,6.88],[101.29,6.95],[101.49,6.88],[101.72,6.57],[101.62,6.63],[101.58,6.55],[101.51,6.6],[101.34,6.55],[101.3,6.68],[101.23,6.6],[101.15,6.6],[101.06,6.65],[101.07,6.86]]]}},{"type":"Feature","properties":{"id":"THA-93","nome":"Phatthalung","pais":"THA","tipo":"Province","lat":7.47,"lng":100.06},"geometry":{"type":"Polygon","coordinates":[[[100.2,7.77],[100.14,7.7],[100.19,7.51],[100.28,7.36],[100.38,7.31],[100.28,7.21],[100.03,7.09],[99.83,7.52],[99.74,7.85],[99.96,7.9],[100.2,7.77]]]}},{"type":"Feature","properties":{"id":"THA-80","nome":"Nakhon Si Thammarat","pais":"THA","tipo":"Province","lat":8.37,"lng":99.78},"geometry":{"type":"Polygon","coordinates":[[[99.77,9.31],[99.89,9.23],[99.97,8.61],[100.14,8.39],[100.19,8.4],[100.13,8.51],[100.18,8.5],[100.27,8.32],[100.34,7.94],[100.16,7.87],[100.13,7.8],[99.96,7.9],[99.74,7.85],[99.73,7.99],[99.61,7.98],[99.53,7.88],[99.4,7.89],[99.29,8.1],[99.32,8.28],[99.24,8.38],[99.28,8.54],[99.45,8.6],[99.53,8.85],[99.69,8.93],[99.78,9.06],[99.73,9.15],[99.77,9.31]]]}},{"type":"Feature","properties":{"id":"THA-84","nome":"Surat Thani","pais":"THA","tipo":"Province","lat":9,"lng":99.01},"geometry":{"type":"Polygon","coordinates":[[[99.14,9.79],[99.32,9.39],[99.24,9.34],[99.26,9.23],[99.47,9.2],[99.54,9.28],[99.75,9.32],[99.73,9.15],[99.79,9.06],[99.69,8.93],[99.53,8.85],[99.45,8.6],[99.33,8.52],[99.28,8.54],[99.27,8.34],[98.91,8.31],[98.92,8.58],[98.77,8.67],[98.72,8.63],[98.55,8.65],[98.61,8.79],[98.46,8.89],[98.45,8.94],[98.51,8.98],[98.51,9.31],[98.67,9.36],[98.66,9.42],[98.77,9.54],[98.79,9.68],[99.14,9.79]]]}},{"type":"Feature","properties":{"id":"THA-75","nome":"Samut Songkhram","pais":"THA","tipo":"Province","lat":13.4,"lng":99.97},"geometry":{"type":"Polygon","coordinates":[[[100.09,13.43],[99.87,13.25],[99.92,13.51],[100.04,13.5],[100.09,13.43]]]}},{"type":"Feature","properties":{"id":"THA-74","nome":"Samut Sakhon","pais":"THA","tipo":"Province","lat":13.57,"lng":100.23},"geometry":{"type":"Polygon","coordinates":[[[100.4,13.49],[100.28,13.52],[100.09,13.43],[100.04,13.5],[100.08,13.68],[100.26,13.66],[100.33,13.73],[100.4,13.49]]]}},{"type":"Feature","properties":{"id":"THA-10","nome":"Bangkok Metropolis","pais":"THA","tipo":"Province","lat":13.79,"lng":100.63},"geometry":{"type":"Polygon","coordinates":[[[100.47,13.5],[100.4,13.49],[100.34,13.8],[100.49,13.8],[100.55,13.95],[100.9,13.95],[100.92,13.81],[100.86,13.69],[100.71,13.71],[100.66,13.65],[100.56,13.7],[100.5,13.67],[100.47,13.5]]]}},{"type":"Feature","properties":{"id":"THA-11","nome":"Samut Prakan","pais":"THA","tipo":"Province","lat":13.61,"lng":100.7},"geometry":{"type":"Polygon","coordinates":[[[100.84,13.48],[100.65,13.52],[100.6,13.61],[100.58,13.52],[100.47,13.5],[100.46,13.58],[100.57,13.71],[100.61,13.66],[100.71,13.71],[100.86,13.69],[100.95,13.63],[100.84,13.48]]]}},{"type":"Feature","properties":{"id":"THA-24","nome":"Chachoengsao","pais":"THA","tipo":"Province","lat":13.63,"lng":101.42},"geometry":{"type":"Polygon","coordinates":[[[100.98,13.46],[101,13.5],[100.84,13.48],[100.95,13.63],[100.85,13.7],[100.92,13.81],[100.91,13.96],[101.14,13.97],[101.15,13.85],[101.35,13.86],[101.57,13.75],[101.76,13.8],[101.88,13.72],[101.92,13.59],[101.99,13.58],[101.94,13.47],[102,13.34],[101.89,13.22],[101.72,13.17],[101.52,13.4],[101.28,13.55],[101.14,13.59],[100.98,13.46]]]}},{"type":"Feature","properties":{"id":"THA-20","nome":"Chon Buri","pais":"THA","tipo":"Province","lat":13.3,"lng":101.28},"geometry":{"type":"Polygon","coordinates":[[[100.98,12.64],[100.97,12.6],[100.84,12.71],[100.92,12.81],[100.86,12.92],[100.93,13],[100.88,13.1],[100.95,13.2],[100.91,13.29],[100.98,13.36],[100.98,13.46],[101.15,13.59],[101.52,13.4],[101.72,13.17],[101.46,13.03],[101.18,13.08],[101.17,13.02],[101.09,13.02],[101.1,12.91],[101,12.79],[100.98,12.64]]]}},{"type":"Feature","properties":{"id":"THA-21","nome":"Rayong","pais":"THA","tipo":"Province","lat":12.81,"lng":101.4},"geometry":{"type":"Polygon","coordinates":[[[101.79,12.7],[101.42,12.6],[101.09,12.68],[100.97,12.65],[101,12.79],[101.09,12.9],[101.09,13.02],[101.17,13.02],[101.18,13.08],[101.46,13.03],[101.64,13.15],[101.83,12.89],[101.79,12.7]]]}},{"type":"Feature","properties":{"id":"THA-83","nome":"Phuket","pais":"THA","tipo":"Province","lat":7.97,"lng":98.35},"geometry":{"type":"Polygon","coordinates":[[[98.42,7.9],[98.4,7.82],[98.29,7.78],[98.28,8.19],[98.44,8.08],[98.42,7.9]]]}},{"type":"Feature","properties":{"id":"THA-40","nome":"Khon Kaen","pais":"THA","tipo":"Province","lat":16.58,"lng":102.68},"geometry":{"type":"Polygon","coordinates":[[[101.99,16.84],[102.26,16.89],[102.41,16.79],[102.61,16.77],[102.72,17.07],[102.83,16.98],[102.84,16.87],[102.96,16.84],[103.11,16.91],[103.13,16.83],[103.18,16.85],[103.16,16.62],[103.08,16.5],[102.94,16.45],[102.85,16.27],[102.95,15.79],[102.87,15.64],[102.81,15.62],[102.69,15.72],[102.43,15.69],[102.37,15.74],[102.33,15.85],[102.39,15.98],[102.27,16.07],[102.4,16.24],[102.45,16.41],[102.41,16.46],[102.08,16.5],[101.96,16.63],[101.75,16.67],[101.79,16.77],[101.99,16.84]]]}},{"type":"Feature","properties":{"id":"THA-47","nome":"Sakon Nakhon","pais":"THA","tipo":"Province","lat":17.36,"lng":103.85},"geometry":{"type":"Polygon","coordinates":[[[103.42,17.98],[103.54,18.06],[103.63,17.97],[103.74,17.91],[103.76,17.94],[103.79,17.85],[103.9,17.88],[103.94,17.79],[104.01,17.8],[104.08,17.67],[104.01,17.48],[104.06,17.39],[104.41,17.42],[104.44,17.25],[104.36,17.08],[104.39,17.02],[104.3,16.93],[104.1,16.84],[104.02,16.85],[103.94,16.78],[103.78,16.96],[103.65,17.02],[103.65,17.1],[103.59,17.16],[103.27,17.27],[103.28,17.48],[103.4,17.6],[103.37,17.79],[103.41,17.84],[103.38,17.98],[103.42,17.98]]]}},{"type":"Feature","properties":{"id":"THA-72","nome":"Suphan Buri","pais":"THA","tipo":"Province","lat":14.43,"lng":100.03},"geometry":{"type":"Polygon","coordinates":[[[100.21,14.96],[100.2,14.56],[100.28,14.4],[100.25,14.23],[100.16,14.14],[99.99,14.15],[99.81,14.06],[99.77,14.17],[99.82,14.25],[99.83,14.52],[99.89,14.56],[99.87,14.64],[99.66,14.8],[99.54,14.8],[99.46,14.69],[99.44,14.77],[99.29,14.84],[99.3,15.05],[99.62,14.94],[99.65,14.99],[99.97,14.91],[100.05,14.96],[100.21,14.96]]]}},{"type":"Feature","properties":{"id":"THA-17","nome":"Sing Buri","pais":"THA","tipo":"Province","lat":14.97,"lng":100.34},"geometry":{"type":"Polygon","coordinates":[[[100.21,14.91],[100.3,14.99],[100.27,15.11],[100.34,15.16],[100.44,15.06],[100.49,14.75],[100.23,14.79],[100.21,14.91]]]}},{"type":"Feature","properties":{"id":"THA-18","nome":"Chai Nat","pais":"THA","tipo":"Province","lat":15.11,"lng":100.01},"geometry":{"type":"Polygon","coordinates":[[[100.14,14.92],[99.73,14.96],[99.81,15.09],[99.72,15.29],[100.06,15.26],[100.06,15.42],[100.21,15.35],[100.31,15.17],[100.27,15.03],[100.31,15],[100.14,14.92]]]}},{"type":"Feature","properties":{"id":"THA-15","nome":"Ang Thong","pais":"THA","tipo":"Province","lat":14.63,"lng":100.36},"geometry":{"type":"Polygon","coordinates":[[[100.25,14.49],[100.2,14.56],[100.23,14.79],[100.34,14.79],[100.52,14.69],[100.5,14.46],[100.43,14.45],[100.41,14.51],[100.25,14.49]]]}},{"type":"Feature","properties":{"id":"THA-19","nome":"Saraburi","pais":"THA","tipo":"Province","lat":14.49,"lng":100.91},"geometry":{"type":"Polygon","coordinates":[[[101.19,14.76],[101.19,14.54],[101.24,14.48],[101.21,14.37],[101.16,14.35],[101.06,14.41],[100.91,14.21],[100.82,14.24],[100.78,14.33],[100.77,14.56],[100.62,14.55],[100.57,14.59],[100.79,14.87],[100.84,14.88],[100.92,14.75],[101.08,14.85],[101.19,14.76]]]}},{"type":"Feature","properties":{"id":"THA-30","nome":"Nakhon Ratchasima","pais":"THA","tipo":"Province","lat":14.89,"lng":102.1},"geometry":{"type":"Polygon","coordinates":[[[101.24,14.48],[101.19,14.54],[101.19,14.76],[101.28,14.73],[101.45,14.88],[101.39,15.05],[101.28,15.09],[101.3,15.3],[101.43,15.22],[101.88,15.38],[102.04,15.66],[102.08,15.62],[102.16,15.74],[102.32,15.81],[102.42,15.7],[102.7,15.72],[102.79,15.64],[102.83,15.51],[103.01,15.46],[102.95,15.39],[103,15.36],[102.98,15.19],[102.85,15.15],[102.71,14.95],[102.52,14.97],[102.57,14.81],[102.44,14.85],[102.51,14.65],[102.49,14.56],[102.62,14.29],[102.55,14.09],[102.43,14.16],[102.09,14.16],[101.96,14.25],[101.96,14.38],[101.89,14.39],[101.75,14.32],[101.62,14.43],[101.24,14.48]]]}},{"type":"Feature","properties":{"id":"THA-26","nome":"Nakhon Nayok","pais":"THA","tipo":"Province","lat":14.22,"lng":101.21},"geometry":{"type":"Polygon","coordinates":[[[101.17,14.35],[101.28,14.5],[101.51,14.29],[101.4,14.27],[101.3,14.14],[101.32,14.06],[101.22,14.05],[101.14,13.97],[100.91,13.96],[100.95,14.3],[101.03,14.31],[101.06,14.41],[101.17,14.35]]]}},{"type":"Feature","properties":{"id":"THA-13","nome":"Pathum Thani","pais":"THA","tipo":"Province","lat":14.03,"lng":100.63},"geometry":{"type":"Polygon","coordinates":[[[100.87,14.26],[100.91,14.21],[100.9,13.95],[100.66,13.92],[100.34,14.04],[100.35,14.11],[100.6,14.12],[100.87,14.26]]]}},{"type":"Feature","properties":{"id":"THA-61","nome":"Uthai Thani","pais":"THA","tipo":"Province","lat":15.27,"lng":99.53},"geometry":{"type":"Polygon","coordinates":[[[99.62,14.94],[99.32,15.07],[99.25,14.99],[99.07,15.01],[99,15.08],[98.98,15.22],[99.12,15.77],[99.48,15.56],[99.7,15.68],[99.85,15.64],[99.91,15.52],[100.05,15.45],[100.07,15.27],[99.72,15.29],[99.81,15.08],[99.73,14.96],[99.65,14.99],[99.62,14.94]]]}},{"type":"Feature","properties":{"id":"THA-46","nome":"Kalasin","pais":"THA","tipo":"Province","lat":16.62,"lng":103.68},"geometry":{"type":"Polygon","coordinates":[[[103.13,16.83],[103.14,16.95],[103.24,16.96],[103.4,16.9],[103.44,16.83],[103.51,17.05],[103.61,17.09],[103.94,16.78],[104.02,16.85],[104.07,16.83],[104.18,16.67],[104.24,16.43],[104.06,16.4],[104.04,16.44],[103.82,16.47],[103.71,16.38],[103.75,16.3],[103.73,16.22],[103.46,16.19],[103.3,16.4],[103.18,16.37],[103.19,16.82],[103.17,16.86],[103.13,16.83]]]}},{"type":"Feature","properties":{"id":"THA-45","nome":"Roi Et","pais":"THA","tipo":"Province","lat":15.96,"lng":103.83},"geometry":{"type":"Polygon","coordinates":[[[103.87,16.47],[104.04,16.44],[104.06,16.4],[104.31,16.47],[104.33,16.26],[104.11,16.1],[104.11,15.99],[104.02,15.98],[104.01,15.91],[104.01,15.8],[104.11,15.82],[104.13,15.7],[104.21,15.61],[103.99,15.41],[103.89,15.47],[103.42,15.43],[103.44,15.52],[103.3,15.6],[103.35,15.7],[103.44,15.72],[103.5,15.92],[103.48,16.13],[103.55,16.22],[103.73,16.22],[103.75,16.3],[103.71,16.38],[103.87,16.47]]]}},{"type":"Feature","properties":{"id":"THA-44","nome":"Maha Sarakham","pais":"THA","tipo":"Province","lat":15.92,"lng":103.19},"geometry":{"type":"Polygon","coordinates":[[[103.16,16.64],[103.2,16.63],[103.18,16.37],[103.3,16.4],[103.45,16.19],[103.53,16.21],[103.47,16.11],[103.5,15.92],[103.44,15.71],[103.35,15.7],[103.3,15.6],[103.44,15.51],[103.42,15.43],[103.34,15.4],[103.08,15.51],[102.98,15.67],[103.01,15.73],[102.86,16.08],[102.85,16.27],[102.94,16.45],[103.09,16.51],[103.16,16.64]]]}},{"type":"Feature","properties":{"id":"THA-39","nome":"Nong Bua Lam Phu","pais":"THA","tipo":"Province","lat":17.24,"lng":102.31},"geometry":{"type":"Polygon","coordinates":[[[102.68,16.94],[102.61,16.77],[102.56,16.76],[102.34,16.82],[102.28,16.89],[102.07,16.89],[102.03,16.95],[102.15,17.02],[101.95,17.2],[102.02,17.32],[101.98,17.44],[102.13,17.48],[102.15,17.61],[102.38,17.62],[102.48,17.24],[102.6,17.22],[102.51,17.13],[102.68,16.94]]]}},{"type":"Feature","properties":{"id":"THA-16","nome":"Lop Buri","pais":"THA","tipo":"Province","lat":15.11,"lng":100.94},"geometry":{"type":"Polygon","coordinates":[[[101.3,15.3],[101.28,15.09],[101.38,15.06],[101.45,14.91],[101.33,14.77],[101.23,14.74],[101.08,14.85],[100.92,14.75],[100.83,14.88],[100.59,14.66],[100.49,14.71],[100.44,15.05],[100.56,15.26],[100.74,15.44],[100.74,15.5],[101.23,15.4],[101.3,15.3]]]}},{"type":"Feature","properties":{"id":"THA-41","nome":"Udon Thani","pais":"THA","tipo":"Province","lat":17.45,"lng":102.88},"geometry":{"type":"Polygon","coordinates":[[[102.84,16.87],[102.83,16.98],[102.72,17.07],[102.68,16.94],[102.55,17.07],[102.51,17.15],[102.6,17.22],[102.48,17.24],[102.38,17.62],[102.22,17.64],[102.12,17.58],[102.07,17.69],[102.04,17.66],[102.06,18.09],[102.15,17.99],[102.2,18.02],[102.33,17.95],[102.67,17.6],[102.85,17.7],[102.89,17.89],[102.98,17.82],[103.06,17.89],[103.17,17.8],[103.26,17.88],[103.31,17.83],[103.4,17.87],[103.4,17.6],[103.29,17.5],[103.25,17.31],[103.59,17.16],[103.66,17.05],[103.58,17.1],[103.53,17.07],[103.44,16.83],[103.4,16.9],[103.24,16.96],[102.96,16.84],[102.84,16.87]]]}},{"type":"Feature","properties":{"id":"THA-14","nome":"Phra Nakhon Si Ayutthaya","pais":"THA","tipo":"Province","lat":14.4,"lng":100.52},"geometry":{"type":"Polygon","coordinates":[[[100.22,14.18],[100.28,14.38],[100.25,14.49],[100.41,14.51],[100.43,14.45],[100.5,14.46],[100.52,14.69],[100.59,14.66],[100.61,14.55],[100.77,14.56],[100.82,14.24],[100.55,14.11],[100.28,14.12],[100.22,14.18]]]}},{"type":"Feature","properties":{"id":"THA-12","nome":"Nonthaburi","pais":"THA","tipo":"Province","lat":13.89,"lng":100.41},"geometry":{"type":"Polygon","coordinates":[[[100.31,14.14],[100.36,14],[100.55,13.95],[100.49,13.8],[100.34,13.8],[100.26,14.03],[100.31,14.14]]]}},{"type":"Feature","properties":{"id":"THA-73","nome":"Nakhon Pathom","pais":"THA","tipo":"Province","lat":13.92,"lng":100.07},"geometry":{"type":"Polygon","coordinates":[[[100.22,14.18],[100.28,14.16],[100.33,13.73],[100.22,13.66],[100.03,13.74],[99.97,13.71],[99.95,13.92],[99.81,14.06],[100.22,14.18]]]}},{"type":"Feature","properties":{"id":"THA-62","nome":"Kamphaeng Phet","pais":"THA","tipo":"Province","lat":16.4,"lng":99.51},"geometry":{"type":"Polygon","coordinates":[[[99.9,16.69],[99.92,16.59],[100.03,16.5],[99.89,16.08],[99.73,15.82],[99.66,15.78],[99.61,15.88],[99.51,15.92],[99.28,15.89],[99.2,15.93],[99.08,15.87],[98.99,16.46],[99.24,16.55],[99.35,16.89],[99.52,16.88],[99.69,16.73],[99.85,16.74],[99.9,16.69]]]}},{"type":"Feature","properties":{"id":"THA-52","nome":"Lampang","pais":"THA","tipo":"Province","lat":18.63,"lng":99.57},"geometry":{"type":"Polygon","coordinates":[[[99.69,19.43],[99.78,19.07],[100.12,18.81],[100.12,18.6],[99.72,18.07],[99.6,18.03],[99.31,17.77],[99.36,17.68],[99.48,17.71],[99.41,17.46],[99.48,17.33],[99.39,17.2],[99.26,17.4],[99.17,17.33],[99.01,17.41],[99.01,17.61],[99.18,17.85],[99.09,17.95],[99.02,18.24],[99.1,18.27],[99.24,18.48],[99.31,18.5],[99.37,18.76],[99.32,18.86],[99.38,18.98],[99.56,19.12],[99.59,19.47],[99.63,19.51],[99.69,19.43]]]}},{"type":"Feature","properties":{"id":"THA-64","nome":"Sukhothai","pais":"THA","tipo":"Province","lat":17.24,"lng":99.7},"geometry":{"type":"Polygon","coordinates":[[[99.97,17.16],[99.92,17.16],[99.93,17.12],[100.13,16.97],[100.13,16.91],[99.96,16.87],[99.9,16.69],[99.85,16.74],[99.69,16.73],[99.52,16.88],[99.39,16.87],[99.28,16.93],[99.32,17.26],[99.4,17.21],[99.48,17.33],[99.42,17.59],[99.53,17.79],[99.62,17.81],[99.74,17.72],[99.81,17.8],[99.92,17.78],[99.98,17.67],[99.93,17.57],[100.04,17.44],[99.97,17.16]]]}},{"type":"Feature","properties":{"id":"THA-60","nome":"Nakhon Sawan","pais":"THA","tipo":"Province","lat":15.69,"lng":100.25},"geometry":{"type":"Polygon","coordinates":[[[100.44,15.06],[100.37,15.09],[100.23,15.33],[99.91,15.52],[99.85,15.63],[99.7,15.68],[99.47,15.56],[99.12,15.77],[99.08,15.87],[99.2,15.93],[99.28,15.89],[99.54,15.92],[99.68,15.79],[99.89,16.07],[99.99,16.34],[100.22,15.93],[100.76,15.93],[100.83,15.63],[100.44,15.06]]]}},{"type":"Feature","properties":{"id":"THA-67","nome":"Phetchabun","pais":"THA","tipo":"Province","lat":16.26,"lng":101.21},"geometry":{"type":"Polygon","coordinates":[[[101.79,16.77],[101.73,16.66],[101.6,16.7],[101.51,16.68],[101.51,16.55],[101.38,16.36],[101.32,16.07],[101.38,15.96],[101.33,15.84],[101.33,15.74],[101.4,15.7],[101.33,15.34],[101.3,15.3],[101.23,15.4],[101.13,15.4],[100.98,15.48],[100.74,15.5],[100.83,15.68],[100.77,15.99],[100.63,16.05],[100.63,16.14],[100.7,16.24],[100.7,16.41],[100.79,16.46],[100.86,16.64],[100.93,16.69],[100.9,16.79],[101.12,16.93],[101.13,17.03],[101.21,17.12],[101.46,17.08],[101.56,16.99],[101.64,17.05],[101.72,16.77],[101.79,16.77]]]}},{"type":"Feature","properties":{"id":"THA-66","nome":"Phichit","pais":"THA","tipo":"Province","lat":16.23,"lng":100.37},"geometry":{"type":"Polygon","coordinates":[[[100.24,16.59],[100.29,16.51],[100.55,16.53],[100.7,16.26],[100.63,16.05],[100.77,15.99],[100.76,15.93],[100.27,15.91],[100.17,15.96],[99.98,16.36],[100.03,16.5],[100.24,16.59]]]}},{"type":"Feature","properties":{"id":"THA-36","nome":"Chaiyaphum","pais":"THA","tipo":"Province","lat":16.01,"lng":101.88},"geometry":{"type":"Polygon","coordinates":[[[102.33,15.81],[102.16,15.74],[102.08,15.62],[102.04,15.66],[101.88,15.38],[101.43,15.22],[101.3,15.3],[101.37,15.41],[101.4,15.7],[101.33,15.75],[101.38,15.96],[101.33,16.02],[101.35,16.26],[101.51,16.55],[101.51,16.68],[101.95,16.63],[102.08,16.5],[102.41,16.46],[102.45,16.4],[102.41,16.24],[102.27,16.07],[102.39,15.98],[102.33,15.81]]]}},{"type":"Feature","properties":{"id":"THA-54","nome":"Phrae","pais":"THA","tipo":"Province","lat":18.06,"lng":99.93},"geometry":{"type":"Polygon","coordinates":[[[100.35,18.82],[100.41,18.49],[100.53,18.48],[100.54,18.43],[100.34,17.9],[100.25,17.95],[100.13,17.86],[99.96,17.78],[99.81,17.8],[99.74,17.72],[99.56,17.81],[99.35,17.68],[99.31,17.77],[99.6,18.03],[99.72,18.07],[100.11,18.57],[100.12,18.81],[100.35,18.82]]]}},{"type":"Feature","properties":{"id":"THA-51","nome":"Lamphun","pais":"THA","tipo":"Province","lat":18.13,"lng":99},"geometry":{"type":"Polygon","coordinates":[[[99.31,18.53],[99.1,18.27],[99.02,18.24],[99.17,17.81],[99.11,17.81],[99.05,17.61],[98.92,17.64],[98.86,17.53],[98.72,17.49],[98.71,17.76],[98.85,17.72],[98.91,17.82],[98.81,17.98],[98.79,18.24],[98.68,18.3],[98.7,18.42],[98.93,18.53],[99.01,18.67],[99.14,18.7],[99.31,18.53]]]}},{"type":"Feature","properties":{"id":"THA-25","nome":"Prachin Buri","pais":"THA","tipo":"Province","lat":14.11,"lng":101.59},"geometry":{"type":"Polygon","coordinates":[[[101.16,13.85],[101.14,14],[101.33,14.06],[101.3,14.14],[101.4,14.27],[101.51,14.28],[101.41,14.42],[101.62,14.43],[101.75,14.32],[101.89,14.39],[101.98,14.36],[101.95,14.28],[102.05,14.19],[102.05,14.13],[101.91,14.04],[101.87,13.93],[101.88,13.72],[101.76,13.8],[101.57,13.75],[101.35,13.86],[101.16,13.85]]]}},{"type":"Feature","properties":{"id":"THA-35","nome":"Yasothon","pais":"THA","tipo":"Province","lat":16.02,"lng":104.32},"geometry":{"type":"Polygon","coordinates":[[[104.38,15.32],[104.25,15.37],[104.15,15.5],[104.13,15.56],[104.21,15.61],[104.13,15.7],[104.11,15.82],[104.01,15.8],[104.01,15.91],[104.02,15.98],[104.11,15.99],[104.1,16.09],[104.36,16.32],[104.5,16.34],[104.63,16.22],[104.68,16.24],[104.81,16.17],[104.58,16.1],[104.46,15.91],[104.42,15.72],[104.52,15.56],[104.4,15.53],[104.38,15.42],[104.44,15.35],[104.42,15.28],[104.38,15.32]]]}}]}