{"type":"FeatureCollection","features":[{"type":"Feature","properties":{"id":"TJK-SU","nome":"Leninabad","pais":"TJK","tipo":"Region","lat":39.63,"lng":69.16},"geometry":{"type":"Polygon","coordinates":[[[70.96,40.24],[70.93,40.17],[70.67,40.1],[70.61,39.98],[70.48,39.9],[70.45,39.94],[70.53,40.03],[69.97,40.21],[69.52,40.13],[69.46,40.03],[69.5,39.92],[69.41,39.9],[69.31,39.98],[69.23,39.75],[69.29,39.68],[69.3,39.52],[69.67,39.58],[70.13,39.55],[70.2,39.62],[70.22,39.52],[70.48,39.6],[70.62,39.56],[70.66,39.49],[70.12,39.31],[70.09,39.34],[69.81,39.26],[69.74,39.29],[69.67,39.26],[69.65,39.12],[69.56,39.07],[69.5,39.19],[69.4,39.18],[69.35,39.1],[69.07,39.03],[68.76,39.08],[68.59,39.05],[68.47,38.94],[68.15,38.9],[68.08,39],[67.69,38.99],[67.67,39.13],[67.35,39.22],[67.43,39.48],[67.68,39.61],[68.52,39.55],[68.6,39.64],[68.63,39.85],[68.74,39.82],[68.79,39.88],[68.76,39.98],[68.84,39.86],[68.88,39.88],[68.77,40.08],[68.81,40.04],[68.99,40.09],[68.93,40.15],[68.69,40.11],[68.58,40.16],[69.02,40.23],[69.29,40.19],[69.21,40.3],[69.31,40.29],[69.31,40.34],[69.2,40.57],[69.31,40.6],[69.31,40.73],[69.39,40.8],[69.51,40.77],[69.69,40.63],[70.28,40.88],[70.36,41.03],[70.45,41.03],[70.71,40.81],[70.63,40.82],[70.64,40.77],[70.77,40.74],[70.37,40.48],[70.37,40.36],[70.52,40.34],[70.62,40.2],[70.96,40.24]]]}},{"type":"Feature","properties":{"id":"TJK-X01~","nome":"Tadzhikistan Territories","pais":"TJK","tipo":"Region","lat":38.98,"lng":70.13},"geometry":{"type":"Polygon","coordinates":[[[71.46,39.61],[71.53,39.55],[71.51,39.46],[71.74,39.45],[71.71,39.32],[71.75,39.27],[72.05,39.37],[72.09,39.28],[72.2,39.24],[72.22,39.13],[72.03,38.96],[72.01,38.88],[72.06,38.81],[71.97,38.74],[71.6,38.64],[71.43,38.48],[71.28,38.49],[71.18,38.61],[71.04,38.61],[70.99,38.81],[70.65,38.78],[70.55,38.72],[70.59,38.66],[70.44,38.52],[70.35,38.61],[70.16,38.55],[70.16,38.63],[69.99,38.73],[69.8,38.59],[69.71,38.62],[69.37,38.33],[69.18,38.44],[68.82,38.33],[68.61,38.33],[68.52,38.1],[68.54,38.02],[68.46,37.91],[68.24,37.94],[68.36,38.17],[68.11,38.42],[68.06,38.54],[68.04,38.69],[68.07,38.79],[68.16,38.83],[68.15,38.9],[68.47,38.94],[68.59,39.05],[68.76,39.08],[69.07,39.03],[69.35,39.1],[69.4,39.18],[69.5,39.19],[69.56,39.07],[69.65,39.12],[69.67,39.26],[69.74,39.29],[69.81,39.26],[70.09,39.34],[70.12,39.31],[70.66,39.49],[70.74,39.39],[70.98,39.39],[71.1,39.51],[71.25,39.51],[71.46,39.61]],[[68.8,38.59],[68.76,38.66],[68.69,38.55],[68.75,38.47],[68.86,38.56],[68.8,38.59]]]}},{"type":"Feature","properties":{"id":"TJK-GB","nome":"Gorno-Badakhshan","pais":"TJK","tipo":"Region","lat":38.25,"lng":72.72},"geometry":{"type":"Polygon","coordinates":[[[73.51,39.47],[73.63,39.45],[73.61,39.21],[73.83,38.98],[73.68,38.87],[73.82,38.59],[74.03,38.53],[74.12,38.67],[74.33,38.67],[74.83,38.46],[74.77,38.29],[74.79,38.08],[74.88,38.02],[74.89,37.83],[74.96,37.79],[74.89,37.6],[75.16,37.4],[75.07,37.31],[74.89,37.23],[74.66,37.39],[74.32,37.43],[74.19,37.34],[73.71,37.22],[73.6,37.26],[73.74,37.34],[73.75,37.43],[73.3,37.46],[73.07,37.32],[72.79,37.22],[72.66,37.03],[72.26,36.97],[71.84,36.7],[71.7,36.68],[71.56,36.75],[71.43,37.05],[71.53,37.76],[71.6,37.9],[71.54,37.94],[71.34,37.89],[71.26,37.93],[71.36,38.21],[71.33,38.28],[70.99,38.47],[70.76,38.44],[70.6,38.35],[70.47,38.12],[70.27,38.02],[70.34,38.16],[70.34,38.42],[70.59,38.66],[70.55,38.72],[70.66,38.78],[71.01,38.8],[71.04,38.61],[71.18,38.61],[71.28,38.49],[71.43,38.48],[71.6,38.64],[71.75,38.65],[72.06,38.81],[72.01,38.88],[72.03,38.96],[72.22,39.13],[72.32,39.33],[72.63,39.39],[73.17,39.36],[73.51,39.47]]]}},{"type":"Feature","properties":{"id":"TJK-KT","nome":"Khatlon","pais":"TJK","tipo":"Region","lat":37.81,"lng":69.11},"geometry":{"type":"Polygon","coordinates":[[[67.78,37.19],[67.8,37.47],[67.87,37.59],[68.14,37.92],[68.46,37.91],[68.54,38.02],[68.52,38.1],[68.61,38.33],[68.82,38.33],[69.18,38.44],[69.37,38.33],[69.71,38.62],[69.8,38.59],[69.99,38.73],[70.16,38.63],[70.16,38.55],[70.25,38.6],[70.42,38.56],[70.44,38.5],[70.34,38.42],[70.3,38],[70.16,37.92],[70.28,37.7],[70.16,37.54],[70.01,37.55],[69.92,37.62],[69.51,37.58],[69.38,37.44],[69.44,37.22],[69.27,37.11],[69.12,37.17],[68.99,37.32],[68.89,37.34],[68.92,37.28],[68.84,37.33],[68.82,37.25],[68.67,37.28],[68.63,37.21],[68.29,37.1],[68.28,37.01],[68.19,37.02],[68.02,36.93],[67.77,37.11],[67.78,37.19]]]}},{"type":"Feature","properties":{"id":"TJK-DU","nome":"Dushanbe","pais":"TJK","tipo":"Independent City","lat":38.55,"lng":68.77},"geometry":{"type":"Polygon","coordinates":[[[68.76,38.66],[68.86,38.56],[68.75,38.47],[68.69,38.55],[68.76,38.66]]]}}]}