{"type":"FeatureCollection","features":[{"type":"Feature","properties":{"id":"TKM-L","nome":"Chardzhou","pais":"TKM","tipo":"Province","lat":38.64,"lng":63.45},"geometry":{"type":"Polygon","coordinates":[[[66.17,37.38],[65.76,37.58],[65.66,37.51],[65.62,37.35],[65.54,37.26],[65.06,37.23],[64.78,37.12],[64.73,36.85],[63.51,36.86],[63.49,37.34],[63.72,37.57],[63.23,38.06],[62.74,38.25],[61.22,39.5],[60.51,39.5],[60.49,40.31],[60.25,40.34],[60.25,41],[60.98,41],[61.01,41.24],[61.28,41.16],[61.43,41.3],[61.88,41.12],[61.98,41],[62.04,40.74],[62.13,40.58],[62.35,40.43],[62.45,40.01],[62.59,39.89],[63.48,39.4],[63.71,39.19],[64.12,38.96],[64.34,38.97],[64.63,38.74],[64.98,38.61],[65.6,38.24],[65.88,38.27],[66.62,37.99],[66.65,37.95],[66.52,37.78],[66.52,37.36],[66.45,37.32],[66.17,37.38]]]}},{"type":"Feature","properties":{"id":"TKM-M","nome":"Mary","pais":"TKM","tipo":"Province","lat":36.8,"lng":62.59},"geometry":{"type":"Polygon","coordinates":[[[64.73,36.85],[64.59,36.62],[64.59,36.42],[64.48,36.27],[64.06,36.11],[64.05,36],[63.89,36.03],[63.43,35.87],[63.1,35.86],[63.11,35.77],[63.21,35.7],[63.08,35.62],[63.08,35.44],[62.69,35.25],[62.54,35.23],[62.43,35.28],[62.29,35.14],[62.23,35.29],[62.01,35.44],[61.54,35.45],[61.42,35.55],[61.52,35.63],[61.58,35.77],[61.46,35.89],[61.6,35.95],[61.51,36.07],[61.51,36.66],[61,37.36],[61.16,37.36],[61.27,37.16],[61.38,37.18],[61.42,37.27],[61.24,37.29],[61.17,37.38],[60.96,37.39],[60.89,37.62],[60.95,37.72],[60.89,37.87],[60.98,37.9],[60.85,38.1],[60.6,38.3],[60.46,38.75],[60.55,38.76],[60.59,38.92],[60.69,38.94],[60.77,39.25],[60.99,39.32],[61.02,39.51],[61.22,39.5],[62.74,38.25],[63.23,38.06],[63.71,37.62],[63.72,37.57],[63.49,37.34],[63.51,36.86],[64.73,36.85]]]}},{"type":"Feature","properties":{"id":"TKM-A","nome":"Ahal","pais":"TKM","tipo":"Province","lat":38.81,"lng":59.08},"geometry":{"type":"Polygon","coordinates":[[[61.36,35.6],[61.25,35.65],[61.24,35.89],[61.13,35.97],[61.22,36.12],[61.15,36.36],[61.17,36.64],[60.34,36.64],[60.02,37.03],[59.65,37.15],[59.6,37.12],[59.56,37.2],[59.46,37.21],[59.37,37.32],[59.31,37.53],[59.21,37.52],[58.8,37.69],[58.68,37.64],[58.53,37.7],[58.36,37.63],[58.21,37.68],[58.16,37.79],[57.35,37.97],[57.34,38.08],[57.22,38.27],[57.14,38.26],[56.9,38.46],[56.58,38.49],[56.58,38.62],[56.98,39.57],[57.1,39.63],[56.99,40.01],[57.17,40.09],[57.28,40.03],[57.48,40.1],[58.37,40.16],[58.39,40.21],[58.48,40.21],[58.99,40.11],[59.18,40],[59.99,40],[60,39.65],[60.08,39.58],[60.27,39.62],[60.36,39.48],[61.02,39.51],[60.99,39.32],[60.77,39.25],[60.69,38.94],[60.59,38.92],[60.55,38.76],[60.46,38.75],[60.6,38.3],[60.85,38.1],[60.98,37.9],[60.89,37.87],[60.95,37.72],[60.89,37.62],[60.96,37.39],[61.17,37.38],[61.24,37.29],[61.42,37.27],[61.38,37.18],[61.27,37.16],[61.16,37.36],[61,37.36],[61.51,36.66],[61.51,36.07],[61.6,35.95],[61.46,35.88],[61.58,35.77],[61.49,35.6],[61.42,35.55],[61.36,35.6]]]}},{"type":"Feature","properties":{"id":"TKM-B","nome":"Balkan","pais":"TKM","tipo":"Province","lat":39.72,"lng":55.26},"geometry":{"type":"Polygon","coordinates":[[[54.05,42.35],[54.2,42.32],[54.91,41.93],[54.95,41.8],[55.48,41.27],[55.91,41.33],[56.53,41.3],[56.6,41.1],[57.03,40.55],[57.13,40.3],[57.08,40.18],[57.17,40.09],[56.99,40.01],[57.1,39.63],[56.98,39.57],[56.57,38.5],[56.9,38.46],[57.14,38.26],[57.1,38.22],[57.04,38.19],[56.73,38.27],[56.44,38.26],[56.3,38.18],[56.3,38.08],[55.96,38.07],[55.74,38.12],[55.45,38.08],[55.13,37.95],[54.86,37.76],[54.79,37.65],[54.79,37.52],[54.65,37.44],[54.21,37.32],[53.91,37.34],[53.82,37.74],[53.81,38.03],[53.87,38.31],[53.83,38.53],[53.98,38.92],[53.86,39.04],[53.77,39.03],[53.72,39.11],[53.73,39.06],[53.7,39.08],[53.72,39.24],[53.66,39.2],[53.68,39.08],[53.61,39.24],[53.57,39.19],[53.56,39.35],[53.39,39.31],[53.15,39.34],[53.2,39.32],[53.16,39.18],[53.09,39.4],[53.28,39.66],[53.31,39.66],[53.22,39.53],[53.43,39.54],[53.57,39.47],[53.57,39.53],[53.73,39.53],[53.53,39.68],[53.54,39.63],[53.44,39.7],[53.45,39.63],[53.42,39.65],[53.43,39.76],[53.38,39.77],[53.57,39.97],[53.4,40.01],[53.28,39.94],[52.91,40.02],[52.93,39.9],[53.05,39.76],[53.01,39.77],[52.74,40.05],[52.77,40.15],[52.7,40.27],[52.74,40.48],[52.86,40.66],[52.83,40.71],[52.92,40.94],[52.92,41.09],[53.04,40.89],[53.12,40.87],[53.06,40.84],[53.12,40.77],[53.27,40.82],[53.24,40.77],[53.33,40.78],[53.37,40.84],[53.4,40.76],[53.48,40.74],[53.62,40.89],[53.72,40.63],[54.17,40.73],[54.4,40.67],[54.36,40.69],[54.43,40.72],[54.32,40.72],[54.25,40.89],[54.36,40.92],[54.47,40.81],[54.64,40.84],[54.76,40.97],[54.68,41.07],[54.77,41.04],[54.6,41.19],[54.07,41.49],[54.01,41.76],[53.9,41.91],[53.91,42.06],[53.82,42.12],[53.16,42.1],[52.96,41.98],[52.77,41.68],[52.92,41.67],[52.81,41.38],[52.91,41.12],[52.88,41.05],[52.76,41.38],[52.56,41.52],[52.59,41.65],[52.44,41.75],[52.98,42.13],[53.41,42.26],[54.05,42.35]]]}},{"type":"Feature","properties":{"id":"TKM-D","nome":"Tashauz","pais":"TKM","tipo":"Province","lat":41.4,"lng":58.77},"geometry":{"type":"Polygon","coordinates":[[[58.59,42.79],[58.89,42.55],[59.15,42.53],[59.26,42.35],[59.43,42.29],[59.87,42.3],[60.03,42.2],[59.97,42.1],[60,42.01],[59.91,41.97],[60.09,41.92],[60.25,41.78],[60.05,41.75],[60.16,41.58],[60.07,41.51],[60.09,41.39],[60.48,41.21],[61,41.23],[60.98,41],[60.25,41],[60.25,40.34],[60.49,40.31],[60.52,39.49],[60.36,39.48],[60.27,39.63],[60.08,39.58],[60.01,39.64],[59.99,40],[59.18,40],[58.99,40.11],[58.48,40.21],[58.39,40.21],[58.37,40.16],[57.48,40.1],[57.28,40.03],[57.08,40.18],[57.13,40.3],[57.03,40.55],[56.6,41.1],[56.53,41.3],[57.01,41.25],[57.15,41.35],[57.02,41.47],[56.95,41.87],[57.38,42.16],[57.85,42.19],[57.83,42.23],[57.94,42.35],[57.91,42.43],[58,42.49],[58.33,42.43],[58.4,42.29],[58.49,42.3],[58.31,42.53],[58.12,42.62],[58.26,42.69],[58.53,42.65],[58.59,42.79]]]}}]}