{"type":"FeatureCollection","features":[{"type":"Feature","properties":{"id":"TLS-OE","nome":"Ambeno","pais":"TLS","tipo":"District|Regencies","lat":-9.32,"lng":124.24},"geometry":{"type":"Polygon","coordinates":[[[124.45,-9.18],[124.31,-9.49],[124.26,-9.5],[124.21,-9.38],[124.09,-9.42],[124.03,-9.34],[124.45,-9.18]]]}},{"type":"Feature","properties":{"id":"TLS-BO","nome":"Bobonaro","pais":"TLS","tipo":"District|Regencies","lat":-8.98,"lng":125.22},"geometry":{"type":"Polygon","coordinates":[[[124.95,-9.08],[124.92,-8.96],[125.1,-8.74],[125.24,-8.79],[125.33,-8.99],[125.41,-8.98],[125.34,-9.14],[125.29,-9.15],[125.31,-9.21],[125.15,-9.17],[125.16,-9.06],[125.09,-8.99],[124.95,-9.08]]]}},{"type":"Feature","properties":{"id":"TLS-CO","nome":"Cova Lima","pais":"TLS","tipo":"District|Regencies","lat":-9.31,"lng":125.23},"geometry":{"type":"Polygon","coordinates":[[[125.14,-9.19],[125.31,-9.21],[125.29,-9.15],[125.41,-9.03],[125.51,-9.16],[125.49,-9.24],[125.06,-9.49],[124.96,-9.21],[125.14,-9.19]]]}},{"type":"Feature","properties":{"id":"TLS-AN","nome":"Ainaro","pais":"TLS","tipo":"District|Regencies","lat":-9.03,"lng":125.55},"geometry":{"type":"Polygon","coordinates":[[[125.67,-9.19],[125.49,-9.24],[125.51,-9.16],[125.41,-9.03],[125.49,-8.86],[125.67,-8.77],[125.67,-8.91],[125.6,-8.93],[125.58,-9],[125.66,-9.09],[125.67,-9.19]]]}},{"type":"Feature","properties":{"id":"TLS-MF","nome":"Manufahi","pais":"TLS","tipo":"District|Regencies","lat":-9,"lng":125.81},"geometry":{"type":"Polygon","coordinates":[[[126.05,-9.06],[125.67,-9.19],[125.58,-8.98],[125.67,-8.91],[125.69,-8.79],[125.81,-8.75],[125.81,-8.86],[126.05,-9.06]]]}},{"type":"Feature","properties":{"id":"TLS-MT","nome":"Manatuto","pais":"TLS","tipo":"District|Regencies","lat":-8.74,"lng":125.97},"geometry":{"type":"Polygon","coordinates":[[[126.14,-9],[126.05,-9.06],[125.81,-8.86],[125.76,-8.62],[125.83,-8.49],[126.16,-8.52],[126.17,-8.65],[126.03,-8.79],[126.14,-9]]]}},{"type":"Feature","properties":{"id":"TLS-VI","nome":"Viqueque","pais":"TLS","tipo":"District|Regencies","lat":-8.82,"lng":126.39},"geometry":{"type":"Polygon","coordinates":[[[126.73,-8.76],[126.58,-8.81],[126.47,-8.94],[126.14,-9],[126.03,-8.79],[126.11,-8.67],[126.43,-8.71],[126.46,-8.61],[126.52,-8.68],[126.71,-8.66],[126.73,-8.76]]]}},{"type":"Feature","properties":{"id":"TLS-LA","nome":"Lautém","pais":"TLS","tipo":"District|Regencies","lat":-8.5,"lng":127},"geometry":{"type":"Polygon","coordinates":[[[126.69,-8.43],[126.97,-8.31],[127.09,-8.36],[127.21,-8.33],[127.31,-8.42],[127.02,-8.68],[126.73,-8.76],[126.81,-8.62],[126.69,-8.43]]]}},{"type":"Feature","properties":{"id":"TLS-BA","nome":"Baucau","pais":"TLS","tipo":"District|Regencies","lat":-8.54,"lng":126.48},"geometry":{"type":"Polygon","coordinates":[[[126.14,-8.5],[126.41,-8.42],[126.55,-8.49],[126.69,-8.43],[126.81,-8.62],[126.74,-8.7],[126.65,-8.65],[126.52,-8.68],[126.46,-8.61],[126.43,-8.71],[126.18,-8.69],[126.14,-8.68],[126.18,-8.62],[126.14,-8.5]]]}},{"type":"Feature","properties":{"id":"TLS-LI","nome":"Liquica","pais":"TLS","tipo":"District|Regencies","lat":-8.65,"lng":125.31},"geometry":{"type":"Polygon","coordinates":[[[125.1,-8.74],[125.16,-8.62],[125.4,-8.57],[125.49,-8.57],[125.51,-8.62],[125.23,-8.74],[125.1,-8.74]]]}},{"type":"Feature","properties":{"id":"TLS-ER","nome":"Ermera","pais":"TLS","tipo":"District|Regencies","lat":-8.85,"lng":125.34},"geometry":{"type":"Polygon","coordinates":[[[125.47,-8.65],[125.51,-8.67],[125.43,-8.79],[125.49,-8.89],[125.44,-8.97],[125.33,-8.99],[125.18,-8.75],[125.47,-8.65]]]}},{"type":"Feature","properties":{"id":"TLS-AL","nome":"Aileu","pais":"TLS","tipo":"District|Regencies","lat":-8.7,"lng":125.62},"geometry":{"type":"Polygon","coordinates":[[[125.7,-8.57],[125.76,-8.58],[125.81,-8.75],[125.49,-8.86],[125.43,-8.79],[125.51,-8.62],[125.7,-8.57]]]}}]}