{"type":"FeatureCollection","features":[{"type":"Feature","properties":{"id":"TTO-TUP","nome":"Tunapuna/Piarco","pais":"TTO","tipo":"Region","lat":10.69,"lng":-61.33},"geometry":{"type":"Polygon","coordinates":[[[-61.35,10.8],[-61.16,10.77],[-61.24,10.72],[-61.21,10.6],[-61.41,10.57],[-61.43,10.73],[-61.34,10.74],[-61.35,10.8]]]}},{"type":"Feature","properties":{"id":"TTO-SJL","nome":"San Juan-Laventille","pais":"TTO","tipo":"Region","lat":10.61,"lng":-61.45},"geometry":{"type":"Polygon","coordinates":[[[-61.49,10.75],[-61.35,10.8],[-61.33,10.76],[-61.42,10.74],[-61.41,10.57],[-61.46,10.54],[-61.49,10.75]]]}},{"type":"Feature","properties":{"id":"TTO-DMN","nome":"Diego Martin","pais":"TTO","tipo":"Region","lat":10.71,"lng":-61.58},"geometry":{"type":"Polygon","coordinates":[[[-61.55,10.67],[-61.67,10.71],[-61.49,10.75],[-61.55,10.67]]]}},{"type":"Feature","properties":{"id":"TTO-CHA","nome":"Chaguanas","pais":"TTO","tipo":"City","lat":10.54,"lng":-61.41},"geometry":{"type":"Polygon","coordinates":[[[-61.46,10.52],[-61.37,10.57],[-61.38,10.5],[-61.46,10.52]]]}},{"type":"Feature","properties":{"id":"TTO-CTT","nome":"Couva-Tabaquite-Talparo","pais":"TTO","tipo":"Region","lat":10.45,"lng":-61.34},"geometry":{"type":"Polygon","coordinates":[[[-61.46,10.31],[-61.46,10.52],[-61.38,10.5],[-61.36,10.57],[-61.24,10.59],[-61.2,10.46],[-61.24,10.31],[-61.46,10.31]]]}},{"type":"Feature","properties":{"id":"TTO-PED","nome":"Penal-Debe","pais":"TTO","tipo":"Region","lat":10.15,"lng":-61.43},"geometry":{"type":"Polygon","coordinates":[[[-61.52,10.24],[-61.38,10.23],[-61.38,10.07],[-61.5,10.07],[-61.47,10.19],[-61.52,10.24]]]}},{"type":"Feature","properties":{"id":"TTO-SIP","nome":"Siparia","pais":"TTO","tipo":"Region","lat":10.12,"lng":-61.7},"geometry":{"type":"Polygon","coordinates":[[[-61.64,10.21],[-61.61,10.25],[-61.48,10.2],[-61.5,10.07],[-61.93,10.06],[-61.67,10.15],[-61.64,10.21]]]}},{"type":"Feature","properties":{"id":"TTO-PRT","nome":"Princes Town","pais":"TTO","tipo":"Region","lat":10.2,"lng":-61.31},"geometry":{"type":"Polygon","coordinates":[[[-61.18,10.08],[-61.38,10.07],[-61.37,10.22],[-61.44,10.26],[-61.43,10.31],[-61.24,10.31],[-61.18,10.08]]]}},{"type":"Feature","properties":{"id":"TTO-RCM","nome":"Rio Claro-Mayaro","pais":"TTO","tipo":"Region","lat":10.28,"lng":-61.1},"geometry":{"type":"Polygon","coordinates":[[[-61.04,10.46],[-60.96,10.33],[-61,10.14],[-61.18,10.08],[-61.24,10.31],[-61.21,10.43],[-61.04,10.46]]]}},{"type":"Feature","properties":{"id":"TTO-SGE","nome":"Sangre Grande","pais":"TTO","tipo":"Region","lat":10.68,"lng":-61.13},"geometry":{"type":"Polygon","coordinates":[[[-61.17,10.8],[-60.91,10.84],[-61.03,10.68],[-61.04,10.46],[-61.22,10.46],[-61.24,10.72],[-61.17,10.8]]]}},{"type":"Feature","properties":{"id":"TTO-ETO","nome":"Eastern Tobago","pais":"TTO","tipo":"Region","lat":11.29,"lng":-60.6},"geometry":{"type":"Polygon","coordinates":[[[-60.65,11.31],[-60.52,11.34],[-60.53,11.27],[-60.65,11.2],[-60.7,11.24],[-60.65,11.31]]]}},{"type":"Feature","properties":{"id":"TTO-WTO","nome":"Western Tobago","pais":"TTO","tipo":"Region","lat":11.2,"lng":-60.77},"geometry":{"type":"Polygon","coordinates":[[[-60.65,11.2],[-60.85,11.16],[-60.65,11.31],[-60.7,11.24],[-60.65,11.2]]]}}]}