{"type":"FeatureCollection","features":[{"type":"Feature","properties":{"id":"TUN-83","nome":"Tataouine","pais":"TUN","tipo":"Governorate","lat":32.15,"lng":9.89},"geometry":{"type":"Polygon","coordinates":[[[11.18,32.26],[10.87,32.14],[10.7,31.96],[10.63,31.97],[10.48,31.73],[10.26,31.68],[10.11,31.43],[10.24,31.08],[10.25,30.84],[9.87,30.36],[9.52,30.23],[9.05,32.07],[8.33,32.53],[9.52,32.74],[9.67,32.8],[9.96,32.66],[9.92,32.79],[9.99,32.98],[9.91,33.07],[10.64,33.26],[10.63,33.19],[11.01,33.05],[11.13,32.91],[11.1,32.68],[11.44,32.49],[11.26,32.38],[11.18,32.26]]]}},{"type":"Feature","properties":{"id":"TUN-82","nome":"Médenine","pais":"TUN","tipo":"Governorate","lat":33.44,"lng":10.65},"geometry":{"type":"MultiPolygon","coordinates":[[[[11.53,32.42],[11.18,32.26],[11.26,32.38],[11.44,32.49],[11.1,32.68],[11.13,32.91],[11.01,33.05],[10.63,33.19],[10.65,33.26],[9.91,33.07],[9.93,33.2],[9.74,33.29],[10.06,33.33],[10.28,33.44],[10.46,33.65],[10.72,33.71],[10.74,33.6],[10.67,33.55],[10.74,33.48],[10.91,33.54],[10.94,33.64],[11.04,33.62],[11.11,33.54],[11.1,33.36],[11.29,33.29],[11.13,33.31],[11.18,33.21],[11.43,33.19],[11.35,33.26],[11.51,33.18],[11.45,32.64],[11.56,32.51],[11.53,32.42]]],[[[10.99,33.84],[11.06,33.8],[10.89,33.64],[10.83,33.73],[10.74,33.72],[10.74,33.88],[10.93,33.9],[10.99,33.84]]]]}},{"type":"Feature","properties":{"id":"TUN-32","nome":"Jendouba","pais":"TUN","tipo":"Governorate","lat":36.62,"lng":8.62},"geometry":{"type":"Polygon","coordinates":[[[8.52,36.8],[8.64,36.84],[8.6,36.94],[8.9,37.02],[8.98,36.87],[8.91,36.78],[9.02,36.74],[9.07,36.55],[9.04,36.46],[8.43,36.35],[8.36,36.36],[8.35,36.45],[8.17,36.49],[8.43,36.66],[8.46,36.73],[8.41,36.78],[8.52,36.8]]]}},{"type":"Feature","properties":{"id":"TUN-73","nome":"Kebili","pais":"TUN","tipo":"Governorate","lat":33.36,"lng":8.85},"geometry":{"type":"Polygon","coordinates":[[[8.04,33.1],[7.75,33.21],[7.71,33.41],[8.53,33.91],[8.67,34.09],[9,34.1],[9.05,34.18],[9.27,34.2],[9.36,34.12],[9.26,34.01],[9.32,33.8],[9.58,33.59],[9.55,33.49],[9.7,33.33],[9.93,33.2],[9.91,33.05],[9.99,32.98],[9.92,32.79],[9.97,32.66],[9.67,32.8],[9.52,32.74],[8.33,32.53],[8.28,32.84],[8.04,33.1]]]}},{"type":"Feature","properties":{"id":"TUN-72","nome":"Tozeur","pais":"TUN","tipo":"Governorate","lat":33.95,"lng":8.07},"geometry":{"type":"Polygon","coordinates":[[[7.71,33.41],[7.5,33.8],[7.5,34.07],[7.63,34.2],[7.77,34.24],[7.83,34.41],[8.1,34.54],[8.14,34.39],[8.03,34.32],[8.17,34.21],[8.3,34.17],[8.36,34.09],[8.67,34.09],[8.53,33.91],[7.71,33.41]]]}},{"type":"Feature","properties":{"id":"TUN-71","nome":"Gafsa","pais":"TUN","tipo":"Governorate","lat":34.42,"lng":8.8},"geometry":{"type":"Polygon","coordinates":[[[8.1,34.54],[8.23,34.64],[8.26,34.74],[8.56,34.64],[8.81,34.75],[9.29,34.66],[9.29,34.54],[9.56,34.38],[9.56,34.25],[9.09,34.19],[9,34.1],[8.36,34.09],[8.03,34.32],[8.14,34.39],[8.1,34.54]]]}},{"type":"Feature","properties":{"id":"TUN-42","nome":"Kassérine","pais":"TUN","tipo":"Governorate","lat":35.25,"lng":8.79},"geometry":{"type":"Polygon","coordinates":[[[8.26,34.74],[8.3,35.07],[8.43,35.24],[8.29,35.33],[8.33,35.62],[8.46,35.67],[8.6,35.65],[8.7,35.78],[9,35.7],[9.32,35.51],[9.32,35.44],[9.15,35.26],[9.26,35.2],[9.27,35.05],[9.1,35],[9.03,34.9],[9.05,34.87],[8.57,34.64],[8.26,34.74]]]}},{"type":"Feature","properties":{"id":"TUN-33","nome":"Le Kef","pais":"TUN","tipo":"Governorate","lat":36.1,"lng":8.7},"geometry":{"type":"Polygon","coordinates":[[[8.33,35.62],[8.24,35.83],[8.36,36.36],[8.92,36.44],[9.03,36.14],[9.15,36.05],[9,35.7],[8.69,35.78],[8.6,35.65],[8.46,35.67],[8.33,35.62]]]}},{"type":"Feature","properties":{"id":"TUN-81","nome":"Gabès","pais":"TUN","tipo":"Governorate","lat":33.76,"lng":9.86},"geometry":{"type":"Polygon","coordinates":[[[10.01,34.17],[10.05,33.98],[10.16,33.84],[10.46,33.65],[10.28,33.44],[10.06,33.33],[9.74,33.29],[9.55,33.49],[9.58,33.59],[9.38,33.72],[9.3,33.84],[9.27,34.05],[9.36,34.12],[9.27,34.2],[9.66,34.29],[9.74,34.22],[10.01,34.17]]]}},{"type":"Feature","properties":{"id":"TUN-61","nome":"Sfax","pais":"TUN","tipo":"Governorate","lat":34.65,"lng":11.03},"geometry":{"type":"Polygon","coordinates":[[[11.02,35.09],[10.87,34.8],[10.63,34.63],[10.58,34.53],[10.13,34.33],[9.97,34.16],[9.71,34.25],[9.76,34.24],[9.74,34.35],[10.05,34.49],[10.05,34.54],[9.84,34.6],[9.83,34.65],[10.17,35.13],[10.42,35.11],[10.62,35.24],[10.73,35.22],[10.78,35.27],[10.83,35.16],[11.02,35.09]]]}},{"type":"Feature","properties":{"id":"TUN-53","nome":"Mahdia","pais":"TUN","tipo":"Governorate","lat":35.36,"lng":10.66},"geometry":{"type":"Polygon","coordinates":[[[11.01,35.56],[11.09,35.51],[11.04,35.33],[11.16,35.24],[11.02,35.09],[10.83,35.16],[10.78,35.27],[10.73,35.22],[10.62,35.24],[10.42,35.11],[10.23,35.15],[10.17,35.36],[10.26,35.56],[10.53,35.42],[10.6,35.5],[10.83,35.46],[11.01,35.56]]]}},{"type":"Feature","properties":{"id":"TUN-52","nome":"Monastir","pais":"TUN","tipo":"Governorate","lat":35.62,"lng":10.75},"geometry":{"type":"Polygon","coordinates":[[[10.69,35.79],[10.81,35.78],[10.84,35.7],[11.06,35.61],[10.83,35.46],[10.49,35.49],[10.53,35.58],[10.63,35.63],[10.69,35.79]]]}},{"type":"Feature","properties":{"id":"TUN-51","nome":"Sousse","pais":"TUN","tipo":"Governorate","lat":35.93,"lng":10.43},"geometry":{"type":"Polygon","coordinates":[[[10.53,36.35],[10.48,36.08],[10.69,35.79],[10.63,35.62],[10.48,35.52],[10.6,35.5],[10.53,35.42],[10.3,35.53],[10.16,35.83],[10.25,36.01],[10.17,36.08],[10.27,36.22],[10.36,36.24],[10.37,36.37],[10.53,36.35]]]}},{"type":"Feature","properties":{"id":"TUN-21","nome":"Nabeul","pais":"TUN","tipo":"Governorate","lat":36.68,"lng":10.73},"geometry":{"type":"Polygon","coordinates":[[[10.42,36.73],[10.54,36.77],[10.58,36.88],[10.73,36.9],[11.01,37.08],[11.14,36.87],[11.02,36.79],[10.8,36.45],[10.53,36.35],[10.34,36.38],[10.42,36.73]]]}},{"type":"Feature","properties":{"id":"TUN-13","nome":"Ben Arous (Tunis Sud)","pais":"TUN","tipo":"Governorate","lat":36.61,"lng":10.19},"geometry":{"type":"Polygon","coordinates":[[[10.25,36.79],[10.42,36.73],[10.34,36.47],[10.25,36.44],[9.97,36.64],[10.21,36.72],[10.25,36.79]]]}},{"type":"Feature","properties":{"id":"TUN-11","nome":"Tunis","pais":"TUN","tipo":"Governorate","lat":36.78,"lng":10.17},"geometry":{"type":"Polygon","coordinates":[[[10.34,36.89],[10.3,36.82],[10.19,36.81],[10.26,36.79],[10.2,36.72],[10.05,36.69],[10,36.77],[10.34,36.89]]]}},{"type":"Feature","properties":{"id":"TUN-14","nome":"Manubah","pais":"TUN","tipo":"Governorate","lat":36.79,"lng":9.95},"geometry":{"type":"Polygon","coordinates":[[[10.22,37.13],[10.18,37.03],[10.34,36.89],[10,36.77],[10.05,36.69],[9.89,36.58],[9.76,36.72],[9.55,36.83],[9.81,36.96],[9.98,36.93],[10.1,37.1],[10.22,37.13]]]}},{"type":"Feature","properties":{"id":"TUN-23","nome":"Bizerte","pais":"TUN","tipo":"Governorate","lat":37.11,"lng":9.67},"geometry":{"type":"Polygon","coordinates":[[[9.08,37.17],[9.74,37.35],[9.86,37.33],[9.86,37.27],[9.77,37.21],[9.82,37.15],[9.91,37.18],[9.92,37.21],[9.82,37.23],[9.88,37.26],[10.06,37.26],[10.27,37.18],[10.13,37.16],[10.22,37.13],[10.1,37.1],[9.99,36.93],[9.81,36.96],[9.4,36.72],[9.35,36.77],[9.36,36.85],[9.25,36.91],[9.18,37.04],[9.08,37.06],[9.08,37.17]]]}},{"type":"Feature","properties":{"id":"TUN-31","nome":"Béja","pais":"TUN","tipo":"Governorate","lat":36.58,"lng":9.38},"geometry":{"type":"Polygon","coordinates":[[[8.9,37.02],[9.08,37.17],[9.08,37.06],[9.18,37.04],[9.25,36.91],[9.36,36.85],[9.37,36.73],[9.55,36.83],[9.76,36.72],[9.86,36.57],[9.73,36.44],[9.57,36.4],[9.39,36.44],[9.31,36.35],[9.12,36.37],[9.01,36.45],[9.07,36.55],[9.02,36.74],[8.91,36.78],[8.98,36.87],[8.9,37.02]]]}},{"type":"Feature","properties":{"id":"TUN-34","nome":"Siliana","pais":"TUN","tipo":"Governorate","lat":35.56,"lng":9.34},"geometry":{"type":"Polygon","coordinates":[[[9.45,35.49],[9.33,35.48],[9,35.7],[9.15,36.05],[9.03,36.14],[8.92,36.44],[9.31,36.35],[9.39,36.44],[9.75,36.42],[9.72,36.34],[9.57,36.25],[9.74,36.17],[9.75,36.1],[9.49,35.9],[9.51,35.74],[9.27,35.71],[9.45,35.49]]]}},{"type":"Feature","properties":{"id":"TUN-43","nome":"Sidi Bou Zid","pais":"TUN","tipo":"Governorate","lat":34.98,"lng":9.43},"geometry":{"type":"Polygon","coordinates":[[[9.4,35.49],[9.49,35.45],[9.48,35.35],[9.72,35.19],[9.99,35.15],[10.05,35.01],[9.82,34.63],[10.05,34.55],[10.05,34.5],[9.73,34.34],[9.75,34.24],[9.66,34.29],[9.56,34.25],[9.56,34.38],[9.29,34.54],[9.29,34.66],[8.81,34.75],[9.06,34.87],[9.03,34.9],[9.11,35],[9.27,35.05],[9.26,35.2],[9.15,35.26],[9.33,35.48],[9.4,35.49]]]}},{"type":"Feature","properties":{"id":"TUN-41","nome":"Kairouan","pais":"TUN","tipo":"Governorate","lat":35.62,"lng":9.79},"geometry":{"type":"Polygon","coordinates":[[[10.21,36.13],[10.17,36.07],[10.25,36.01],[10.16,35.83],[10.31,35.58],[10.24,35.55],[10.17,35.36],[10.23,35.15],[10.05,35.01],[9.99,35.15],[9.73,35.19],[9.48,35.35],[9.49,35.45],[9.27,35.71],[9.51,35.74],[9.49,35.9],[9.73,36.07],[10.04,36.01],[10.07,36.08],[10.21,36.13]]]}},{"type":"Feature","properties":{"id":"TUN-22","nome":"Zaghouan","pais":"TUN","tipo":"Governorate","lat":36.34,"lng":9.97},"geometry":{"type":"Polygon","coordinates":[[[10.34,36.47],[10.36,36.24],[10.07,36.08],[10.04,36.01],[9.73,36.07],[9.74,36.17],[9.57,36.24],[9.72,36.34],[9.74,36.47],[9.94,36.65],[10.25,36.45],[10.34,36.47]]]}}]}