{"type":"FeatureCollection","features":[{"type":"Feature","properties":{"id":"TWN-TAO","nome":"Taoyuan","pais":"TWN","tipo":"County","lat":24.96,"lng":121.23},"geometry":{"type":"Polygon","coordinates":[[[120.97,24.95],[121.21,25.11],[121.39,25.07],[121.41,25.01],[121.33,24.93],[121.45,24.8],[121.45,24.61],[121.29,24.66],[121.3,24.76],[120.97,24.95]]]}},{"type":"Feature","properties":{"id":"TWN-HSQ","nome":"Hsinchu","pais":"TWN","tipo":"County","lat":24.67,"lng":121.16},"geometry":{"type":"Polygon","coordinates":[[[120.91,24.85],[120.97,24.95],[121.04,24.95],[121.3,24.76],[121.29,24.66],[121.41,24.6],[121.32,24.44],[121.21,24.52],[121.07,24.5],[121.08,24.61],[120.96,24.72],[121.05,24.79],[120.91,24.85]]]}},{"type":"Feature","properties":{"id":"TWN-HSZ","nome":"Hsinchu City","pais":"TWN","tipo":"Provincial City","lat":24.78,"lng":120.96},"geometry":{"type":"Polygon","coordinates":[[[120.87,24.75],[120.91,24.85],[121.05,24.79],[120.96,24.71],[120.87,24.75]]]}},{"type":"Feature","properties":{"id":"TWN-MIA","nome":"Miaoli","pais":"TWN","tipo":"County","lat":24.53,"lng":120.94},"geometry":{"type":"Polygon","coordinates":[[[120.62,24.46],[120.7,24.61],[120.87,24.75],[121.08,24.61],[121.07,24.5],[121.21,24.52],[121.26,24.43],[121.04,24.3],[120.94,24.34],[120.85,24.29],[120.62,24.46]]]}},{"type":"Feature","properties":{"id":"TWN-TXG","nome":"Taichung City","pais":"TWN","tipo":"Special Municipality","lat":24.24,"lng":120.97},"geometry":{"type":"Polygon","coordinates":[[[120.48,24.21],[120.62,24.46],[120.85,24.29],[120.94,24.34],[121.04,24.3],[121.27,24.44],[121.46,24.37],[121.34,24.24],[120.85,24.12],[120.77,24.01],[120.63,24.04],[120.48,24.21]]]}},{"type":"Feature","properties":{"id":"TWN-CHA","nome":"Changhua","pais":"TWN","tipo":"County","lat":24,"lng":120.46},"geometry":{"type":"Polygon","coordinates":[[[120.24,23.84],[120.48,24.21],[120.67,24.02],[120.63,23.85],[120.68,23.81],[120.64,23.77],[120.24,23.84]]]}},{"type":"Feature","properties":{"id":"TWN-YUN","nome":"Yunlin","pais":"TWN","tipo":"County","lat":23.73,"lng":120.43},"geometry":{"type":"Polygon","coordinates":[[[120.12,23.52],[120.24,23.84],[120.65,23.77],[120.64,23.64],[120.74,23.62],[120.65,23.57],[120.47,23.64],[120.22,23.51],[120.12,23.52]]]}},{"type":"Feature","properties":{"id":"TWN-CYQ","nome":"Chiayi","pais":"TWN","tipo":"County","lat":23.45,"lng":120.26},"geometry":{"type":"Polygon","coordinates":[[[120.12,23.32],[120.16,23.36],[120.12,23.52],[120.22,23.51],[120.42,23.63],[120.65,23.57],[120.76,23.61],[120.82,23.59],[120.83,23.48],[120.96,23.48],[120.66,23.3],[120.65,23.23],[120.54,23.24],[120.53,23.33],[120.44,23.41],[120.2,23.3],[120.12,23.32]]]}},{"type":"Feature","properties":{"id":"TWN-TNN","nome":"Tainan City","pais":"TWN","tipo":"Special Municipality","lat":23.05,"lng":120.18},"geometry":{"type":"Polygon","coordinates":[[[120.17,22.93],[120.17,23.03],[120.05,23.06],[120.1,23.1],[120.06,23.15],[120.12,23.32],[120.2,23.3],[120.44,23.41],[120.53,23.33],[120.54,23.24],[120.65,23.23],[120.4,22.92],[120.17,22.93]]]}},{"type":"Feature","properties":{"id":"TWN-KHH","nome":"Kaohsiung City","pais":"TWN","tipo":"Special Municipality","lat":23.02,"lng":120.61},"geometry":{"type":"Polygon","coordinates":[[[120.41,22.48],[120.25,22.64],[120.17,22.93],[120.4,22.92],[120.64,23.21],[120.66,23.3],[121,23.46],[120.99,23.37],[121.05,23.3],[120.92,23.24],[120.89,23.17],[120.82,22.94],[120.87,22.86],[120.63,22.88],[120.47,22.84],[120.41,22.48]]]}},{"type":"Feature","properties":{"id":"TWN-PIF","nome":"Pingtung","pais":"TWN","tipo":"County","lat":22.53,"lng":120.66},"geometry":{"type":"Polygon","coordinates":[[[120.88,22.24],[120.84,21.9],[120.71,21.94],[120.62,22.3],[120.41,22.48],[120.47,22.84],[120.73,22.89],[120.91,22.8],[120.89,22.72],[120.75,22.6],[120.79,22.42],[120.75,22.37],[120.88,22.24]]]}},{"type":"Feature","properties":{"id":"TWN-TTT","nome":"Taitung","pais":"TWN","tipo":"County","lat":22.05,"lng":121.54},"geometry":{"type":"Polygon","coordinates":[[[121.48,23.44],[121.3,22.96],[121.02,22.65],[120.88,22.24],[120.82,22.25],[120.75,22.37],[120.79,22.42],[120.75,22.6],[120.9,22.73],[120.82,22.94],[120.92,23.24],[121.05,23.3],[121.3,23.11],[121.41,23.4],[121.48,23.44]]]}},{"type":"Feature","properties":{"id":"TWN-HUA","nome":"Hualien","pais":"TWN","tipo":"County","lat":23.77,"lng":121.38},"geometry":{"type":"Polygon","coordinates":[[[121.76,24.33],[121.61,24.08],[121.48,23.44],[121.41,23.4],[121.33,23.12],[121.27,23.11],[121.07,23.25],[120.99,23.38],[121.06,23.5],[121.22,23.61],[121.22,23.77],[121.33,24.09],[121.29,24.18],[121.46,24.37],[121.76,24.33]]]}},{"type":"Feature","properties":{"id":"TWN-ILA","nome":"Yilan","pais":"TWN","tipo":"County","lat":24.59,"lng":121.64},"geometry":{"type":"Polygon","coordinates":[[[121.97,24.99],[121.81,24.83],[121.81,24.64],[121.88,24.6],[121.76,24.33],[121.33,24.4],[121.45,24.66],[121.85,24.96],[121.97,24.99]]]}},{"type":"Feature","properties":{"id":"TWN-TPQ","nome":"New Taipei City","pais":"TWN","tipo":"Special Municipality","lat":24.91,"lng":121.65},"geometry":{"type":"Polygon","coordinates":[[[121.76,25.14],[121.91,25.11],[121.92,25.02],[122.01,25],[121.85,24.96],[121.48,24.68],[121.33,24.93],[121.41,25.04],[121.29,25.12],[121.44,25.14],[121.4,25.19],[121.54,25.29],[121.68,25.2],[121.63,25.14],[121.68,25.08],[121.77,25.07],[121.76,25.14]],[[121.6,24.97],[121.66,25.02],[121.56,25.21],[121.46,25.12],[121.6,24.97]]]}},{"type":"Feature","properties":{"id":"TWN-KEE","nome":"Keelung City","pais":"TWN","tipo":"Provincial City","lat":25.11,"lng":121.7},"geometry":{"type":"Polygon","coordinates":[[[121.69,25.17],[121.76,25.14],[121.77,25.07],[121.65,25.11],[121.69,25.17]]]}},{"type":"Feature","properties":{"id":"TWN-KIN","nome":"Kinmen","pais":"TWN","tipo":"County","lat":24.45,"lng":118.37},"geometry":{"type":"Polygon","coordinates":[[[118.39,24.52],[118.46,24.43],[118.28,24.4],[118.28,24.48],[118.38,24.47],[118.39,24.52]]]}},{"type":"Feature","properties":{"id":"TWN-NAN","nome":"Nantou","pais":"TWN","tipo":"County","lat":23.8,"lng":120.99},"geometry":{"type":"Polygon","coordinates":[[[121.27,24.24],[121.35,24.2],[121.29,24.18],[121.33,24.09],[121.22,23.77],[121.22,23.61],[121.02,23.44],[120.83,23.48],[120.82,23.59],[120.64,23.64],[120.68,23.81],[120.63,23.85],[120.65,24],[120.77,24.01],[120.85,24.12],[121.27,24.24]]]}},{"type":"Feature","properties":{"id":"TWN-TPE","nome":"Taipei City","pais":"TWN","tipo":"Special Municipality","lat":25.09,"lng":121.56},"geometry":{"type":"Polygon","coordinates":[[[121.56,25.21],[121.66,25.02],[121.6,24.97],[121.46,25.12],[121.56,25.21]]]}},{"type":"Feature","properties":{"id":"TWN-CYI","nome":"Chiayi City","pais":"TWN","tipo":"Provincial City","lat":23.48,"lng":120.44},"geometry":{"type":"Polygon","coordinates":[[[120.45,23.52],[120.51,23.46],[120.38,23.48],[120.45,23.52]]]}}]}