{"type":"FeatureCollection","features":[{"type":"Feature","properties":{"id":"TZA-14","nome":"Mbeya","pais":"TZA","tipo":"Region","lat":-8.3,"lng":33.53},"geometry":{"type":"Polygon","coordinates":[[[34.08,-9.51],[34.01,-9.48],[33.96,-9.52],[33.91,-9.72],[33.73,-9.58],[33.44,-9.62],[33.3,-9.49],[33.11,-9.49],[32.97,-9.38],[32.92,-9.41],[32.71,-9.29],[32.52,-9.26],[32.42,-9.14],[32.23,-9.13],[32.15,-9.07],[32.15,-8.95],[32.01,-8.78],[32.29,-8.57],[32.31,-8.3],[32.5,-8.21],[32.63,-8.46],[32.75,-8.47],[32.46,-8.05],[31.99,-7.75],[32.09,-7.53],[32.2,-7.5],[32.27,-7.21],[32.69,-7.09],[32.79,-6.95],[33.04,-6.87],[33.27,-6.96],[33.48,-6.94],[33.58,-7.15],[33.78,-7.3],[33.82,-7.43],[33.98,-7.53],[33.86,-7.83],[34.41,-7.82],[34.91,-7.94],[34.92,-7.99],[35.06,-8.04],[34.74,-8.35],[34.69,-8.43],[34.74,-8.54],[34.71,-8.67],[34.58,-8.72],[34.52,-8.81],[34.11,-8.83],[33.85,-8.91],[33.8,-9.01],[33.85,-9.21],[34.08,-9.51]]]}},{"type":"Feature","properties":{"id":"TZA-29","nome":"Njombe","pais":"TZA","tipo":"Region","lat":-9.4,"lng":34.89},"geometry":{"type":"Polygon","coordinates":[[[34.58,-10.53],[34.52,-10.01],[34.32,-9.72],[33.97,-9.39],[33.85,-9.21],[33.8,-9.01],[33.89,-8.88],[34.52,-8.81],[34.73,-8.61],[35.11,-8.78],[35.1,-8.96],[35.2,-9.03],[35.42,-9],[35.68,-9.25],[35.7,-9.34],[35.12,-9.76],[35.22,-10.04],[35.12,-10.19],[35.01,-10.21],[34.98,-10.3],[34.69,-10.52],[34.58,-10.53]]]}},{"type":"Feature","properties":{"id":"TZA-21","nome":"Ruvuma","pais":"TZA","tipo":"Region","lat":-10.71,"lng":36.34},"geometry":{"type":"Polygon","coordinates":[[[34.61,-10.58],[34.58,-10.53],[34.78,-10.47],[34.98,-10.3],[35.01,-10.21],[35.12,-10.19],[35.22,-10.04],[35.12,-9.76],[35.9,-9.19],[35.93,-9.38],[35.86,-9.58],[35.72,-9.72],[35.76,-9.81],[35.97,-9.81],[36.09,-9.71],[36.13,-9.75],[36.36,-9.73],[36.48,-9.55],[36.56,-9.76],[36.48,-9.91],[36.57,-9.96],[37.14,-9.56],[37.11,-9.68],[36.88,-9.95],[36.87,-10.16],[37.82,-10.5],[37.99,-10.82],[38.09,-11.26],[37.88,-11.32],[37.82,-11.53],[37.45,-11.72],[37.14,-11.67],[37.03,-11.56],[36.82,-11.57],[36.63,-11.72],[36.2,-11.7],[36.17,-11.58],[35.83,-11.41],[35.58,-11.61],[34.96,-11.57],[34.89,-11.38],[34.77,-11.35],[34.61,-11.1],[34.59,-11.02],[34.68,-10.75],[34.61,-10.58]]]}},{"type":"Feature","properties":{"id":"TZA-08","nome":"Kigoma","pais":"TZA","tipo":"Region","lat":-4.42,"lng":30.41},"geometry":{"type":"Polygon","coordinates":[[[29.34,-5],[29.32,-4.84],[29.4,-4.45],[29.73,-4.46],[29.78,-4.37],[30,-4.27],[30.31,-3.79],[30.38,-3.79],[30.43,-3.55],[30.64,-3.42],[30.6,-3.37],[30.64,-3.33],[30.8,-3.27],[30.83,-3.16],[30.78,-3.03],[30.98,-2.84],[31.02,-2.86],[31.07,-3.01],[31,-3.2],[31.11,-3.22],[31.22,-3.64],[31.36,-3.89],[31.33,-4.16],[31.49,-4.62],[31.39,-4.71],[31.39,-4.84],[31.23,-4.96],[31.21,-5.46],[31.06,-5.5],[30.96,-5.26],[30.89,-5.32],[30.73,-5.19],[30.41,-5.19],[30.27,-5.32],[29.99,-5.36],[30.12,-5.52],[30.18,-5.9],[30.3,-6.18],[30.38,-6.25],[30.39,-6.39],[29.97,-6.8],[29.71,-6.62],[29.54,-6.31],[29.48,-6],[29.61,-5.7],[29.34,-5]]]}},{"type":"Feature","properties":{"id":"TZA-28","nome":"Katavi","pais":"TZA","tipo":"Region","lat":-6.43,"lng":31.34},"geometry":{"type":"Polygon","coordinates":[[[30.29,-7.15],[29.97,-6.8],[30.39,-6.39],[30.38,-6.25],[30.3,-6.18],[30.18,-5.9],[30.12,-5.52],[29.99,-5.36],[30.27,-5.32],[30.41,-5.19],[30.73,-5.19],[30.89,-5.32],[30.96,-5.26],[31.06,-5.5],[31.03,-5.56],[31.14,-5.64],[31.15,-5.76],[31.62,-5.83],[31.83,-5.71],[32.05,-5.77],[32.2,-6.11],[32.51,-6.36],[32.7,-6.39],[32.74,-6.45],[32.59,-6.69],[32.55,-7.1],[32.27,-7.21],[32.23,-7.42],[32.06,-7.59],[32.01,-7.79],[31.49,-7.71],[31.44,-7.31],[31.38,-7.24],[31.08,-7.22],[30.99,-6.93],[30.9,-6.9],[30.58,-6.95],[30.29,-7.15]]]}},{"type":"Feature","properties":{"id":"TZA-20","nome":"Rukwa","pais":"TZA","tipo":"Region","lat":-7.9,"lng":31.33},"geometry":{"type":"Polygon","coordinates":[[[30.75,-8.19],[30.65,-7.93],[30.44,-7.6],[30.29,-7.15],[30.58,-6.95],[30.9,-6.9],[30.99,-6.93],[31.08,-7.22],[31.38,-7.24],[31.44,-7.31],[31.49,-7.71],[32.01,-7.79],[32.28,-7.93],[32.51,-8.1],[32.75,-8.47],[32.63,-8.46],[32.5,-8.21],[32.31,-8.3],[32.29,-8.57],[32.01,-8.78],[32.15,-8.95],[32.15,-9.07],[31.98,-9.07],[31.92,-9.02],[31.94,-8.93],[31.67,-8.91],[31.55,-8.81],[31.54,-8.7],[31.35,-8.59],[31.26,-8.62],[30.99,-8.58],[30.83,-8.39],[30.75,-8.19]]]}},{"type":"Feature","properties":{"id":"TZA-05","nome":"Kagera","pais":"TZA","tipo":"Region","lat":-1.78,"lng":31.26},"geometry":{"type":"Polygon","coordinates":[[[30.48,-1.16],[30.48,-1.06],[30.64,-1.07],[30.78,-0.99],[32.72,-1],[32.7,-1.47],[31.88,-2.15],[31.75,-2.18],[31.73,-2.28],[31.63,-2.36],[31.36,-2.27],[31.17,-2.28],[31.02,-2.53],[30.91,-2.59],[30.87,-2.68],[30.98,-2.84],[30.82,-2.99],[30.64,-2.97],[30.54,-2.9],[30.49,-2.94],[30.42,-2.85],[30.52,-2.65],[30.41,-2.67],[30.51,-2.46],[30.67,-2.35],[30.83,-2.35],[30.89,-2.08],[30.8,-1.93],[30.83,-1.59],[30.74,-1.49],[30.74,-1.41],[30.56,-1.32],[30.48,-1.16]]]}},{"type":"Feature","properties":{"id":"TZA-17","nome":"Mtwara","pais":"TZA","tipo":"Region","lat":-10.81,"lng":39.22},"geometry":{"type":"Polygon","coordinates":[[[40.44,-10.47],[39.79,-10.93],[39.5,-10.99],[39.24,-11.17],[38.9,-11.17],[38.49,-11.41],[38.26,-11.28],[38.09,-11.26],[38.02,-11.02],[37.99,-10.82],[38.17,-10.8],[38.31,-10.65],[38.58,-10.54],[38.87,-10.54],[39.17,-10.39],[39.26,-10.45],[39.28,-10.38],[39.42,-10.33],[39.63,-10.59],[39.69,-10.53],[39.66,-10.44],[39.71,-10.33],[39.98,-10.18],[39.99,-10.22],[39.99,-10.13],[40.13,-10.17],[40.12,-10.27],[40.23,-10.3],[40.23,-10.2],[40.35,-10.36],[40.42,-10.36],[40.43,-10.3],[40.44,-10.47]]]}},{"type":"Feature","properties":{"id":"TZA-13","nome":"Mara","pais":"TZA","tipo":"Region","lat":-1.59,"lng":34.02},"geometry":{"type":"Polygon","coordinates":[[[33.98,-1],[35.25,-1.71],[35.23,-2.15],[35.34,-2.24],[35.21,-2.49],[34.66,-2.49],[34.04,-2.13],[34,-2.18],[33.87,-2.19],[33.75,-2.09],[33.61,-2.18],[33.36,-2.17],[33.28,-2.11],[33.22,-2.14],[33.22,-2.04],[33.29,-2.06],[33.28,-2],[33.38,-2.05],[33.4,-1.97],[33.5,-2.03],[33.57,-2],[33.46,-1.95],[33.46,-1.88],[33.28,-1.92],[33.34,-1.74],[33.46,-1.73],[33.46,-1.52],[33.33,-1.47],[32.7,-1.47],[32.72,-1],[33.98,-1]]]}},{"type":"Feature","properties":{"id":"TZA-01","nome":"Arusha","pais":"TZA","tipo":"Region","lat":-3.03,"lng":36.09},"geometry":{"type":"Polygon","coordinates":[[[35.25,-1.71],[37.42,-2.92],[37.14,-2.86],[36.91,-3],[36.9,-3.16],[37.06,-3.31],[37.06,-3.49],[36.83,-3.63],[36.67,-3.59],[36.58,-3.67],[36.5,-3.78],[36.53,-4.08],[36.25,-4.11],[35.94,-3.64],[35.75,-3.83],[35.75,-3.57],[35.56,-3.77],[35.49,-3.73],[35.53,-3.67],[35.38,-3.62],[34.89,-3.91],[34.76,-3.8],[34.75,-3.72],[34.89,-3.6],[34.9,-2.88],[35.04,-2.97],[35.12,-2.92],[35.21,-2.49],[35.34,-2.24],[35.23,-2.15],[35.25,-1.71]]]}},{"type":"Feature","properties":{"id":"TZA-09","nome":"Kilimanjaro","pais":"TZA","tipo":"Region","lat":-4.01,"lng":37.65},"geometry":{"type":"Polygon","coordinates":[[[37.42,-2.92],[37.66,-3.07],[37.7,-3.31],[37.59,-3.41],[37.6,-3.51],[37.71,-3.53],[37.77,-3.66],[38.42,-4.12],[38.03,-4.64],[37.93,-4.57],[37.76,-4.59],[37.53,-4.44],[37.45,-3.77],[37.29,-3.49],[37.21,-3.45],[37.06,-3.49],[37.06,-3.31],[36.9,-3.16],[36.91,-3],[37.14,-2.86],[37.42,-2.92]]]}},{"type":"Feature","properties":{"id":"TZA-25","nome":"Tanga","pais":"TZA","tipo":"Region","lat":-5.19,"lng":38.14},"geometry":{"type":"Polygon","coordinates":[[[38.42,-4.12],[39.22,-4.72],[39.17,-4.78],[39.22,-4.8],[39.21,-4.87],[39.16,-4.94],[39.16,-4.85],[39.11,-4.92],[39.13,-5.01],[39.08,-5.06],[39.13,-5.05],[39.14,-5.1],[39.04,-5.24],[39.08,-5.23],[38.8,-5.96],[38.47,-6.02],[38.15,-5.86],[37.95,-5.85],[37.63,-5.98],[37.53,-5.84],[37.39,-5.79],[37.36,-5.93],[37.17,-6.11],[37.06,-5.87],[37.21,-5.74],[37.39,-5.21],[37.59,-4.98],[38.05,-5],[37.98,-4.69],[38.42,-4.12]]]}},{"type":"Feature","properties":{"id":"TZA-12","nome":"Lindi","pais":"TZA","tipo":"Region","lat":-9.44,"lng":38.42},"geometry":{"type":"Polygon","coordinates":[[[39.28,-8.32],[39.35,-8.71],[39.55,-8.92],[39.45,-8.86],[39.39,-8.9],[39.49,-8.94],[39.5,-9.12],[39.57,-9.09],[39.64,-9.19],[39.64,-9.37],[39.57,-9.45],[39.65,-9.44],[39.74,-9.67],[39.7,-9.74],[39.8,-9.82],[39.75,-9.88],[39.79,-9.92],[39.71,-9.95],[39.69,-10.04],[39.83,-9.99],[39.97,-10.13],[39.98,-10.18],[39.68,-10.36],[39.69,-10.53],[39.63,-10.59],[39.5,-10.38],[39.4,-10.34],[39.28,-10.38],[39.26,-10.45],[39.17,-10.39],[38.87,-10.54],[38.58,-10.54],[38.31,-10.65],[38.17,-10.8],[37.99,-10.82],[37.82,-10.5],[37.72,-10.43],[37.16,-10.29],[36.87,-10.16],[36.9,-9.9],[37.11,-9.68],[37.26,-9.2],[37.36,-9.14],[37.31,-8.81],[37.37,-8.5],[37.8,-7.94],[37.99,-8.08],[38.29,-8.18],[38.5,-8.36],[38.54,-8.5],[38.64,-8.47],[38.69,-8.37],[39.18,-8.29],[39.28,-8.32]]]}},{"type":"Feature","properties":{"id":"TZA-19","nome":"Pwani","pais":"TZA","tipo":"Region","lat":-7.87,"lng":39.75},"geometry":{"type":"MultiPolygon","coordinates":[[[[39.43,-7.18],[39.33,-7.31],[39.35,-7.37],[39.27,-7.6],[39.3,-7.75],[39.25,-7.82],[39.33,-7.73],[39.34,-7.78],[39.41,-7.79],[39.45,-8.01],[39.28,-8.32],[39.18,-8.29],[38.69,-8.37],[38.64,-8.47],[38.54,-8.5],[38.5,-8.36],[38.29,-8.18],[37.99,-8.08],[37.8,-7.94],[37.9,-7.59],[38.36,-7.52],[38.3,-7.32],[38.52,-7.04],[38.48,-6.97],[38.32,-6.94],[38.29,-6.89],[38.3,-6.69],[38.02,-6.64],[37.99,-6.59],[38.06,-6.25],[37.8,-5.89],[38.15,-5.86],[38.47,-6.02],[38.8,-5.96],[38.78,-6.05],[38.86,-6.17],[38.86,-6.37],[39.13,-6.56],[39.02,-6.77],[39.1,-6.91],[39.03,-7.03],[39.36,-6.96],[39.43,-7.18]]],[[[39.9,-7.64],[39.82,-7.91],[39.63,-7.99],[39.59,-7.95],[39.7,-7.82],[39.81,-7.79],[39.77,-7.78],[39.9,-7.64]]]]}},{"type":"Feature","properties":{"id":"TZA-02","nome":"Dar-Es-Salaam","pais":"TZA","tipo":"Region","lat":-6.89,"lng":39.29},"geometry":{"type":"Polygon","coordinates":[[[39.13,-6.56],[39.28,-6.73],[39.28,-6.83],[39.46,-6.86],[39.55,-6.99],[39.5,-7.18],[39.41,-7.17],[39.36,-6.96],[39.03,-7.03],[39.1,-6.91],[39.02,-6.77],[39.13,-6.56]]]}},{"type":"Feature","properties":{"id":"TZA-11","nome":"Zanzibar South and Central","pais":"TZA","tipo":"Region","lat":-6.27,"lng":39.42},"geometry":{"type":"Polygon","coordinates":[[[39.39,-6],[39.42,-6.19],[39.5,-6.2],[39.5,-6.12],[39.52,-6.18],[39.57,-6.38],[39.51,-6.46],[39.44,-6.42],[39.42,-6.3],[39.38,-6.36],[39.28,-6.18],[39.27,-6.03],[39.39,-6]]]}},{"type":"Feature","properties":{"id":"TZA-07","nome":"Kaskazini-Unguja","pais":"TZA","tipo":"Region","lat":-5.84,"lng":39.23},"geometry":{"type":"Polygon","coordinates":[[[39.2,-6.03],[39.19,-5.9],[39.28,-5.84],[39.31,-5.72],[39.39,-6],[39.2,-6.03]]]}},{"type":"Feature","properties":{"id":"TZA-15","nome":"Zanzibar West","pais":"TZA","tipo":"Region","lat":-6.15,"lng":39.24},"geometry":{"type":"Polygon","coordinates":[[[39.31,-6.25],[39.28,-6.31],[39.2,-6.22],[39.2,-6.03],[39.27,-6.03],[39.31,-6.25]]]}},{"type":"Feature","properties":{"id":"TZA-10","nome":"Kusini-Pemba","pais":"TZA","tipo":"Region","lat":-5.35,"lng":39.75},"geometry":{"type":"Polygon","coordinates":[[[39.86,-5.18],[39.8,-5.41],[39.73,-5.45],[39.65,-5.43],[39.65,-5.34],[39.7,-5.34],[39.66,-5.29],[39.78,-5.24],[39.65,-5.19],[39.86,-5.18]]]}},{"type":"Feature","properties":{"id":"TZA-06","nome":"Kaskazini-Pemba","pais":"TZA","tipo":"Region","lat":-5.05,"lng":39.78},"geometry":{"type":"Polygon","coordinates":[[[39.74,-5.16],[39.69,-5.14],[39.73,-5.08],[39.68,-5.04],[39.72,-4.98],[39.68,-4.89],[39.82,-4.99],[39.86,-4.9],[39.86,-5.18],[39.74,-5.16]]]}},{"type":"Feature","properties":{"id":"TZA-16","nome":"Morogoro","pais":"TZA","tipo":"Region","lat":-8.7,"lng":36.92},"geometry":{"type":"Polygon","coordinates":[[[37.8,-7.94],[37.37,-8.5],[37.31,-8.81],[37.36,-9.14],[37.26,-9.2],[37.14,-9.56],[36.57,-9.96],[36.48,-9.91],[36.56,-9.76],[36.48,-9.55],[36.36,-9.73],[36.13,-9.75],[36.09,-9.71],[35.97,-9.81],[35.72,-9.78],[35.92,-9.43],[35.9,-9.2],[35.7,-9.34],[35.68,-9.25],[35.42,-9],[35.37,-9.01],[35.34,-8.69],[35.63,-8.73],[35.67,-8.86],[35.72,-8.64],[35.91,-8.5],[36.02,-8.31],[36.18,-8.19],[36.31,-8.18],[36.32,-8.06],[36.42,-7.98],[36.77,-7.96],[36.97,-7.65],[36.82,-7.65],[36.78,-7.58],[36.52,-7.5],[36.48,-7.37],[36.52,-7.14],[36.64,-7],[36.67,-6.63],[36.86,-6.34],[36.83,-6.05],[37.06,-5.87],[37.17,-6.11],[37.36,-5.93],[37.39,-5.79],[37.53,-5.84],[37.63,-5.98],[37.76,-5.9],[37.85,-5.93],[38.06,-6.25],[37.99,-6.59],[38.02,-6.64],[38.3,-6.69],[38.29,-6.89],[38.5,-6.98],[38.49,-7.09],[38.3,-7.32],[38.36,-7.52],[37.9,-7.59],[37.8,-7.94]]]}},{"type":"Feature","properties":{"id":"TZA-03","nome":"Dodoma","pais":"TZA","tipo":"Region","lat":-5.73,"lng":35.96},"geometry":{"type":"Polygon","coordinates":[[[36.86,-6],[36.86,-6.34],[36.67,-6.63],[36.64,-7],[36.52,-7.14],[36.48,-7.37],[36.45,-7.32],[36.33,-7.32],[36.24,-7.17],[36.11,-7.13],[35.71,-7.07],[35.44,-6.93],[35.18,-6.98],[35.08,-6.92],[35.06,-6.72],[35.19,-6.72],[35.21,-6.65],[35.21,-5.95],[35.34,-5.7],[35.14,-5.4],[35.08,-5.12],[35.32,-4.95],[35.34,-4.85],[35.51,-4.86],[35.65,-4.61],[35.64,-4.48],[35.82,-4.36],[35.95,-4.35],[36.05,-4.26],[36.3,-4.18],[36.36,-4.68],[36.24,-5.46],[36.57,-5.75],[36.68,-5.91],[36.86,-6]]]}},{"type":"Feature","properties":{"id":"TZA-26","nome":"Manyara","pais":"TZA","tipo":"Region","lat":-4.89,"lng":36.46},"geometry":{"type":"Polygon","coordinates":[[[37.06,-5.87],[36.86,-6],[36.73,-5.96],[36.24,-5.46],[36.36,-4.68],[36.3,-4.18],[36.05,-4.26],[35.95,-4.35],[35.82,-4.36],[35.64,-4.48],[35.65,-4.61],[35.51,-4.86],[35.37,-4.86],[35.14,-4.72],[35.14,-4.64],[34.87,-4.38],[35.02,-4.11],[34.89,-3.91],[35.38,-3.62],[35.53,-3.67],[35.49,-3.73],[35.56,-3.77],[35.75,-3.57],[35.75,-3.83],[35.94,-3.64],[36.25,-4.11],[36.34,-4.12],[36.53,-4.08],[36.5,-3.78],[36.67,-3.59],[36.83,-3.63],[37.19,-3.45],[37.3,-3.51],[37.47,-3.82],[37.5,-4.38],[37.76,-4.59],[38,-4.61],[37.97,-4.81],[38.05,-5],[37.59,-4.98],[37.39,-5.21],[37.21,-5.74],[37.06,-5.87]]]}},{"type":"Feature","properties":{"id":"TZA-23","nome":"Singida","pais":"TZA","tipo":"Region","lat":-5.6,"lng":34.41},"geometry":{"type":"Polygon","coordinates":[[[35.34,-4.85],[35.32,-4.95],[35.07,-5.15],[35.14,-5.4],[35.34,-5.7],[35.21,-5.95],[35.21,-6.65],[35.19,-6.72],[35.06,-6.72],[35.08,-6.92],[34.92,-6.89],[34.77,-6.99],[34.72,-7.16],[34.43,-7.22],[34.36,-7.33],[34.17,-7.31],[33.94,-7.5],[33.82,-7.43],[33.78,-7.3],[33.58,-7.15],[33.48,-6.94],[33.52,-6.62],[34.02,-6.22],[34,-6.07],[34.11,-5.69],[34.06,-5.59],[34.23,-5.39],[33.93,-5.15],[33.96,-4.49],[34.17,-4.16],[34.26,-4.15],[34.29,-4.04],[34.76,-3.8],[35.01,-4.08],[34.87,-4.38],[35.14,-4.64],[35.14,-4.72],[35.34,-4.85]]]}},{"type":"Feature","properties":{"id":"TZA-24","nome":"Tabora","pais":"TZA","tipo":"Region","lat":-6.82,"lng":32.66},"geometry":{"type":"Polygon","coordinates":[[[34.29,-4.04],[34.26,-4.15],[34.17,-4.16],[33.94,-4.58],[33.93,-5.15],[34.23,-5.39],[34.06,-5.59],[34.11,-5.69],[34,-6.07],[34.02,-6.22],[33.52,-6.62],[33.48,-6.94],[33.27,-6.96],[33.04,-6.87],[32.79,-6.95],[32.69,-7.09],[32.55,-7.1],[32.59,-6.69],[32.73,-6.47],[32.72,-6.4],[32.51,-6.36],[32.2,-6.11],[32.05,-5.77],[31.83,-5.71],[31.63,-5.83],[31.28,-5.8],[31.15,-5.76],[31.14,-5.64],[31.04,-5.58],[31.06,-5.5],[31.23,-5.43],[31.19,-5.27],[31.23,-4.96],[31.39,-4.84],[31.39,-4.71],[31.49,-4.62],[31.42,-4.36],[31.48,-4.25],[31.68,-4.21],[31.64,-4.13],[31.69,-4.04],[31.96,-4.14],[31.97,-4.43],[32.21,-4.32],[32.41,-4.38],[32.47,-4.21],[32.53,-4.18],[32.59,-4.28],[32.71,-4.25],[32.73,-4.2],[32.65,-4.15],[32.71,-4.09],[32.71,-3.98],[32.86,-3.91],[33.13,-3.96],[33.6,-3.88],[34.02,-4.03],[34.2,-4.07],[34.29,-4.04]]]}},{"type":"Feature","properties":{"id":"TZA-04","nome":"Iringa","pais":"TZA","tipo":"Region","lat":-7.84,"lng":35.55},"geometry":{"type":"Polygon","coordinates":[[[36.48,-7.37],[36.52,-7.5],[36.78,-7.58],[36.82,-7.65],[36.97,-7.65],[36.77,-7.96],[36.51,-7.94],[36.35,-8.03],[36.31,-8.18],[36.09,-8.24],[35.91,-8.5],[35.72,-8.64],[35.67,-8.86],[35.63,-8.73],[35.34,-8.69],[35.37,-9.01],[35.29,-9.03],[35.1,-8.96],[35.11,-8.78],[34.73,-8.61],[34.71,-8.39],[35.04,-8.07],[35.04,-8.01],[34.41,-7.82],[33.84,-7.8],[33.98,-7.53],[33.94,-7.5],[34.17,-7.31],[34.36,-7.33],[34.43,-7.22],[34.72,-7.16],[34.77,-6.99],[34.92,-6.89],[35.18,-6.98],[35.44,-6.93],[35.71,-7.07],[36.11,-7.13],[36.24,-7.17],[36.33,-7.32],[36.45,-7.32],[36.48,-7.37]]]}},{"type":"Feature","properties":{"id":"TZA-18","nome":"Mwanza","pais":"TZA","tipo":"Region","lat":-2.67,"lng":32.67},"geometry":{"type":"Polygon","coordinates":[[[32.7,-1.47],[33.33,-1.47],[33.46,-1.52],[33.46,-1.73],[33.34,-1.74],[33.28,-1.92],[33.46,-1.88],[33.46,-1.95],[33.57,-2],[33.5,-2.03],[33.4,-1.97],[33.38,-2.05],[33.28,-2],[33.21,-2.12],[33.35,-2.15],[33.52,-2.45],[33.79,-2.71],[33.51,-2.84],[33.53,-2.97],[33.42,-3.27],[33.21,-3.33],[33.11,-3.43],[32.86,-3.26],[32.68,-3.32],[32.69,-3.45],[32.53,-3.37],[32.51,-3.2],[32.6,-2.96],[32.51,-2.89],[32.53,-2.81],[32.36,-2.71],[32.41,-2.61],[32.24,-2.58],[31.95,-2.39],[31.88,-2.15],[32.7,-1.47]]]}},{"type":"Feature","properties":{"id":"TZA-30","nome":"Simiyu","pais":"TZA","tipo":"Region","lat":-2.97,"lng":34.22},"geometry":{"type":"Polygon","coordinates":[[[33.75,-2.09],[33.87,-2.19],[34,-2.18],[34.04,-2.13],[34.66,-2.49],[35.21,-2.49],[35.12,-2.92],[35.04,-2.97],[34.9,-2.88],[34.89,-3.6],[34.82,-3.62],[34.76,-3.8],[34.69,-3.85],[34.41,-3.96],[34.27,-3.82],[34.16,-3.55],[33.91,-3.52],[33.8,-3.42],[33.68,-3.43],[33.42,-3.27],[33.53,-2.97],[33.51,-2.84],[33.79,-2.71],[33.52,-2.45],[33.36,-2.17],[33.61,-2.18],[33.75,-2.09]]]}},{"type":"Feature","properties":{"id":"TZA-27","nome":"Geita","pais":"TZA","tipo":"Region","lat":-3.1,"lng":31.7},"geometry":{"type":"Polygon","coordinates":[[[31.42,-4.36],[31.33,-4.16],[31.36,-3.89],[31.22,-3.64],[31.11,-3.22],[31,-3.2],[31.07,-2.94],[30.87,-2.68],[31.17,-2.28],[31.36,-2.27],[31.63,-2.36],[31.73,-2.28],[31.75,-2.18],[31.88,-2.15],[31.95,-2.39],[32.24,-2.58],[32.41,-2.61],[32.36,-2.71],[32.53,-2.81],[32.51,-2.89],[32.6,-2.96],[32.51,-3.2],[32.35,-3.32],[32.25,-3.24],[32.18,-3.27],[32.12,-3.39],[32.13,-3.67],[31.94,-3.69],[31.75,-3.82],[31.64,-4.13],[31.68,-4.21],[31.48,-4.25],[31.42,-4.36]]]}},{"type":"Feature","properties":{"id":"TZA-22","nome":"Shinyanga","pais":"TZA","tipo":"Region","lat":-3.65,"lng":33.2},"geometry":{"type":"Polygon","coordinates":[[[33.68,-3.93],[33.6,-3.88],[33.13,-3.96],[32.86,-3.91],[32.71,-3.98],[32.71,-4.09],[32.65,-4.15],[32.73,-4.2],[32.71,-4.25],[32.59,-4.28],[32.53,-4.18],[32.47,-4.21],[32.41,-4.38],[32.21,-4.32],[31.97,-4.43],[31.96,-4.14],[31.69,-4.04],[31.68,-3.97],[31.84,-3.74],[32.13,-3.67],[32.12,-3.39],[32.18,-3.27],[32.25,-3.24],[32.35,-3.32],[32.51,-3.2],[32.53,-3.37],[32.65,-3.45],[32.69,-3.45],[32.68,-3.32],[32.77,-3.26],[32.86,-3.26],[33.11,-3.43],[33.21,-3.33],[33.42,-3.27],[33.68,-3.43],[33.8,-3.42],[33.91,-3.52],[34.16,-3.55],[34.27,-3.82],[34.41,-3.96],[34.2,-4.07],[33.68,-3.93]]]}}]}