{"type":"FeatureCollection","features":[{"type":"Feature","properties":{"id":"UGA-411","nome":"Ntungamo","pais":"UGA","tipo":"District","lat":-0.98,"lng":30.31},"geometry":{"type":"Polygon","coordinates":[[[30.46,-1.06],[30.34,-1.07],[30.31,-1.14],[30.18,-1.19],[30.09,-1.14],[30.04,-1.04],[30.06,-0.76],[30.16,-0.72],[30.3,-0.81],[30.59,-0.81],[30.46,-1.06]]]}},{"type":"Feature","properties":{"id":"UGA-417","nome":"Isingiro","pais":"UGA","tipo":"County","lat":-0.85,"lng":30.87},"geometry":{"type":"Polygon","coordinates":[[[30.47,-1.07],[30.59,-0.81],[30.64,-0.81],[30.65,-0.61],[30.73,-0.6],[30.87,-0.7],[31.12,-0.68],[31.28,-1],[30.78,-0.99],[30.64,-1.07],[30.47,-1.07]]]}},{"type":"Feature","properties":{"id":"UGA-404","nome":"Kabale","pais":"UGA","tipo":"District","lat":-1.23,"lng":30.01},"geometry":{"type":"Polygon","coordinates":[[[30.07,-1.39],[29.94,-1.47],[29.88,-1.45],[29.73,-1.11],[29.77,-1.03],[30.07,-1.09],[30.18,-1.19],[30.29,-1.15],[30.07,-1.39]]]}},{"type":"Feature","properties":{"id":"UGA-408","nome":"Kisoro","pais":"UGA","tipo":"District","lat":-1.21,"lng":29.69},"geometry":{"type":"Polygon","coordinates":[[[29.83,-1.32],[29.58,-1.39],[29.55,-0.99],[29.75,-1.08],[29.73,-1.12],[29.83,-1.32]]]}},{"type":"Feature","properties":{"id":"UGA-110","nome":"Rakai","pais":"UGA","tipo":"District","lat":-0.75,"lng":31.53},"geometry":{"type":"Polygon","coordinates":[[[31.99,-1],[31.28,-1],[31.18,-0.86],[31.18,-0.74],[31.07,-0.65],[31.13,-0.53],[31.23,-0.52],[31.24,-0.46],[31.46,-0.6],[31.53,-0.51],[31.66,-0.48],[31.75,-0.73],[31.99,-0.77],[31.99,-1]]]}},{"type":"Feature","properties":{"id":"UGA-101","nome":"Kalangala","pais":"UGA","tipo":"District","lat":-0.36,"lng":32.25},"geometry":{"type":"Polygon","coordinates":[[[32.72,-1],[31.99,-1],[31.99,-0.41],[32.07,-0.35],[31.92,-0.13],[32.85,-0.16],[32.85,-1],[32.72,-1]]]}},{"type":"Feature","properties":{"id":"UGA-120","nome":"Buvuma","pais":"UGA","tipo":"District","lat":0.1,"lng":33.26},"geometry":{"type":"Polygon","coordinates":[[[33.43,-1],[32.85,-1],[32.85,-0.46],[33.08,0.09],[33.27,0.35],[33.39,0.3],[33.43,0.21],[33.43,-1]]]}},{"type":"Feature","properties":{"id":"UGA-214","nome":"Mayuge","pais":"UGA","tipo":"District","lat":0.28,"lng":33.56},"geometry":{"type":"Polygon","coordinates":[[[33.63,-1],[33.43,-1],[33.43,0.21],[33.39,0.3],[33.5,0.35],[33.57,0.45],[33.69,0.37],[33.65,0.07],[33.74,-0.04],[33.63,-0.1],[33.63,-1]]]}},{"type":"Feature","properties":{"id":"UGA-230","nome":"Namayingo","pais":"UGA","tipo":"District","lat":0.25,"lng":33.8},"geometry":{"type":"Polygon","coordinates":[[[33.9,-1],[33.63,-1],[33.63,-0.1],[33.74,-0.04],[33.65,0.07],[33.66,0.25],[33.68,0.32],[33.83,0.38],[33.89,0.47],[33.88,0.31],[33.96,0.2],[33.89,0.09],[33.95,-0.15],[33.9,-1]]]}},{"type":"Feature","properties":{"id":"UGA-315","nome":"Kaabong","pais":"UGA","tipo":"District","lat":3.71,"lng":34.04},"geometry":{"type":"Polygon","coordinates":[[[33.53,3.77],[34.01,4.21],[34.11,3.96],[34.08,3.88],[34.2,3.87],[34.15,3.78],[34.24,3.78],[34.28,3.71],[34.34,3.73],[34.44,3.67],[34.38,3.39],[34.44,3.16],[34.55,3.1],[34.33,3.08],[34.16,3.2],[33.8,3.32],[33.53,3.77]]]}},{"type":"Feature","properties":{"id":"UGA-305","nome":"Kitgum","pais":"UGA","tipo":"District","lat":3.36,"lng":33.31},"geometry":{"type":"Polygon","coordinates":[[[33.45,3.74],[33.53,3.77],[33.74,3.35],[33.71,3.27],[33.39,3.3],[33.42,3.26],[33.35,3.26],[33.36,3.2],[33.21,3.19],[33.16,3.02],[32.99,3.17],[32.93,3.18],[32.93,3.11],[32.78,3.18],[32.77,3.39],[32.9,3.41],[32.94,3.47],[33.11,3.47],[33.16,3.54],[33.28,3.43],[33.26,3.75],[33.45,3.74]]]}},{"type":"Feature","properties":{"id":"UGA-327","nome":"Lamwo","pais":"UGA","tipo":"District","lat":3.57,"lng":32.73},"geometry":{"type":"Polygon","coordinates":[[[33,3.89],[33.16,3.76],[33.26,3.75],[33.28,3.43],[33.16,3.54],[33.11,3.47],[32.94,3.47],[32.9,3.41],[32.77,3.39],[32.78,3.18],[32.52,3.14],[32.18,3.53],[32.19,3.62],[32.37,3.73],[32.76,3.77],[33,3.89]]]}},{"type":"Feature","properties":{"id":"UGA-319","nome":"Amuru","pais":"UGA","tipo":"District","lat":2.95,"lng":32.03},"geometry":{"type":"Polygon","coordinates":[[[32.16,3.51],[32.36,3.29],[32.18,3.05],[32.2,2.73],[31.98,2.8],[31.75,2.8],[31.7,2.73],[31.59,2.73],[31.42,2.62],[31.44,2.75],[31.37,2.86],[31.4,2.96],[31.56,2.87],[31.63,2.96],[31.93,3.04],[32.02,3.24],[32.05,3.56],[32.16,3.51]]]}},{"type":"Feature","properties":{"id":"UGA-301","nome":"Adjumani","pais":"UGA","tipo":"District","lat":3.22,"lng":31.73},"geometry":{"type":"Polygon","coordinates":[[[32.02,3.59],[32.04,3.32],[31.93,3.04],[31.63,2.96],[31.56,2.87],[31.4,2.96],[31.69,3.49],[31.82,3.54],[31.91,3.5],[32.02,3.59]]]}},{"type":"Feature","properties":{"id":"UGA-309","nome":"Moyo","pais":"UGA","tipo":"District","lat":3.62,"lng":31.72},"geometry":{"type":"Polygon","coordinates":[[[31.8,3.81],[31.93,3.6],[32.02,3.59],[31.91,3.5],[31.82,3.54],[31.69,3.49],[31.52,3.14],[31.46,3.22],[31.46,3.46],[31.61,3.7],[31.8,3.81]]]}},{"type":"Feature","properties":{"id":"UGA-313","nome":"Yumbe","pais":"UGA","tipo":"District","lat":3.52,"lng":31.3},"geometry":{"type":"Polygon","coordinates":[[[31.52,3.66],[31.61,3.7],[31.46,3.46],[31.46,3.22],[31.51,3.12],[31.42,3.13],[31.4,3.22],[31.21,3.33],[31.05,3.31],[31.05,3.66],[31.14,3.79],[31.3,3.77],[31.52,3.66]]]}},{"type":"Feature","properties":{"id":"UGA-316","nome":"Koboko","pais":"UGA","tipo":"County","lat":3.51,"lng":30.97},"geometry":{"type":"Polygon","coordinates":[[[30.99,3.69],[31.07,3.73],[31.05,3.31],[30.9,3.39],[30.9,3.52],[30.84,3.49],[30.99,3.69]]]}},{"type":"Feature","properties":{"id":"UGA-308","nome":"Moroto","pais":"UGA","tipo":"District","lat":2.67,"lng":34.71},"geometry":{"type":"Polygon","coordinates":[[[34.55,3.1],[34.58,2.93],[34.74,2.84],[34.82,2.6],[34.87,2.6],[34.92,2.48],[34.86,2.39],[34.92,2.21],[34.84,2.11],[34.78,2.41],[34.64,2.64],[34.25,2.83],[34.39,3.08],[34.55,3.1]]]}},{"type":"Feature","properties":{"id":"UGA-206","nome":"Kapchorwa","pais":"UGA","tipo":"District","lat":1.35,"lng":34.47},"geometry":{"type":"Polygon","coordinates":[[[34.56,1.09],[34.51,1.1],[34.5,1.22],[34.31,1.32],[34.43,1.45],[34.57,1.37],[34.56,1.09]]]}},{"type":"Feature","properties":{"id":"UGA-218","nome":"Bukwa","pais":"UGA","tipo":"County","lat":1.26,"lng":34.68},"geometry":{"type":"Polygon","coordinates":[[[34.57,1.1],[34.57,1.25],[34.74,1.42],[34.8,1.23],[34.58,1.15],[34.57,1.1]]]}},{"type":"Feature","properties":{"id":"UGA-324","nome":"Amudat","pais":"UGA","tipo":"District","lat":1.67,"lng":34.88},"geometry":{"type":"Polygon","coordinates":[[[34.92,2.21],[35.01,1.92],[34.98,1.68],[34.78,1.37],[34.64,1.54],[34.79,1.68],[34.81,1.99],[34.86,2],[34.84,2.11],[34.92,2.21]]]}},{"type":"Feature","properties":{"id":"UGA-202","nome":"Busia","pais":"UGA","tipo":"District","lat":0.41,"lng":34},"geometry":{"type":"Polygon","coordinates":[[[34.13,0.57],[34.09,0.35],[33.96,0.2],[33.88,0.31],[33.89,0.5],[33.96,0.56],[34.13,0.57]]]}},{"type":"Feature","properties":{"id":"UGA-212","nome":"Tororo","pais":"UGA","tipo":"District","lat":0.74,"lng":34.08},"geometry":{"type":"Polygon","coordinates":[[[34.3,0.75],[34.13,0.57],[33.96,0.56],[33.87,0.68],[33.95,0.85],[34.06,0.9],[34.3,0.75]]]}},{"type":"Feature","properties":{"id":"UGA-221","nome":"Manafwa","pais":"UGA","tipo":"District","lat":0.89,"lng":34.31},"geometry":{"type":"Polygon","coordinates":[[[34.46,1],[34.39,0.82],[34.3,0.75],[34.16,0.83],[34.26,1],[34.46,1]]]}},{"type":"Feature","properties":{"id":"UGA-223","nome":"Bududa","pais":"UGA","tipo":"District","lat":1.03,"lng":34.4},"geometry":{"type":"Polygon","coordinates":[[[34.51,1.1],[34.46,1],[34.26,1],[34.39,1.11],[34.51,1.1]]]}},{"type":"Feature","properties":{"id":"UGA-320","nome":"Maracha","pais":"UGA","tipo":"District","lat":3.23,"lng":30.91},"geometry":{"type":"Polygon","coordinates":[[[30.76,3.12],[30.9,3.39],[31.05,3.31],[30.92,3.12],[30.76,3.12]]]}},{"type":"Feature","properties":{"id":"UGA-303","nome":"Arua","pais":"UGA","tipo":"County","lat":2.79,"lng":31.13},"geometry":{"type":"Polygon","coordinates":[[[30.77,2.68],[30.85,2.89],[30.75,3.04],[30.76,3.12],[30.92,3.12],[31.05,3.31],[31.21,3.33],[31.4,3.22],[31.42,3.13],[31.51,3.12],[31.38,2.9],[31.39,2.79],[31.25,2.64],[31.05,2.59],[30.99,2.61],[30.97,2.74],[30.77,2.68]]]}},{"type":"Feature","properties":{"id":"UGA-331","nome":"Zombo","pais":"UGA","tipo":"District","lat":2.54,"lng":30.9},"geometry":{"type":"Polygon","coordinates":[[[30.87,2.33],[30.8,2.43],[30.71,2.45],[30.74,2.59],[30.77,2.68],[30.97,2.74],[31.07,2.52],[30.87,2.33]]]}},{"type":"Feature","properties":{"id":"UGA-310","nome":"Nebbi","pais":"UGA","tipo":"District","lat":2.44,"lng":31.26},"geometry":{"type":"Polygon","coordinates":[[[31.11,2.28],[30.97,2.41],[31.05,2.49],[31.05,2.59],[31.25,2.64],[31.39,2.79],[31.45,2.69],[31.42,2.62],[31.53,2.5],[31.47,2.36],[31.34,2.26],[31.31,2.16],[31.19,2.22],[31.18,2.3],[31.11,2.28]]]}},{"type":"Feature","properties":{"id":"UGA-419","nome":"Buliisa","pais":"UGA","tipo":"County","lat":1.96,"lng":31.43},"geometry":{"type":"Polygon","coordinates":[[[31.08,1.84],[31.28,2.15],[31.55,2.28],[31.54,2.07],[31.65,1.92],[31.55,1.76],[31.36,1.74],[31.33,1.82],[31.08,1.84]]]}},{"type":"Feature","properties":{"id":"UGA-403","nome":"Hoima","pais":"UGA","tipo":"District","lat":1.47,"lng":31.03},"geometry":{"type":"Polygon","coordinates":[[[30.55,1.34],[31.08,1.84],[31.36,1.79],[31.45,1.41],[31.51,1.36],[31.29,1.21],[30.59,1.04],[30.55,1.07],[30.55,1.34]]]}},{"type":"Feature","properties":{"id":"UGA-423","nome":"Ntoroko","pais":"UGA","tipo":"District","lat":1.02,"lng":30.38},"geometry":{"type":"Polygon","coordinates":[[[30.4,1.2],[30.55,1.34],[30.53,0.99],[30.17,0.71],[30.25,0.85],[30.18,0.95],[30.24,1.14],[30.4,1.2]]]}},{"type":"Feature","properties":{"id":"UGA-401","nome":"Bundibugyo","pais":"UGA","tipo":"District","lat":0.74,"lng":30.05},"geometry":{"type":"Polygon","coordinates":[[[29.98,0.85],[30.18,0.95],[30.25,0.85],[30.07,0.52],[29.95,0.41],[29.9,0.44],[29.93,0.77],[29.98,0.85]]]}},{"type":"Feature","properties":{"id":"UGA-405","nome":"Kabarole","pais":"UGA","tipo":"District","lat":0.6,"lng":30.27},"geometry":{"type":"Polygon","coordinates":[[[29.83,0.34],[29.9,0.44],[30,0.43],[30.31,0.86],[30.36,0.82],[30.53,0.99],[30.55,0.93],[30.4,0.64],[30.46,0.57],[30.38,0.49],[30.36,0.23],[30.06,0.37],[29.83,0.34]]]}},{"type":"Feature","properties":{"id":"UGA-406","nome":"Kasese","pais":"UGA","tipo":"District","lat":0.14,"lng":29.98},"geometry":{"type":"Polygon","coordinates":[[[29.79,0.16],[29.83,0.34],[30.06,0.37],[30.27,0.26],[30.21,-0.08],[30,-0.17],[29.68,-0.14],[29.71,0.1],[29.79,0.16]]]}},{"type":"Feature","properties":{"id":"UGA-424","nome":"Rubirizi","pais":"UGA","tipo":"District","lat":-0.27,"lng":29.91},"geometry":{"type":"Polygon","coordinates":[[[29.64,-0.36],[29.68,-0.14],[30,-0.17],[30.18,-0.08],[30.32,-0.21],[30.15,-0.31],[30.14,-0.42],[30.02,-0.35],[29.91,-0.4],[29.64,-0.36]]]}},{"type":"Feature","properties":{"id":"UGA-412","nome":"Rukungiri","pais":"UGA","tipo":"District","lat":-0.71,"lng":29.91},"geometry":{"type":"Polygon","coordinates":[[[29.63,-0.44],[29.64,-0.36],[29.85,-0.37],[29.94,-0.44],[29.9,-0.58],[30.06,-0.76],[30.07,-1.09],[29.9,-1.04],[29.83,-0.92],[29.84,-0.76],[29.78,-0.61],[29.71,-0.58],[29.71,-0.43],[29.63,-0.44]]]}},{"type":"Feature","properties":{"id":"UGA-414","nome":"Kanungu","pais":"UGA","tipo":"District","lat":-0.84,"lng":29.73},"geometry":{"type":"Polygon","coordinates":[[[29.55,-0.99],[29.61,-0.86],[29.63,-0.44],[29.71,-0.43],[29.71,-0.58],[29.78,-0.61],[29.84,-0.76],[29.83,-0.92],[29.9,-1.04],[29.77,-1.03],[29.75,-1.08],[29.55,-0.99]]]}},{"type":"Feature","properties":{"id":"UGA-205","nome":"Kamuli","pais":"UGA","tipo":"District","lat":0.89,"lng":33.12},"geometry":{"type":"Polygon","coordinates":[[[33.3,0.94],[33.22,0.67],[33.05,0.66],[32.95,0.95],[32.96,1.18],[33.11,1.14],[33.13,1.06],[33.3,0.94]]]}},{"type":"Feature","properties":{"id":"UGA-229","nome":"Luuka","pais":"UGA","tipo":"District","lat":0.74,"lng":33.34},"geometry":{"type":"Polygon","coordinates":[[[33.22,0.67],[33.34,1.08],[33.41,0.99],[33.42,0.73],[33.51,0.67],[33.52,0.55],[33.22,0.67]]]}},{"type":"Feature","properties":{"id":"UGA-226","nome":"Buyende","pais":"UGA","tipo":"District","lat":1.25,"lng":33.17},"geometry":{"type":"Polygon","coordinates":[[[33.34,1.08],[33.3,0.94],[33.13,1.06],[33.11,1.14],[32.96,1.18],[32.81,1.48],[33,1.47],[33.13,1.38],[33.38,1.37],[33.44,1.26],[33.34,1.08]]]}},{"type":"Feature","properties":{"id":"UGA-204","nome":"Jinja","pais":"UGA","tipo":"District","lat":0.49,"lng":33.31},"geometry":{"type":"Polygon","coordinates":[[[33.18,0.68],[33.54,0.52],[33.57,0.45],[33.5,0.35],[33.39,0.3],[33.18,0.39],[33.05,0.66],[33.18,0.68]]]}},{"type":"Feature","properties":{"id":"UGA-302","nome":"Apac","pais":"UGA","tipo":"District","lat":1.9,"lng":32.52},"geometry":{"type":"Polygon","coordinates":[[[32.3,1.65],[32.1,1.65],[32.1,1.72],[32.34,1.87],[32.35,2.07],[32.47,2.05],[32.55,2.18],[32.67,2.18],[32.89,2.07],[32.87,1.95],[33.02,1.82],[32.99,1.72],[32.89,1.81],[32.77,1.8],[32.59,1.65],[32.3,1.65]]]}},{"type":"Feature","properties":{"id":"UGA-109","nome":"Nakasongola","pais":"UGA","tipo":"District","lat":1.36,"lng":32.38},"geometry":{"type":"Polygon","coordinates":[[[32.18,1.68],[32.6,1.46],[32.69,1.47],[32.69,1.39],[32.78,1.33],[32.78,1.08],[32.67,1.14],[32.62,0.97],[32.47,1.02],[32.35,1.2],[31.96,1.48],[32.18,1.68]]]}},{"type":"Feature","properties":{"id":"UGA-409","nome":"Masindi","pais":"UGA","tipo":"District","lat":1.66,"lng":31.74},"geometry":{"type":"Polygon","coordinates":[[[32.1,1.65],[31.76,1.32],[31.45,1.41],[31.36,1.74],[31.55,1.76],[31.65,1.92],[31.54,2.07],[31.55,2.28],[31.76,2.3],[31.75,2.06],[31.88,1.96],[31.9,1.69],[32.1,1.65]]]}},{"type":"Feature","properties":{"id":"UGA-112","nome":"Kayunga","pais":"UGA","tipo":"District","lat":0.98,"lng":32.89},"geometry":{"type":"Polygon","coordinates":[[[32.78,1.08],[32.78,1.33],[32.69,1.39],[32.69,1.47],[32.81,1.48],[32.96,1.18],[32.95,0.95],[33.1,0.54],[32.82,0.78],[32.78,1.08]]]}},{"type":"Feature","properties":{"id":"UGA-104","nome":"Luweero","pais":"UGA","tipo":"County","lat":0.8,"lng":32.56},"geometry":{"type":"Polygon","coordinates":[[[32.67,1.14],[32.78,1.08],[32.75,0.59],[32.33,0.55],[32.37,0.64],[32.49,0.7],[32.41,1.09],[32.62,0.97],[32.67,1.14]]]}},{"type":"Feature","properties":{"id":"UGA-314","nome":"Amolatar","pais":"UGA","tipo":"County","lat":1.58,"lng":32.65},"geometry":{"type":"Polygon","coordinates":[[[32.89,1.81],[32.99,1.72],[32.94,1.65],[32.96,1.47],[32.6,1.46],[32.3,1.65],[32.59,1.65],[32.77,1.8],[32.89,1.81]]]}},{"type":"Feature","properties":{"id":"UGA-114","nome":"Mityana","pais":"UGA","tipo":"County","lat":0.43,"lng":32.04},"geometry":{"type":"Polygon","coordinates":[[[32.03,0.63],[32.18,0.7],[32.26,0.27],[31.91,0.22],[31.82,0.28],[31.95,0.3],[31.97,0.43],[31.9,0.6],[31.95,0.65],[32.03,0.63]]]}},{"type":"Feature","properties":{"id":"UGA-103","nome":"Kiboga","pais":"UGA","tipo":"District","lat":0.84,"lng":31.96},"geometry":{"type":"Polygon","coordinates":[[[32.18,0.7],[32.07,0.64],[31.95,0.65],[31.84,0.8],[31.67,0.87],[31.87,1.09],[31.95,1.1],[32.04,0.91],[32.22,0.81],[32.18,0.7]]]}},{"type":"Feature","properties":{"id":"UGA-106","nome":"Mpigi","pais":"UGA","tipo":"District","lat":-0.01,"lng":32.09},"geometry":{"type":"Polygon","coordinates":[[[32.26,0.27],[32.26,0.43],[32.37,0.43],[32.44,0.36],[32.41,0.23],[32.23,0.05],[32.25,-0.16],[31.96,-0.15],[31.86,-0.01],[32.22,0.18],[32.26,0.27]]]}},{"type":"Feature","properties":{"id":"UGA-119","nome":"Butambala","pais":"UGA","tipo":"District","lat":0.14,"lng":32},"geometry":{"type":"Polygon","coordinates":[[[32.23,0.25],[32.27,0.23],[32.22,0.18],[31.86,-0.01],[31.79,0.05],[32.14,0.26],[32.23,0.25]]]}},{"type":"Feature","properties":{"id":"UGA-121","nome":"Gomba","pais":"UGA","tipo":"District","lat":0.2,"lng":31.66},"geometry":{"type":"Polygon","coordinates":[[[31.82,0.28],[31.91,0.22],[32.14,0.26],[31.79,0.05],[31.59,0.05],[31.33,0.2],[31.34,0.25],[31.57,0.34],[31.82,0.28]]]}},{"type":"Feature","properties":{"id":"UGA-113","nome":"Wakiso","pais":"UGA","tipo":"District","lat":0.2,"lng":32.43},"geometry":{"type":"Polygon","coordinates":[[[32.26,0.43],[32.22,0.57],[32.67,0.56],[32.54,0.44],[32.55,0.27],[32.66,0.29],[32.62,0],[32.49,-0.16],[32.25,-0.16],[32.23,0.05],[32.41,0.23],[32.44,0.36],[32.37,0.43],[32.26,0.43]]]}},{"type":"Feature","properties":{"id":"UGA-115","nome":"Nakaseke","pais":"UGA","tipo":"District","lat":1.11,"lng":32.16},"geometry":{"type":"Polygon","coordinates":[[[32.18,0.7],[32.22,0.81],[32.04,0.91],[31.93,1.22],[31.82,1.36],[31.96,1.48],[32.4,1.15],[32.49,0.7],[32.3,0.54],[32.22,0.57],[32.18,0.7]]]}},{"type":"Feature","properties":{"id":"UGA-123","nome":"Kyankwanzi","pais":"UGA","tipo":"District","lat":1.14,"lng":31.65},"geometry":{"type":"Polygon","coordinates":[[[31.82,1.36],[31.93,1.22],[31.95,1.1],[31.87,1.09],[31.67,0.87],[31.44,0.86],[31.43,0.93],[31.52,1.03],[31.29,1.21],[31.51,1.36],[31.82,1.36]]]}},{"type":"Feature","properties":{"id":"UGA-213","nome":"Kaberamaido","pais":"UGA","tipo":"District","lat":1.67,"lng":33.2},"geometry":{"type":"Polygon","coordinates":[[[32.98,1.46],[32.94,1.65],[32.99,1.72],[33.09,1.72],[33.13,1.83],[33.28,1.95],[33.29,2.04],[33.37,2.02],[33.46,1.84],[33.44,1.77],[33.25,1.7],[33.21,1.37],[32.98,1.46]]]}},{"type":"Feature","properties":{"id":"UGA-318","nome":"Dokolo","pais":"UGA","tipo":"County","lat":1.88,"lng":33.08},"geometry":{"type":"Polygon","coordinates":[[[32.94,1.87],[32.95,1.93],[32.87,1.95],[32.89,2.07],[33.03,2.03],[33.17,2.11],[33.29,2.04],[33.28,1.95],[33.13,1.83],[33.08,1.71],[32.99,1.72],[33.02,1.82],[32.94,1.87]]]}},{"type":"Feature","properties":{"id":"UGA-415","nome":"Kyenjojo","pais":"UGA","tipo":"District","lat":0.6,"lng":30.67},"geometry":{"type":"Polygon","coordinates":[[[30.46,0.57],[30.4,0.64],[30.55,0.93],[30.82,0.84],[30.95,0.63],[30.88,0.41],[30.78,0.42],[30.55,0.3],[30.52,0.43],[30.43,0.54],[30.46,0.57]]]}},{"type":"Feature","properties":{"id":"UGA-413","nome":"Kamwenge","pais":"UGA","tipo":"District","lat":0.21,"lng":30.51},"geometry":{"type":"Polygon","coordinates":[[[30.43,0.54],[30.52,0.43],[30.55,0.3],[30.78,0.42],[30.91,0.41],[30.92,0.28],[30.85,0.19],[30.47,0.1],[30.4,-0.03],[30.46,-0.16],[30.42,-0.17],[30.2,-0.1],[30.27,0.26],[30.36,0.23],[30.38,0.49],[30.43,0.54]]]}},{"type":"Feature","properties":{"id":"UGA-421","nome":"Kyegegwa","pais":"UGA","tipo":"District","lat":0.46,"lng":31.02},"geometry":{"type":"Polygon","coordinates":[[[31.01,0.21],[30.85,0.19],[30.92,0.28],[30.89,0.46],[30.95,0.63],[30.89,0.68],[30.94,0.7],[31.2,0.63],[31.25,0.57],[31.14,0.49],[31.13,0.34],[31.01,0.21]]]}},{"type":"Feature","properties":{"id":"UGA-111","nome":"Sembabule","pais":"UGA","tipo":"District","lat":0.02,"lng":31.38},"geometry":{"type":"Polygon","coordinates":[[[31,0.2],[31.38,0.2],[31.59,0.05],[31.55,0.02],[31.6,-0.3],[31.28,-0.26],[31.31,-0.1],[31.02,-0.03],[31,0.2]]]}},{"type":"Feature","properties":{"id":"UGA-407","nome":"Kibale","pais":"UGA","tipo":"District","lat":0.9,"lng":31.02},"geometry":{"type":"Polygon","coordinates":[[[31.44,0.86],[31.36,0.7],[31.27,0.71],[31.21,0.62],[30.94,0.7],[30.82,0.84],[30.55,0.93],[30.53,0.99],[30.55,1.07],[30.68,1.05],[31.25,1.22],[31.41,1.16],[31.52,1.03],[31.43,0.93],[31.44,0.86]]]}},{"type":"Feature","properties":{"id":"UGA-107","nome":"Mubende","pais":"UGA","tipo":"District","lat":0.59,"lng":31.49},"geometry":{"type":"Polygon","coordinates":[[[31.36,0.7],[31.44,0.86],[31.67,0.87],[31.84,0.8],[31.95,0.65],[31.9,0.6],[31.97,0.43],[31.95,0.3],[31.77,0.26],[31.57,0.34],[31.34,0.25],[31.26,0.17],[31.16,0.23],[31.01,0.21],[31.13,0.34],[31.14,0.49],[31.24,0.52],[31.21,0.62],[31.27,0.71],[31.36,0.7]]]}},{"type":"Feature","properties":{"id":"UGA-321","nome":"Oyam","pais":"UGA","tipo":"County","lat":2.38,"lng":32.53},"geometry":{"type":"Polygon","coordinates":[[[32.82,2.52],[32.58,2.36],[32.6,2.25],[32.47,2.05],[32.35,2.07],[32.26,2.26],[32.24,2.46],[32.44,2.48],[32.49,2.61],[32.57,2.62],[32.78,2.58],[32.82,2.52]]]}},{"type":"Feature","properties":{"id":"UGA-307","nome":"Lira","pais":"UGA","tipo":"District","lat":2.23,"lng":32.91},"geometry":{"type":"Polygon","coordinates":[[[32.81,2.47],[32.78,2.58],[32.82,2.64],[33.01,2.53],[32.89,2.35],[32.97,2.34],[33.08,2.22],[33.06,2.03],[32.81,2.11],[32.83,2.23],[32.76,2.34],[32.81,2.47]]]}},{"type":"Feature","properties":{"id":"UGA-326","nome":"Kole","pais":"UGA","tipo":"District","lat":2.29,"lng":32.69},"geometry":{"type":"Polygon","coordinates":[[[32.78,2.45],[32.81,2.47],[32.76,2.34],[32.83,2.23],[32.81,2.11],[32.55,2.18],[32.6,2.25],[32.58,2.36],[32.69,2.46],[32.78,2.45]]]}},{"type":"Feature","properties":{"id":"UGA-312","nome":"Pader","pais":"UGA","tipo":"District","lat":2.88,"lng":32.89},"geometry":{"type":"Polygon","coordinates":[[[32.78,2.58],[32.66,2.6],[32.73,2.73],[32.47,3.12],[32.78,3.18],[32.93,3.11],[32.93,3.18],[32.99,3.17],[33.13,3.06],[33.16,2.98],[33.11,2.89],[33.23,2.88],[33.24,2.78],[33.08,2.74],[33.13,2.61],[33.01,2.53],[32.84,2.64],[32.78,2.58]]]}},{"type":"Feature","properties":{"id":"UGA-416","nome":"Ibanda","pais":"UGA","tipo":"County","lat":-0.08,"lng":30.47},"geometry":{"type":"Polygon","coordinates":[[[30.62,-0.23],[30.43,-0.29],[30.25,-0.12],[30.46,-0.16],[30.4,-0.03],[30.47,0.1],[30.64,0.16],[30.73,0.12],[30.6,-0.07],[30.59,-0.14],[30.67,-0.17],[30.62,-0.23]]]}},{"type":"Feature","properties":{"id":"UGA-410","nome":"Mbarara","pais":"UGA","tipo":"County","lat":-0.53,"lng":30.53},"geometry":{"type":"Polygon","coordinates":[[[30.5,-0.26],[30.62,-0.23],[30.61,-0.29],[30.81,-0.5],[30.77,-0.61],[30.65,-0.61],[30.64,-0.81],[30.26,-0.8],[30.43,-0.63],[30.5,-0.26]]]}},{"type":"Feature","properties":{"id":"UGA-304","nome":"Gulu","pais":"UGA","tipo":"County","lat":2.87,"lng":32.46},"geometry":{"type":"Polygon","coordinates":[[[32.52,3.14],[32.47,3.12],[32.73,2.73],[32.66,2.6],[32.49,2.61],[32.44,2.48],[32.36,2.47],[32.16,2.64],[32.22,2.79],[32.18,3.05],[32.36,3.29],[32.52,3.14]]]}},{"type":"Feature","properties":{"id":"UGA-420","nome":"Kiryandongo","pais":"UGA","tipo":"District","lat":2.03,"lng":32.06},"geometry":{"type":"Polygon","coordinates":[[[32.35,2.07],[32.34,1.87],[32.16,1.78],[32.1,1.67],[31.99,1.64],[31.9,1.69],[31.88,1.96],[31.75,2.06],[31.76,2.3],[31.88,2.37],[32.16,2.23],[32.26,2.26],[32.35,2.07]]]}},{"type":"Feature","properties":{"id":"UGA-203","nome":"Iganga","pais":"UGA","tipo":"District","lat":0.7,"lng":33.57},"geometry":{"type":"Polygon","coordinates":[[[33.57,0.45],[33.51,0.67],[33.42,0.73],[33.43,0.87],[33.53,0.88],[33.67,0.68],[33.61,0.44],[33.57,0.45]]]}},{"type":"Feature","properties":{"id":"UGA-124","nome":"Lwengo","pais":"UGA","tipo":"District","lat":-0.42,"lng":31.43},"geometry":{"type":"Polygon","coordinates":[[[31.28,-0.26],[31.46,-0.31],[31.72,-0.26],[31.62,-0.38],[31.62,-0.47],[31.46,-0.6],[31.24,-0.46],[31.28,-0.26]]]}},{"type":"Feature","properties":{"id":"UGA-118","nome":"Bukomansimbi","pais":"UGA","tipo":"District","lat":-0.11,"lng":31.65},"geometry":{"type":"Polygon","coordinates":[[[31.61,-0.26],[31.55,0.02],[31.65,0.05],[31.76,-0.21],[31.72,-0.26],[31.61,-0.26]]]}},{"type":"Feature","properties":{"id":"UGA-122","nome":"Kalungu","pais":"UGA","tipo":"District","lat":-0.16,"lng":31.84},"geometry":{"type":"Polygon","coordinates":[[[31.86,-0.01],[31.97,-0.23],[31.72,-0.26],[31.76,-0.21],[31.65,0.05],[31.76,0.07],[31.86,-0.01]]]}},{"type":"Feature","properties":{"id":"UGA-102","nome":"Kampala","pais":"UGA","tipo":"District","lat":0.36,"lng":32.6},"geometry":{"type":"Polygon","coordinates":[[[32.58,0.47],[32.67,0.48],[32.66,0.29],[32.52,0.3],[32.55,0.48],[32.58,0.47]]]}},{"type":"Feature","properties":{"id":"UGA-220","nome":"Kaliro","pais":"UGA","tipo":"County","lat":1.06,"lng":33.49},"geometry":{"type":"Polygon","coordinates":[[[33.53,0.88],[33.4,0.88],[33.41,0.99],[33.34,1.08],[33.44,1.29],[33.63,1.09],[33.53,0.88]]]}},{"type":"Feature","properties":{"id":"UGA-322","nome":"Agago","pais":"UGA","tipo":"District","lat":2.89,"lng":33.39},"geometry":{"type":"Polygon","coordinates":[[[33.55,3.27],[33.6,2.78],[33.53,2.6],[33.13,2.61],[33.06,2.71],[33.24,2.78],[33.23,2.88],[33.11,2.93],[33.21,3.19],[33.36,3.2],[33.35,3.26],[33.42,3.26],[33.39,3.3],[33.55,3.27]]]}},{"type":"Feature","properties":{"id":"UGA-306","nome":"Kotido","pais":"UGA","tipo":"County","lat":2.94,"lng":33.97},"geometry":{"type":"Polygon","coordinates":[[[33.56,3.2],[33.55,3.27],[33.68,3.25],[33.74,3.35],[33.9,3.3],[33.91,3.24],[34.04,3.24],[34.39,3.08],[34.23,2.72],[34.01,2.76],[33.95,2.62],[33.85,2.67],[33.84,2.93],[33.67,3.05],[33.68,3.18],[33.56,3.2]]]}},{"type":"Feature","properties":{"id":"UGA-317","nome":"Abim","pais":"UGA","tipo":"County","lat":2.71,"lng":33.77},"geometry":{"type":"Polygon","coordinates":[[[33.56,3.14],[33.56,3.2],[33.68,3.18],[33.67,3.05],[33.84,2.93],[33.85,2.67],[34.02,2.51],[33.65,2.46],[33.53,2.6],[33.6,2.78],[33.56,3.14]]]}},{"type":"Feature","properties":{"id":"UGA-330","nome":"Otuke","pais":"UGA","tipo":"District","lat":2.48,"lng":33.33},"geometry":{"type":"Polygon","coordinates":[[[33.01,2.53],[33.13,2.61],[33.43,2.63],[33.53,2.6],[33.66,2.41],[33.61,2.33],[33.39,2.34],[33.21,2.38],[33.13,2.46],[32.97,2.45],[33.01,2.53]]]}},{"type":"Feature","properties":{"id":"UGA-323","nome":"Alebtong","pais":"UGA","tipo":"District","lat":2.27,"lng":33.21},"geometry":{"type":"Polygon","coordinates":[[[33.37,2.02],[33.17,2.11],[33.09,2.07],[33.06,2.26],[32.9,2.38],[32.97,2.45],[33.13,2.46],[33.25,2.37],[33.55,2.36],[33.55,2.29],[33.44,2.24],[33.47,2.13],[33.37,2.09],[33.37,2.02]]]}},{"type":"Feature","properties":{"id":"UGA-216","nome":"Amuria","pais":"UGA","tipo":"District","lat":2.14,"lng":33.64},"geometry":{"type":"Polygon","coordinates":[[[33.44,1.89],[33.37,2.09],[33.47,2.13],[33.44,2.24],[33.55,2.29],[33.55,2.36],[33.61,2.33],[33.72,2.41],[33.91,2.3],[33.85,1.74],[33.81,1.71],[33.53,2.01],[33.47,2],[33.44,1.89]]]}},{"type":"Feature","properties":{"id":"UGA-207","nome":"Katakwi","pais":"UGA","tipo":"County","lat":1.94,"lng":34.01},"geometry":{"type":"Polygon","coordinates":[[[33.81,1.71],[33.9,1.9],[33.91,2.3],[34.2,2.11],[34.21,1.63],[33.94,1.62],[33.81,1.71]]]}},{"type":"Feature","properties":{"id":"UGA-232","nome":"Serere","pais":"UGA","tipo":"District","lat":1.5,"lng":33.44},"geometry":{"type":"Polygon","coordinates":[[[33.41,1.34],[33.21,1.37],[33.25,1.7],[33.35,1.72],[33.58,1.57],[33.72,1.59],[33.67,1.41],[33.56,1.33],[33.41,1.34]]]}},{"type":"Feature","properties":{"id":"UGA-211","nome":"Soroti","pais":"UGA","tipo":"District","lat":1.73,"lng":33.59},"geometry":{"type":"Polygon","coordinates":[[[33.35,1.72],[33.44,1.77],[33.49,2.02],[33.75,1.81],[33.81,1.67],[33.58,1.57],[33.35,1.72]]]}},{"type":"Feature","properties":{"id":"UGA-210","nome":"Pallisa","pais":"UGA","tipo":"District","lat":1.19,"lng":33.69},"geometry":{"type":"Polygon","coordinates":[[[33.44,1.29],[33.41,1.34],[33.73,1.34],[34.12,1.18],[34.13,1.11],[33.9,1.17],[33.63,1.09],[33.44,1.29]]]}},{"type":"Feature","properties":{"id":"UGA-4102","nome":"Mbarara","pais":"UGA","tipo":"District","lat":-0.24,"lng":30.87},"geometry":{"type":"Polygon","coordinates":[[[30.67,0.12],[30.64,0.16],[30.69,0.18],[31,0.2],[31.04,0.12],[31.02,-0.03],[31.08,-0.04],[31.07,-0.28],[31.15,-0.49],[31.04,-0.68],[30.87,-0.7],[30.77,-0.61],[30.81,-0.5],[30.61,-0.29],[30.67,-0.17],[30.59,-0.14],[30.6,-0.07],[30.73,0.12],[30.67,0.12]]]}},{"type":"Feature","properties":{"id":"UGA-116","nome":"Lyantonde","pais":"UGA","tipo":"District","lat":-0.27,"lng":31.18},"geometry":{"type":"Polygon","coordinates":[[[31.11,-0.03],[31.31,-0.1],[31.23,-0.52],[31.19,-0.53],[31.13,-0.53],[31.07,-0.28],[31.11,-0.03]]]}},{"type":"Feature","properties":{"id":"UGA-105","nome":"Masaka","pais":"UGA","tipo":"District","lat":-0.43,"lng":31.85},"geometry":{"type":"Polygon","coordinates":[[[31.9,-0.77],[31.73,-0.7],[31.61,-0.4],[31.72,-0.26],[31.97,-0.23],[32.07,-0.35],[31.99,-0.41],[31.99,-0.77],[31.9,-0.77]]]}},{"type":"Feature","properties":{"id":"UGA-108","nome":"Mukono","pais":"UGA","tipo":"District","lat":0.3,"lng":32.81},"geometry":{"type":"Polygon","coordinates":[[[32.79,0.85],[33.03,0.59],[32.99,0.51],[33.02,0.36],[32.61,-0.16],[32.49,-0.16],[32.62,0],[32.69,0.33],[32.67,0.56],[32.75,0.59],[32.79,0.85]]]}},{"type":"Feature","properties":{"id":"UGA-117","nome":"Buikwe","pais":"UGA","tipo":"District","lat":0.19,"lng":33},"geometry":{"type":"Polygon","coordinates":[[[33.03,0.59],[33.27,0.35],[33.08,0.09],[32.85,-0.46],[32.85,-0.16],[32.61,-0.16],[33.02,0.36],[32.99,0.51],[33.03,0.59]]]}},{"type":"Feature","properties":{"id":"UGA-311","nome":"Nakapiripirit","pais":"UGA","tipo":"District","lat":1.76,"lng":34.62},"geometry":{"type":"Polygon","coordinates":[[[34.57,1.57],[34.23,1.56],[34.21,1.95],[34.35,1.98],[34.45,2.07],[34.6,2.08],[34.64,2.48],[34.75,2.48],[34.86,2],[34.81,1.99],[34.75,1.61],[34.64,1.54],[34.57,1.57]]]}},{"type":"Feature","properties":{"id":"UGA-228","nome":"Kween","pais":"UGA","tipo":"District","lat":1.46,"lng":34.6},"geometry":{"type":"Polygon","coordinates":[[[34.5,1.59],[34.68,1.51],[34.74,1.42],[34.55,1.2],[34.57,1.37],[34.43,1.45],[34.45,1.49],[34.38,1.56],[34.5,1.59]]]}},{"type":"Feature","properties":{"id":"UGA-325","nome":"Buhweju","pais":"UGA","tipo":"District","lat":-0.35,"lng":30.33},"geometry":{"type":"Polygon","coordinates":[[[30.32,-0.21],[30.43,-0.29],[30.5,-0.26],[30.47,-0.45],[30.33,-0.49],[30.14,-0.42],[30.15,-0.31],[30.32,-0.21]]]}},{"type":"Feature","properties":{"id":"UGA-425","nome":"Sheema","pais":"UGA","tipo":"District","lat":-0.64,"lng":30.35},"geometry":{"type":"Polygon","coordinates":[[[30.47,-0.45],[30.43,-0.63],[30.27,-0.75],[30.21,-0.75],[30.17,-0.63],[30.31,-0.62],[30.34,-0.46],[30.47,-0.45]]]}},{"type":"Feature","properties":{"id":"UGA-422","nome":"Mitooma","pais":"UGA","tipo":"District","lat":-0.64,"lng":30.05},"geometry":{"type":"Polygon","coordinates":[[[30.19,-0.72],[30.06,-0.76],[30,-0.72],[29.9,-0.58],[29.94,-0.51],[30.08,-0.54],[30.19,-0.72]]]}},{"type":"Feature","properties":{"id":"UGA-402","nome":"Bushenyi","pais":"UGA","tipo":"District","lat":-0.47,"lng":30.12},"geometry":{"type":"Polygon","coordinates":[[[29.94,-0.51],[29.91,-0.4],[30.06,-0.36],[30.33,-0.49],[30.31,-0.62],[30.13,-0.62],[30.08,-0.54],[29.94,-0.51]]]}},{"type":"Feature","properties":{"id":"UGA-225","nome":"Bulambuli","pais":"UGA","tipo":"County","lat":1.29,"lng":34.29},"geometry":{"type":"Polygon","coordinates":[[[34.26,1.56],[34.38,1.56],[34.45,1.49],[34.31,1.32],[34.52,1.16],[34.21,1.24],[34.26,1.56]]]}},{"type":"Feature","properties":{"id":"UGA-215","nome":"Sironko","pais":"UGA","tipo":"County","lat":1.16,"lng":34.32},"geometry":{"type":"Polygon","coordinates":[[[34.47,1.1],[34.26,1.1],[34.16,1.16],[34.21,1.24],[34.3,1.23],[34.52,1.16],[34.47,1.1]]]}},{"type":"Feature","properties":{"id":"UGA-201","nome":"Bugiri","pais":"UGA","tipo":"District","lat":0.54,"lng":33.76},"geometry":{"type":"Polygon","coordinates":[[[33.61,0.46],[33.67,0.64],[33.63,0.73],[33.87,0.68],[33.96,0.56],[33.83,0.38],[33.68,0.32],[33.61,0.46]]]}},{"type":"Feature","properties":{"id":"UGA-329","nome":"Nwoya","pais":"UGA","tipo":"District","lat":2.57,"lng":31.86},"geometry":{"type":"Polygon","coordinates":[[[32.36,2.47],[32.24,2.46],[32.26,2.26],[32.18,2.23],[31.88,2.37],[31.35,2.18],[31.34,2.26],[31.47,2.36],[31.53,2.49],[31.42,2.62],[31.59,2.73],[31.7,2.73],[31.75,2.8],[31.98,2.8],[32.2,2.73],[32.18,2.61],[32.27,2.59],[32.36,2.47]]]}},{"type":"Feature","properties":{"id":"UGA-209","nome":"Mbale","pais":"UGA","tipo":"County","lat":1.03,"lng":34.21},"geometry":{"type":"Polygon","coordinates":[[[34.13,1.11],[34.12,1.18],[34.36,1.09],[34.16,0.83],[34.08,0.9],[34.12,1.02],[34.07,1.03],[34.13,1.11]]]}},{"type":"Feature","properties":{"id":"UGA-217","nome":"Budaka","pais":"UGA","tipo":"County","lat":1.1,"lng":33.99},"geometry":{"type":"Polygon","coordinates":[[[34.13,1.11],[33.95,0.95],[33.84,0.94],[33.9,1.17],[34.13,1.11]]]}},{"type":"Feature","properties":{"id":"UGA-219","nome":"Butaleja","pais":"UGA","tipo":"County","lat":0.88,"lng":33.93},"geometry":{"type":"Polygon","coordinates":[[[33.9,0.93],[34.12,1.02],[34.08,0.9],[33.95,0.85],[33.84,0.69],[33.74,0.94],[33.9,0.93]]]}},{"type":"Feature","properties":{"id":"UGA-227","nome":"Kibuku","pais":"UGA","tipo":"County","lat":1.04,"lng":33.77},"geometry":{"type":"Polygon","coordinates":[[[33.84,0.94],[33.74,0.94],[33.63,1.09],[33.9,1.17],[33.84,0.94]]]}},{"type":"Feature","properties":{"id":"UGA-328","nome":"Napak","pais":"UGA","tipo":"District","lat":2.43,"lng":34.3},"geometry":{"type":"Polygon","coordinates":[[[34.23,2.72],[34.25,2.83],[34.44,2.78],[34.64,2.64],[34.64,2.58],[34.75,2.48],[34.64,2.48],[34.6,2.08],[34.45,2.07],[34.25,1.95],[34.21,1.95],[34.17,2.14],[33.72,2.41],[33.64,2.36],[33.65,2.46],[34.02,2.51],[33.95,2.62],[34.01,2.76],[34.23,2.72]]]}},{"type":"Feature","properties":{"id":"UGA-208","nome":"Kumi","pais":"UGA","tipo":"District","lat":1.44,"lng":33.91},"geometry":{"type":"Polygon","coordinates":[[[34.23,1.63],[34.23,1.56],[34.04,1.49],[34,1.3],[33.93,1.25],[33.79,1.31],[33.86,1.63],[34.23,1.63]]]}},{"type":"Feature","properties":{"id":"UGA-231","nome":"Ngora","pais":"UGA","tipo":"District","lat":1.51,"lng":33.77},"geometry":{"type":"Polygon","coordinates":[[[33.81,1.67],[33.9,1.64],[33.84,1.59],[33.79,1.31],[33.56,1.33],[33.67,1.41],[33.73,1.65],[33.81,1.67]]]}},{"type":"Feature","properties":{"id":"UGA-224","nome":"Bukedea","pais":"UGA","tipo":"District","lat":1.34,"lng":34.13},"geometry":{"type":"Polygon","coordinates":[[[34.12,1.18],[33.93,1.25],[34,1.3],[34.04,1.49],[34.23,1.56],[34.24,1.29],[34.19,1.19],[34.12,1.18]]]}},{"type":"Feature","properties":{"id":"UGA-222","nome":"Namutumba","pais":"UGA","tipo":"County","lat":0.88,"lng":33.68},"geometry":{"type":"Polygon","coordinates":[[[33.63,0.73],[33.53,0.88],[33.63,1.09],[33.77,0.91],[33.84,0.69],[33.63,0.73]]]}}]}