{"type":"FeatureCollection","features":[{"type":"Feature","properties":{"id":"VCT-02","nome":"Saint Andrew","pais":"VCT","tipo":"Parish","lat":13.2,"lng":-61.23},"geometry":{"type":"Polygon","coordinates":[[[-61.24,13.16],[-61.27,13.19],[-61.2,13.24],[-61.24,13.16]]]}},{"type":"Feature","properties":{"id":"VCT-04","nome":"Saint George","pais":"VCT","tipo":"Parish","lat":13.17,"lng":-61.19},"geometry":{"type":"Polygon","coordinates":[[[-61.14,13.2],[-61.19,13.13],[-61.24,13.16],[-61.19,13.22],[-61.14,13.2]]]}},{"type":"Feature","properties":{"id":"VCT-01","nome":"Charlotte","pais":"VCT","tipo":"Parish","lat":13.28,"lng":-61.15},"geometry":{"type":"Polygon","coordinates":[[[-61.17,13.38],[-61.14,13.2],[-61.2,13.22],[-61.17,13.38]]]}},{"type":"Feature","properties":{"id":"VCT-03","nome":"Saint David","pais":"VCT","tipo":"Parish","lat":13.31,"lng":-61.2},"geometry":{"type":"Polygon","coordinates":[[[-61.27,13.27],[-61.17,13.38],[-61.17,13.26],[-61.27,13.27]]]}},{"type":"Feature","properties":{"id":"VCT-05","nome":"Saint Patrick","pais":"VCT","tipo":"Parish","lat":13.23,"lng":-61.25},"geometry":{"type":"Polygon","coordinates":[[[-61.27,13.19],[-61.27,13.27],[-61.2,13.28],[-61.27,13.19]]]}}]}