{"type":"FeatureCollection","features":[{"type":"Feature","properties":{"id":"VEN-Y","nome":"Delta Amacuro","pais":"VEN","tipo":"State","lat":8.79,"lng":-61.59},"geometry":{"type":"MultiPolygon","coordinates":[[[[-60.02,8.56],[-59.83,8.25],[-59.99,8.17],[-60.05,8.03],[-60.27,7.92],[-60.54,7.92],[-60.78,7.75],[-60.97,7.95],[-61.34,7.83],[-61.61,8.12],[-61.64,8.29],[-62.25,8.31],[-62.6,8.45],[-62.24,8.6],[-62.08,8.73],[-62.01,8.87],[-62.08,8.94],[-62.06,9.06],[-62.32,9.14],[-62.32,9.36],[-62.44,9.51],[-62.27,9.77],[-62.26,9.97],[-62.18,9.85],[-62.22,9.64],[-62.15,9.73],[-62.2,9.93],[-62.03,9.87],[-62.22,9.95],[-62.2,10.02],[-62.03,9.96],[-61.83,9.79],[-61.85,9.65],[-61.78,9.76],[-61.74,9.6],[-61.73,9.69],[-61.83,9.83],[-61.59,9.78],[-61.64,9.9],[-61.42,9.74],[-61.5,9.84],[-61.44,9.82],[-61.21,9.58],[-60.98,9.55],[-60.97,9.49],[-60.8,9.38],[-60.8,9.29],[-61.09,9.1],[-61.11,9.04],[-60.96,9.18],[-61.1,8.96],[-61.21,8.61],[-61.63,8.63],[-61.65,8.59],[-61.36,8.49],[-61.28,8.4],[-61.18,8.49],[-61.03,8.5],[-61.07,8.4],[-60.98,8.58],[-60.69,8.6],[-60.48,8.53],[-60.37,8.64],[-60.02,8.56]]],[[[-60.95,8.83],[-60.73,8.89],[-60.69,8.79],[-60.85,8.64],[-61.17,8.6],[-61.13,8.76],[-60.95,8.83]]]]}},{"type":"Feature","properties":{"id":"VEN-F","nome":"Bolívar","pais":"VEN","tipo":"State","lat":6.01,"lng":-63.86},"geometry":{"type":"Polygon","coordinates":[[[-60.27,7.92],[-60.37,7.82],[-60.53,7.81],[-60.6,7.63],[-60.73,7.53],[-60.6,7.33],[-60.63,7.19],[-60.55,7.13],[-60.48,7.19],[-60.37,7.17],[-60.3,7.12],[-60.3,7.05],[-60.38,6.94],[-60.7,6.77],[-60.91,6.82],[-60.93,6.73],[-61.13,6.72],[-61.21,6.56],[-61.14,6.44],[-61.12,6.19],[-61.27,6.11],[-61.4,5.95],[-60.66,5.17],[-60.61,4.9],[-60.72,4.78],[-60.9,4.71],[-60.98,4.53],[-61.17,4.49],[-61.32,4.52],[-61.29,4.45],[-61.5,4.4],[-61.57,4.25],[-61.74,4.25],[-61.87,4.16],[-62.04,4.16],[-62.15,4.09],[-62.43,4.18],[-62.54,4.13],[-62.56,4.04],[-62.74,4.03],[-62.79,3.9],[-62.75,3.66],[-62.89,3.56],[-63,3.6],[-63.35,3.96],[-63.43,3.97],[-63.51,3.85],[-63.67,3.95],[-63.88,3.95],[-64.04,3.88],[-64.17,4.12],[-64.61,4.13],[-64.67,4.56],[-64.94,4.63],[-65.09,4.8],[-65.28,5.23],[-65.27,5.28],[-65.16,5.29],[-65.12,5.36],[-65.18,5.43],[-65.14,5.53],[-65.26,5.66],[-65.22,5.76],[-65.44,5.78],[-65.55,5.69],[-65.61,5.71],[-65.61,6.14],[-65.83,6.11],[-66.03,5.78],[-66.24,5.73],[-66.34,5.92],[-66.55,5.74],[-67,5.62],[-67.08,5.71],[-67.2,5.72],[-67.14,5.93],[-67.18,6.1],[-67.38,6.12],[-67.46,6.19],[-67.14,6.46],[-67.13,6.64],[-67.04,6.78],[-67.07,7.09],[-66.61,7.32],[-66.37,7.64],[-65.96,7.67],[-65.65,7.9],[-65.1,7.83],[-64.84,7.66],[-64.5,7.79],[-64.54,7.98],[-64.35,8.01],[-64.28,8.08],[-64.13,7.97],[-63.97,7.97],[-63.81,8.13],[-63.47,8.15],[-63.17,8.31],[-62.88,8.27],[-62.6,8.45],[-62.25,8.31],[-61.64,8.29],[-61.61,8.12],[-61.32,7.82],[-60.97,7.95],[-60.78,7.75],[-60.54,7.92],[-60.27,7.92]]]}},{"type":"Feature","properties":{"id":"VEN-Z","nome":"Amazonas","pais":"VEN","tipo":"State","lat":3.36,"lng":-65.62},"geometry":{"type":"Polygon","coordinates":[[[-64.65,4.21],[-64.75,4.29],[-64.81,4.25],[-64.64,3.97],[-64.2,3.59],[-64.25,3.42],[-64.22,3.12],[-64,2.71],[-64.05,2.47],[-63.36,2.41],[-63.41,2.15],[-63.62,2.1],[-63.78,1.97],[-64,1.96],[-64.05,1.89],[-64.09,1.62],[-64.35,1.37],[-64.39,1.39],[-64.36,1.5],[-64.41,1.51],[-64.73,1.25],[-64.84,1.27],[-65.02,1.14],[-65.14,1.13],[-65.2,0.92],[-65.33,0.91],[-65.5,0.66],[-65.59,0.69],[-65.52,0.89],[-65.61,0.99],[-65.75,0.97],[-66.13,0.73],[-66.35,0.76],[-66.88,1.22],[-66.98,1.67],[-67.13,1.99],[-67.11,2.1],[-67.22,2.27],[-67.19,2.39],[-67.58,2.69],[-67.63,2.81],[-67.75,2.84],[-67.86,2.79],[-67.84,2.89],[-67.4,3.27],[-67.3,3.43],[-67.4,3.5],[-67.5,3.72],[-67.63,3.76],[-67.79,4.17],[-67.79,4.43],[-67.88,4.53],[-67.79,5.06],[-67.83,5.34],[-67.65,5.48],[-67.63,5.78],[-67.42,5.98],[-67.49,6.17],[-67.18,6.11],[-67.14,5.93],[-67.2,5.72],[-67.08,5.71],[-67,5.62],[-66.55,5.74],[-66.34,5.92],[-66.24,5.73],[-66.03,5.78],[-65.83,6.11],[-65.61,6.14],[-65.61,5.71],[-65.55,5.69],[-65.44,5.78],[-65.22,5.76],[-65.26,5.66],[-65.14,5.53],[-65.18,5.43],[-65.12,5.36],[-65.16,5.29],[-65.27,5.28],[-65.28,5.23],[-65.09,4.8],[-64.94,4.63],[-64.67,4.56],[-64.65,4.21]]]}},{"type":"Feature","properties":{"id":"VEN-V","nome":"Zulia","pais":"VEN","tipo":"State","lat":9.58,"lng":-72.55},"geometry":{"type":"MultiPolygon","coordinates":[[[[-71.36,11.85],[-71.38,11.76],[-71.96,11.59],[-71.94,11.38],[-71.86,11.22],[-71.63,11.01],[-71.77,11.02],[-71.67,10.8],[-71.58,10.72],[-71.63,10.45],[-71.97,10.11],[-72.12,9.83],[-71.95,9.54],[-71.99,9.61],[-72,9.46],[-71.92,9.5],[-71.84,9.44],[-71.91,9.38],[-71.89,9.43],[-71.73,9.38],[-71.74,9.29],[-71.82,9.23],[-71.74,9.24],[-71.76,9.13],[-71.71,9.08],[-71.51,9.05],[-71.22,9.19],[-71.15,9.13],[-71.15,9.03],[-71.19,8.99],[-71.23,9.05],[-71.3,9.01],[-71.67,8.72],[-71.73,8.62],[-71.86,8.67],[-72.04,8.49],[-72.24,8.4],[-72.28,8.54],[-72.42,8.38],[-72.68,8.65],[-72.79,9.11],[-72.96,9.1],[-73.01,9.3],[-73.21,9.17],[-73.39,9.19],[-72.99,9.81],[-72.91,10.43],[-72.5,11.12],[-72.27,11.15],[-71.97,11.66],[-71.36,11.85]]],[[[-71.06,9.62],[-71.07,9.86],[-71.21,9.98],[-71.54,10.56],[-71.5,10.63],[-71.58,10.81],[-71.45,10.8],[-71.41,10.92],[-71.5,10.96],[-71.46,10.97],[-71.28,10.99],[-71.08,10.76],[-71.01,10.52],[-70.9,10.44],[-70.78,10.45],[-70.73,10.33],[-70.66,10.3],[-70.86,10.07],[-70.66,9.9],[-70.64,9.79],[-70.74,9.76],[-70.85,9.6],[-71.06,9.62]]]]}},{"type":"Feature","properties":{"id":"VEN-S","nome":"Táchira","pais":"VEN","tipo":"State","lat":7.86,"lng":-72},"geometry":{"type":"Polygon","coordinates":[[[-72.35,8.04],[-72.42,8.38],[-72.34,8.5],[-72.26,8.54],[-72.24,8.4],[-72.04,8.49],[-71.94,8.61],[-71.82,8.59],[-71.77,8.47],[-71.9,8.18],[-71.82,8.17],[-71.71,8.05],[-71.51,8.01],[-71.53,7.76],[-71.49,7.63],[-71.32,7.5],[-71.83,7.54],[-71.88,7.42],[-72.01,7.36],[-72.19,7.45],[-72.41,7.41],[-72.48,7.48],[-72.45,7.83],[-72.49,7.94],[-72.35,8.04]]]}},{"type":"Feature","properties":{"id":"VEN-C","nome":"Apure","pais":"VEN","tipo":"State","lat":7.04,"lng":-68.55},"geometry":{"type":"Polygon","coordinates":[[[-72.32,7.39],[-72.4,7.41],[-72.19,7.45],[-71.99,7.37],[-71.83,7.5],[-71.66,7.43],[-71.25,7.45],[-70.87,7.29],[-70.63,7.29],[-70.37,7.45],[-70.29,7.6],[-70.16,7.62],[-70.01,7.75],[-69.73,7.84],[-69.44,8.07],[-69.19,8.07],[-68.82,7.9],[-68.63,7.97],[-68.26,7.96],[-67.95,8.05],[-67.61,8],[-67.54,7.92],[-67.4,7.91],[-67.14,7.77],[-66.76,7.76],[-66.53,7.82],[-66.32,7.69],[-66.61,7.32],[-67.07,7.09],[-67.04,6.78],[-67.13,6.64],[-67.13,6.48],[-67.36,6.24],[-67.49,6.2],[-67.83,6.31],[-67.98,6.22],[-68.45,6.19],[-68.64,6.14],[-69.06,6.22],[-69.25,6.08],[-69.33,6.16],[-69.44,6.12],[-70.13,6.97],[-70.32,6.94],[-70.58,7.09],[-70.7,7.1],[-71.18,6.96],[-71.29,7.03],[-71.65,7.05],[-71.88,6.99],[-72.08,7.07],[-72.17,7.33],[-72.32,7.39]]]}},{"type":"Feature","properties":{"id":"VEN-L","nome":"Mérida","pais":"VEN","tipo":"State","lat":8.49,"lng":-71.24},"geometry":{"type":"Polygon","coordinates":[[[-71.22,9.19],[-71.15,9.29],[-70.97,9.35],[-70.86,9.14],[-70.7,8.99],[-70.58,9.04],[-70.53,8.96],[-70.58,8.86],[-70.77,8.78],[-70.97,8.59],[-71.08,8.38],[-71.01,8.22],[-71.06,8.11],[-71.43,7.8],[-71.48,7.68],[-71.53,7.76],[-71.51,8.01],[-71.71,8.05],[-71.82,8.17],[-71.9,8.18],[-71.77,8.48],[-71.82,8.59],[-71.94,8.61],[-71.83,8.67],[-71.81,8.62],[-71.73,8.62],[-71.67,8.72],[-71.3,9.01],[-71.23,9.05],[-71.16,9.01],[-71.15,9.13],[-71.22,9.19]]]}},{"type":"Feature","properties":{"id":"VEN-T","nome":"Trujillo","pais":"VEN","tipo":"State","lat":9.5,"lng":-70.55},"geometry":{"type":"Polygon","coordinates":[[[-71.06,9.34],[-71.06,9.62],[-70.85,9.6],[-70.74,9.76],[-70.66,9.78],[-70.66,9.96],[-70.61,10.03],[-70.52,9.93],[-70.35,9.93],[-70.02,9.7],[-70.13,9.61],[-70.03,9.43],[-70.14,9.26],[-70.06,9.24],[-70.12,9.02],[-70.43,9.02],[-70.53,8.96],[-70.58,9.04],[-70.7,8.99],[-70.86,9.14],[-70.93,9.31],[-71.06,9.34]]]}},{"type":"Feature","properties":{"id":"VEN-I","nome":"Falcón","pais":"VEN","tipo":"State","lat":11.09,"lng":-69.76},"geometry":{"type":"Polygon","coordinates":[[[-71.28,10.99],[-70.87,11.2],[-70.23,11.35],[-70.15,11.47],[-70.04,11.44],[-70.16,11.57],[-69.93,11.51],[-69.81,11.43],[-69.76,11.47],[-69.82,11.69],[-70.23,11.63],[-70.21,11.76],[-70.3,11.86],[-70.28,11.94],[-70.21,12.11],[-70.02,12.2],[-69.93,12.16],[-69.84,12.02],[-69.81,11.8],[-69.67,11.5],[-69.59,11.46],[-69.27,11.54],[-69.06,11.45],[-68.84,11.45],[-68.4,11.2],[-68.28,10.93],[-68.38,10.92],[-68.24,10.88],[-68.33,10.83],[-68.27,10.63],[-68.52,10.64],[-68.63,10.73],[-68.77,10.73],[-68.89,10.66],[-68.92,10.7],[-69.5,10.7],[-69.66,10.76],[-70.16,10.65],[-70.66,10.3],[-70.73,10.33],[-70.78,10.45],[-70.9,10.44],[-71.01,10.52],[-71.08,10.76],[-71.28,10.99]]]}},{"type":"Feature","properties":{"id":"VEN-U","nome":"Yaracuy","pais":"VEN","tipo":"State","lat":10.35,"lng":-68.74},"geometry":{"type":"Polygon","coordinates":[[[-68.27,10.63],[-68.28,10.56],[-68.39,10.49],[-68.36,10.26],[-68.42,10.17],[-68.37,9.99],[-68.52,9.9],[-68.63,10.01],[-68.8,9.96],[-68.89,9.85],[-68.98,9.86],[-68.92,9.94],[-68.98,10.01],[-69.11,9.88],[-69.24,10.15],[-69.16,10.13],[-69.01,10.25],[-69.03,10.42],[-69.07,10.44],[-69.02,10.55],[-68.77,10.73],[-68.61,10.73],[-68.52,10.64],[-68.27,10.63]]]}},{"type":"Feature","properties":{"id":"VEN-G","nome":"Carabobo","pais":"VEN","tipo":"State","lat":10.15,"lng":-67.97},"geometry":{"type":"Polygon","coordinates":[[[-68.25,10.6],[-68.13,10.49],[-67.87,10.48],[-67.82,10.32],[-67.67,10.32],[-67.69,10.02],[-67.55,9.99],[-67.53,9.91],[-67.7,9.84],[-67.8,9.93],[-67.79,9.83],[-67.87,9.82],[-67.99,9.84],[-68,9.89],[-68.07,9.86],[-68.24,9.99],[-68.21,10.06],[-68.24,10.13],[-68.34,10],[-68.39,10.01],[-68.39,10.49],[-68.25,10.6]]]}},{"type":"Feature","properties":{"id":"VEN-D","nome":"Aragua","pais":"VEN","tipo":"State","lat":10.16,"lng":-67.33},"geometry":{"type":"Polygon","coordinates":[[[-67.87,10.46],[-67.39,10.54],[-67.34,10.4],[-67.24,10.43],[-67.11,10.26],[-67.13,10.15],[-67.09,10.08],[-66.61,9.97],[-66.62,9.72],[-66.54,9.62],[-66.58,9.4],[-67,9.45],[-66.88,9.56],[-66.86,9.67],[-67.1,9.8],[-67.18,9.92],[-67.34,9.93],[-67.43,9.99],[-67.53,9.95],[-67.69,10.02],[-67.66,10.31],[-67.82,10.32],[-67.87,10.46]]]}},{"type":"Feature","properties":{"id":"VEN-X","nome":"Vargas","pais":"VEN","tipo":"State","lat":10.58,"lng":-66.86},"geometry":{"type":"Polygon","coordinates":[[[-67.39,10.54],[-67.01,10.61],[-66.31,10.63],[-66.31,10.59],[-66.33,10.53],[-67.01,10.58],[-67.05,10.48],[-67.34,10.4],[-67.39,10.54]]]}},{"type":"Feature","properties":{"id":"VEN-M","nome":"Miranda","pais":"VEN","tipo":"State","lat":10.26,"lng":-66.32},"geometry":{"type":"Polygon","coordinates":[[[-66.31,10.63],[-66.05,10.58],[-66.12,10.51],[-65.88,10.31],[-65.93,10.32],[-65.92,10.28],[-65.72,10.22],[-65.87,10.31],[-65.43,10.14],[-65.44,10.1],[-65.63,9.97],[-65.97,9.93],[-66.39,10.02],[-66.53,9.97],[-66.88,10],[-67.12,10.11],[-67.11,10.26],[-67.22,10.42],[-66.9,10.42],[-66.86,10.55],[-66.33,10.53],[-66.31,10.63]]]}},{"type":"Feature","properties":{"id":"VEN-B","nome":"Anzoátegui","pais":"VEN","tipo":"State","lat":9.06,"lng":-64.19},"geometry":{"type":"Polygon","coordinates":[[[-65.43,10.14],[-65.07,10.05],[-64.78,10.09],[-64.72,10.23],[-64.67,10.19],[-64.57,10.26],[-64.35,10.09],[-63.98,10.12],[-63.95,10.08],[-64.06,10.05],[-64.06,9.97],[-63.92,9.87],[-63.96,9.76],[-63.85,9.55],[-63.97,9.41],[-63.91,9.21],[-63.77,9.24],[-63.63,9.17],[-63.42,9.01],[-63.3,8.78],[-62.95,8.79],[-63.06,8.71],[-63.04,8.6],[-62.74,8.47],[-62.69,8.39],[-62.91,8.27],[-63.17,8.31],[-63.47,8.15],[-63.81,8.13],[-63.98,7.97],[-64.13,7.97],[-64.28,8.08],[-64.35,8.01],[-64.54,7.98],[-64.5,7.79],[-64.84,7.66],[-65.1,7.83],[-65.48,7.93],[-65.48,8.02],[-65.21,8.37],[-65.15,8.73],[-64.86,8.74],[-64.79,8.88],[-64.94,9],[-64.98,9.11],[-65.16,9.18],[-65.26,9.28],[-65.28,9.38],[-65.21,9.43],[-65.22,9.51],[-65.37,9.55],[-65.43,9.65],[-65.49,9.57],[-65.7,9.69],[-65.7,9.95],[-65.45,10.08],[-65.43,10.14]]]}},{"type":"Feature","properties":{"id":"VEN-R","nome":"Sucre","pais":"VEN","tipo":"State","lat":10.47,"lng":-63.35},"geometry":{"type":"Polygon","coordinates":[[[-64.54,10.25],[-64.38,10.3],[-64.47,10.32],[-64.38,10.34],[-64.38,10.39],[-64.36,10.34],[-64.19,10.48],[-63.86,10.45],[-63.66,10.49],[-64.03,10.59],[-64.23,10.52],[-64.3,10.62],[-64.27,10.67],[-64.14,10.62],[-63.92,10.63],[-63.81,10.71],[-63.55,10.63],[-63.16,10.73],[-62.93,10.7],[-62.71,10.76],[-62.15,10.69],[-61.85,10.74],[-61.96,10.65],[-62.25,10.63],[-62.33,10.53],[-62.66,10.57],[-62.92,10.53],[-63.01,10.45],[-62.86,10.53],[-62.83,10.41],[-63,10.41],[-62.96,10.36],[-63,10.28],[-62.93,10.29],[-62.94,10.41],[-62.76,10.4],[-62.63,10.13],[-62.82,10.04],[-62.9,10.1],[-63.03,10.11],[-63.11,10.22],[-63.19,10.17],[-63.46,10.31],[-63.56,10.23],[-63.73,10.21],[-63.95,10.08],[-64.04,10.13],[-64.15,10.08],[-64.35,10.09],[-64.54,10.25]]]}},{"type":"Feature","properties":{"id":"VEN-N","nome":"Monagas","pais":"VEN","tipo":"State","lat":9.5,"lng":-63.09},"geometry":{"type":"Polygon","coordinates":[[[-63.01,10.1],[-62.95,10.09],[-62.94,10.01],[-62.91,10.08],[-62.8,10],[-62.78,10.07],[-62.62,10.09],[-62.62,10.22],[-62.52,10.18],[-62.44,9.93],[-62.32,9.77],[-62.45,9.53],[-62.32,9.36],[-62.32,9.14],[-62.06,9.06],[-62.08,8.94],[-62.01,8.9],[-62.08,8.73],[-62.24,8.6],[-62.52,8.52],[-62.69,8.39],[-62.74,8.47],[-63.04,8.6],[-63.06,8.71],[-62.95,8.79],[-63.3,8.78],[-63.42,9.01],[-63.76,9.23],[-63.9,9.2],[-63.97,9.32],[-63.97,9.42],[-63.85,9.55],[-63.96,9.76],[-63.92,9.87],[-64.05,9.95],[-64.06,10.05],[-63.8,10.13],[-63.73,10.21],[-63.56,10.23],[-63.46,10.31],[-63.19,10.17],[-63.11,10.22],[-63.01,10.1]]]}},{"type":"Feature","properties":{"id":"VEN-O","nome":"Nueva Esparta","pais":"VEN","tipo":"State","lat":10.97,"lng":-63.97},"geometry":{"type":"Polygon","coordinates":[[[-63.85,11.14],[-63.79,10.97],[-63.9,10.88],[-64.06,10.86],[-64.18,10.97],[-64.41,10.97],[-64.37,11.06],[-64.22,11.09],[-64.05,10.99],[-63.98,11.12],[-63.88,11.18],[-63.85,11.14]]]}},{"type":"Feature","properties":{"id":"VEN-J","nome":"Guárico","pais":"VEN","tipo":"State","lat":8.72,"lng":-66.48},"geometry":{"type":"Polygon","coordinates":[[[-65.7,9.95],[-65.7,9.69],[-65.49,9.57],[-65.43,9.65],[-65.37,9.55],[-65.22,9.51],[-65.21,9.43],[-65.28,9.38],[-65.26,9.28],[-65.16,9.18],[-64.98,9.11],[-64.94,9],[-64.79,8.88],[-64.86,8.74],[-65.15,8.72],[-65.21,8.37],[-65.49,7.99],[-65.48,7.93],[-65.36,7.87],[-65.65,7.9],[-65.94,7.68],[-66.24,7.64],[-66.33,7.65],[-66.35,7.74],[-66.53,7.82],[-66.76,7.76],[-67.14,7.77],[-67.4,7.91],[-67.54,7.92],[-67.57,8.08],[-68.04,8.54],[-68,8.56],[-67.97,8.91],[-67.85,9.07],[-67.96,9.54],[-67.9,9.63],[-67.76,9.68],[-67.81,9.93],[-67.7,9.84],[-67.44,9.99],[-67.18,9.92],[-67.1,9.8],[-66.86,9.67],[-66.88,9.56],[-67,9.45],[-66.62,9.39],[-66.58,9.41],[-66.54,9.62],[-66.62,9.72],[-66.61,9.97],[-66.39,10.02],[-66.19,9.95],[-65.7,9.95]]]}},{"type":"Feature","properties":{"id":"VEN-H","nome":"Cojedes","pais":"VEN","tipo":"State","lat":9.3,"lng":-68.37},"geometry":{"type":"Polygon","coordinates":[[[-67.79,9.83],[-67.76,9.68],[-67.96,9.55],[-67.85,9.09],[-67.99,8.83],[-68,8.55],[-68.63,8.67],[-68.75,8.79],[-68.58,8.85],[-68.65,8.95],[-68.61,9.23],[-68.87,9.44],[-68.99,9.73],[-68.98,9.86],[-68.86,9.85],[-68.8,9.96],[-68.62,10.01],[-68.5,9.9],[-68.24,10.13],[-68.21,10.06],[-68.24,9.99],[-68.08,9.86],[-68,9.89],[-67.98,9.83],[-67.79,9.83]]]}},{"type":"Feature","properties":{"id":"VEN-A","nome":"Distrito Capital","pais":"VEN","tipo":"Capital District","lat":10.49,"lng":-66.96},"geometry":{"type":"Polygon","coordinates":[[[-67.01,10.58],[-66.87,10.55],[-66.9,10.42],[-67.15,10.43],[-67.01,10.58]]]}},{"type":"Feature","properties":{"id":"VEN-E","nome":"Barinas","pais":"VEN","tipo":"State","lat":8.22,"lng":-69.98},"geometry":{"type":"Polygon","coordinates":[[[-68.04,8.54],[-67.77,8.24],[-67.68,8.21],[-67.52,7.97],[-67.95,8.05],[-68.26,7.96],[-68.63,7.97],[-68.82,7.9],[-69.19,8.07],[-69.44,8.07],[-69.73,7.84],[-70.01,7.75],[-70.16,7.62],[-70.29,7.6],[-70.37,7.45],[-70.67,7.29],[-70.95,7.31],[-71.25,7.45],[-71.66,7.43],[-71.85,7.51],[-71.69,7.55],[-71.32,7.5],[-71.49,7.63],[-71.46,7.77],[-71.06,8.11],[-71.01,8.22],[-71.08,8.38],[-70.96,8.6],[-70.77,8.78],[-70.58,8.86],[-70.44,9.02],[-70.18,9.01],[-69.82,8.75],[-69.71,8.72],[-69.62,8.78],[-69.47,8.67],[-69.29,8.64],[-69.11,8.43],[-69.13,8.35],[-68.85,8.11],[-68.79,8.32],[-68.65,8.42],[-68.57,8.64],[-68.17,8.61],[-68.04,8.54]]]}},{"type":"Feature","properties":{"id":"VEN-K","nome":"Lara","pais":"VEN","tipo":"State","lat":10.16,"lng":-69.81},"geometry":{"type":"Polygon","coordinates":[[[-68.98,9.86],[-69.01,9.75],[-69.17,9.69],[-69.26,9.73],[-69.28,9.84],[-69.38,9.66],[-69.6,9.61],[-69.64,9.41],[-69.87,9.42],[-69.79,9.56],[-69.93,9.57],[-70.03,9.43],[-70.13,9.6],[-70.01,9.69],[-70.09,9.77],[-70.35,9.93],[-70.52,9.93],[-70.58,10.04],[-70.68,9.91],[-70.86,10.07],[-70.64,10.33],[-70.16,10.65],[-69.66,10.76],[-69.5,10.7],[-68.92,10.7],[-68.89,10.61],[-69.02,10.55],[-69.07,10.46],[-69.01,10.25],[-69.16,10.13],[-69.24,10.15],[-69.1,9.88],[-69.07,9.96],[-68.96,10],[-68.92,9.93],[-68.98,9.86]]]}},{"type":"Feature","properties":{"id":"VEN-P","nome":"Portuguesa","pais":"VEN","tipo":"State","lat":9.16,"lng":-69.38},"geometry":{"type":"Polygon","coordinates":[[[-68.98,9.78],[-68.87,9.44],[-68.61,9.23],[-68.65,8.95],[-68.58,8.85],[-68.75,8.79],[-68.57,8.6],[-68.65,8.42],[-68.79,8.32],[-68.84,8.11],[-69.13,8.35],[-69.11,8.43],[-69.29,8.64],[-69.47,8.67],[-69.62,8.78],[-69.71,8.72],[-69.82,8.75],[-70.18,9.01],[-70.12,9.02],[-70.06,9.14],[-70.07,9.25],[-70.14,9.27],[-69.93,9.57],[-69.79,9.56],[-69.87,9.42],[-69.71,9.4],[-69.63,9.43],[-69.6,9.61],[-69.38,9.66],[-69.28,9.84],[-69.21,9.69],[-69.07,9.71],[-68.98,9.78]]]}}]}