{"type":"FeatureCollection","features":[{"type":"Feature","properties":{"id":"VIR-X01~","nome":"Saint Croix","pais":"VIR","tipo":"Estado","lat":17.74,"lng":-64.78},"geometry":{"type":"Polygon","coordinates":[[[-64.56,17.75],[-64.9,17.68],[-64.88,17.78],[-64.56,17.75]]]}},{"type":"Feature","properties":{"id":"VIR-X03~","nome":"Saint John","pais":"VIR","tipo":"Estado","lat":18.34,"lng":-64.75},"geometry":{"type":"Polygon","coordinates":[[[-64.7,18.34],[-64.7,18.3],[-64.8,18.33],[-64.75,18.37],[-64.66,18.34],[-64.7,18.34]]]}},{"type":"Feature","properties":{"id":"VIR-X02~","nome":"Saint Thomas","pais":"VIR","tipo":"Estado","lat":18.35,"lng":-64.93},"geometry":{"type":"Polygon","coordinates":[[[-64.87,18.31],[-65.04,18.35],[-64.95,18.39],[-64.87,18.31]]]}}]}