{"type":"FeatureCollection","features":[{"type":"Feature","properties":{"id":"VNM-28","nome":"Kon Tum","pais":"VNM","tipo":"Province","lat":14.75,"lng":107.97},"geometry":{"type":"Polygon","coordinates":[[[107.42,14.42],[107.51,14.54],[107.49,14.8],[107.56,14.89],[107.45,15.03],[107.58,15.05],[107.66,15.21],[107.6,15.41],[107.85,15.23],[108.01,15.19],[108.14,14.96],[108.2,15.06],[108.3,15.05],[108.56,14.81],[108.62,14.64],[108.42,14.62],[108.41,14.52],[108.34,14.43],[107.72,14.19],[107.45,13.92],[107.32,14.12],[107.35,14.34],[107.42,14.42]]]}},{"type":"Feature","properties":{"id":"VNM-72","nome":"Đắk Nông","pais":"VNM","tipo":"Region","lat":12.14,"lng":107.66},"geometry":{"type":"Polygon","coordinates":[[[107.39,12.25],[107.51,12.34],[107.56,12.47],[107.54,12.72],[107.84,12.72],[107.91,12.54],[108.01,12.49],[107.94,12.42],[107.94,12.35],[108.13,12.2],[107.98,12.08],[108.09,11.94],[108.08,11.85],[108,11.77],[107.72,11.91],[107.56,11.79],[107.39,11.75],[107.36,11.92],[107.26,12.02],[107.23,12.31],[107.32,12.33],[107.39,12.25]]]}},{"type":"Feature","properties":{"id":"VNM-33","nome":"Đắk Lắk","pais":"VNM","tipo":"Region","lat":12.77,"lng":108.13},"geometry":{"type":"Polygon","coordinates":[[[107.54,12.72],[107.46,13.02],[107.56,13.26],[107.68,13.33],[108.07,13.39],[108.36,13.29],[108.51,13.03],[108.66,13],[108.82,12.83],[109.04,12.75],[108.9,12.67],[108.85,12.48],[108.68,12.48],[108.68,12.3],[108.5,12.3],[108.24,12.16],[108.12,12.15],[108.08,12.26],[107.94,12.35],[107.94,12.42],[108.01,12.49],[107.91,12.54],[107.84,12.72],[107.54,12.72]]]}},{"type":"Feature","properties":{"id":"VNM-30","nome":"Gia Lai","pais":"VNM","tipo":"Region","lat":13.85,"lng":108.16},"geometry":{"type":"Polygon","coordinates":[[[107.56,13.26],[107.6,13.5],[107.44,13.78],[107.45,13.92],[107.72,14.19],[108.34,14.43],[108.41,14.52],[108.42,14.62],[108.62,14.64],[108.69,14.46],[108.64,14.15],[108.81,13.75],[108.87,13.19],[108.69,13.07],[108.66,13],[108.47,13.07],[108.39,13.28],[108.11,13.38],[107.68,13.33],[107.56,13.26]]]}},{"type":"Feature","properties":{"id":"VNM-58","nome":"Bình Phước","pais":"VNM","tipo":"Province","lat":11.68,"lng":106.9},"geometry":{"type":"Polygon","coordinates":[[[106.88,12.06],[107.23,12.31],[107.26,12.02],[107.4,11.8],[107.28,11.65],[107.31,11.57],[107.12,11.49],[106.96,11.28],[106.79,11.34],[106.72,11.31],[106.7,11.36],[106.64,11.32],[106.62,11.43],[106.46,11.55],[106.47,11.65],[106.4,11.75],[106.44,11.86],[106.39,11.97],[106.68,11.97],[106.77,12.07],[106.88,12.06]]]}},{"type":"Feature","properties":{"id":"VNM-37","nome":"Tây Ninh","pais":"VNM","tipo":"Province","lat":11.41,"lng":106.14},"geometry":{"type":"Polygon","coordinates":[[[106.41,11.66],[106.46,11.67],[106.49,11.57],[106.34,11.34],[106.42,11.07],[106.36,10.98],[106.3,11.02],[106.18,10.96],[106.15,11.07],[106.09,11.06],[105.84,11.29],[105.86,11.54],[105.79,11.61],[105.84,11.66],[105.93,11.64],[106.02,11.77],[106.41,11.66]]]}},{"type":"Feature","properties":{"id":"VNM-41","nome":"Long An","pais":"VNM","tipo":"Province","lat":10.69,"lng":106.13},"geometry":{"type":"Polygon","coordinates":[[[105.73,11.02],[105.88,10.83],[105.93,10.9],[106.18,10.77],[106.12,10.96],[106.32,11.02],[106.51,10.89],[106.5,10.72],[106.74,10.63],[106.73,10.52],[106.66,10.52],[106.59,10.44],[106.58,10.49],[106.58,10.41],[106.47,10.41],[106.29,10.58],[105.92,10.57],[105.53,10.93],[105.73,11.02]]]}},{"type":"Feature","properties":{"id":"VNM-45","nome":"Ðong Tháp","pais":"VNM","tipo":"Province","lat":10.66,"lng":105.59},"geometry":{"type":"Polygon","coordinates":[[[105.47,10.94],[105.52,10.95],[105.96,10.55],[105.85,10.3],[105.39,10.6],[105.37,10.7],[105.29,10.71],[105.22,10.83],[105.21,10.89],[105.32,10.84],[105.41,10.96],[105.47,10.94]]]}},{"type":"Feature","properties":{"id":"VNM-44","nome":"An Giang","pais":"VNM","tipo":"Province","lat":10.57,"lng":105.15},"geometry":{"type":"Polygon","coordinates":[[[105.08,10.95],[105.21,10.89],[105.29,10.71],[105.37,10.7],[105.39,10.6],[105.58,10.45],[105.47,10.28],[105.38,10.23],[105.32,10.28],[105.24,10.2],[104.72,10.52],[104.85,10.53],[105.07,10.71],[105.01,10.88],[105.08,10.95]]]}},{"type":"Feature","properties":{"id":"VNM-47","nome":"Kiên Giang","pais":"VNM","tipo":"Province","lat":9.86,"lng":105.28},"geometry":{"type":"MultiPolygon","coordinates":[[[[104.63,10.53],[104.72,10.52],[105.24,10.2],[105.53,9.94],[105.5,9.83],[105.37,9.7],[105.39,9.59],[105.3,9.6],[105.29,9.41],[105.02,9.53],[104.83,9.53],[104.89,9.85],[105.08,9.94],[105.11,9.86],[105.11,9.95],[105,10.09],[104.9,10.1],[104.77,10.23],[104.61,10.14],[104.5,10.37],[104.52,10.42],[104.47,10.38],[104.45,10.42],[104.63,10.53]]],[[[104.08,10.37],[104.05,10.01],[103.85,10.37],[103.93,10.37],[104,10.45],[104.08,10.37]]]]}},{"type":"Feature","properties":{"id":"VNM-71","nome":"Điện Biên","pais":"VNM","tipo":"Province","lat":21.75,"lng":103.23},"geometry":{"type":"Polygon","coordinates":[[[102.65,21.66],[102.59,21.9],[102.48,21.96],[102.48,22.02],[102.21,22.25],[102.12,22.4],[102.22,22.41],[102.32,22.57],[102.52,22.56],[102.78,22.36],[102.93,22.14],[103.04,22.15],[103.26,22.05],[103.32,22.15],[103.38,22.15],[103.55,21.89],[103.56,21.61],[103.38,21.4],[103.45,21.29],[103.44,21.07],[103.29,21.08],[103.23,20.83],[103.12,20.87],[102.89,21.23],[102.8,21.25],[102.88,21.31],[102.92,21.45],[102.85,21.43],[102.97,21.58],[102.95,21.74],[102.85,21.7],[102.81,21.84],[102.75,21.68],[102.65,21.66]]]}},{"type":"Feature","properties":{"id":"VNM-05","nome":"Son La","pais":"VNM","tipo":"Region","lat":21.3,"lng":104.16},"geometry":{"type":"Polygon","coordinates":[[[104.22,20.89],[104.06,20.96],[103.79,20.85],[103.68,20.66],[103.44,20.82],[103.23,20.83],[103.29,21.08],[103.44,21.07],[103.45,21.29],[103.38,21.4],[103.56,21.61],[103.57,22.03],[103.63,22.02],[103.86,21.72],[104.17,21.66],[104.33,21.7],[104.31,21.5],[104.36,21.42],[104.47,21.36],[104.58,21.41],[104.74,21.39],[104.83,21.33],[104.91,21.1],[104.88,21.02],[105.09,20.79],[104.86,20.73],[104.84,20.63],[104.76,20.57],[104.22,20.89]]]}},{"type":"Feature","properties":{"id":"VNM-21","nome":"Thanh Hóa","pais":"VNM","tipo":"Province","lat":20.09,"lng":105.22},"geometry":{"type":"Polygon","coordinates":[[[104.5,20.51],[104.61,20.64],[104.76,20.57],[104.84,20.63],[105.14,20.59],[105.82,20.16],[106.06,20.06],[105.79,19.6],[105.81,19.27],[105.34,19.55],[105.28,19.51],[105.14,19.79],[105.17,19.9],[104.95,19.99],[104.96,20.08],[104.91,20.18],[104.66,20.21],[104.68,20.33],[104.59,20.41],[104.36,20.44],[104.44,20.53],[104.5,20.51]]]}},{"type":"Feature","properties":{"id":"VNM-22","nome":"Nghệ An","pais":"VNM","tipo":"Province","lat":19.35,"lng":104.83},"geometry":{"type":"Polygon","coordinates":[[[104.92,19.98],[105.18,19.89],[105.14,19.79],[105.28,19.51],[105.34,19.55],[105.81,19.27],[105.74,19.23],[105.74,19.11],[105.61,19],[105.76,18.77],[105.68,18.58],[105.17,18.62],[105.11,18.7],[104.71,18.8],[104.15,19.18],[103.85,19.3],[104.09,19.48],[104,19.68],[104.09,19.65],[104.23,19.71],[104.61,19.61],[104.68,19.72],[104.81,19.79],[104.76,19.89],[104.92,19.98]]]}},{"type":"Feature","properties":{"id":"VNM-23","nome":"Ha Tinh","pais":"VNM","tipo":"Region","lat":18.36,"lng":105.8},"geometry":{"type":"Polygon","coordinates":[[[105.15,18.6],[105.27,18.63],[105.66,18.57],[105.77,18.67],[105.76,18.76],[105.88,18.51],[106.09,18.26],[106.27,18.2],[106.35,18.06],[106.43,18.12],[106.52,17.96],[106.14,17.93],[105.93,18.07],[105.6,17.97],[105.47,18.18],[105.32,18.17],[105.29,18.25],[105.16,18.32],[105.08,18.45],[105.15,18.6]]]}},{"type":"Feature","properties":{"id":"VNM-24","nome":"Quảng Bình","pais":"VNM","tipo":"Province","lat":17.47,"lng":106.36},"geometry":{"type":"Polygon","coordinates":[[[105.93,17.5],[105.72,17.67],[105.61,17.85],[105.6,17.97],[105.93,18.07],[106.14,17.93],[106.52,17.96],[106.44,17.88],[106.49,17.7],[106.29,17.77],[106.43,17.73],[106.38,17.72],[106.41,17.68],[106.5,17.68],[106.76,17.34],[107.01,17.16],[106.79,16.97],[106.46,16.97],[106.28,17.28],[106.19,17.26],[105.93,17.5]]]}},{"type":"Feature","properties":{"id":"VNM-25","nome":"Quảng Trị","pais":"VNM","tipo":"Province","lat":16.72,"lng":106.97},"geometry":{"type":"Polygon","coordinates":[[[106.69,16.43],[106.64,16.59],[106.54,16.66],[106.53,16.95],[106.82,16.98],[107.01,17.16],[107.2,16.93],[107.14,16.87],[107.22,16.91],[107.41,16.75],[107.31,16.62],[107.11,16.56],[107.17,16.46],[107.07,16.29],[106.97,16.3],[106.86,16.41],[106.85,16.53],[106.69,16.43]]]}},{"type":"Feature","properties":{"id":"VNM-26","nome":"Thừa Thiên - Huế","pais":"VNM","tipo":"Province","lat":16.31,"lng":107.63},"geometry":{"type":"Polygon","coordinates":[[[107.14,16.18],[107.06,16.34],[107.17,16.46],[107.11,16.55],[107.31,16.62],[107.41,16.75],[107.64,16.58],[107.44,16.65],[107.66,16.55],[107.66,16.5],[107.7,16.52],[107.84,16.38],[107.79,16.38],[107.82,16.3],[107.9,16.28],[107.93,16.35],[108.04,16.35],[108.09,16.24],[108.05,16.24],[108.2,16.22],[107.95,16.22],[107.73,16.01],[107.66,16.09],[107.33,16.06],[107.14,16.18]]]}},{"type":"Feature","properties":{"id":"VNM-27","nome":"Quàng Nam","pais":"VNM","tipo":"Province","lat":15.65,"lng":107.96},"geometry":{"type":"Polygon","coordinates":[[[107.23,15.85],[107.38,15.92],[107.43,16.06],[107.66,16.09],[107.73,16.01],[107.82,16.09],[108,16.09],[108.03,15.99],[108.28,15.99],[108.41,15.88],[108.62,15.53],[108.68,15.52],[108.63,15.46],[108.7,15.49],[108.76,15.4],[108.36,15.31],[108.28,15.2],[108.33,15.09],[108.2,15.06],[108.14,14.96],[108.01,15.19],[107.85,15.23],[107.65,15.4],[107.51,15.41],[107.45,15.51],[107.37,15.5],[107.15,15.77],[107.23,15.85]]]}},{"type":"Feature","properties":{"id":"VNM-03","nome":"Hà Giang","pais":"VNM","tipo":"Province","lat":22.77,"lng":104.97},"geometry":{"type":"Polygon","coordinates":[[[105.29,23.37],[105.43,23.27],[105.54,23.1],[105.3,22.87],[105.45,22.77],[105.57,22.59],[105.18,22.65],[105.05,22.36],[104.95,22.34],[104.85,22.17],[104.69,22.26],[104.6,22.23],[104.59,22.33],[104.47,22.42],[104.44,22.55],[104.48,22.58],[104.36,22.69],[104.55,22.84],[104.72,22.83],[104.82,22.92],[104.8,23.09],[104.87,23.16],[105.2,23.25],[105.29,23.37]]]}},{"type":"Feature","properties":{"id":"VNM-04","nome":"Cao Bằng","pais":"VNM","tipo":"Province","lat":22.76,"lng":106.05},"geometry":{"type":"Polygon","coordinates":[[[105.54,23.1],[105.85,22.9],[106.13,22.98],[106.26,22.85],[106.49,22.93],[106.8,22.78],[106.68,22.58],[106.58,22.6],[106.5,22.38],[106.27,22.45],[106.16,22.41],[106.08,22.54],[105.86,22.48],[105.77,22.62],[105.77,22.71],[105.69,22.71],[105.57,22.59],[105.45,22.77],[105.3,22.87],[105.54,23.1]]]}},{"type":"Feature","properties":{"id":"VNM-02","nome":"Lào Cai","pais":"VNM","tipo":"Province","lat":22.36,"lng":104.1},"geometry":{"type":"Polygon","coordinates":[[[104.34,22.69],[104.47,22.59],[104.47,22.42],[104.59,22.33],[104.65,22.17],[104.55,22.1],[104.4,22.13],[104.44,21.97],[104.39,21.9],[104.23,21.96],[104.2,21.89],[103.98,21.97],[103.91,21.86],[103.94,21.74],[103.86,21.72],[103.63,22.02],[103.57,22.03],[103.6,22.15],[103.8,22.36],[103.59,22.45],[103.61,22.53],[103.55,22.7],[103.65,22.8],[103.96,22.51],[104.09,22.79],[104.24,22.82],[104.24,22.74],[104.34,22.69]]]}},{"type":"Feature","properties":{"id":"VNM-01","nome":"Lai Chau","pais":"VNM","tipo":"Province","lat":22.35,"lng":103.26},"geometry":{"type":"Polygon","coordinates":[[[103.5,22.58],[103.55,22.65],[103.61,22.56],[103.59,22.45],[103.8,22.36],[103.59,22.13],[103.55,21.89],[103.38,22.15],[103.32,22.15],[103.26,22.05],[103.04,22.15],[102.93,22.14],[102.78,22.36],[102.52,22.56],[102.32,22.57],[102.47,22.77],[102.54,22.7],[102.83,22.6],[102.9,22.48],[103.03,22.43],[103.32,22.79],[103.5,22.58]]]}},{"type":"Feature","properties":{"id":"VNM-09","nome":"Lạng Sơn","pais":"VNM","tipo":"Province","lat":21.78,"lng":106.72},"geometry":{"type":"Polygon","coordinates":[[[106.53,22.4],[106.66,22.22],[106.66,21.96],[106.73,22.01],[106.92,21.92],[106.99,21.94],[107,21.81],[107.3,21.69],[107.33,21.61],[107.23,21.54],[107.21,21.41],[107.02,21.38],[106.83,21.6],[106.75,21.55],[106.58,21.6],[106.4,21.41],[106.17,21.52],[106.26,21.68],[106.12,21.9],[106.12,22.05],[106.26,22.26],[106.19,22.41],[106.26,22.45],[106.4,22.38],[106.53,22.4]]]}},{"type":"Feature","properties":{"id":"VNM-13","nome":"Quảng Ninh","pais":"VNM","tipo":"Province","lat":21.22,"lng":107.18},"geometry":{"type":"Polygon","coordinates":[[[107.33,21.61],[107.43,21.65],[107.51,21.58],[107.78,21.66],[107.99,21.49],[107.93,21.44],[107.91,21.53],[107.77,21.52],[107.79,21.46],[107.64,21.38],[107.59,21.29],[107.52,21.35],[107.53,21.3],[107.42,21.33],[107.44,21.29],[107.36,21.24],[107.37,21.03],[107.21,20.99],[107.2,20.94],[107.07,20.96],[107.15,21.04],[107.05,21],[107.03,21.03],[107,20.95],[106.85,20.99],[106.94,20.91],[106.87,20.94],[106.87,20.88],[106.77,20.96],[106.82,20.98],[106.8,21.02],[106.44,21.06],[106.55,21.19],[106.96,21.2],[107.01,21.33],[107.21,21.41],[107.23,21.54],[107.33,21.61]]]}},{"type":"Feature","properties":{"id":"VNM-52","nome":"Sóc Trăng","pais":"VNM","tipo":"Province","lat":9.56,"lng":105.9},"geometry":{"type":"Polygon","coordinates":[[[105.9,9.92],[106.07,9.75],[106.21,9.47],[106.18,9.36],[105.87,9.25],[105.82,9.38],[105.6,9.42],[105.57,9.61],[105.83,9.72],[105.9,9.92]]]}},{"type":"Feature","properties":{"id":"VNM-46","nome":"Tiền Giang","pais":"VNM","tipo":"Province","lat":10.46,"lng":106.22},"geometry":{"type":"Polygon","coordinates":[[[106.62,10.44],[106.74,10.47],[106.79,10.28],[106.35,10.34],[105.9,10.29],[105.84,10.34],[105.96,10.55],[106.15,10.59],[106.3,10.58],[106.45,10.42],[106.62,10.44]]]}},{"type":"Feature","properties":{"id":"VNM-43","nome":"Bà Rịa - Vũng Tàu","pais":"VNM","tipo":"Province","lat":10.4,"lng":107.14},"geometry":{"type":"Polygon","coordinates":[[[107.02,10.51],[107.01,10.64],[107.25,10.77],[107.34,10.68],[107.46,10.8],[107.59,10.57],[107.27,10.38],[107.19,10.41],[107.18,10.48],[107.02,10.51]]]}},{"type":"Feature","properties":{"id":"VNM-SG","nome":"Hồ Chí Minh city","pais":"VNM","tipo":"City|Municipality|Thanh Pho","lat":10.41,"lng":106.93},"geometry":{"type":"Polygon","coordinates":[[[106.98,10.57],[107.01,10.52],[106.96,10.47],[106.94,10.6],[106.88,10.65],[106.74,10.67],[106.74,10.55],[106.72,10.64],[106.5,10.72],[106.51,10.89],[106.36,10.98],[106.43,11.12],[106.52,11.13],[106.72,10.88],[106.84,10.89],[106.88,10.76],[106.75,10.77],[106.76,10.71],[106.89,10.67],[106.98,10.57]]]}},{"type":"Feature","properties":{"id":"VNM-34","nome":"Khánh Hòa","pais":"VNM","tipo":"Province","lat":12.6,"lng":109.36},"geometry":{"type":"Polygon","coordinates":[[[109.38,12.83],[109.47,12.66],[109.45,12.57],[109.4,12.69],[109.34,12.66],[109.39,12.71],[109.36,12.8],[109.2,12.65],[109.2,12.55],[109.25,12.59],[109.24,12.52],[109.34,12.38],[109.3,12.35],[109.15,12.44],[109.24,12.31],[109.18,12.28],[109.22,12.2],[109.18,12.19],[109.29,11.87],[109.22,11.88],[109.18,12.13],[109.21,11.98],[109.13,11.86],[109.16,11.82],[109.2,11.87],[109.2,11.79],[109.13,11.79],[109.05,11.9],[108.88,11.95],[108.81,12.12],[108.72,12.18],[108.67,12.47],[108.85,12.48],[108.91,12.68],[109.18,12.84],[109.38,12.83]]]}},{"type":"Feature","properties":{"id":"VNM-59","nome":"Cà Mau","pais":"VNM","tipo":"Province","lat":9.06,"lng":105.07},"geometry":{"type":"Polygon","coordinates":[[[105.43,9.01],[105.32,8.81],[105.1,8.63],[104.86,8.57],[104.72,8.6],[104.83,8.7],[104.96,8.72],[104.85,8.71],[104.93,8.75],[104.92,8.81],[104.82,8.77],[104.77,8.82],[104.83,9.53],[105.02,9.53],[105.28,9.41],[105.32,9.3],[105.28,9.21],[105.43,9.01]]]}},{"type":"Feature","properties":{"id":"VNM-55","nome":"Bạc Liêu","pais":"VNM","tipo":"Province","lat":9.34,"lng":105.57},"geometry":{"type":"Polygon","coordinates":[[[105.87,9.25],[105.54,9.13],[105.43,9.01],[105.28,9.21],[105.3,9.6],[105.57,9.61],[105.6,9.42],[105.82,9.38],[105.87,9.25]]]}},{"type":"Feature","properties":{"id":"VNM-73","nome":"Hau Giang","pais":"VNM","tipo":"Region","lat":9.84,"lng":105.66},"geometry":{"type":"Polygon","coordinates":[[[105.84,10],[105.9,9.92],[105.83,9.72],[105.39,9.59],[105.37,9.7],[105.53,9.91],[105.42,10.04],[105.69,10.12],[105.84,10]]]}},{"type":"Feature","properties":{"id":"VNM-49","nome":"Vĩnh Long","pais":"VNM","tipo":"Province","lat":10.1,"lng":105.97},"geometry":{"type":"Polygon","coordinates":[[[106,9.89],[105.69,10.12],[105.73,10.19],[105.9,10.16],[105.85,10.3],[106.1,10.25],[106.25,10.08],[106.13,9.95],[106,9.89]]]}},{"type":"Feature","properties":{"id":"VNM-51","nome":"Trà Vinh","pais":"VNM","tipo":"Province","lat":9.83,"lng":106.29},"geometry":{"type":"Polygon","coordinates":[[[106.25,10.08],[106.57,9.74],[106.56,9.61],[106.5,9.55],[106.4,9.54],[106.25,9.63],[106,9.89],[106.13,9.95],[106.25,10.08]]]}},{"type":"Feature","properties":{"id":"VNM-50","nome":"Bến Tre","pais":"VNM","tipo":"Province","lat":10.17,"lng":106.5},"geometry":{"type":"Polygon","coordinates":[[[106.42,10.32],[106.8,10.16],[106.61,9.97],[106.29,10.26],[106.46,10.04],[106.7,9.9],[106.64,9.83],[106.4,9.97],[106.14,10.23],[105.95,10.29],[106.42,10.32]]]}},{"type":"Feature","properties":{"id":"VNM-39","nome":"Đông Nam Bộ","pais":"VNM","tipo":"Region","lat":11.13,"lng":107.18},"geometry":{"type":"Polygon","coordinates":[[[107,10.62],[106.98,10.57],[106.89,10.67],[106.76,10.71],[106.75,10.77],[106.89,10.79],[106.79,11.03],[106.95,11.06],[106.93,11.21],[107.1,11.48],[107.38,11.56],[107.46,11.41],[107.61,11.36],[107.43,11.04],[107.56,10.98],[107.59,10.85],[107.52,10.76],[107.46,10.8],[107.34,10.68],[107.27,10.77],[107.04,10.64],[106.98,10.7],[107,10.62]]]}},{"type":"Feature","properties":{"id":"VNM-40","nome":"Bình Thuận","pais":"VNM","tipo":"Province","lat":11.13,"lng":108.23},"geometry":{"type":"Polygon","coordinates":[[[108.91,11.32],[108.79,11.3],[108.73,11.18],[108.53,11.15],[108.3,10.91],[108.26,10.95],[108.11,10.92],[108,10.7],[107.88,10.72],[107.59,10.57],[107.52,10.76],[107.59,10.91],[107.54,10.99],[107.43,11.04],[107.6,11.36],[108.01,11.3],[108.07,11.2],[108.32,11.36],[108.34,11.51],[108.58,11.51],[108.67,11.56],[108.77,11.41],[108.91,11.32]]]}},{"type":"Feature","properties":{"id":"VNM-36","nome":"Ninh Thuận","pais":"VNM","tipo":"Province","lat":11.62,"lng":108.93},"geometry":{"type":"Polygon","coordinates":[[[109.2,11.79],[109.24,11.74],[109.14,11.57],[109.02,11.63],[109.01,11.34],[108.93,11.31],[108.78,11.4],[108.61,11.61],[108.68,11.73],[108.64,11.84],[108.69,12.16],[108.79,12.15],[108.89,11.94],[109.2,11.79]]]}},{"type":"Feature","properties":{"id":"VNM-32","nome":"Phú Yên","pais":"VNM","tipo":"Province","lat":13.16,"lng":109.06},"geometry":{"type":"Polygon","coordinates":[[[109.24,13.7],[109.29,13.53],[109.21,13.63],[109.34,13.47],[109.31,13.41],[109.25,13.49],[109.23,13.39],[109.31,13.35],[109.26,13.3],[109.29,13.24],[109.32,13.29],[109.31,13.13],[109.46,12.86],[109.2,12.85],[109.07,12.75],[108.86,12.81],[108.66,13],[108.87,13.21],[108.83,13.56],[108.98,13.54],[109.24,13.7]]]}},{"type":"Feature","properties":{"id":"VNM-31","nome":"Bình Định","pais":"VNM","tipo":"Province","lat":14.11,"lng":108.97},"geometry":{"type":"Polygon","coordinates":[[[109.08,14.67],[109.06,14.56],[109.24,14.13],[109.17,14.17],[109.31,13.88],[109.3,13.76],[109.25,13.89],[109.24,13.7],[108.91,13.54],[108.83,13.56],[108.8,13.77],[108.64,14.11],[108.67,14.6],[108.81,14.67],[109.08,14.67]]]}},{"type":"Feature","properties":{"id":"VNM-29","nome":"Quảng Ngãi","pais":"VNM","tipo":"Province","lat":15,"lng":108.69},"geometry":{"type":"Polygon","coordinates":[[[108.76,15.4],[108.78,15.33],[108.83,15.43],[108.95,15.25],[108.86,15.15],[108.91,15.15],[108.99,14.84],[109.1,14.67],[108.81,14.67],[108.67,14.6],[108.55,14.83],[108.3,15.05],[108.33,15.1],[108.28,15.18],[108.37,15.31],[108.76,15.4]]]}},{"type":"Feature","properties":{"id":"VNM-DN","nome":"Đà Nẵng","pais":"VNM","tipo":"City|Municipality|Thanh Pho","lat":16.09,"lng":108.1},"geometry":{"type":"Polygon","coordinates":[[[108.2,16.21],[108.14,16.15],[108.23,16.09],[108.2,16],[108.26,16.01],[108.25,16.16],[108.35,16.13],[108.27,16.11],[108.28,15.99],[108.06,15.98],[108,16.09],[107.86,16.09],[107.95,16.22],[108.2,16.21]]]}},{"type":"Feature","properties":{"id":"VNM-18","nome":"Ninh Bình","pais":"VNM","tipo":"Province","lat":20.27,"lng":105.85},"geometry":{"type":"Polygon","coordinates":[[[106.11,20.03],[106.05,19.98],[106.06,20.06],[105.82,20.16],[105.54,20.37],[105.7,20.32],[105.71,20.42],[105.84,20.42],[105.98,20.27],[106.16,20.22],[106.11,20.03]]]}},{"type":"Feature","properties":{"id":"VNM-67","nome":"Nam Định","pais":"VNM","tipo":"Province","lat":20.23,"lng":106.25},"geometry":{"type":"Polygon","coordinates":[[[106.5,20.3],[106.57,20.23],[106.38,20.21],[106.11,19.96],[106.16,20.22],[105.96,20.28],[105.95,20.39],[106.07,20.48],[106.18,20.49],[106.28,20.39],[106.27,20.33],[106.35,20.36],[106.5,20.3]]]}},{"type":"Feature","properties":{"id":"VNM-20","nome":"Thái Bình","pais":"VNM","tipo":"Province","lat":20.53,"lng":106.37},"geometry":{"type":"Polygon","coordinates":[[[106.59,20.65],[106.62,20.59],[106.52,20.54],[106.58,20.55],[106.52,20.44],[106.59,20.45],[106.58,20.26],[106.35,20.36],[106.27,20.33],[106.28,20.39],[106.22,20.41],[106.11,20.63],[106.42,20.72],[106.47,20.6],[106.59,20.65]]]}},{"type":"Feature","properties":{"id":"VNM-HP","nome":"Hải Phòng","pais":"VNM","tipo":"Province","lat":20.79,"lng":106.64},"geometry":{"type":"Polygon","coordinates":[[[106.65,21.02],[106.76,20.94],[106.7,20.88],[106.81,20.68],[106.66,20.7],[106.7,20.67],[106.67,20.64],[106.59,20.66],[106.47,20.6],[106.42,20.72],[106.54,20.78],[106.5,20.86],[106.61,21.03],[106.65,21.02]]]}},{"type":"Feature","properties":{"id":"VNM-14","nome":"Hòa Bình","pais":"VNM","tipo":"Province","lat":20.73,"lng":105.34},"geometry":{"type":"Polygon","coordinates":[[[105.84,20.42],[105.71,20.42],[105.67,20.32],[105.31,20.46],[105.15,20.59],[104.84,20.63],[104.86,20.73],[105.09,20.79],[104.91,20.96],[104.91,21.1],[105.14,20.94],[105.33,20.92],[105.31,21.01],[105.38,21.02],[105.5,20.99],[105.52,20.83],[105.79,20.57],[105.84,20.42]]]}},{"type":"Feature","properties":{"id":"VNM-07","nome":"Tuyên Quang","pais":"VNM","tipo":"Province","lat":22.13,"lng":105.23},"geometry":{"type":"Polygon","coordinates":[[[105.11,21.7],[105.09,21.81],[104.85,22.17],[104.95,22.34],[105.05,22.36],[105.18,22.65],[105.57,22.59],[105.61,22.47],[105.5,22.3],[105.49,22.15],[105.56,21.95],[105.52,21.61],[105.58,21.54],[105.32,21.51],[105.11,21.7]]]}},{"type":"Feature","properties":{"id":"VNM-06","nome":"Yên Bái","pais":"VNM","tipo":"Province","lat":21.75,"lng":104.51},"geometry":{"type":"Polygon","coordinates":[[[104.85,22.17],[105.09,21.81],[105.11,21.7],[104.9,21.6],[104.92,21.4],[104.83,21.33],[104.74,21.39],[104.58,21.41],[104.47,21.36],[104.36,21.42],[104.31,21.5],[104.35,21.67],[104.31,21.71],[104.17,21.66],[103.93,21.72],[103.91,21.86],[103.98,21.97],[104.2,21.89],[104.23,21.96],[104.39,21.9],[104.44,21.97],[104.4,22.13],[104.57,22.1],[104.65,22.17],[104.65,22.27],[104.85,22.17]]]}},{"type":"Feature","properties":{"id":"VNM-70","nome":"Vĩnh Phúc","pais":"VNM","tipo":"Province","lat":21.35,"lng":105.55},"geometry":{"type":"Polygon","coordinates":[[[105.43,21.28],[105.46,21.31],[105.32,21.51],[105.58,21.54],[105.76,21.38],[105.76,21.1],[105.49,21.17],[105.43,21.28]]]}},{"type":"Feature","properties":{"id":"VNM-68","nome":"Phú Thọ","pais":"VNM","tipo":"Province","lat":21.31,"lng":105.14},"geometry":{"type":"Polygon","coordinates":[[[105.32,21.51],[105.46,21.3],[105.35,21.3],[105.28,21.19],[105.33,20.92],[105.14,20.94],[104.87,21.14],[104.83,21.33],[104.92,21.4],[104.89,21.57],[105.11,21.7],[105.32,21.51]]]}},{"type":"Feature","properties":{"id":"VNM-HN","nome":"Ha Noi","pais":"VNM","tipo":"Province","lat":21.13,"lng":105.87},"geometry":{"type":"Polygon","coordinates":[[[105.79,20.57],[105.52,20.83],[105.5,20.99],[105.29,21.04],[105.28,21.19],[105.35,21.3],[105.41,21.31],[105.49,21.17],[105.76,21.1],[105.77,21.36],[105.92,21.33],[105.92,21.15],[106.01,21.02],[105.9,20.91],[106.01,20.71],[105.83,20.66],[105.79,20.57]]]}},{"type":"Feature","properties":{"id":"VNM-53","nome":"Đông Bắc","pais":"VNM","tipo":"Region","lat":22.15,"lng":105.87},"geometry":{"type":"Polygon","coordinates":[[[105.56,21.95],[105.49,22.27],[105.61,22.47],[105.57,22.59],[105.65,22.68],[105.77,22.71],[105.77,22.62],[105.86,22.48],[106.11,22.53],[106.26,22.26],[106.12,22.05],[106.11,21.95],[105.81,21.78],[105.73,22.02],[105.56,21.95]]]}},{"type":"Feature","properties":{"id":"VNM-66","nome":"Đồng Bằng Sông Hồng","pais":"VNM","tipo":"Region","lat":20.81,"lng":106.08},"geometry":{"type":"Polygon","coordinates":[[[106.26,20.7],[106.06,20.62],[105.92,20.81],[105.91,20.97],[106.15,21],[106.13,20.81],[106.26,20.7]]]}},{"type":"Feature","properties":{"id":"VNM-56","nome":"Bắc Ninh","pais":"VNM","tipo":"Province","lat":21.1,"lng":106.12},"geometry":{"type":"Polygon","coordinates":[[[106.15,21],[106,20.99],[105.92,21.15],[105.94,21.25],[106.3,21.13],[106.3,21],[106.15,21]]]}},{"type":"Feature","properties":{"id":"VNM-54","nome":"Bắc Giang","pais":"VNM","tipo":"Province","lat":21.35,"lng":106.49},"geometry":{"type":"Polygon","coordinates":[[[107.07,21.36],[106.95,21.19],[106.76,21.16],[106.42,21.23],[106.3,21.13],[105.94,21.25],[105.92,21.33],[106.07,21.46],[106.05,21.63],[106.14,21.62],[106.17,21.52],[106.4,21.41],[106.58,21.6],[106.75,21.55],[106.83,21.6],[106.92,21.45],[107.01,21.44],[107.07,21.36]]]}},{"type":"Feature","properties":{"id":"VNM-69","nome":"Thái Nguyên","pais":"VNM","tipo":"Province","lat":21.58,"lng":105.89},"geometry":{"type":"Polygon","coordinates":[[[105.58,21.54],[105.52,21.64],[105.53,21.87],[105.56,21.95],[105.68,22.03],[105.77,21.98],[105.81,21.78],[106.11,21.95],[106.14,21.81],[106.26,21.68],[106.17,21.57],[106.14,21.62],[106.04,21.63],[106.07,21.46],[105.92,21.33],[105.77,21.36],[105.58,21.54]]]}},{"type":"Feature","properties":{"id":"VNM-61","nome":"Hải Dương","pais":"VNM","tipo":"Province","lat":20.96,"lng":106.36},"geometry":{"type":"Polygon","coordinates":[[[106.42,20.72],[106.26,20.7],[106.12,20.83],[106.15,21],[106.3,21],[106.33,21.19],[106.46,21.23],[106.55,21.19],[106.44,21.06],[106.61,21.03],[106.49,20.84],[106.54,20.78],[106.42,20.72]]]}},{"type":"Feature","properties":{"id":"VNM-63","nome":"Hà Nam","pais":"VNM","tipo":"Province","lat":20.56,"lng":105.99},"geometry":{"type":"Polygon","coordinates":[[[105.95,20.34],[105.84,20.42],[105.79,20.57],[105.83,20.66],[106.02,20.71],[106.18,20.49],[105.98,20.43],[105.95,20.34]]]}},{"type":"Feature","properties":{"id":"VNM-57","nome":"Bình Dương","pais":"VNM","tipo":"Province","lat":11.14,"lng":106.66},"geometry":{"type":"Polygon","coordinates":[[[106.59,11.03],[106.51,11.14],[106.43,11.12],[106.35,11.27],[106.35,11.38],[106.46,11.55],[106.62,11.43],[106.64,11.32],[106.7,11.36],[106.72,11.31],[106.79,11.34],[106.96,11.28],[106.95,11.06],[106.78,11.03],[106.84,10.89],[106.71,10.88],[106.59,11.03]]]}},{"type":"Feature","properties":{"id":"VNM-35","nome":"Lâm Đồng","pais":"VNM","tipo":"Province","lat":11.54,"lng":108},"geometry":{"type":"Polygon","coordinates":[[[108.72,12.18],[108.64,11.84],[108.68,11.73],[108.61,11.64],[108.6,11.52],[108.34,11.51],[108.34,11.37],[108.08,11.21],[108.01,11.3],[107.73,11.32],[107.46,11.41],[107.46,11.48],[107.28,11.63],[107.33,11.72],[107.56,11.79],[107.7,11.91],[108.01,11.77],[108.09,11.92],[107.99,12.06],[108,12.13],[108.24,12.16],[108.52,12.3],[108.69,12.3],[108.72,12.18]]]}},{"type":"Feature","properties":{"id":"VNM-CT","nome":"Can Tho","pais":"VNM","tipo":"Province","lat":10.24,"lng":105.69},"geometry":{"type":"Polygon","coordinates":[[[105.42,10.04],[105.24,10.2],[105.32,10.28],[105.38,10.23],[105.47,10.28],[105.58,10.45],[105.71,10.4],[105.91,10.21],[105.87,10.14],[105.73,10.19],[105.69,10.12],[105.42,10.04]]]}}]}