{"type":"FeatureCollection","features":[{"type":"Feature","properties":{"id":"VUT-TAE","nome":"Tafea","pais":"VUT","tipo":"Province","lat":-20.19,"lng":169.82},"geometry":{"type":"MultiPolygon","coordinates":[[[[169.43,-19.49],[169.5,-19.53],[169.44,-19.66],[169.22,-19.49],[169.24,-19.34],[169.34,-19.31],[169.36,-19.46],[169.43,-19.49]]],[[[169.34,-18.93],[169.28,-19],[168.99,-18.88],[169.01,-18.65],[169.15,-18.64],[169.17,-18.73],[169.27,-18.77],[169.19,-18.79],[169.34,-18.93]]]]}},{"type":"Feature","properties":{"id":"VUT-SEE","nome":"Shefa","pais":"VUT","tipo":"Province","lat":-16.74,"lng":168.3},"geometry":{"type":"MultiPolygon","coordinates":[[[[168.55,-17.69],[168.59,-17.7],[168.55,-17.78],[168.48,-17.82],[168.39,-17.82],[168.32,-17.76],[168.25,-17.79],[168.31,-17.73],[168.25,-17.7],[168.15,-17.72],[168.32,-17.53],[168.45,-17.55],[168.55,-17.69]]],[[[168.19,-16.81],[168.12,-16.71],[168.14,-16.57],[168.25,-16.69],[168.48,-16.8],[168.47,-16.85],[168.33,-16.79],[168.19,-16.81]]]]}},{"type":"Feature","properties":{"id":"VUT-MAP","nome":"Malampa","pais":"VUT","tipo":"Province","lat":-16.38,"lng":167.49},"geometry":{"type":"MultiPolygon","coordinates":[[[[168.18,-16.35],[168.02,-16.33],[167.91,-16.23],[168.17,-16.08],[168.23,-16.23],[168.33,-16.31],[168.18,-16.35]]],[[[167.81,-16.42],[167.84,-16.46],[167.76,-16.55],[167.62,-16.49],[167.52,-16.58],[167.46,-16.57],[167.37,-16.19],[167.32,-16.12],[167.23,-16.17],[167.15,-16.08],[167.19,-15.89],[167.34,-15.91],[167.4,-16.09],[167.77,-16.34],[167.79,-16.47],[167.81,-16.42]]]]}},{"type":"Feature","properties":{"id":"VUT-SAM","nome":"Sanma","pais":"VUT","tipo":"Province","lat":-15.68,"lng":167.16},"geometry":{"type":"Polygon","coordinates":[[[167.14,-15.54],[166.82,-15.66],[166.75,-15.63],[166.62,-15.39],[166.65,-15.22],[166.52,-14.83],[166.56,-14.65],[166.61,-14.63],[166.75,-14.82],[166.81,-15.16],[166.92,-15.16],[166.96,-14.95],[167.08,-14.93],[167.04,-15.03],[167.09,-15.14],[167.14,-15.13],[167.17,-15.37],[167.25,-15.5],[167.14,-15.54]]]}},{"type":"Feature","properties":{"id":"VUT-PAM","nome":"Penama","pais":"VUT","tipo":"Province","lat":-15.76,"lng":168.2},"geometry":{"type":"MultiPolygon","coordinates":[[[[168.19,-15.52],[168.27,-15.91],[168.2,-15.99],[168.12,-15.66],[168.15,-15.46],[168.19,-15.52]]],[[[167.94,-15.39],[167.84,-15.48],[167.67,-15.45],[167.8,-15.32],[168,-15.28],[167.94,-15.39]]],[[[168.1,-14.98],[168.11,-14.92],[168.19,-15.21],[168.18,-15.4],[168.13,-15.4],[168.1,-14.98]]]]}},{"type":"Feature","properties":{"id":"VUT-TOB","nome":"Torba","pais":"VUT","tipo":"Province","lat":-14.23,"lng":167.5},"geometry":{"type":"MultiPolygon","coordinates":[[[[167.51,-14.14],[167.6,-14.19],[167.56,-14.3],[167.4,-14.31],[167.41,-14.19],[167.51,-14.14]]],[[[167.45,-13.92],[167.39,-13.78],[167.49,-13.71],[167.59,-13.86],[167.45,-13.92]]]]}}]}