{"type":"FeatureCollection","features":[{"type":"Feature","properties":{"id":"WSM-GI","nome":"Gaga'ifomauga","pais":"WSM","tipo":"Estado","lat":-13.55,"lng":-172.47},"geometry":{"type":"Polygon","coordinates":[[[-172.64,-13.52],[-172.37,-13.46],[-172.41,-13.64],[-172.58,-13.63],[-172.64,-13.52]]]}},{"type":"Feature","properties":{"id":"WSM-VS","nome":"Vaisigano","pais":"WSM","tipo":"Estado","lat":-13.56,"lng":-172.7},"geometry":{"type":"Polygon","coordinates":[[[-172.7,-13.62],[-172.78,-13.52],[-172.64,-13.52],[-172.63,-13.6],[-172.7,-13.62]]]}},{"type":"Feature","properties":{"id":"WSM-PA","nome":"Palauli","pais":"WSM","tipo":"Estado","lat":-13.72,"lng":-172.45},"geometry":{"type":"Polygon","coordinates":[[[-172.35,-13.78],[-172.52,-13.81],[-172.61,-13.69],[-172.58,-13.63],[-172.39,-13.64],[-172.35,-13.78]]]}},{"type":"Feature","properties":{"id":"WSM-FA","nome":"Fa'asaleleaga","pais":"WSM","tipo":"Estado","lat":-13.65,"lng":-172.24},"geometry":{"type":"Polygon","coordinates":[[[-172.22,-13.56],[-172.18,-13.68],[-172.21,-13.8],[-172.31,-13.64],[-172.3,-13.56],[-172.22,-13.56]]]}},{"type":"Feature","properties":{"id":"WSM-AT","nome":"Atua","pais":"WSM","tipo":"Estado","lat":-14.02,"lng":-171.59},"geometry":{"type":"Polygon","coordinates":[[[-171.57,-13.9],[-171.59,-13.97],[-171.47,-13.97],[-171.44,-14.05],[-171.65,-14.05],[-171.65,-13.87],[-171.57,-13.9]]]}},{"type":"Feature","properties":{"id":"WSM-TU","nome":"Tuamasaga","pais":"WSM","tipo":"Estado","lat":-13.94,"lng":-171.75},"geometry":{"type":"Polygon","coordinates":[[[-171.79,-13.82],[-171.65,-13.87],[-171.65,-14.05],[-171.85,-14],[-171.86,-13.81],[-171.79,-13.87],[-171.79,-13.82]]]}},{"type":"Feature","properties":{"id":"WSM-AL","nome":"Aiga-i-le-Tai","pais":"WSM","tipo":"Estado","lat":-13.89,"lng":-172.04},"geometry":{"type":"Polygon","coordinates":[[[-172.03,-13.84],[-171.97,-13.87],[-172.04,-13.92],[-172.03,-13.84]]]}}]}