{"type":"FeatureCollection","features":[{"type":"Feature","properties":{"id":"YEM-HD","nome":"Hadramawt","pais":"YEM","tipo":"Governorate","lat":16.38,"lng":48.91},"geometry":{"type":"MultiPolygon","coordinates":[[[[51.98,19],[51.71,18.6],[51.26,17.34],[51.13,17.15],[50.29,16.51],[50.23,16.11],[50.3,16],[50.19,15.61],[50.34,15.5],[50.26,15.33],[50.34,15.27],[50.71,15.27],[50.8,15.1],[50.46,15.01],[50.18,14.84],[49.94,14.84],[49.58,14.74],[49.18,14.52],[49.11,14.53],[49,14.32],[48.67,14.04],[48.58,14.23],[48.19,14.34],[48.05,14.54],[47.74,14.6],[47.49,14.79],[47.68,15.01],[47.62,15.17],[47.84,15.65],[46.34,15.57],[47.04,16.35],[47,16.95],[47.16,16.95],[47.43,17.09],[47.59,17.46],[48.18,18.16],[49.13,18.61],[51.98,19]]],[[[54.47,12.54],[54.54,12.55],[54.14,12.35],[53.73,12.3],[53.57,12.33],[53.31,12.54],[53.39,12.56],[53.4,12.66],[53.52,12.71],[53.65,12.7],[53.85,12.6],[53.88,12.65],[54.12,12.7],[54.47,12.54]]]]}},{"type":"Feature","properties":{"id":"YEM-MR","nome":"Al Mahrah","pais":"YEM","tipo":"Governorate","lat":16.88,"lng":51.64},"geometry":{"type":"Polygon","coordinates":[[[51.99,18.98],[52.72,17.3],[52.8,17.27],[53.09,16.64],[52.53,16.45],[52.32,16.29],[52.16,15.98],[52.22,15.85],[52.23,15.62],[51.76,15.45],[51.67,15.39],[51.68,15.34],[50.8,15.1],[50.71,15.27],[50.28,15.29],[50.26,15.36],[50.34,15.5],[50.19,15.61],[50.3,16],[50.23,16.11],[50.31,16.55],[50.65,16.75],[51.13,17.15],[51.26,17.34],[51.71,18.6],[51.99,18.98]]]}},{"type":"Feature","properties":{"id":"YEM-SD","nome":"Sa`dah","pais":"YEM","tipo":"Governorate","lat":16.99,"lng":44.04},"geometry":{"type":"Polygon","coordinates":[[[43.43,17.52],[43.62,17.46],[43.73,17.35],[43.89,17.35],[43.92,17.3],[44.15,17.4],[44.97,17.43],[44.95,17.11],[44.49,16.98],[44.25,16.77],[44.19,16.63],[43.82,16.68],[43.6,16.61],[43.39,16.62],[43.19,16.68],[43.21,16.8],[43.11,16.93],[43.16,17.21],[43.25,17.27],[43.17,17.33],[43.43,17.52]]]}},{"type":"Feature","properties":{"id":"YEM-HJ","nome":"Hajjah","pais":"YEM","tipo":"Governorate","lat":16.18,"lng":43.18},"geometry":{"type":"Polygon","coordinates":[[[43.16,16.66],[43.6,16.61],[43.61,16.21],[43.7,16.01],[43.66,15.95],[43.75,15.97],[43.82,15.73],[43.79,15.66],[43.72,15.64],[43.71,15.53],[43.31,15.51],[43.31,15.84],[43,15.82],[42.83,15.91],[42.79,16.37],[43.04,16.54],[43.08,16.67],[43.16,16.66]]]}},{"type":"Feature","properties":{"id":"YEM-JA","nome":"Al Jawf","pais":"YEM","tipo":"Governorate","lat":16.56,"lng":45.61},"geometry":{"type":"Polygon","coordinates":[[[44.97,17.43],[45.22,17.42],[45.43,17.31],[46.32,17.22],[46.71,17.28],[47,16.95],[47.04,16.35],[46.83,16.15],[45.99,16],[45.69,15.9],[45.56,15.79],[45.24,15.81],[44.59,16.05],[44.43,16.03],[44.35,16.2],[44.33,16.52],[44.19,16.63],[44.22,16.72],[44.49,16.98],[44.95,17.11],[44.97,17.43]]]}},{"type":"Feature","properties":{"id":"YEM-HU","nome":"Al Hudaydah","pais":"YEM","tipo":"Governorate","lat":14.93,"lng":43.22},"geometry":{"type":"Polygon","coordinates":[[[43.28,13.66],[42.96,14.51],[43.02,14.44],[43,14.66],[42.88,14.88],[42.95,14.81],[42.88,15.12],[42.73,15.21],[42.64,15.19],[42.61,15.24],[42.68,15.25],[42.71,15.37],[42.7,15.31],[42.79,15.21],[42.81,15.34],[42.69,15.7],[42.83,15.91],[43,15.82],[43.31,15.84],[43.33,15.31],[43.55,15.06],[43.72,14.97],[43.54,14.8],[43.6,14.43],[43.53,14.36],[43.58,14.16],[43.73,14.08],[43.8,14.11],[43.8,14.04],[43.7,13.98],[43.72,13.92],[43.54,13.88],[43.44,13.75],[43.28,13.66]]]}},{"type":"Feature","properties":{"id":"YEM-TA","nome":"Ta`izz","pais":"YEM","tipo":"Governorate","lat":13.43,"lng":43.73},"geometry":{"type":"Polygon","coordinates":[[[43.53,12.7],[43.46,12.69],[43.47,12.85],[43.23,13.28],[43.28,13.66],[43.44,13.75],[43.54,13.88],[43.68,13.91],[43.71,13.86],[43.89,13.88],[43.96,13.8],[44.32,13.7],[44.41,13.76],[44.41,13.64],[44.53,13.58],[44.38,13.47],[44.45,13.39],[44.35,13.37],[44.36,13.25],[44.2,13.23],[44.09,13.09],[44.02,13.11],[44.02,13.05],[43.86,13.12],[43.74,13.07],[43.53,12.7]]]}},{"type":"Feature","properties":{"id":"YEM-LA","nome":"Lahij","pais":"YEM","tipo":"Governorate","lat":13.18,"lng":44.66},"geometry":{"type":"Polygon","coordinates":[[[44.41,12.67],[43.95,12.6],[43.61,12.75],[43.53,12.7],[43.74,13.07],[43.86,13.12],[44.02,13.05],[44.02,13.11],[44.09,13.09],[44.2,13.23],[44.36,13.25],[44.35,13.37],[44.45,13.39],[44.38,13.47],[44.53,13.58],[44.63,13.52],[44.85,13.59],[44.86,13.71],[45.08,13.8],[45.18,13.96],[45.4,14.02],[45.36,13.8],[45.22,13.67],[45.3,13.63],[45.21,13.51],[45.25,13.4],[45.13,13.16],[45.09,12.92],[44.53,12.8],[44.41,12.67]]]}},{"type":"Feature","properties":{"id":"YEM-AD","nome":"`Adan","pais":"YEM","tipo":"Governorate","lat":12.81,"lng":44.75},"geometry":{"type":"Polygon","coordinates":[[[45.09,12.92],[45.06,12.76],[44.98,12.78],[45.04,12.8],[45.02,12.86],[44.87,12.8],[44.92,12.77],[44.88,12.73],[44.73,12.74],[44.61,12.82],[44.42,12.67],[44.53,12.8],[45.09,12.92]]]}},{"type":"Feature","properties":{"id":"YEM-AB","nome":"Abyan","pais":"YEM","tipo":"Governorate","lat":13.83,"lng":46.21},"geometry":{"type":"Polygon","coordinates":[[[47.32,13.63],[46.68,13.43],[46.23,13.44],[45.67,13.34],[45.4,13.07],[45.1,12.94],[45.13,13.16],[45.25,13.4],[45.21,13.51],[45.3,13.63],[45.22,13.67],[45.36,13.8],[45.37,13.89],[45.71,13.83],[45.99,14.02],[46.04,14.19],[46.37,14.3],[46.49,14.13],[46.87,14.21],[47.24,14.14],[47.22,13.95],[47.32,13.63]]]}},{"type":"Feature","properties":{"id":"YEM-SH","nome":"Shabwah","pais":"YEM","tipo":"Governorate","lat":14.9,"lng":47.1},"geometry":{"type":"Polygon","coordinates":[[[48.68,14.04],[48.19,13.97],[48.02,14.06],[47.67,13.89],[47.32,13.63],[47.22,13.95],[47.24,14.14],[46.87,14.21],[46.49,14.13],[46.4,14.3],[46.04,14.19],[46,14.29],[45.86,14.36],[45.78,14.54],[45.7,14.58],[45.72,14.66],[45.53,14.72],[45.54,14.88],[45.61,15.06],[46.34,15.57],[47.75,15.68],[47.85,15.61],[47.64,15.28],[47.61,15.12],[47.68,15.01],[47.49,14.79],[47.74,14.6],[48.05,14.54],[48.19,14.34],[48.58,14.23],[48.68,14.04]]]}},{"type":"Feature","properties":{"id":"YEM-MA","nome":"Ma'rib","pais":"YEM","tipo":"Governorate","lat":15.54,"lng":45.74},"geometry":{"type":"Polygon","coordinates":[[[45.45,15.78],[45.99,16],[46.83,16.15],[46.34,15.57],[45.61,15.06],[45.54,14.88],[45.57,14.69],[45.5,14.65],[45.51,14.59],[45.18,14.5],[45.11,14.77],[45.01,14.81],[45,14.92],[45.15,15.11],[45.15,15.24],[44.92,15.37],[44.81,15.32],[44.65,15.41],[44.83,15.6],[44.74,15.71],[44.66,16.01],[45.45,15.78]]]}},{"type":"Feature","properties":{"id":"YEM-SN","nome":"Sana'a","pais":"YEM","tipo":"Governorate","lat":15.23,"lng":44.37},"geometry":{"type":"Polygon","coordinates":[[[44.51,16.06],[44.66,16.01],[44.74,15.71],[44.83,15.6],[44.65,15.41],[44.81,15.32],[44.92,15.37],[45.15,15.24],[45.16,15.14],[45,14.93],[45.01,14.81],[44.87,14.76],[44.78,14.97],[44.71,15.03],[44.51,14.93],[44.41,14.98],[44.36,14.92],[44.16,14.99],[43.92,14.86],[43.73,14.88],[43.72,14.97],[43.57,15.04],[43.62,15.2],[43.95,15.4],[44.01,15.56],[44.17,15.62],[44.25,15.8],[44.25,15.97],[44.51,16.06]],[[44.37,15.53],[44.39,15.57],[44.31,15.61],[44.12,15.46],[44.18,15.29],[44.26,15.32],[44.23,15.43],[44.28,15.51],[44.37,15.53]]]}},{"type":"Feature","properties":{"id":"YEM-RA","nome":"Raymah","pais":"YEM","tipo":"Governorate","lat":14.67,"lng":43.76},"geometry":{"type":"Polygon","coordinates":[[[43.63,14.93],[43.82,14.85],[43.98,14.6],[43.83,14.46],[43.56,14.37],[43.6,14.46],[43.54,14.8],[43.63,14.93]]]}},{"type":"Feature","properties":{"id":"YEM-BA","nome":"Al Bayda'","pais":"YEM","tipo":"Governorate","lat":14.29,"lng":45.34},"geometry":{"type":"Polygon","coordinates":[[[45.01,14.81],[45.11,14.77],[45.18,14.5],[45.51,14.59],[45.5,14.65],[45.57,14.69],[45.7,14.68],[45.7,14.58],[45.78,14.54],[45.86,14.36],[46,14.29],[46.04,14.19],[45.99,14.02],[45.64,13.82],[45.41,13.9],[45.38,14.03],[45.18,13.96],[45.01,14.21],[44.67,14.19],[44.63,14.28],[44.75,14.43],[44.79,14.67],[45.01,14.81]]]}},{"type":"Feature","properties":{"id":"YEM-AM","nome":"Amran","pais":"YEM","tipo":"Governorate","lat":16.09,"lng":44.01},"geometry":{"type":"Polygon","coordinates":[[[43.82,16.68],[44.19,16.63],[44.33,16.53],[44.35,16.2],[44.43,16.03],[44.25,15.97],[44.25,15.8],[44.17,15.62],[43.98,15.5],[43.86,15.56],[43.71,15.53],[43.72,15.64],[43.79,15.66],[43.82,15.73],[43.75,15.97],[43.66,15.95],[43.7,16.01],[43.61,16.21],[43.6,16.61],[43.82,16.68]]]}},{"type":"Feature","properties":{"id":"YEM-DA","nome":"Al Dali'","pais":"YEM","tipo":"Governorate","lat":13.9,"lng":44.79},"geometry":{"type":"Polygon","coordinates":[[[44.91,14.22],[45.01,14.21],[45.17,14.01],[45.12,13.83],[44.86,13.71],[44.85,13.59],[44.65,13.52],[44.43,13.63],[44.41,13.79],[44.51,13.95],[44.62,13.98],[44.65,14.12],[44.91,14.22]]]}},{"type":"Feature","properties":{"id":"YEM-IB","nome":"Ibb","pais":"YEM","tipo":"Governorate","lat":14.05,"lng":44.2},"geometry":{"type":"Polygon","coordinates":[[[43.74,13.97],[43.87,14.25],[43.88,14.2],[43.95,14.21],[43.96,14.34],[44.1,14.43],[44.16,14.36],[44.27,14.44],[44.66,14.26],[44.72,14.16],[44.62,14.06],[44.62,13.98],[44.51,13.95],[44.35,13.71],[43.96,13.8],[43.89,13.88],[43.71,13.86],[43.7,13.98],[43.74,13.97]]]}},{"type":"Feature","properties":{"id":"YEM-MW","nome":"Al Mahwit","pais":"YEM","tipo":"Governorate","lat":15.38,"lng":43.65},"geometry":{"type":"Polygon","coordinates":[[[43.57,15.04],[43.33,15.31],[43.31,15.51],[43.86,15.56],[43.98,15.5],[43.95,15.4],[43.64,15.22],[43.57,15.04]]]}},{"type":"Feature","properties":{"id":"YEM-DH","nome":"Dhamar","pais":"YEM","tipo":"Governorate","lat":14.68,"lng":44.2},"geometry":{"type":"Polygon","coordinates":[[[43.73,14.08],[43.58,14.16],[43.53,14.36],[43.83,14.46],[43.97,14.57],[43.84,14.86],[44.16,14.99],[44.36,14.92],[44.41,14.98],[44.51,14.93],[44.64,15.03],[44.76,15.01],[44.87,14.76],[44.79,14.67],[44.75,14.43],[44.63,14.28],[44.25,14.44],[44.14,14.36],[44.1,14.43],[43.96,14.34],[43.95,14.21],[43.88,14.2],[43.87,14.25],[43.73,14.08]]]}},{"type":"Feature","properties":{"id":"YEM-SA","nome":"Amanat Al Asimah","pais":"YEM","tipo":"Governorate","lat":15.35,"lng":44.21},"geometry":{"type":"Polygon","coordinates":[[[44.32,15.61],[44.4,15.55],[44.28,15.51],[44.23,15.43],[44.26,15.32],[44.18,15.29],[44.12,15.46],[44.32,15.61]]]}}]}