{"type":"FeatureCollection","features":[{"type":"Feature","properties":{"id":"ZWE-MN","nome":"Matabeleland North","pais":"ZWE","tipo":"Province","lat":-18.76,"lng":27.22},"geometry":{"type":"Polygon","coordinates":[[[25.97,-19],[25.82,-18.81],[25.76,-18.63],[25.51,-18.4],[25.39,-18.14],[25.26,-18],[25.22,-17.88],[25.26,-17.79],[25.52,-17.86],[25.68,-17.81],[25.92,-18],[26.21,-17.88],[26.71,-18.07],[27.05,-17.94],[27.16,-17.77],[27.58,-17.36],[27.78,-17],[28.02,-16.87],[28.04,-17.09],[28.14,-17.15],[28.16,-17.31],[28.25,-17.41],[28.2,-17.69],[28.09,-17.75],[28.01,-18],[28.11,-18.2],[28.01,-18.22],[28.01,-18.54],[29.12,-18.57],[29.13,-18.63],[28.88,-18.75],[28.94,-19.01],[29.02,-19.1],[29,-19.18],[29.22,-19.49],[29.09,-19.5],[29.09,-19.81],[28.96,-19.84],[28.97,-19.97],[28.84,-20.04],[28.67,-20.28],[28.6,-20.24],[28.7,-20.2],[28.66,-20.09],[28.42,-20.03],[28.39,-20.16],[28.51,-20.2],[28.33,-20.34],[28.14,-20.08],[28,-20.12],[27.95,-20.06],[27.91,-20.19],[27.83,-20.18],[27.53,-19.86],[27.39,-19.81],[26.94,-19.81],[26.68,-19.89],[26.6,-19.86],[26.31,-19.65],[26.31,-19.58],[26.16,-19.54],[25.95,-19.1],[25.97,-19]]]}},{"type":"Feature","properties":{"id":"ZWE-MS","nome":"Matabeleland South","pais":"ZWE","tipo":"Province","lat":-20.89,"lng":28.89},"geometry":{"type":"Polygon","coordinates":[[[26.96,-20.01],[26.68,-19.89],[26.94,-19.81],[27.37,-19.8],[27.53,-19.86],[27.83,-20.18],[27.91,-20.19],[27.95,-20.06],[28,-20.12],[28.14,-20.08],[28.33,-20.34],[28.5,-20.23],[28.67,-20.28],[28.84,-20.04],[28.97,-19.97],[28.96,-19.84],[29.09,-19.81],[29.09,-19.5],[29.22,-19.49],[29.41,-19.74],[29.43,-19.88],[29.69,-19.92],[29.71,-19.98],[29.8,-19.96],[29.87,-20.04],[29.73,-20.47],[29.69,-20.52],[29.63,-20.49],[29.59,-20.61],[29.62,-20.67],[29.68,-20.66],[29.63,-20.9],[29.47,-21.02],[29.73,-21.02],[30.11,-21.5],[30.63,-21.75],[30.78,-22.01],[30.91,-22.08],[31.1,-22.33],[30.84,-22.28],[30.33,-22.34],[29.76,-22.13],[29.36,-22.19],[29.24,-22.07],[29.04,-22.02],[29.04,-21.8],[28.62,-21.65],[28.02,-21.57],[27.88,-21.31],[27.67,-21.07],[27.7,-20.51],[27.27,-20.5],[27.28,-20.35],[27.21,-20.11],[26.96,-20.01]]]}},{"type":"Feature","properties":{"id":"ZWE-MV","nome":"Masvingo","pais":"ZWE","tipo":"Province","lat":-20.78,"lng":31.09},"geometry":{"type":"Polygon","coordinates":[[[31.22,-22.36],[31.05,-22.3],[31.01,-22.19],[30.78,-22.01],[30.63,-21.75],[30.11,-21.5],[29.73,-21.02],[29.97,-20.91],[30.16,-21.03],[30.33,-21.04],[30.44,-20.94],[30.49,-20.69],[30.46,-20.54],[30.23,-20.32],[30.23,-20.2],[30.15,-20.2],[30.17,-20.05],[30.43,-19.99],[30.47,-19.85],[30.7,-19.86],[30.76,-19.42],[30.71,-19.39],[30.96,-19.16],[31.01,-19.16],[31,-19.25],[31.2,-19.25],[31.7,-19.5],[32.02,-19.86],[32.34,-20.02],[32.27,-20.59],[32.14,-20.93],[32.3,-21.21],[32.41,-21.29],[31.43,-22.3],[31.29,-22.4],[31.22,-22.36]]]}},{"type":"Feature","properties":{"id":"ZWE-MW","nome":"Mashonaland West","pais":"ZWE","tipo":"Province","lat":-17.02,"lng":29.5},"geometry":{"type":"Polygon","coordinates":[[[29.84,-15.61],[30.3,-15.64],[30.31,-15.78],[30.05,-16],[30.15,-16.18],[30.05,-16.38],[30.2,-16.34],[30.27,-16.27],[30.41,-16.34],[30.38,-16.6],[30.55,-16.79],[30.55,-17.05],[30.73,-17.07],[30.62,-17.36],[30.63,-17.56],[30.78,-17.56],[30.77,-17.63],[30.98,-17.72],[30.9,-17.81],[30.94,-17.93],[30.82,-17.93],[30.7,-18.23],[30.8,-18.38],[30.75,-18.59],[30.61,-18.74],[30.5,-18.77],[30.45,-18.68],[30.36,-18.86],[30.17,-18.75],[29.9,-18.71],[29.58,-18.59],[29.59,-18.38],[29.25,-18.14],[29.2,-18],[29.32,-17.77],[29.32,-17.58],[29.4,-17.49],[29.26,-17.32],[28.98,-17.22],[28.92,-17.13],[28.66,-17.22],[28.51,-17.4],[28.25,-17.41],[28.16,-17.31],[28.14,-17.15],[28.04,-17.08],[28.02,-16.87],[28.28,-16.71],[28.73,-16.56],[28.82,-16.47],[28.86,-16.06],[28.93,-15.96],[29.04,-15.95],[29.19,-15.81],[29.41,-15.71],[29.84,-15.61]]]}},{"type":"Feature","properties":{"id":"ZWE-MC","nome":"Mashonaland Central","pais":"ZWE","tipo":"Province","lat":-16.88,"lng":31.39},"geometry":{"type":"Polygon","coordinates":[[[30.3,-15.64],[30.4,-15.64],[30.4,-16],[30.86,-16],[30.99,-16.06],[31.11,-16],[31.26,-16.02],[31.4,-16.16],[31.71,-16.22],[31.91,-16.43],[32.29,-16.45],[32.67,-16.6],[32.73,-16.71],[32.67,-16.75],[32.41,-16.71],[32.04,-16.82],[31.61,-17.46],[31.38,-17.62],[31.3,-17.63],[31.32,-17.48],[31.15,-17.47],[31.09,-17.54],[31.08,-17.73],[31,-17.74],[30.77,-17.63],[30.78,-17.56],[30.63,-17.56],[30.62,-17.36],[30.73,-17.07],[30.55,-17.05],[30.55,-16.79],[30.38,-16.6],[30.41,-16.34],[30.27,-16.27],[30.2,-16.34],[30.05,-16.38],[30.15,-16.18],[30.05,-16],[30.31,-15.78],[30.3,-15.64]]]}},{"type":"Feature","properties":{"id":"ZWE-ME","nome":"Mashonaland East","pais":"ZWE","tipo":"Province","lat":-18.21,"lng":31.67},"geometry":{"type":"Polygon","coordinates":[[[32.73,-16.71],[32.97,-16.68],[32.83,-16.94],[32.97,-17.27],[32.77,-17.38],[32.59,-17.6],[32.16,-17.85],[32.15,-17.94],[31.91,-18.17],[31.85,-18.42],[31.74,-18.51],[31.99,-18.99],[31.99,-19.13],[31.6,-19.02],[31.53,-19.16],[31.44,-19.09],[31.33,-19.1],[31.3,-19.24],[31,-19.25],[31.01,-19.16],[30.96,-19.16],[30.86,-19.27],[30.72,-19.17],[30.69,-18.98],[30.36,-18.86],[30.45,-18.68],[30.5,-18.77],[30.61,-18.74],[30.76,-18.58],[30.8,-18.38],[30.7,-18.23],[30.82,-17.93],[31.06,-18.05],[31.13,-18.02],[31.22,-17.85],[31.2,-17.71],[31.09,-17.67],[31.14,-17.48],[31.32,-17.48],[31.28,-17.61],[31.38,-17.62],[31.73,-17.32],[31.76,-17.19],[32.04,-16.82],[32.41,-16.71],[32.67,-16.75],[32.73,-16.71]]]}},{"type":"Feature","properties":{"id":"ZWE-MA","nome":"Manicaland","pais":"ZWE","tipo":"Province","lat":-18.94,"lng":32.12},"geometry":{"type":"Polygon","coordinates":[[[33.01,-17.38],[32.94,-17.5],[33.02,-17.62],[32.93,-17.97],[32.95,-18.26],[33.04,-18.35],[33,-18.47],[32.87,-18.54],[32.9,-18.77],[32.69,-18.83],[32.68,-18.95],[32.7,-19.02],[32.81,-19.02],[32.86,-19.08],[32.76,-19.46],[32.83,-19.5],[32.82,-19.67],[32.94,-19.65],[33.03,-19.78],[33.01,-20.03],[32.89,-20.1],[32.85,-20.27],[32.67,-20.53],[32.48,-20.6],[32.49,-20.94],[32.34,-21.13],[32.45,-21.31],[32.3,-21.21],[32.14,-20.93],[32.27,-20.59],[32.33,-20.01],[32.02,-19.86],[31.7,-19.5],[31.2,-19.25],[31.31,-19.23],[31.34,-19.1],[31.54,-19.15],[31.6,-19.02],[31.99,-19.13],[31.99,-18.99],[31.74,-18.51],[31.85,-18.42],[31.91,-18.17],[32.15,-17.94],[32.17,-17.85],[32.59,-17.6],[32.86,-17.31],[32.97,-17.27],[33.01,-17.38]]]}},{"type":"Feature","properties":{"id":"ZWE-MI","nome":"Midlands","pais":"ZWE","tipo":"Province","lat":-19.08,"lng":29.43},"geometry":{"type":"Polygon","coordinates":[[[30.36,-18.86],[30.69,-18.98],[30.72,-19.17],[30.86,-19.27],[30.71,-19.39],[30.76,-19.42],[30.7,-19.86],[30.47,-19.85],[30.43,-19.99],[30.17,-20.05],[30.15,-20.2],[30.23,-20.2],[30.23,-20.32],[30.46,-20.54],[30.49,-20.69],[30.44,-20.94],[30.32,-21.04],[30.16,-21.03],[29.97,-20.91],[29.8,-21.03],[29.48,-21.03],[29.63,-20.9],[29.68,-20.66],[29.62,-20.67],[29.59,-20.61],[29.63,-20.49],[29.69,-20.52],[29.73,-20.47],[29.87,-20.04],[29.8,-19.96],[29.71,-19.98],[29.69,-19.92],[29.43,-19.88],[29.41,-19.73],[29,-19.18],[29.02,-19.1],[28.94,-19.01],[28.88,-18.73],[29.13,-18.63],[29.12,-18.57],[28.01,-18.54],[28.01,-18.22],[28.11,-18.2],[28.01,-18],[28.09,-17.75],[28.2,-17.69],[28.25,-17.41],[28.51,-17.4],[28.66,-17.22],[28.92,-17.13],[28.98,-17.22],[29.25,-17.32],[29.4,-17.49],[29.32,-17.58],[29.32,-17.77],[29.2,-18],[29.25,-18.14],[29.59,-18.38],[29.58,-18.59],[29.9,-18.71],[30.17,-18.75],[30.36,-18.86]]]}},{"type":"Feature","properties":{"id":"ZWE-HA","nome":"Harare","pais":"ZWE","tipo":"City","lat":-17.89,"lng":31.05},"geometry":{"type":"Polygon","coordinates":[[[31.06,-17.74],[31.09,-17.67],[31.19,-17.7],[31.22,-17.85],[31.13,-18.03],[31.06,-18.05],[30.88,-17.95],[30.94,-17.92],[30.91,-17.8],[30.98,-17.72],[31.06,-17.74]]]}},{"type":"Feature","properties":{"id":"ZWE-BU","nome":"Bulawayo","pais":"ZWE","tipo":"City","lat":-20.14,"lng":28.55},"geometry":{"type":"Polygon","coordinates":[[[28.6,-20.24],[28.52,-20.25],[28.49,-20.17],[28.39,-20.16],[28.42,-20.03],[28.66,-20.09],[28.7,-20.2],[28.6,-20.24]]]}}]}